{"type":"FeatureCollection","features":[{"type":"Feature","properties":{"layerId":"cities","kind":"cities","id":"city-abuja","name":"Abuja","category":"federal-capital","stateName":"Federal Capital Territory","stateId":"NG-FC","lon":7.49,"lat":9.06,"nickname":"Centre of Unity","founded":"1976 (designated); seat of government from 1991","summary":"Planned federal capital of Nigeria, built to replace Lagos as the political centre of the federation.","description":"Abuja sits on the Gwagwa Plains at the geographic heart of Nigeria. Master-planned by International Planning Associates, it is organised into districts (Central Area, Maitama, Asokoro, Wuse, Garki) with the Aso Rock inselberg as a landmark. The city hosts the Presidential Villa, National Assembly, Supreme Court, and most foreign missions.","populationNote":"~3.8 million metro (est.)","economy":"Public administration, construction, services, diplomacy, and a growing private-sector corridor along the airport road.","climate":"Guinea savanna; marked wet and dry seasons, cooler nights than the coast.","landmarks":"[\"Aso Rock\",\"National Mosque\",\"National Christian Centre\",\"Millennium Park\",\"Zuma Rock (nearby)\"]","highlights":"[\"Federal capital since 1991\",\"Purpose-built planned city\",\"Seat of the Three Arms Zone\"]","wikiUrl":"https://en.wikipedia.org/wiki/Abuja"},"geometry":{"type":"Point","coordinates":[7.49,9.06]}},{"type":"Feature","properties":{"layerId":"cities","kind":"cities","id":"city-lagos","name":"Lagos","category":"mega-city","stateName":"Lagos","stateId":"NG-LA","lon":3.39,"lat":6.45,"nickname":"Eko · Centre of Excellence","founded":"16th century (Awori / Portuguese contact); British colony 1861","summary":"Nigeria's largest city and economic engine; former national capital and West Africa's leading commercial port.","description":"Lagos spans Lagos Island, the mainland (Ikeja, Agege, Mushin, Surulere), and the Lekki–Epe corridor. It concentrates finance, media, Nollywood, tech (Yaba), and the Apapa/Tin Can ports. The metro area is among the fastest-growing in the world.","populationNote":"~21 million metro (est.)","economy":"Finance, trade, ports, entertainment, manufacturing, and the largest consumer market in West Africa.","climate":"Tropical monsoon; high humidity, two rainfall peaks.","landmarks":"[\"Lagos Lagoon\",\"National Theatre\",\"Tarkwa Bay\",\"Lekki Conservation Centre\"]","highlights":"[\"Former capital (until 1991)\",\"Apapa container hub\",\"Nollywood and Afrobeats centre\"]","wikiUrl":"https://en.wikipedia.org/wiki/Lagos"},"geometry":{"type":"Point","coordinates":[3.39,6.45]}},{"type":"Feature","properties":{"layerId":"cities","kind":"cities","id":"city-kano","name":"Kano","category":"commercial","stateName":"Kano","stateId":"NG-KN","lon":8.52,"lat":12,"nickname":"Centre of Commerce","founded":"c. 999 (Kano Chronicle); walled Hausa city-state","summary":"Historic Hausa commercial capital of the north; still Nigeria's largest city by traditional urban core after Lagos.","description":"Kano grew as a trans-Saharan caravan terminus. The old city (birni) retains walls, Kurmi Market, and the Emir's Palace. Modern Kano is a groundnut, leather, textiles, and wholesale trading hub linking the Sahel to southern ports.","populationNote":"~4 million+ urban (est.)","economy":"Wholesale trade, leather, textiles, groundnuts, and agro-processing.","climate":"Sudano-Sahelian; long dry season, brief intense rains.","landmarks":"[\"Kurmi Market\",\"Gidan Rumfa (Emir's Palace)\",\"ancient city walls\",\"Dala Hill\"]","highlights":"[\"Hausa city-state heritage\",\"Trans-Saharan trade node\",\"Kano State capital\"]","wikiUrl":"https://en.wikipedia.org/wiki/Kano_(city)"},"geometry":{"type":"Point","coordinates":[8.52,12]}},{"type":"Feature","properties":{"layerId":"cities","kind":"cities","id":"city-ibadan","name":"Ibadan","category":"historic","stateName":"Oyo","stateId":"NG-OY","lon":3.9,"lat":7.4,"nickname":"Ile Ibadan","founded":"1820s (war camp that became a city)","summary":"One of Africa's largest cities by area; Yoruba political and cultural capital of the southwest after Ife.","description":"Ibadan rose as a 19th-century military republic, later the capital of the Western Region. It hosts the University of Ibadan (1948), Cocoa House, and a vast urban sprawl of hills and markets (Dugbe, Bodija, Oje).","populationNote":"~3.6 million (est.)","economy":"Government, cocoa and food trade, publishing, education, and services.","climate":"Tropical wet-and-dry; rainforest–savanna transition.","landmarks":"[\"University of Ibadan\",\"Cocoa House\",\"Mapo Hall\",\"Bower's Tower\"]","highlights":"[\"Oyo State capital\",\"First university in Nigeria\",\"Western Region capital historically\"]","wikiUrl":"https://en.wikipedia.org/wiki/Ibadan"},"geometry":{"type":"Point","coordinates":[3.9,7.4]}},{"type":"Feature","properties":{"layerId":"cities","kind":"cities","id":"city-port-harcourt","name":"Port Harcourt","category":"port-city","stateName":"Rivers","stateId":"NG-RI","lon":7.01,"lat":4.78,"nickname":"Garden City · PH","founded":"1912 (colonial port named for Lewis Harcourt)","summary":"Principal oil-industry city of the Niger Delta and a major seaport on the Bonny River.","description":"Port Harcourt was laid out as a coal and later oil export port. It anchors refineries, NLNG logistics via Bonny, and the Onne oil-and-gas free zone. Neighborhoods range from the old GRA to sprawling waterfront settlements.","populationNote":"~3 million metro (est.)","economy":"Petroleum, shipping, fabrication, and services.","climate":"Equatorial; heavy rainfall and mangrove hinterland.","landmarks":"[\"Port Harcourt Port\",\"Isaac Boro Park\",\"Bonny River approaches\"]","highlights":"[\"Rivers State capital\",\"Oil & gas headquarters\",\"Eastern seaport\"]","wikiUrl":"https://en.wikipedia.org/wiki/Port_Harcourt"},"geometry":{"type":"Point","coordinates":[7.01,4.78]}},{"type":"Feature","properties":{"layerId":"cities","kind":"cities","id":"city-benin-city","name":"Benin City","category":"historic","stateName":"Edo","stateId":"NG-ED","lon":5.6,"lat":6.34,"nickname":"Heart Beat of the Nation","founded":"Medieval Benin Kingdom (capital of the Oba)","summary":"Historic seat of the Benin Kingdom, famed for bronze art, earthworks, and the Oba's palace.","description":"Benin City was a major West African urban centre before colonial conquest in 1897. Today it is Edo State's capital, a rubber and oil-palm market, and a gateway between the southwest and the Delta.","populationNote":"~1.8 million (est.)","economy":"Government, rubber, oil-palm, crafts, and regional trade.","climate":"Tropical rainforest edge; humid.","landmarks":"[\"Oba's Palace\",\"Benin Moat (Iya)\",\"National Museum Benin\"]","highlights":"[\"Benin bronzes heritage\",\"Edo State capital\",\"Historic earthworks\"]","wikiUrl":"https://en.wikipedia.org/wiki/Benin_City"},"geometry":{"type":"Point","coordinates":[5.6,6.34]}},{"type":"Feature","properties":{"layerId":"cities","kind":"cities","id":"city-kaduna","name":"Kaduna","category":"industrial","stateName":"Kaduna","stateId":"NG-KD","lon":7.44,"lat":10.52,"nickname":"Centre of Learning (state motto) · garrison city","founded":"1913 as a colonial administrative and railway town","summary":"Northern industrial, military, and railway hub on the Kaduna River.","description":"Kaduna was the capital of the Northern Region. It developed textiles, a refinery, defence industries, and the Nigerian Defence Academy. The city straddles a religious and ethnic fault line that has shaped its recent history.","populationNote":"~1.6 million (est.)","economy":"Manufacturing, refining (historically), defence, rail, and agriculture trade.","climate":"Guinea savanna; distinct harmattan.","landmarks":"[\"Kaduna River\",\"Murtala Square\",\"railway junction\"]","highlights":"[\"Kaduna State capital\",\"Former Northern Region capital\",\"Industrial & military centre\"]","wikiUrl":"https://en.wikipedia.org/wiki/Kaduna"},"geometry":{"type":"Point","coordinates":[7.44,10.52]}},{"type":"Feature","properties":{"layerId":"cities","kind":"cities","id":"city-enugu","name":"Enugu","category":"state-capital","stateName":"Enugu","stateId":"NG-EN","lon":7.5,"lat":6.44,"nickname":"Coal City","founded":"1909 (coal discovery; railhead)","summary":"Coal-mining city that became capital of Nigeria's Eastern Region and an Igbo cultural hub.","description":"Enugu's Udi escarpment coalfields powered colonial railways. It later hosted Eastern Region government and remains a legal, media, and education centre for the southeast.","populationNote":"~800,000 (est.)","economy":"Government, services, remnant mining heritage, and regional commerce.","climate":"Tropical; hills and escarpment.","landmarks":"[\"Ngwo Pine Forest\",\"coal mines heritage\",\"Nike Lake (nearby)\"]","highlights":"[\"Enugu State capital\",\"Eastern Region capital historically\",\"Coal heritage\"]","wikiUrl":"https://en.wikipedia.org/wiki/Enugu"},"geometry":{"type":"Point","coordinates":[7.5,6.44]}},{"type":"Feature","properties":{"layerId":"cities","kind":"cities","id":"city-maiduguri","name":"Maiduguri","category":"state-capital","stateName":"Borno","stateId":"NG-BO","lon":13.16,"lat":11.85,"nickname":"Home of Peace (state motto)","founded":"1907 (Yerwa, replacing Kukawa as Shehu's seat)","summary":"Largest city of the northeast; historic Kanem-Borno gateway toward Lake Chad.","description":"Maiduguri (Yerwa) is the seat of the Shehu of Borno and Borno State capital. It is a livestock, gum arabic, and cross-border trading city on the Sahel fringe, with a university and a major military presence.","populationNote":"~1.1 million+ (est., highly variable)","economy":"Livestock, trade with Chad/Cameroon/Niger, services.","climate":"Sahel; very hot dry season.","landmarks":"[\"Shehu's Palace\",\"Lake Chad hinterland\",\"University of Maiduguri\"]","highlights":"[\"Borno State capital\",\"Kanem-Borno heritage\",\"Sahel trade node\"]","wikiUrl":"https://en.wikipedia.org/wiki/Maiduguri"},"geometry":{"type":"Point","coordinates":[13.16,11.85]}},{"type":"Feature","properties":{"layerId":"cities","kind":"cities","id":"city-jos","name":"Jos","category":"state-capital","stateName":"Plateau","stateId":"NG-PL","lon":8.89,"lat":9.92,"nickname":"Home of Peace and Tourism","founded":"Tin-mining camp that became a city in the early 20th century","summary":"Cool highland city on the Jos Plateau; tin-mining heritage and tourism gateway.","description":"Jos sits above 1,200 m with a temperate feel unusual for Nigeria. It grew around tin and columbite, later diversification into hospitality, education, and NAFDAC-related pharma. Surrounding escarpments draw visitors.","populationNote":"~900,000 (est.)","economy":"Mining heritage, tourism, education, brewing, and services.","climate":"Highland; cooler than the plains, wet summers.","landmarks":"[\"Jos Museum\",\"Shere Hills\",\"Riyom Rock\",\"Jos Wildlife Park\"]","highlights":"[\"Plateau State capital\",\"Tin mining history\",\"Tourism highland\"]","wikiUrl":"https://en.wikipedia.org/wiki/Jos"},"geometry":{"type":"Point","coordinates":[8.89,9.92]}},{"type":"Feature","properties":{"layerId":"cities","kind":"cities","id":"city-ilorin","name":"Ilorin","category":"state-capital","stateName":"Kwara","stateId":"NG-KW","lon":4.54,"lat":8.5,"nickname":"State of Harmony (capital)","founded":"18th century; Fulani emirate after 1820s","summary":"North-central junction city mixing Yoruba, Fulani, and Hausa cultures.","description":"Ilorin is Kwara's capital and a historic emirate town on the road and rail between Lagos and the north. It is known for pottery, weaving, and the University of Ilorin.","populationNote":"~1 million (est.)","economy":"Government, education, agriculture trade, crafts.","climate":"Guinea savanna.","landmarks":"[\"Emir's Palace\",\"Sobi Hill\",\"University of Ilorin\"]","highlights":"[\"Kwara State capital\",\"Cultural crossroads\",\"Major university city\"]","wikiUrl":"https://en.wikipedia.org/wiki/Ilorin"},"geometry":{"type":"Point","coordinates":[4.54,8.5]}},{"type":"Feature","properties":{"layerId":"cities","kind":"cities","id":"city-abeokuta","name":"Abeokuta","category":"state-capital","stateName":"Ogun","stateId":"NG-OG","lon":3.35,"lat":7.16,"nickname":"Gateway State capital","founded":"1830 (Egba refuge among granite outcrops)","summary":"Egba Yoruba capital among Olumo Rock; industrial and commuter belt of Lagos.","description":"Abeokuta ('under the rock') was founded as a fortified Egba settlement. It is now Ogun State's capital, with cement, brewing, and a growing Lagos commuter economy along the Lagos–Ibadan axis.","populationNote":"~600,000 (est.)","economy":"Cement, brewing, government, and Lagos hinterland industry.","climate":"Tropical; rainforest–savanna mix.","landmarks":"[\"Olumo Rock\",\"Centenary Hall\",\"Alake's Palace\"]","highlights":"[\"Ogun State capital\",\"Egba heritage\",\"Olumo Rock\"]","wikiUrl":"https://en.wikipedia.org/wiki/Abeokuta"},"geometry":{"type":"Point","coordinates":[3.35,7.16]}},{"type":"Feature","properties":{"layerId":"cities","kind":"cities","id":"city-calabar","name":"Calabar","category":"historic","stateName":"Cross River","stateId":"NG-CR","lon":8.32,"lat":4.96,"nickname":"Canaan City · Nigeria's tourism capital (promoted)","founded":"Efik city-states; major slave and palm-oil port","summary":"Eastern seaport and historic Efik capital on the Cross River estuary.","description":"Calabar was an early European contact point and later a colonial capital of the Oil Rivers / Niger Coast Protectorate. Today it is Cross River's capital, known for carnival culture, the old residency, and a deep-water port.","populationNote":"~500,000 (est.)","economy":"Port, tourism, government, and cross-border trade with Cameroon.","climate":"Equatorial rainforest; very wet.","landmarks":"[\"Calabar Carnival\",\"Old Residency Museum\",\"Marina resort\"]","highlights":"[\"Cross River State capital\",\"Historic seaport\",\"Carnival city\"]","wikiUrl":"https://en.wikipedia.org/wiki/Calabar"},"geometry":{"type":"Point","coordinates":[8.32,4.96]}},{"type":"Feature","properties":{"layerId":"cities","kind":"cities","id":"city-sokoto","name":"Sokoto","category":"historic","stateName":"Sokoto","stateId":"NG-SO","lon":5.23,"lat":13.06,"nickname":"Seat of the Caliphate","founded":"1809 (Usman dan Fodio's Sokoto Caliphate capital)","summary":"Spiritual and political centre of the Sokoto Caliphate; far-north Sahel city.","description":"Sokoto is the seat of the Sultan and a historic Islamic learning centre. The city sits near the Sokoto–Rima confluence and remains a livestock and grain market for the northwest.","populationNote":"~600,000 (est.)","economy":"Livestock, grains, leather, government, and religious pilgrimage-related services.","climate":"Sahel; short rains, intense harmattan.","landmarks":"[\"Sultan's Palace\",\"Hubbare (Shehu's tomb)\",\"Sokoto River\"]","highlights":"[\"Sokoto State capital\",\"Caliphate capital\",\"Sultanate seat\"]","wikiUrl":"https://en.wikipedia.org/wiki/Sokoto"},"geometry":{"type":"Point","coordinates":[5.23,13.06]}},{"type":"Feature","properties":{"layerId":"cities","kind":"cities","id":"city-makurdi","name":"Makurdi","category":"state-capital","stateName":"Benue","stateId":"NG-BE","lon":8.54,"lat":7.73,"nickname":"Food Basket capital","founded":"1920s railway town on the Benue River","summary":"Benue State capital and major crossing of the Benue River.","description":"Makurdi grew as a rail and river town. It is the administrative centre of Nigeria's leading yam, citrus, and soybean belt, with a university and a strategic bridge on the east–west corridor.","populationNote":"~500,000 (est.)","economy":"Agriculture trade, government, river and rail logistics.","climate":"Guinea savanna; riverine flooding risk.","landmarks":"[\"Benue River bridge\",\"Makurdi beachfront\",\"University of Agriculture\"]","highlights":"[\"Benue State capital\",\"Benue River crossing\",\"Agricultural market\"]","wikiUrl":"https://en.wikipedia.org/wiki/Makurdi"},"geometry":{"type":"Point","coordinates":[8.54,7.73]}},{"type":"Feature","properties":{"layerId":"cities","kind":"cities","id":"city-uyo","name":"Uyo","category":"state-capital","stateName":"Akwa Ibom","stateId":"NG-AK","lon":7.93,"lat":5.04,"nickname":"Land of Promise capital","founded":"Grew as a colonial administrative post; state capital from 1987","summary":"Akwa Ibom State capital; planned urban expansion in the oil-producing southeast.","description":"Uyo became capital when Akwa Ibom was created in 1987. It is known for relatively planned roads, Ibom International Stadium, and a services economy tied to oil-state revenues.","populationNote":"~500,000+ (est.)","economy":"Government, oil-state services, construction, and trade.","climate":"Equatorial; high rainfall.","landmarks":"[\"Ibom Tropicana\",\"Godswill Akpabio International Stadium\"]","highlights":"[\"Akwa Ibom State capital\",\"Late-20th-century planned capital\"]","wikiUrl":"https://en.wikipedia.org/wiki/Uyo"},"geometry":{"type":"Point","coordinates":[7.93,5.04]}},{"type":"Feature","properties":{"layerId":"cities","kind":"cities","id":"city-owerri","name":"Owerri","category":"state-capital","stateName":"Imo","stateId":"NG-IM","lon":7.03,"lat":5.48,"nickname":"Heartland capital · Entertainment capital (informal)","founded":"Traditional Igbo town; state capital from 1976","summary":"Imo State capital in the Igbo heartland; hospitality and entertainment centre.","description":"Owerri is a compact state capital known for hotels, cuisine, and as a weekend destination from Port Harcourt and Onitsha. It sits in a densely populated agricultural belt.","populationNote":"~500,000 (est.)","economy":"Government, hospitality, trade, and small manufacturing.","climate":"Tropical rainforest.","landmarks":"[\"Mbari cultural centres\",\"Otamiri River\"]","highlights":"[\"Imo State capital\",\"Hospitality hub\"]","wikiUrl":"https://en.wikipedia.org/wiki/Owerri"},"geometry":{"type":"Point","coordinates":[7.03,5.48]}},{"type":"Feature","properties":{"layerId":"cities","kind":"cities","id":"city-awka","name":"Awka","category":"state-capital","stateName":"Anambra","stateId":"NG-AN","lon":7.07,"lat":6.21,"nickname":"Light of the Nation capital","founded":"Ancient Igbo blacksmithing town","summary":"Anambra State capital with a long tradition of ironworking and scholarship.","description":"Awka is historically associated with smithing guilds. As Anambra's capital it is smaller than Onitsha or Nnewi but hosts government, Nnamdi Azikiwe University (Awka campus), and a growing urban corridor toward Enugu.","populationNote":"~400,000 (est.)","economy":"Government, education, crafts heritage, and services.","climate":"Tropical.","landmarks":"[\"Awka traditional smithing heritage\",\"UNIZIK campus\"]","highlights":"[\"Anambra State capital\",\"Historic blacksmithing\"]","wikiUrl":"https://en.wikipedia.org/wiki/Awka"},"geometry":{"type":"Point","coordinates":[7.07,6.21]}},{"type":"Feature","properties":{"layerId":"cities","kind":"cities","id":"city-asaba","name":"Asaba","category":"state-capital","stateName":"Delta","stateId":"NG-DE","lon":6.73,"lat":6.2,"nickname":"The Big Heart capital","founded":"Igbo-Anioma town; colonial administrative post on the Niger","summary":"Delta State capital on the west bank of the Niger, opposite Onitsha.","description":"Asaba faces Onitsha across the River Niger (Niger Bridge). It is the political capital of an oil-producing state whose commercial weight also sits in Warri and Sapele. Film and hospitality have grown in the last two decades.","populationNote":"~400,000 (est.)","economy":"Government, hospitality, Nollywood production, and Niger-crossing trade.","climate":"Tropical; riverine.","landmarks":"[\"River Niger\",\"Niger Bridge\",\"Asaba International Airport\"]","highlights":"[\"Delta State capital\",\"Niger River crossing\"]","wikiUrl":"https://en.wikipedia.org/wiki/Asaba,_Delta"},"geometry":{"type":"Point","coordinates":[6.73,6.2]}},{"type":"Feature","properties":{"layerId":"cities","kind":"cities","id":"city-yenagoa","name":"Yenagoa","category":"state-capital","stateName":"Bayelsa","stateId":"NG-BY","lon":6.26,"lat":4.92,"nickname":"Glory of All Lands capital","founded":"Grew as Ijaw town; state capital from 1996","summary":"Bayelsa State capital in the central Niger Delta wetlands.","description":"Yenagoa is a relatively new state capital set among creeks and floodplains. It administers a major oil-producing state and is a gateway to riverine LGAs and coastal terminals.","populationNote":"~350,000 (est.)","economy":"Oil-state government, services, and river transport.","climate":"Equatorial delta; flooding.","landmarks":"[\"Epie Creek\",\"Oxbow lake parks\"]","highlights":"[\"Bayelsa State capital\",\"Delta wetland city\"]","wikiUrl":"https://en.wikipedia.org/wiki/Yenagoa"},"geometry":{"type":"Point","coordinates":[6.26,4.92]}},{"type":"Feature","properties":{"layerId":"cities","kind":"cities","id":"city-minna","name":"Minna","category":"state-capital","stateName":"Niger","stateId":"NG-NI","lon":6.56,"lat":9.61,"nickname":"Power State capital","founded":"Railway town on the Lagos–Kano line","summary":"Niger State capital on the rail and road corridor between the southwest and the north.","description":"Minna developed as a railway settlement. Nearby Kainji and Shiroro hydro plants give the state its 'Power State' identity. The city is a Gwari/Nupe hinterland market.","populationNote":"~350,000 (est.)","economy":"Government, rail, agriculture trade, hydro hinterland.","climate":"Guinea savanna.","landmarks":"[\"Minna railway\",\"nearby Gurara Falls\"]","highlights":"[\"Niger State capital\",\"Railway junction\"]","wikiUrl":"https://en.wikipedia.org/wiki/Minna"},"geometry":{"type":"Point","coordinates":[6.56,9.61]}},{"type":"Feature","properties":{"layerId":"cities","kind":"cities","id":"city-lokoja","name":"Lokoja","category":"historic","stateName":"Kogi","stateId":"NG-KO","lon":6.74,"lat":7.8,"nickname":"Confluence town","founded":"19th-century river port; first British colonial administrative HQ in Nigeria (1860s–1900)","summary":"Town at the Niger–Benue confluence; Kogi State capital and historic colonial headquarters.","description":"Lokoja sits where the Niger and Benue meet. It was a missionary and colonial staging post (Lord Lugard). Mount Patti overlooks the confluence. It remains a river and highway junction.","populationNote":"~200,000 (est.)","economy":"Government, river trade, transport, and tourism potential.","climate":"Riverine guinea savanna; hot.","landmarks":"[\"Niger–Benue confluence\",\"Mount Patti\",\"Lord Lugard House\"]","highlights":"[\"Kogi State capital\",\"Confluence of Nigeria's two great rivers\",\"Early colonial capital\"]","wikiUrl":"https://en.wikipedia.org/wiki/Lokoja"},"geometry":{"type":"Point","coordinates":[6.74,7.8]}},{"type":"Feature","properties":{"layerId":"cities","kind":"cities","id":"city-onitsha","name":"Onitsha","category":"commercial","stateName":"Anambra","stateId":"NG-AN","lon":6.78,"lat":6.15,"nickname":"Onitsha Main Market city","founded":"Igbo river kingdom; 19th-century mission and trade town","summary":"West Africa's largest market city on the east bank of the Niger.","description":"Onitsha Main Market and surrounding specialist markets (electrical, building, pharmaceuticals) draw traders from across Nigeria and the Sahel. The Niger Bridge links it to Asaba. It is not the state capital but is Anambra's commercial giant.","populationNote":"~1.5 million metro (est.)","economy":"Wholesale and retail trade, river port remnants, manufacturing hinterland.","climate":"Tropical; riverine.","landmarks":"[\"Onitsha Main Market\",\"Niger River waterfront\",\"Holy Trinity Cathedral\"]","highlights":"[\"Largest market complex in West Africa\",\"Niger trading city\",\"Igbo commercial capital\"]","wikiUrl":"https://en.wikipedia.org/wiki/Onitsha"},"geometry":{"type":"Point","coordinates":[6.78,6.15]}},{"type":"Feature","properties":{"layerId":"cities","kind":"cities","id":"city-aba","name":"Aba","category":"industrial","stateName":"Abia","stateId":"NG-AB","lon":7.37,"lat":5.11,"nickname":"Enyimba City","founded":"Ngwa Igbo town that industrialised in the 20th century","summary":"Southeast manufacturing and leather-shoe cluster; Abia's commercial engine.","description":"Aba is famous for small-scale manufacturing (shoes, garments, cosmetics, steel fabrication) and Ariaria International Market. Enyimba FC carries the city's nickname nationwide. Umuahia is the state capital; Aba is the workshop.","populationNote":"~1 million+ (est.)","economy":"Light manufacturing, leather, textiles, and wholesale markets.","climate":"Tropical rainforest.","landmarks":"[\"Ariaria Market\",\"Aba River\",\"Enyimba Stadium\"]","highlights":"[\"Made-in-Aba manufacturing\",\"Ariaria Market\",\"Not the state capital\"]","wikiUrl":"https://en.wikipedia.org/wiki/Aba,_Nigeria"},"geometry":{"type":"Point","coordinates":[7.37,5.11]}},{"type":"Feature","properties":{"layerId":"cities","kind":"cities","id":"city-warri","name":"Warri","category":"port-city","stateName":"Delta","stateId":"NG-DE","lon":5.75,"lat":5.52,"nickname":"Oil City · Waffi","founded":"Itsekiri kingdom hinterland; colonial river port","summary":"Delta oil metropolis and river port serving Escravos and Warri refinery.","description":"Warri (with Effurun and Uvwie) is a multi-ethnic oil city—Itsekiri, Urhobo, Ijaw. It hosts a refinery, Warri Port, and oil-service companies. It is commercially heavier than Asaba, the political capital.","populationNote":"~800,000 metro (est.)","economy":"Petroleum refining and services, port, and commerce.","climate":"Equatorial delta.","landmarks":"[\"Warri Port\",\"refinery complex\",\"Warri Kingdom heritage\"]","highlights":"[\"Oil-city agglomeration\",\"Warri Port\",\"Refinery town\"]","wikiUrl":"https://en.wikipedia.org/wiki/Warri"},"geometry":{"type":"Point","coordinates":[5.75,5.52]}},{"type":"Feature","properties":{"layerId":"cities","kind":"cities","id":"city-zaria","name":"Zaria","category":"university","stateName":"Kaduna","stateId":"NG-KD","lon":7.72,"lat":11.08,"nickname":"Zazzau · walled Hausa city","founded":"One of the original Hausa Bakwai city-states","summary":"Historic emirate city and Nigeria's densest concentration of tertiary institutions.","description":"Zaria (Zazzau) is an ancient walled city. Ahmadu Bello University, the Nigerian College of Aviation Technology, and other schools make it a student city. Traditional dyeing (indigo pits) and agriculture remain important.","populationNote":"~700,000 (est.)","economy":"Education, agriculture, traditional crafts, and services.","climate":"Guinea savanna / northern Guinea.","landmarks":"[\"Ahmadu Bello University\",\"Zaria city walls\",\"Emir's Palace\",\"dye pits\"]","highlights":"[\"Hausa city-state of Zazzau\",\"Ahmadu Bello University\",\"Aviation college\"]","wikiUrl":"https://en.wikipedia.org/wiki/Zaria"},"geometry":{"type":"Point","coordinates":[7.72,11.08]}},{"type":"Feature","properties":{"layerId":"cities","kind":"cities","id":"city-ile-ife","name":"Ile-Ife","category":"historic","stateName":"Osun","stateId":"NG-OS","lon":4.56,"lat":7.47,"nickname":"Cradle of the Yoruba","founded":"Sacred Yoruba city (oral tradition: origin of the world)","summary":"Spiritual homeland of the Yoruba; UNESCO-recognised bronze and terracotta art centre.","description":"Ife is the seat of the Ooni and the mythic origin city of Yoruba civilisation. The Ife heads (bronzes) are among Africa's greatest art. Obafemi Awolowo University sits on its outskirts at Ife-Ife / Ile-Ife.","populationNote":"~500,000 (est.)","economy":"Education, pilgrimage/tourism, cocoa hinterland, crafts.","climate":"Tropical forest–savanna.","landmarks":"[\"Ooni's Palace\",\"Ife Museum\",\"Obafemi Awolowo University\"]","highlights":"[\"Yoruba origin city\",\"Ife bronzes\",\"Ooni of Ife\"]","wikiUrl":"https://en.wikipedia.org/wiki/If%C4%99"},"geometry":{"type":"Point","coordinates":[4.56,7.47]}},{"type":"Feature","properties":{"layerId":"cities","kind":"cities","id":"city-nsukka","name":"Nsukka","category":"university","stateName":"Enugu","stateId":"NG-EN","lon":7.39,"lat":6.86,"nickname":"UNN town","founded":"Igbo hill town; university from 1960","summary":"University town of the University of Nigeria, Nsukka—the first indigenous Nigerian university.","description":"Nsukka sits on hills in northern Enugu State. UNN (1960) dominates the economy and culture. The town is also known for Nsukka yellow pepper and as a literary setting (Achebe taught here).","populationNote":"~300,000 including campus (est.)","economy":"Higher education, services, and hill agriculture.","climate":"Tropical highland edge.","landmarks":"[\"University of Nigeria\",\"Nsukka hills\"]","highlights":"[\"First indigenous university\",\"Literary heritage\",\"Hill campus town\"]","wikiUrl":"https://en.wikipedia.org/wiki/Nsukka"},"geometry":{"type":"Point","coordinates":[7.39,6.86]}},{"type":"Feature","properties":{"layerId":"cities","kind":"cities","id":"city-nnewi","name":"Nnewi","category":"industrial","stateName":"Anambra","stateId":"NG-AN","lon":6.91,"lat":6.02,"nickname":"Japan of Africa (informal)","founded":"Igbo town that industrialised through auto parts and manufacturing","summary":"Southeast auto-parts and light-industry cluster.","description":"Nnewi is known for indigenous manufacturing—motorcycles, spare parts, and plastics—built by local entrepreneurs rather than colonial industry. It is one of Anambra's three urban pillars with Onitsha and Awka.","populationNote":"~400,000 (est.)","economy":"Auto parts, manufacturing, and trade.","climate":"Tropical.","landmarks":"[\"Nnewi industrial layouts\",\"Nkwo Nnewi market\"]","highlights":"[\"Indigenous manufacturing\",\"Auto-parts hub\"]","wikiUrl":"https://en.wikipedia.org/wiki/Nnewi"},"geometry":{"type":"Point","coordinates":[6.91,6.02]}},{"type":"Feature","properties":{"layerId":"cities","kind":"cities","id":"city-ogbomoso","name":"Ogbomoso","category":"regional","stateName":"Oyo","stateId":"NG-OY","lon":4.25,"lat":8.13,"nickname":"Ogbomoso Ajaawa","founded":"17th-century Yoruba town","summary":"Large Yoruba city between Ibadan and Ilorin; Baptist and educational heritage.","description":"Ogbomoso is among the largest Yoruba cities by population after Ibadan and Lagos. It hosts LAUTECH (shared history with Oyo/Osun) and is a gateway to northern Oyo.","populationNote":"~1 million (est., metro disputed)","economy":"Education, trade, and agriculture hinterland.","climate":"Derived savanna.","landmarks":"[\"Soun's Palace\",\"LAUTECH campus\"]","highlights":"[\"Major Yoruba city\",\"North Oyo gateway\"]","wikiUrl":"https://en.wikipedia.org/wiki/Ogbomosho"},"geometry":{"type":"Point","coordinates":[4.25,8.13]}},{"type":"Feature","properties":{"layerId":"cities","kind":"cities","id":"city-bauchi","name":"Bauchi","category":"state-capital","stateName":"Bauchi","stateId":"NG-BA","lon":9.84,"lat":10.31,"nickname":"Pearl of Tourism capital","founded":"Early 19th-century Fulani emirate town (Yakubu)","summary":"Bauchi State capital at the edge of the Jos Plateau hinterland.","description":"Bauchi is the gateway to Yankari Game Reserve. It is a mixed Hausa–Fulani–Sayawa administrative town on the northeast road network.","populationNote":"~400,000 (est.)","economy":"Government, tourism gateway, agriculture.","climate":"Sudan savanna.","landmarks":"[\"Yankari (nearby)\",\"Emir's Palace\"]","highlights":"[\"Bauchi State capital\",\"Yankari gateway\"]","wikiUrl":"https://en.wikipedia.org/wiki/Bauchi"},"geometry":{"type":"Point","coordinates":[9.84,10.31]}},{"type":"Feature","properties":{"layerId":"cities","kind":"cities","id":"city-gombe","name":"Gombe","category":"state-capital","stateName":"Gombe","stateId":"NG-GO","lon":11.17,"lat":10.29,"nickname":"Jewel in the Savannah capital","founded":"Grew as a 20th-century market and later state capital (1996)","summary":"Gombe State capital on the northeast corridor between Bauchi and Maiduguri.","description":"Gombe is a relatively compact state capital and commercial town for the Gongola Basin, with a reputation for orderly urban growth in the 2000s–2010s.","populationNote":"~400,000 (est.)","economy":"Government, grain trade, and services.","climate":"Sudan savanna.","landmarks":"[\"Gombe urban core\",\"nearby Tangale hills\"]","highlights":"[\"Gombe State capital\",\"Northeast corridor town\"]","wikiUrl":"https://en.wikipedia.org/wiki/Gombe,_Nigeria"},"geometry":{"type":"Point","coordinates":[11.17,10.29]}},{"type":"Feature","properties":{"layerId":"cities","kind":"cities","id":"city-yola","name":"Yola","category":"state-capital","stateName":"Adamawa","stateId":"NG-AD","lon":12.48,"lat":9.2,"nickname":"Land of Beauty capital","founded":"1841 (Modibbo Adama); Jimeta is the twin commercial town","summary":"Adamawa State capital on the Benue; paired with Jimeta as a twin urban area.","description":"Yola is the traditional Modibbo Adama seat; Jimeta is the river-port commercial half. Together they form the main city of Adamawa, facing Cameroon's Adamawa Plateau.","populationNote":"~400,000 twin-city (est.)","economy":"Government, river trade, cattle, and cross-border commerce.","climate":"Sudan savanna; Benue valley.","landmarks":"[\"Benue River\",\"Lamido's Palace\",\"Jimeta modern town\"]","highlights":"[\"Adamawa State capital\",\"Yola–Jimeta twin city\",\"Cameroon border hinterland\"]","wikiUrl":"https://en.wikipedia.org/wiki/Yola,_Adamawa"},"geometry":{"type":"Point","coordinates":[12.48,9.2]}},{"type":"Feature","properties":{"layerId":"cities","kind":"cities","id":"city-katsina","name":"Katsina","category":"historic","stateName":"Katsina","stateId":"NG-KT","lon":7.6,"lat":12.99,"nickname":"Home of Hospitality","founded":"Hausa Bakwai city-state; Gobir / Katsina emirate","summary":"Far-north walled Hausa city and Katsina State capital near the Niger border.","description":"Katsina was a major trans-Saharan entrepôt rivalling Kano. It retains Gobarau minaret heritage and is a centre of Islamic learning. The modern city is the state capital.","populationNote":"~500,000 (est.)","economy":"Agriculture trade, livestock, government, border commerce.","climate":"Sahel.","landmarks":"[\"Gobarau Minaret\",\"city walls remnants\",\"Emir's Palace\"]","highlights":"[\"Hausa city-state\",\"Katsina State capital\",\"Trans-Saharan heritage\"]","wikiUrl":"https://en.wikipedia.org/wiki/Katsina"},"geometry":{"type":"Point","coordinates":[7.6,12.99]}},{"type":"Feature","properties":{"layerId":"cities","kind":"cities","id":"city-osogbo","name":"Osogbo","category":"historic","stateName":"Osun","stateId":"NG-OS","lon":4.56,"lat":7.77,"nickname":"State of the Living Spring capital","founded":"Yoruba town on the Osun River; sacred grove UNESCO site","summary":"Osun State capital; home of the Osun-Osogbo Sacred Grove.","description":"Osogbo is inseparable from the goddess Osun and the annual festival. The Sacred Grove is a UNESCO World Heritage Site. The city is also a batik and contemporary art centre (New Sacred Art movement).","populationNote":"~750,000 (est.)","economy":"Government, culture/tourism, crafts, and trade.","climate":"Tropical forest–savanna.","landmarks":"[\"Osun-Osogbo Sacred Grove\",\"Ataoja's Palace\",\"Nike Art Centre\"]","highlights":"[\"UNESCO Sacred Grove\",\"Osun State capital\",\"Art and festival city\"]","wikiUrl":"https://en.wikipedia.org/wiki/Osogbo"},"geometry":{"type":"Point","coordinates":[4.56,7.77]}},{"type":"Feature","properties":{"layerId":"cities","kind":"cities","id":"city-akure","name":"Akure","category":"state-capital","stateName":"Ondo","stateId":"NG-ON","lon":5.19,"lat":7.25,"nickname":"Sunshine State capital","summary":"Ondo State capital and gateway to the cocoa belt of the southwest.","description":"Akure is a Yoruba city on the southern fringe of the Nigerian cocoa belt. It hosts FUTA and serves as the administrative and educational centre of Ondo, with trade links to Benin City and Lagos.","populationNote":"~700,000 (est.)","economy":"Cocoa trade, government, education, and services.","climate":"Tropical wet-and-dry; rainforest fringe.","landmarks":"[\"Deji of Akure Palace\",\"FUTA\",\"Idanre Hills (nearby)\"]","highlights":"[\"Ondo State capital\",\"Cocoa hinterland\",\"Idanre access\"]","wikiUrl":"https://en.wikipedia.org/wiki/Akure"},"geometry":{"type":"Point","coordinates":[5.19,7.25]}},{"type":"Feature","properties":{"layerId":"cities","kind":"cities","id":"city-ado-ekiti","name":"Ado-Ekiti","category":"state-capital","stateName":"Ekiti","stateId":"NG-EK","lon":5.22,"lat":7.62,"nickname":"Land of Honour capital","summary":"Ekiti State capital in the Yoruba highlands.","description":"Ado-Ekiti is the political centre of Ekiti, a state of rolling inselbergs and yam/cocoa farming. It grew as a colonial district headquarters and remains a hub for education and civil service.","populationNote":"~450,000 (est.)","economy":"Government, education, agriculture, and quarrying.","climate":"Highland tropical; cooler than the coast.","landmarks":"[\"Fountain of Knowledge\",\"Ewi's Palace\"]","highlights":"[\"Ekiti State capital\",\"Yoruba highland city\"]","wikiUrl":"https://en.wikipedia.org/wiki/Ado-Ekiti"},"geometry":{"type":"Point","coordinates":[5.22,7.62]}},{"type":"Feature","properties":{"layerId":"cities","kind":"cities","id":"city-umuahia","name":"Umuahia","category":"state-capital","stateName":"Abia","stateId":"NG-AB","lon":7.32,"lat":5.53,"nickname":"God's Own State capital","summary":"Abia State capital and former Biafran administrative centre.","description":"Umuahia sits in the Igbo heartland between Aba and Okigwe. It hosts the National War Museum (Biafra heritage) and Abia State University. The city is quieter than commercial Aba but central to state administration.","populationNote":"~500,000 (est.)","economy":"Government, education, light industry, and trade.","climate":"Humid tropical; rainforest.","landmarks":"[\"National War Museum\",\"Abia Tower\",\"Aba Road corridor\"]","highlights":"[\"Abia State capital\",\"Biafra heritage museum\"]","wikiUrl":"https://en.wikipedia.org/wiki/Umuahia"},"geometry":{"type":"Point","coordinates":[7.32,5.53]}},{"type":"Feature","properties":{"layerId":"cities","kind":"cities","id":"city-lafia","name":"Lafia","category":"state-capital","stateName":"Nassarawa","stateId":"NG-NA","lon":8.48,"lat":8.49,"nickname":"Home of Solid Minerals capital","summary":"Nasarawa State capital on the Abuja–Makurdi corridor.","description":"Lafia is a Middle Belt town that became capital when Nasarawa State was carved from Plateau in 1996. It serves farming communities and is linked to Abuja by road, with solid-mineral policy centred here.","populationNote":"~350,000 (est.)","economy":"Government, agriculture, and Abuja commuter trade.","climate":"Guinea savanna.","landmarks":"[\"Nasarawa State University\",\"Lafia modern township\"]","highlights":"[\"Nasarawa State capital\",\"Abuja corridor\"]","wikiUrl":"https://en.wikipedia.org/wiki/Lafia"},"geometry":{"type":"Point","coordinates":[8.48,8.49]}},{"type":"Feature","properties":{"layerId":"cities","kind":"cities","id":"city-jalingo","name":"Jalingo","category":"state-capital","stateName":"Taraba","stateId":"NG-TA","lon":11.35,"lat":8.89,"nickname":"Nature's Gift State capital","summary":"Taraba State capital at the foot of the Mambilla escarpment.","description":"Jalingo is the lowland administrative centre for Taraba, a highly diverse state reaching from Benue plains to Mambilla highlands. It is a market town for yam, rice, and livestock from the surrounding savanna.","populationNote":"~250,000 (est.)","economy":"Government, agriculture, and highland trade.","climate":"Sudan savanna; wet season May–October.","landmarks":"[\"Taraba State Government House\",\"Mambilla roadhead\"]","highlights":"[\"Taraba State capital\",\"Gateway to Mambilla\"]","wikiUrl":"https://en.wikipedia.org/wiki/Jalingo"},"geometry":{"type":"Point","coordinates":[11.35,8.89]}},{"type":"Feature","properties":{"layerId":"cities","kind":"cities","id":"city-damaturu","name":"Damaturu","category":"state-capital","stateName":"Yobe","stateId":"NG-YO","lon":11.74,"lat":11.75,"nickname":"Pride of the Sahel capital","summary":"Yobe State capital in the northeastern Sahel.","description":"Damaturu is a planned state capital replacing Nguru. It lies in semi-arid country important for millet, sorghum, and transhumance. Security challenges since the 2010s have affected growth.","populationNote":"~150,000 (est.)","economy":"Government, farming, and livestock.","climate":"Sahel; short rainy season.","landmarks":"[\"Yobe State secretariat\",\"Damaturu central market\"]","highlights":"[\"Yobe State capital\",\"Sahel administrative centre\"]","wikiUrl":"https://en.wikipedia.org/wiki/Damaturu"},"geometry":{"type":"Point","coordinates":[11.74,11.75]}},{"type":"Feature","properties":{"layerId":"cities","kind":"cities","id":"city-dutse","name":"Dutse","category":"state-capital","stateName":"Jigawa","stateId":"NG-JI","lon":9.34,"lat":11.83,"nickname":"New World capital","summary":"Jigawa State capital; planned city of the 1990s.","description":"Dutse was built as a greenfield capital for Jigawa when it split from Kano. The city features wide boulevards and is known for the Dutse Rock (inselberg) and nearby irrigated rice schemes.","populationNote":"~300,000 (est.)","economy":"Government, rice irrigation, and Kano hinterland trade.","climate":"Sudano-Sahelian.","landmarks":"[\"Dutse Rock\",\"Jigawa State University\"]","highlights":"[\"Purpose-built state capital\",\"Irrigation schemes\"]","wikiUrl":"https://en.wikipedia.org/wiki/Dutse"},"geometry":{"type":"Point","coordinates":[9.34,11.83]}},{"type":"Feature","properties":{"layerId":"cities","kind":"cities","id":"city-birnin-kebbi","name":"Birnin Kebbi","category":"state-capital","stateName":"Kebbi","stateId":"NG-KE","lon":4.2,"lat":12.45,"nickname":"Land of Equity capital","summary":"Kebbi State capital on the Sokoto–Rima river system.","description":"Birnin Kebbi is an ancient Hausa town that became capital of Kebbi State in 1991. It is a rice and millet market near the Niger border and the Argungu fishing festival (Argungu nearby).","populationNote":"~400,000 (est.)","economy":"Rice, fishing festival tourism, government, and border trade.","climate":"Sahel fringe; seasonal flooding on Rima.","landmarks":"[\"Argungu festival (nearby)\",\"Kebbi State secretariat\"]","highlights":"[\"Kebbi State capital\",\"Argungu heritage\"]","wikiUrl":"https://en.wikipedia.org/wiki/Birnin_Kebbi"},"geometry":{"type":"Point","coordinates":[4.2,12.45]}},{"type":"Feature","properties":{"layerId":"cities","kind":"cities","id":"city-gusau","name":"Gusau","category":"state-capital","stateName":"Zamfara","stateId":"NG-ZA","lon":6.66,"lat":12.17,"nickname":"Farming Is Our Pride capital","summary":"Zamfara State capital in the northwest savanna.","description":"Gusau is the administrative centre of Zamfara, a state known for agriculture and gold mining (informal). The city markets groundnuts, cotton, and livestock from the surrounding savanna.","populationNote":"~350,000 (est.)","economy":"Agriculture, informal gold, government.","climate":"Sudan savanna.","landmarks":"[\"Gusau emirate\",\"Federal University Gusau\"]","highlights":"[\"Zamfara State capital\",\"Gold-mining state\"]","wikiUrl":"https://en.wikipedia.org/wiki/Gusau"},"geometry":{"type":"Point","coordinates":[6.66,12.17]}},{"type":"Feature","properties":{"layerId":"cities","kind":"cities","id":"city-ikeja","name":"Ikeja","category":"state-capital","stateName":"Lagos","stateId":"NG-LA","lon":3.35,"lat":6.6,"nickname":"Lagos State capital","summary":"Lagos State capital and main airport city of the megacity.","description":"Ikeja is the official capital of Lagos State and home to Murtala Muhammed International Airport, Computer Village (Africa's largest electronics market), and Alausa secretariat. It is the administrative counterpart to commercial Lagos Island.","populationNote":"~800,000+ (est.)","economy":"Government, aviation, electronics trade, and services.","climate":"Tropical monsoon.","landmarks":"[\"MMIA Airport\",\"Computer Village\",\"Ikeja City Mall\"]","highlights":"[\"Lagos State capital\",\"Main international airport\",\"Computer Village\"]","wikiUrl":"https://en.wikipedia.org/wiki/Ikeja"},"geometry":{"type":"Point","coordinates":[3.35,6.6]}},{"type":"Feature","properties":{"layerId":"cities","kind":"cities","id":"city-ikot-ekpene","name":"Ikot Ekpene","category":"commercial","stateName":"Akwa Ibom","stateId":"NG-AK","lon":7.57,"lat":5.18,"nickname":"Raffia City","summary":"Historic raffia-palm products and craft market town of Akwa Ibom.","description":"Ikot Ekpene is famous for raffia work, cane furniture, and textiles. It sits on the road between Uyo and Aba and has long been a craft export centre for the southeast.","populationNote":"~250,000 (est.)","economy":"Raffia crafts, trade, and services.","climate":"Humid tropical.","landmarks":"[\"Ikot Ekpene craft markets\",\"Raffia workshops\"]","highlights":"[\"Raffia City\",\"Craft export hub\"]","wikiUrl":"https://en.wikipedia.org/wiki/Ikot_Ekpene"},"geometry":{"type":"Point","coordinates":[7.57,5.18]}},{"type":"Feature","properties":{"layerId":"cities","kind":"cities","id":"city-eket","name":"Eket","category":"industrial","stateName":"Akwa Ibom","stateId":"NG-AK","lon":7.92,"lat":4.64,"nickname":"Oil hub of eastern Akwa Ibom","summary":"Coastal oil and gas town on the Qua Iboe estuary.","description":"Eket hosts ExxonMobil Qua Iboe Terminal operations and is one of Akwa Ibom's oil centres. Fishing and petrochemical activity dominate the local economy alongside the state capital Uyo inland.","populationNote":"~400,000 (est.)","economy":"Oil and gas, fishing, and services.","climate":"Coastal tropical; mangrove fringe.","landmarks":"[\"Qua Iboe Terminal\",\"Eket main market\"]","highlights":"[\"Major oil terminal\",\"Qua Iboe estuary\"]","wikiUrl":"https://en.wikipedia.org/wiki/Eket"},"geometry":{"type":"Point","coordinates":[7.92,4.64]}},{"type":"Feature","properties":{"layerId":"cities","kind":"cities","id":"city-bonny","name":"Bonny","category":"port-city","stateName":"Rivers","stateId":"NG-RI","lon":7.17,"lat":4.43,"nickname":"Kingdom of Grand Bonny","summary":"Historic Ijaw kingdom and NLNG island port.","description":"Bonny Island hosts Nigeria LNG and has been a trading kingdom since the 15th century. The island combines deep-water gas export with a rich Ibani cultural heritage.","populationNote":"~300,000 (est.)","economy":"LNG, oil services, fishing, and shipping.","climate":"Coastal equatorial.","landmarks":"[\"NLNG plant\",\"Bonny Island\",\"King's palace\"]","highlights":"[\"NLNG Bonny\",\"Historic Ibani kingdom\"]","wikiUrl":"https://en.wikipedia.org/wiki/Bonny,_Nigeria"},"geometry":{"type":"Point","coordinates":[7.17,4.43]}},{"type":"Feature","properties":{"layerId":"cities","kind":"cities","id":"city-sapele","name":"Sapele","category":"industrial","stateName":"Delta","stateId":"NG-DE","lon":5.68,"lat":5.89,"nickname":"Timber and rubber town","summary":"Delta industrial town on the Benin River system.","description":"Sapele grew as a colonial port for timber and rubber. It hosts a paper mill and remains a Urhobo commercial centre with strong links to Warri and the delta creeks.","populationNote":"~350,000 (est.)","economy":"Timber, rubber, paper, and delta logistics.","climate":"Tropical; high rainfall.","landmarks":"[\"Sapele port\",\"Ethiope River\"]","highlights":"[\"Colonial timber port\",\"Urhobo commercial centre\"]","wikiUrl":"https://en.wikipedia.org/wiki/Sapele,_Nigeria"},"geometry":{"type":"Point","coordinates":[5.68,5.89]}},{"type":"Feature","properties":{"layerId":"cities","kind":"cities","id":"city-orlu","name":"Orlu","category":"commercial","stateName":"Imo","stateId":"NG-IM","lon":7.03,"lat":5.79,"nickname":"Heartland trade town","summary":"Major Igbo market town in Imo State's interior.","description":"Orlu is a fast-growing commercial centre on the Owerri–Mgbidi axis, known for trade, education, and as a political base in Imo. It serves a densely populated rural hinterland.","populationNote":"~500,000 (est.)","economy":"Trade, education, and services.","climate":"Humid tropical.","landmarks":"[\"Orlu junction markets\",\"Imo State University teaching hospital zone\"]","highlights":"[\"Interior Igbo commercial hub\"]","wikiUrl":"https://en.wikipedia.org/wiki/Orlu,_Nigeria"},"geometry":{"type":"Point","coordinates":[7.03,5.79]}},{"type":"Feature","properties":{"layerId":"cities","kind":"cities","id":"city-nkpor","name":"Nkpor","category":"commercial","stateName":"Anambra","stateId":"NG-AN","lon":6.82,"lat":6.15,"nickname":"Onitsha satellite market","summary":"Dense trading suburb east of Onitsha on the Enugu–Onitsha road.","description":"Nkpor is part of the greater Onitsha metropolitan trade zone, with huge motor spare-parts and general goods markets. It illustrates the intensity of Igbo commerce along the Niger corridor.","populationNote":"~400,000 (est.)","economy":"Motor parts, general trade, and logistics.","climate":"Tropical; Niger floodplain humidity.","landmarks":"[\"Nkpor main market\",\"Enugu–Onitsha expressway corridor\"]","highlights":"[\"Onitsha metro trade belt\",\"Motor parts hub\"]","wikiUrl":"https://en.wikipedia.org/wiki/Nkpor"},"geometry":{"type":"Point","coordinates":[6.82,6.15]}},{"type":"Feature","properties":{"layerId":"cities","kind":"cities","id":"city-okene","name":"Okene","category":"commercial","stateName":"Kogi","stateId":"NG-KO","lon":6.23,"lat":7.55,"nickname":"Ebira capital","summary":"Commercial centre of the Ebira people in central Nigeria.","description":"Okene is the heart of Ebiraland, known for cloth weaving (Okene cloth), yam markets, and iron ore nearby at Itakpe. It sits on the Abuja–Lokoja highway with strong Middle Belt links.","populationNote":"~750,000 (est.)","economy":"Weaving, mining, agriculture, and trade.","climate":"Guinea savanna.","landmarks":"[\"Okene cloth markets\",\"Azad's Palace\",\"Itakpe iron ore (nearby)\"]","highlights":"[\"Ebira cultural centre\",\"Okene cloth\"]","wikiUrl":"https://en.wikipedia.org/wiki/Okene"},"geometry":{"type":"Point","coordinates":[6.23,7.55]}},{"type":"Feature","properties":{"layerId":"cities","kind":"cities","id":"city-mubi","name":"Mubi","category":"commercial","stateName":"Adamawa","stateId":"NG-AD","lon":13.27,"lat":10.27,"nickname":"Gateway to Cameroon","summary":"Border trade town in northern Adamawa near Cameroon.","description":"Mubi is a major market linking Nigeria to Cameroon on the Mandara foothills. It trades grain, livestock, and manufactured goods across the border and serves as a northern Adamawa commercial hub.","populationNote":"~300,000 (est.)","economy":"Cross-border trade, agriculture, and services.","climate":"Sudan savanna; cooler than Maiduguri.","landmarks":"[\"Mubi market\",\"Cameroon border road\"]","highlights":"[\"Border trade gateway\",\"Northern Adamawa hub\"]","wikiUrl":"https://en.wikipedia.org/wiki/Mubi"},"geometry":{"type":"Point","coordinates":[13.27,10.27]}},{"type":"Feature","properties":{"layerId":"cities","kind":"cities","id":"city-potiskum","name":"Potiskum","category":"commercial","stateName":"Yobe","stateId":"NG-YO","lon":11.08,"lat":11.71,"nickname":"Largest cattle market in West Africa","summary":"Major Sahel market town famous for livestock trading.","description":"Potiskum hosts one of the largest cattle markets in West Africa, drawing pastoralists from across the Sahel. It is the commercial rival to Damaturu and a hub for grain and livestock.","populationNote":"~350,000 (est.)","economy":"Livestock, grain trade, and services.","climate":"Sahel.","landmarks":"[\"Potiskum cattle market\",\"Friday market\"]","highlights":"[\"West Africa cattle market\",\"Sahel trade node\"]","wikiUrl":"https://en.wikipedia.org/wiki/Potiskum"},"geometry":{"type":"Point","coordinates":[11.08,11.71]}},{"type":"Feature","properties":{"layerId":"cities","kind":"cities","id":"city-gboko","name":"Gboko","category":"commercial","stateName":"Benue","stateId":"NG-BE","lon":9,"lat":7.32,"nickname":"Yam warehouse of Nigeria","summary":"Tiv commercial centre and major yam market of Benue.","description":"Gboko is the traditional economic capital of the Tiv people and one of Nigeria's largest yam markets. Dangote Cement plant nearby has transformed the local industrial base.","populationNote":"~500,000 (est.)","economy":"Yam trade, cement, and agriculture.","climate":"Guinea savanna; seasonal floods on tributaries.","landmarks":"[\"Gboko yam market\",\"Dangote Cement plant\"]","highlights":"[\"Major yam market\",\"Tiv commercial centre\"]","wikiUrl":"https://en.wikipedia.org/wiki/Gboko"},"geometry":{"type":"Point","coordinates":[9,7.32]}},{"type":"Feature","properties":{"layerId":"cities","kind":"cities","id":"city-ikorodu","name":"Ikorodu","category":"regional","stateName":"Lagos","stateId":"NG-LA","lon":3.51,"lat":6.62,"nickname":"Lagos mainland northeast","summary":"Fast-growing Lagos corridor town toward Ijebu and Ogun.","description":"Ikorodu sits on the northeast fringe of Lagos State along the Lagos Lagoon. It has absorbed much of the megacity's sprawl, with residential estates and lagoon fishing.","populationNote":"~1 million (est.)","economy":"Commuter housing, fishing, and local services.","climate":"Tropical monsoon.","landmarks":"[\"Ikorodu Lagoon\",\"Lagos–Ikorodu road corridor\"]","highlights":"[\"Lagos sprawl corridor\",\"Lagoon fishing\"]","wikiUrl":"https://en.wikipedia.org/wiki/Ikorodu"},"geometry":{"type":"Point","coordinates":[3.51,6.62]}},{"type":"Feature","properties":{"layerId":"cities","kind":"cities","id":"city-badagry","name":"Badagry","category":"historic","stateName":"Lagos","stateId":"NG-LA","lon":2.88,"lat":6.42,"nickname":"Point of No Return","summary":"Historic Atlantic slave-trade port west of Lagos.","description":"Badagry was a major slave-export port and early mission station (first storey building in Nigeria). Today it is a heritage tourism destination on the Benin Republic border with beaches and museums.","populationNote":"~250,000 (est.)","economy":"Heritage tourism, fishing, and border trade.","climate":"Coastal tropical.","landmarks":"[\"Point of No Return\",\"Badagry Heritage Museum\",\"First Storey Building\"]","highlights":"[\"Slave-trade heritage\",\"Border tourism\"]","wikiUrl":"https://en.wikipedia.org/wiki/Badagry"},"geometry":{"type":"Point","coordinates":[2.88,6.42]}},{"type":"Feature","properties":{"layerId":"cities","kind":"cities","id":"city-epe","name":"Epe","category":"port-city","stateName":"Lagos","stateId":"NG-LA","lon":3.98,"lat":6.58,"nickname":"Fish town of Lagos","summary":"Lagoon fishing town at the eastern end of Lekki–Epe corridor.","description":"Epe is known for fish markets and lagoon culture at the mouth of the Lekki Peninsula development corridor. It balances traditional fishing with rapid peri-urban growth toward the refinery zone.","populationNote":"~350,000 (est.)","economy":"Fishing, Lekki corridor services, and agriculture.","climate":"Coastal lagoon tropical.","landmarks":"[\"Epe fish market\",\"Lekki–Epe expressway\"]","highlights":"[\"Fish market heritage\",\"Lekki corridor\"]","wikiUrl":"https://en.wikipedia.org/wiki/Epe,_Lagos"},"geometry":{"type":"Point","coordinates":[3.98,6.58]}},{"type":"Feature","properties":{"layerId":"cities","kind":"cities","id":"city-suleja","name":"Suleja","category":"regional","stateName":"Niger","stateId":"NG-NI","lon":7.18,"lat":9.18,"nickname":"Abuja dormitory town","summary":"Historic Gwari town and Abuja commuter hub in Niger State.","description":"Suleja predates Abuja and was a colonial mining and market centre. Today it is a major dormitory for Abuja workers, with pottery heritage and the Zuma Rock approach to the capital.","populationNote":"~400,000 (est.)","economy":"Commuter services, pottery, and trade.","climate":"Guinea savanna.","landmarks":"[\"Zuma Rock (nearby)\",\"Suleja pottery\",\"Abuja–Kaduna road\"]","highlights":"[\"Abuja commuter hub\",\"Pottery heritage\"]","wikiUrl":"https://en.wikipedia.org/wiki/Suleja"},"geometry":{"type":"Point","coordinates":[7.18,9.18]}},{"type":"Feature","properties":{"layerId":"cities","kind":"cities","id":"city-azare","name":"Azare","category":"commercial","stateName":"Bauchi","stateId":"NG-BA","lon":11.67,"lat":11.83,"nickname":"Northern Bauchi trade centre","summary":"Hausa–Fulani market town in northern Bauchi near Yobe border.","description":"Azare is a major grain and livestock market serving northeastern Bauchi and bordering states. It hosts Abubakar Tafawa Balewa University (Azare campus) and emirate traditions.","populationNote":"~400,000 (est.)","economy":"Grain trade, livestock, and education.","climate":"Sudan savanna.","landmarks":"[\"Azare emirate\",\"ATBU Azare\"]","highlights":"[\"Northern Bauchi hub\",\"Grain market\"]","wikiUrl":"https://en.wikipedia.org/wiki/Azare"},"geometry":{"type":"Point","coordinates":[11.67,11.83]}},{"type":"Feature","properties":{"layerId":"cities","kind":"cities","id":"city-ogoja","name":"Ogoja","category":"regional","stateName":"Cross River","stateId":"NG-CR","lon":8.33,"lat":6.65,"nickname":"Northern Cross River hub","summary":"Northern Cross River market town on the road to Benue.","description":"Ogoja is a Yala and Bekwarra trade centre linking Cross River to the Middle Belt. It serves cocoa and yam producing uplands and is a staging point toward Obudu.","populationNote":"~250,000 (est.)","economy":"Agriculture, trade, and transport.","climate":"Tropical; transition to savanna northward.","landmarks":"[\"Ogoja market\",\"Obudu road junction\"]","highlights":"[\"Northern Cross River gateway\",\"Obudu access\"]","wikiUrl":"https://en.wikipedia.org/wiki/Ogoja"},"geometry":{"type":"Point","coordinates":[8.33,6.65]}},{"type":"Feature","properties":{"layerId":"cities","kind":"cities","id":"city-funtua","name":"Funtua","category":"commercial","stateName":"Katsina","stateId":"NG-KT","lon":7.31,"lat":11.52,"nickname":"Southern Katsina cotton town","summary":"Textile and grain market in southern Katsina.","description":"Funtua is a major cotton ginning and grain market town on the Katsina–Zaria axis. It serves the Hausa farming belt with strong links to Kaduna markets.","populationNote":"~350,000 (est.)","economy":"Cotton, grain, and trade.","climate":"Sudan savanna.","landmarks":"[\"Funtua cotton gins\",\"Central market\"]","highlights":"[\"Cotton ginning centre\",\"Southern Katsina hub\"]","wikiUrl":"https://en.wikipedia.org/wiki/Funtua"},"geometry":{"type":"Point","coordinates":[7.31,11.52]}},{"type":"Feature","properties":{"layerId":"cities","kind":"cities","id":"city-daura","name":"Daura","category":"historic","stateName":"Katsina","stateId":"NG-KT","lon":8.32,"lat":13.04,"nickname":"Ancient Hausa city","summary":"Legendary Hausa city and emirate on the Niger border.","description":"Daura is one of the Hausa bakwai historic cities, associated with the Bayajidda legend. The emirate remains culturally important and sits near the Niger–Nigeria border.","populationNote":"~200,000 (est.)","economy":"Agriculture, emirate administration, and border trade.","climate":"Sahel fringe.","landmarks":"[\"Daura emirate palace\",\"Kusugu well (legend site)\"]","highlights":"[\"Hausa bakwai heritage\",\"Bayajidda legend\"]","wikiUrl":"https://en.wikipedia.org/wiki/Daura"},"geometry":{"type":"Point","coordinates":[8.32,13.04]}}]}