{"type":"FeatureCollection","features":[{"type":"Feature","properties":{"id":"ocean-atlantic","kind":"ocean","name":"Atlantic Ocean","interactive":false,"layerId":"coast"},"geometry":{"type":"Polygon","coordinates":[[[0.8,3],[9,3],[9,6.9],[3.2,6.9],[2.4,5.4],[0.8,4.8],[0.8,3]]]}},{"type":"Feature","properties":{"layerId":"coast","kind":"coast","id":"coastline-ng","name":"Nigeria Coastline","type":"Atlantic / Gulf of Guinea coast","summary":"About 853 km of Gulf of Guinea shoreline from the Badagry creek system to the Bakassi / Cross River estuary.","description":"The Nigerian coast is a mix of barrier islands (Lagos–Mahin), the Niger Delta mouths, and the eastern estuary around Calabar. It carries the bulk of seaborne trade, offshore oil, artisanal fisheries, and mangrove carbon stores. Coastal erosion, sea-level rise, and pollution are national planning issues.","coastalStates":"[\"Lagos\",\"Ondo\",\"Delta\",\"Bayelsa\",\"Rivers\",\"Akwa Ibom\",\"Cross River\"]","lengthNote":"~853 km (commonly cited official figure)","economy":"Ports, offshore oil and gas, fisheries, coastal tourism, sand mining.","ecology":"Mangrove, barrier lagoon, turtles, and heavily pressured urban shores at Lagos.","significance":"Atlantic trade, oil terminals, fishing, mangrove ecosystems.","highlights":"[\"Gulf of Guinea\",\"Niger Delta outlets\",\"Lagos barrier islands\"]","wikiUrl":"https://en.wikipedia.org/wiki/Geography_of_Nigeria"}},{"type":"Feature","properties":{"layerId":"coast","kind":"coast","id":"port-lagos-apapa","name":"Apapa Port (Lagos)","subkind":"port","type":"Container and general cargo seaport","summary":"Nigeria's busiest seaport complex; handles most national container traffic.","description":"Apapa and neighbouring Tin Can Island (TCIP) are the Lagos port cluster under the Nigerian Ports Authority, with private terminal operators. Congestion on the Apapa–Oshodi corridor has been a chronic logistics bottleneck. The ports remain the primary import gateway for the southwest and much of the north.","statesCrossed":"[\"Lagos\"]","economy":"Containers, bulk, tank farms, trucking, bonded terminals.","significance":"National import hub, Apapa Wharf, Tin Can Island.","highlights":"[\"Largest container throughput\",\"Tin Can Island cluster\",\"Lagos gateway\"]","wikiUrl":"https://en.wikipedia.org/wiki/Port_of_Lagos"},"geometry":{"type":"Point","coordinates":[3.37,6.44]}},{"type":"Feature","properties":{"layerId":"coast","kind":"coast","id":"port-port-harcourt","name":"Port Harcourt Port","subkind":"port","type":"River / oil port","summary":"Oil and general cargo port on the Bonny River up from the Atlantic.","description":"Port Harcourt's port (and nearby Onne) serve eastern Nigeria and the oil industry. Draft and dredging limit some vessel classes compared with Lagos; oil-service boats dominate. The city grew around this harbour from 1912.","statesCrossed":"[\"Rivers\"]","economy":"Oil export support, general cargo, eastern hinterland.","significance":"Garden City harbour, Onne satellite, eastern gateway.","highlights":"[\"Bonny River port\",\"Oil logistics\",\"1912 foundation\"]","wikiUrl":"https://en.wikipedia.org/wiki/Port_Harcourt"},"geometry":{"type":"Point","coordinates":[7,4.77]}},{"type":"Feature","properties":{"layerId":"coast","kind":"coast","id":"port-calabar","name":"Calabar Port","subkind":"port","type":"Eastern estuary port","summary":"Deep-water port on the Cross River estuary serving the southeast and Cameroon trade.","description":"Calabar has been a seaport since the Efik city-state era. The modern port handles general cargo and has been promoted for export processing. Silting and channel maintenance are recurring issues.","statesCrossed":"[\"Cross River\"]","economy":"General cargo, regional export, limited cruise/tourism.","significance":"Eastern seaport, historic Efik harbour.","highlights":"[\"Cross River estuary\",\"Historic port\",\"EPZ hinterland\"]","wikiUrl":"https://en.wikipedia.org/wiki/Calabar"},"geometry":{"type":"Point","coordinates":[8.34,4.96]}},{"type":"Feature","properties":{"layerId":"coast","kind":"coast","id":"port-warri","name":"Warri Port","subkind":"port","type":"Delta river port","summary":"Delta port for oil, steel, and agricultural hinterland cargoes.","description":"Warri Port on the Warri River serves the western delta industrial belt including the refinery and steel-related traffic. Access is via dredged delta channels toward Escravos.","statesCrossed":"[\"Delta\"]","economy":"Oil products, general cargo, delta logistics.","significance":"Escravos access, Warri industrial waterfront.","highlights":"[\"Delta industrial port\",\"Refinery city harbour\"]","wikiUrl":"https://en.wikipedia.org/wiki/Warri"},"geometry":{"type":"Point","coordinates":[5.52,5.52]}},{"type":"Feature","properties":{"layerId":"coast","kind":"coast","id":"port-onne","name":"Onne Port","subkind":"port","type":"Oil and gas free-zone port","summary":"Modern deep-water complex east of Port Harcourt; largest Nigerian port by land area.","description":"Onne (Federal Ocean Terminal / Federal Lighter Terminal and oil-and-gas free zone) was developed for energy logistics: rigs, pipes, and project cargo. It complements congested Lagos for specialised energy shipments.","statesCrossed":"[\"Rivers\"]","economy":"Oil services, free zone, project cargo, containers (growing).","significance":"Energy logistics hub, free zone, large land take.","highlights":"[\"Oil & gas free zone\",\"Deep-water terminals\",\"Largest port by area\"]","wikiUrl":"https://en.wikipedia.org/wiki/Onne"},"geometry":{"type":"Point","coordinates":[7.08,4.72]}}]}