{"type":"FeatureCollection","features":[{"type":"Feature","properties":{"layerId":"creeks","kind":"creeks","id":"creek-nun","name":"Nun River","type":"Niger Delta distributary","summary":"Major Niger distributary carrying a large share of Niger flow to the Atlantic through Bayelsa.","description":"The Nun is one of the Niger's primary delta outlets. It is lined with oil infrastructure, riverine settlements, and mangrove. Navigation and pipeline corridors follow its banks. Seasonal flooding shapes Ijaw livelihoods.","statesCrossed":"[\"Bayelsa\",\"Delta\"]","economy":"Oil logistics, river transport, artisanal fishing.","ecology":"Mangrove and freshwater swamp; oil-spill exposure.","significance":"Main Niger outlet branch, oil corridor, Ijaw riverine heartland.","highlights":"[\"Primary Niger outlet\",\"Bayelsa spine waterway\"]","wikiUrl":"https://en.wikipedia.org/wiki/Nun_River"},"geometry":{"type":"LineString","coordinates":[[6.4,4.9],[6.2,4.7],[6,4.55],[5.8,4.45]]}},{"type":"Feature","properties":{"layerId":"creeks","kind":"creeks","id":"creek-forcados","name":"Forcados River","type":"Delta waterway / export channel","summary":"Western delta channel serving historic Forcados oil terminal and navigation.","description":"Forcados was a Royal Niger Company and later oil-export anchorage. The river remains a pipeline and terminal access route in Delta State, with mixed fishing and oil-service traffic.","statesCrossed":"[\"Delta\"]","economy":"Crude export logistics, fishing, bunkering-risk waterway.","ecology":"Mangrove creeks; industrial shoreline.","significance":"Forcados oil terminal, pipeline hub, colonial-era ocean outlet.","highlights":"[\"Historic ocean outlet\",\"Oil terminal access\"]","wikiUrl":"https://en.wikipedia.org/wiki/Forcados_River"},"geometry":{"type":"LineString","coordinates":[[5.4,5.2],[5.2,5],[5,4.85],[4.8,4.75]]}},{"type":"Feature","properties":{"layerId":"creeks","kind":"creeks","id":"creek-escravos","name":"Escravos River","type":"Gas and oil channel","summary":"Delta channel serving Warri and the Escravos gas-to-liquids / terminal complex.","description":"Escravos ('slaves' in Portuguese, a colonial toponym) is now synonymous with Chevron and gas infrastructure. The waterway links Warri's industrial waterfront to the Bight of Benin.","statesCrossed":"[\"Delta\"]","economy":"Gas-to-liquids, terminals, Warri port access.","ecology":"Industrial mangrove; dredged channels.","significance":"Escravos GTL, Warri access, western delta energy corridor.","highlights":"[\"GTL complex\",\"Warri–ocean link\"]","wikiUrl":"https://en.wikipedia.org/wiki/Escravos_River"},"geometry":{"type":"LineString","coordinates":[[5.6,5.4],[5.4,5.2],[5.2,5]]}},{"type":"Feature","properties":{"layerId":"creeks","kind":"creeks","id":"creek-bonny","name":"Bonny River","type":"Deep-water LNG / port channel","summary":"Deep channel to Port Harcourt and Bonny Island LNG and oil terminals.","description":"The Bonny estuary is Nigeria's premier LNG (NLNG) and a historic Ibani (Bonny) kingdom waterway. Large tankers and LNG carriers use dredged channels. Port Harcourt's port sits upriver.","statesCrossed":"[\"Rivers\"]","economy":"LNG, crude export, Port Harcourt harbour, oil services.","ecology":"Estuarine mangrove; heavy shipping.","significance":"NLNG Bonny Island, PH port, eastern export gateway.","highlights":"[\"NLNG access\",\"Deep-water harbour\",\"Ibani kingdom waters\"]","wikiUrl":"https://en.wikipedia.org/wiki/Bonny_River"},"geometry":{"type":"LineString","coordinates":[[7,4.7],[6.8,4.55],[6.6,4.45],[6.4,4.35]]}},{"type":"Feature","properties":{"layerId":"creeks","kind":"creeks","id":"creek-new-calabar","name":"New Calabar River","type":"Coastal creek","summary":"Creek system west of Port Harcourt used for fisheries and peri-urban waterways.","description":"The New Calabar (Kalabari) river system serves Kalabari communities and PH's western waterfront. It is important for artisanal fishing and local transport rather than deep-sea export.","statesCrossed":"[\"Rivers\"]","economy":"Fisheries, local boats, peri-urban settlement.","ecology":"Mangrove; urban encroachment.","significance":"Kalabari waterways, PH western creeks.","highlights":"[\"Kalabari creeks\",\"Artisanal fisheries\"]","wikiUrl":"https://en.wikipedia.org/wiki/New_Calabar_River"},"geometry":{"type":"LineString","coordinates":[[6.9,4.85],[6.7,4.75],[6.5,4.65]]}}]}