{"type":"FeatureCollection","features":[{"type":"Feature","properties":{"layerId":"lakes","kind":"lakes","id":"lake-chad","name":"Lake Chad","featureKind":"lake","lakeCategory":"natural","type":"Endorheic freshwater lake (shared)","summary":"Shallow endorheic lake shared with Chad, Niger, and Cameroon; open water has shrunk dramatically since the 1960s.","description":"Lake Chad once covered more than 25,000 km². Open water is now a fraction of that, replaced by marshes and receding shorelines. Nigeria's shoreline lies mainly in Borno and Yobe. The lake still supports fishing, recession agriculture, and transhumant pastoralism, and remains a focus of the Lake Chad Basin Commission.","areaNote":"~1,350 km² open water (highly variable; far below 1960s extent)","maxDepthNote":"~11 m maximum depth (shallow basin)","statesCrossed":"[\"Borno\",\"Yobe\"]","usage":"Fishing, pastoralism, flood-recession farming, cross-border trade.","ecology":"Wetland birds, seasonal inundation, desertification pressure, invasive typha in some channels.","climate":"Sahel; rainfall decline and irrigation upstream affect inflows (Chari–Logone dominate).","significance":"UNESCO concern over shrinkage; security and livelihood hotspot of the basin.","highlights":"[\"Shared by four countries\",\"Severe 20th-century shrinkage\",\"Livelihoods for millions in the basin\"]","wikiUrl":"https://en.wikipedia.org/wiki/Lake_Chad"},"geometry":{"type":"Polygon","coordinates":[[[13.05,13.45],[13.35,13.55],[13.85,13.48],[14.25,13.25],[14.35,13],[14.15,12.85],[13.65,12.88],[13.25,12.95],[13.05,13.15],[13.05,13.45]]]}},{"type":"Feature","properties":{"layerId":"lakes","kind":"lakes","id":"lake-kainji","name":"Kainji Lake","featureKind":"lake","lakeCategory":"reservoir","type":"Reservoir · Niger River","summary":"Nigeria's largest man-made lake, impounded by Kainji Dam (1968).","description":"Kainji Dam was a flagship independent-era hydropower project. The lake drowned settlements and created a major fishery and Kainji Lake National Park on adjoining shores. Water level and generation vary with Niger River flow and plant maintenance cycles.","areaNote":"~1,300 km² at full supply","maxDepthNote":"~12 m average; deeper near dam wall","damName":"Kainji Dam","linkedPlantId":"plant-kainji","statesCrossed":"[\"Niger\",\"Kebbi\"]","usage":"Hydroelectric power, fishing, limited navigation, tourism (national park).","ecology":"Reservoir fishery; drawdown agriculture; wildlife in Kainji Lake National Park.","significance":"First large Nigerian hydro dam; anchor of Niger State's Power State identity.","highlights":"[\"1968 Kainji Dam\",\"Largest reservoir in Nigeria\",\"National park shoreline\"]","wikiUrl":"https://en.wikipedia.org/wiki/Kainji_Dam"},"geometry":{"type":"Polygon","coordinates":[[[4.45,10.35],[4.75,10.32],[4.95,10.38],[4.98,10.62],[4.92,10.88],[4.78,11],[4.55,10.98],[4.38,10.82],[4.35,10.58],[4.42,10.42],[4.45,10.35]]]}},{"type":"Feature","properties":{"layerId":"lakes","kind":"lakes","id":"lake-lagos-lagoon","name":"Lagos Lagoon","featureKind":"lake","lakeCategory":"lagoon","type":"Coastal lagoon","summary":"Barrier-island lagoon behind Lagos; linked to the Atlantic through creeks and the harbour.","description":"The lagoon is the water body that made Lagos a port city. It receives Ogun and Osun drainage, urban wastewater, and sand-mining pressure. Water transport (Lagos Waterways) and fishing remain active despite pollution and siltation.","areaNote":"~250 km² (lagoon and connected creeks)","maxDepthNote":"~2–5 m in main channels; shallower in flats","statesCrossed":"[\"Lagos\",\"Ogun\"]","usage":"Fishing, sand mining, urban drainage, ferry transport, port access.","ecology":"Brackish water, mangroves (degraded), urban pollution hotspots.","significance":"Historic harbour of Eko; Lekki–Lagos urban waterfront.","highlights":"[\"Made Lagos a port\",\"Ferry network\",\"Urban environmental pressure\"]","wikiUrl":"https://en.wikipedia.org/wiki/Lagos_Lagoon"},"geometry":{"type":"Polygon","coordinates":[[[3.05,6.48],[3.25,6.52],[3.45,6.54],[3.65,6.52],[3.85,6.48],[4.05,6.44],[4.15,6.4],[4.05,6.36],[3.85,6.38],[3.65,6.4],[3.45,6.42],[3.25,6.4],[3.05,6.42],[3.05,6.48]]]}},{"type":"Feature","properties":{"layerId":"lakes","kind":"lakes","id":"lake-oguta","name":"Oguta Lake","featureKind":"lake","lakeCategory":"natural","type":"Natural freshwater lake","summary":"Imo State's largest natural lake; a tourism and fishing landmark in the southeast.","description":"Oguta Lake is a palm-fringed natural lake fed by the Njaba and Utu rivers. It hosts the Oguta Lake Holiday Complex, boat regattas, and lakeside settlements. Oil-palm processing and fishing sustain local communities.","areaNote":"~4 km²","maxDepthNote":"~8 m","statesCrossed":"[\"Imo\"]","usage":"Tourism, fishing, boat transport, cultural festivals.","ecology":"Freshwater fish species, riparian vegetation, linked wetland channels.","significance":"Major natural lake of the Niger Delta hinterland; Imo tourism icon.","highlights":"[\"Oguta Lake Holiday Complex\",\"Annual regatta\",\"Two-river inflow (Njaba / Utu)\"]","wikiUrl":"https://en.wikipedia.org/wiki/Oguta"},"geometry":{"type":"Polygon","coordinates":[[[6.68,5.74],[6.74,5.76],[6.76,5.72],[6.74,5.68],[6.68,5.67],[6.64,5.69],[6.63,5.72],[6.68,5.74]]]}},{"type":"Feature","properties":{"layerId":"lakes","kind":"lakes","id":"lake-goronyo","name":"Goronyo Reservoir","featureKind":"lake","lakeCategory":"reservoir","type":"Reservoir · Rima River","summary":"Large Sokoto basin reservoir supplying irrigation and downstream communities.","description":"Goronyo Dam impounds the Rima River to provide dry-season irrigation for the Sokoto–Rima basin and water for Sokoto city. Siltation and variable rainfall affect storage capacity.","areaNote":"~20 km² at full supply","damName":"Goronyo Dam","linkedPlantId":"plant-goronyo","statesCrossed":"[\"Sokoto\"]","usage":"Irrigation, domestic water supply, fishing.","ecology":"Seasonal drawdown exposes mudflats; bird habitat in wet season.","significance":"Key water-security asset for northwest Nigeria.","highlights":"[\"Rima River impoundment\",\"Sokoto irrigation scheme\",\"Fishing livelihoods\"]","wikiUrl":"https://en.wikipedia.org/wiki/Goronyo_Dam"},"geometry":{"type":"Polygon","coordinates":[[[5.62,13],[5.72,13.02],[5.74,13.06],[5.7,13.1],[5.64,13.11],[5.58,13.08],[5.58,13.03],[5.62,13]]]}},{"type":"Feature","properties":{"layerId":"lakes","kind":"lakes","id":"lake-dadin-kowa","name":"Dadin Kowa Reservoir","featureKind":"lake","lakeCategory":"reservoir","type":"Reservoir · Gongola River","summary":"Gombe State reservoir on the Gongola, supporting hydropower and irrigation.","description":"Dadin Kowa Dam regulates the Gongola River for the Dadin Kowa hydro plant and downstream irrigation in the Upper Benue basin. The reservoir also supports fishing and livestock watering.","areaNote":"~29 km² at full supply","damName":"Dadin Kowa Dam","linkedPlantId":"plant-dadin-kowa","statesCrossed":"[\"Gombe\"]","usage":"Hydropower, irrigation, fishing, livestock watering.","significance":"Major Gongola basin water infrastructure in the northeast.","highlights":"[\"Gongola River regulation\",\"Linked hydro plant\",\"Upper Benue irrigation\"]","wikiUrl":"https://en.wikipedia.org/wiki/Dadin_Kowa_Dam"},"geometry":{"type":"Polygon","coordinates":[[[11.42,10.22],[11.52,10.24],[11.54,10.3],[11.5,10.34],[11.44,10.33],[11.4,10.28],[11.42,10.22]]]}},{"type":"Feature","properties":{"layerId":"lakes","kind":"lakes","id":"lake-asejire","name":"Asejire Reservoir","featureKind":"lake","lakeCategory":"reservoir","type":"Reservoir · Oshun River","summary":"Oyo State reservoir on the Oshun River, supplying Ibadan and surrounding farms.","description":"Asejire Dam was built in the late 1960s to provide water for Ibadan and irrigation in the Oshun valley. The lake is a weekend recreation spot and supports a local fishery.","areaNote":"~13 km²","damName":"Asejire Dam","linkedPlantId":"plant-asejire","statesCrossed":"[\"Oyo\"]","usage":"Domestic water for Ibadan, irrigation, fishing, recreation.","significance":"Primary water source for Nigeria's third-largest city.","highlights":"[\"Oshun River impoundment\",\"Ibadan water supply\",\"Weekend recreation\"]","wikiUrl":"https://en.wikipedia.org/wiki/Asejire_Dam"},"geometry":{"type":"Polygon","coordinates":[[[3.95,7.42],[4.08,7.43],[4.1,7.5],[4.05,7.53],[3.96,7.52],[3.93,7.46],[3.95,7.42]]]}},{"type":"Feature","properties":{"layerId":"lakes","kind":"lakes","id":"lake-challawa","name":"Challawa Gorge Reservoir","featureKind":"lake","lakeCategory":"reservoir","type":"Reservoir · Challawa River","summary":"Kano basin reservoir feeding irrigation and the Challawa hydro plant.","description":"Challawa Gorge Dam impounds the Challawa River tributary of the Hadejia–Jama'are system. It supports Kano's hinterland irrigation schemes and the Challawa Gorge hydroelectric station.","areaNote":"~29 km²","damName":"Challawa Gorge Dam","linkedPlantId":"plant-challawa","statesCrossed":"[\"Kano\"]","usage":"Hydropower, irrigation, fishing.","significance":"Part of the Hadejia–Jama'are basin water infrastructure.","highlights":"[\"Kano irrigation supply\",\"Linked hydro plant\",\"Hadejia system tributary\"]","wikiUrl":"https://en.wikipedia.org/wiki/Challawa_Gorge_Dam"},"geometry":{"type":"Polygon","coordinates":[[[8.48,11.38],[8.56,11.4],[8.58,11.46],[8.54,11.5],[8.48,11.49],[8.45,11.43],[8.48,11.38]]]}}]}