{"type":"FeatureCollection","features":[{"type":"Feature","properties":{"layerId":"rivers","kind":"rivers","id":"river-niger","name":"Niger River","type":"International river","summary":"West Africa's principal river; enters Nigeria from Niger Republic and flows south to the Niger Delta.","description":"The Niger is the third-longest river in Africa. Inside Nigeria it passes through the northwest, the Middle Belt confluence at Lokoja, and fans into the world's third-largest delta. It supports hydropower (Kainji, Jebba, Shiroro on tributaries), inland navigation, and the oil-bearing delta wetlands.","lengthKm":4200,"lengthNote":"About 1,300 km of the course lies in Nigeria","sourceNote":"Guinea Highlands (outside Nigeria); enters Nigeria near the Niger Republic border in Kebbi","mouthNote":"Gulf of Guinea via the Niger Delta (Nun, Forcados and many creeks)","tributaries":"[\"Benue\",\"Kaduna\",\"Sokoto–Rima\",\"Gongola (via Benue system)\"]","statesCrossed":"[\"Kebbi\",\"Niger\",\"Kwara\",\"Kogi\",\"Edo\",\"Anambra\",\"Delta\",\"Bayelsa\",\"Rivers\"]","economy":"Hydropower, inland waterways, fisheries, irrigation, and the delta petroleum basin.","ecology":"Floodplain agriculture (fadama), manatee and fish diversity, mangrove delta.","significance":"Kainji Dam, Lokoja confluence, Niger Delta outlet, historic trade corridor.","highlights":"[\"Africa's 3rd-longest river\",\"Kainji reservoir\",\"Confluence with the Benue\"]","wikiUrl":"https://en.wikipedia.org/wiki/Niger_River"},"geometry":{"type":"LineString","coordinates":[[4.35,13.15],[4.85,12.2],[5.4,11],[5.9,9.8],[6.15,8.5],[6.35,7.2],[6.45,6.4],[6.35,5.8],[6,5.3],[5.5,5],[5,4.85]]}},{"type":"Feature","properties":{"layerId":"rivers","kind":"rivers","id":"river-benue","name":"Benue River","type":"Major tributary","summary":"The Niger's largest tributary; enters from Cameroon and meets the Niger at Lokoja.","description":"The Benue drains the Cameroon highlands and the Nigerian Middle Belt. Seasonal floods fertilise yam and rice plains in Adamawa, Taraba, and Benue. Makurdi is the main urban crossing. The confluence at Lokoja is one of West Africa's great geographic landmarks.","lengthKm":1400,"sourceNote":"Adamawa Plateau, Cameroon","mouthNote":"Joins the Niger at Lokoja, Kogi State","tributaries":"[\"Gongola\",\"Katsina-Ala\",\"Donga\"]","statesCrossed":"[\"Adamawa\",\"Taraba\",\"Benue\",\"Nassarawa\",\"Kogi\"]","economy":"Irrigation, fisheries, sand mining, and a historic (now limited) inland waterway.","ecology":"Seasonal floodplains; hippo and fish habitats; erosion on sandy banks.","significance":"Agricultural belt, Makurdi bridge, confluence at Lokoja.","highlights":"[\"Largest Niger tributary\",\"Food Basket floodplains\",\"Lokoja confluence\"]","wikiUrl":"https://en.wikipedia.org/wiki/Benue_River"},"geometry":{"type":"LineString","coordinates":[[13.6,7.9],[12.5,8.1],[11.2,8.3],[10,8.35],[9,8.2],[8.2,8],[7.5,7.85],[6.9,7.6],[6.5,7.2],[6.35,6.75]]}},{"type":"Feature","properties":{"layerId":"rivers","kind":"rivers","id":"river-cross","name":"Cross River","type":"Coastal / border river","summary":"Eastern river forming much of the Cameroon border before the Gulf of Guinea.","description":"The Cross (Oyono) drains rainforest of Cross River State and western Cameroon. It is associated with Cross River National Park, Calabar port access, and high freshwater biodiversity. Seasonal floods affect Ogoja–Ikom–Calabar corridors.","lengthKm":480,"sourceNote":"Cameroon highlands","mouthNote":"Cross River estuary near Calabar, Gulf of Guinea","statesCrossed":"[\"Cross River\",\"Akwa Ibom\"]","economy":"Port access, fisheries, timber hinterland, border trade.","ecology":"Rainforest, primates (including Cross River gorilla in the wider basin), estuary mangroves.","significance":"Rainforest ecology, Calabar port, international border.","highlights":"[\"Rainforest basin\",\"Calabar estuary\",\"Transboundary river\"]","wikiUrl":"https://en.wikipedia.org/wiki/Cross_River_(Nigeria)"},"geometry":{"type":"LineString","coordinates":[[8.85,6.1],[8.55,5.65],[8.35,5.25],[8.15,4.95]]}},{"type":"Feature","properties":{"layerId":"rivers","kind":"rivers","id":"river-imo","name":"Imo River","type":"Southeastern river","summary":"Major river of the southeast flowing through Imo toward Rivers State and the delta.","description":"The Imo drains the rain-fed southeast and feeds delta creeks. It is important for oil-palm landscapes, local fisheries, and as a cultural boundary river among Igbo communities.","lengthKm":240,"sourceNote":"Uplands of Imo / Abia hinterland","mouthNote":"Atlantic via Niger Delta creeks","statesCrossed":"[\"Imo\",\"Abia\",\"Rivers\"]","economy":"Oil palm, fisheries, sand, local transport.","ecology":"Freshwater swamp and delta transition.","significance":"Oil palm belt, local fisheries, delta tributary.","highlights":"[\"Southeast drainage\",\"Palm belt river\"]","wikiUrl":"https://en.wikipedia.org/wiki/Imo_River"},"geometry":{"type":"LineString","coordinates":[[7.2,5.8],[7,5.5],[6.85,5.2],[6.7,4.95]]}},{"type":"Feature","properties":{"layerId":"rivers","kind":"rivers","id":"river-oshun","name":"Osun River","type":"Sacred / cultural river","summary":"Sacred Yoruba river flowing through Osun State toward the Lagos lagoon system.","description":"The Osun is central to Yoruba cosmology (Ọṣun). The Osun-Osogbo Sacred Grove on its banks is a UNESCO World Heritage Site. Hydrologically it is part of the Ogun–Osun drainage toward the Lagos Lagoon.","lengthKm":320,"sourceNote":"Yoruba uplands (Ekiti–Osun)","mouthNote":"Lekki / Lagos Lagoon system","statesCrossed":"[\"Osun\",\"Ogun\",\"Lagos\"]","economy":"Water supply, tourism/festival economy, peri-urban agriculture.","ecology":"Sacred grove forest remnant; urban pressure downstream.","significance":"Osun-Osogbo heritage, Osogbo festival, Lagos water supply.","highlights":"[\"UNESCO Sacred Grove\",\"Yoruba goddess river\",\"Festival tourism\"]","wikiUrl":"https://en.wikipedia.org/wiki/Osun_River"},"geometry":{"type":"LineString","coordinates":[[4.5,7.8],[4.3,7.2],[4.1,6.6],[3.9,6.2]]}},{"type":"Feature","properties":{"layerId":"rivers","kind":"rivers","id":"river-kaduna","name":"Kaduna River","type":"Niger tributary","summary":"Major tributary of the Niger flowing through Kaduna and Niger states.","description":"The Kaduna (named from 'crocodile' in Hausa, Kada) gives Kaduna city its name. It joins the Niger in Niger State. Shiroro Dam is a major hydro station on the system.","lengthKm":550,"sourceNote":"Jos Plateau / north-central highlands","mouthNote":"Niger River in Niger State","statesCrossed":"[\"Kaduna\",\"Niger\",\"Kogi\"]","economy":"Hydropower (Shiroro), urban water, fisheries.","ecology":"Savanna river; seasonal flow variation.","significance":"Kaduna city namesake, Shiroro hydro, joins Niger.","highlights":"[\"Shiroro Dam\",\"City namesake\",\"Jos Plateau headwaters\"]","wikiUrl":"https://en.wikipedia.org/wiki/Kaduna_River"},"geometry":{"type":"LineString","coordinates":[[7.4,10.5],[7.2,9.5],[7,8.5],[6.8,7.5]]}},{"type":"Feature","properties":{"layerId":"rivers","kind":"rivers","id":"river-sokoto","name":"Sokoto River","type":"Sahel river","summary":"Principal river of north-western Nigeria; feeds the Rima and Niger systems.","description":"The Sokoto–Rima basin is the agricultural heart of the far northwest. Seasonal flooding supports irrigation schemes and grazing. The Bakolori and Goronyo dams regulate parts of the system.","lengthKm":320,"sourceNote":"Northwestern uplands / Falgore–Rima headwaters","mouthNote":"Niger River via the Rima in Kebbi / Niger","statesCrossed":"[\"Sokoto\",\"Kebbi\",\"Zamfara\",\"Niger\"]","economy":"Irrigation (Bakolori, Goronyo), millet and rice, livestock.","ecology":"Sahel floodplain; drought-sensitive.","significance":"Sokoto basin irrigation, seasonal flooding, Hausa–Fulani heartland.","highlights":"[\"Bakolori irrigation\",\"Sahel floodplain\",\"Caliphate hinterland\"]","wikiUrl":"https://en.wikipedia.org/wiki/Sokoto_River"},"geometry":{"type":"LineString","coordinates":[[4,13],[5,12],[6,11],[6.5,10]]}}]}