{"type":"FeatureCollection","features":[{"type":"Feature","properties":{"id":"terrain-jos-plateau","kind":"terrain","name":"Jos Plateau","tier":"high"},"geometry":{"type":"Polygon","coordinates":[[[8.5,9],[9.8,9],[9.8,10.2],[8.5,10.2],[8.5,9]]]}},{"type":"Feature","properties":{"id":"terrain-mambilla","kind":"terrain","name":"Mambilla Plateau","tier":"high"},"geometry":{"type":"Polygon","coordinates":[[[10.5,6.8],[11.5,6.8],[11.5,7.5],[10.5,7.5],[10.5,6.8]]]}},{"type":"Feature","properties":{"id":"terrain-mandara","kind":"terrain","name":"Mandara Mountains","tier":"high"},"geometry":{"type":"Polygon","coordinates":[[[13,10.5],[14,10.5],[14,11.2],[13,11.2],[13,10.5]]]}},{"type":"Feature","properties":{"id":"terrain-niger-delta","kind":"terrain","name":"Niger Delta","tier":"low"},"geometry":{"type":"Polygon","coordinates":[[[5,4.5],[7,4.5],[7,5.5],[5,5.5],[5,4.5]]]}},{"type":"Feature","properties":{"id":"terrain-sokoto-basin","kind":"terrain","name":"Sokoto Basin","tier":"low"},"geometry":{"type":"Polygon","coordinates":[[[4.5,12],[6.5,12],[6.5,13.5],[4.5,13.5],[4.5,12]]]}},{"type":"Feature","properties":{"id":"terrain-guinea-savanna","kind":"terrain","name":"Guinea Savanna","tier":"mid"},"geometry":{"type":"Polygon","coordinates":[[[3.5,7.5],[8,7.5],[8,10],[3.5,10],[3.5,7.5]]]}}]}