{"type":"FeatureCollection","features":[{"type":"Feature","properties":{"layerId":"waterways","kind":"waterways","id":"river-niger","name":"Niger River","waterwayClass":"major","neNames":"[\"Niger\"]","type":"International river","summary":"West Africa's principal river; enters Nigeria from Niger Republic and flows south to the Niger Delta.","description":"The Niger is the third-longest river in Africa. Inside Nigeria it passes through the northwest, the Middle Belt confluence at Lokoja, and fans into the world's third-largest delta. It supports hydropower (Kainji, Jebba, Shiroro on tributaries), inland navigation, and the oil-bearing delta wetlands.","lengthKm":4200,"lengthNote":"About 1,300 km of the course lies in Nigeria","sourceNote":"Guinea Highlands (outside Nigeria); enters Nigeria near the Niger Republic border in Kebbi","mouthNote":"Gulf of Guinea via the Niger Delta (Nun, Forcados and many creeks)","tributaries":"[\"Benue\",\"Kaduna\",\"Sokoto–Rima\",\"Gongola (via Benue system)\"]","statesCrossed":"[\"Kebbi\",\"Niger\",\"Kwara\",\"Kogi\",\"Edo\",\"Anambra\",\"Delta\",\"Bayelsa\",\"Rivers\"]","economy":"Hydropower, inland waterways, fisheries, irrigation, and the delta petroleum basin.","ecology":"Floodplain agriculture (fadama), manatee and fish diversity, mangrove delta.","significance":"Kainji Dam, Lokoja confluence, Niger Delta outlet, historic trade corridor.","highlights":"[\"Africa's 3rd-longest river\",\"Kainji reservoir\",\"Confluence with the Benue\"]","wikiUrl":"https://en.wikipedia.org/wiki/Niger_River","featureKind":"line"},"geometry":{"type":"MultiLineString","coordinates":[[[2.5,12.657854832057554],[2.508556,12.652655],[2.517345,12.648505],[2.523448,12.648993],[2.526866,12.646186],[2.527761,12.632148],[2.520925,12.613796],[2.507823,12.603339],[2.5,12.593944169414979]],[[2.5,12.581393595084846],[2.50172,12.570746],[2.508718,12.560736],[2.527599,12.545437],[2.535167,12.537218],[2.548025,12.506293],[2.555675,12.495632],[2.564464,12.516913],[2.577322,12.540147],[2.593191,12.561632],[2.611013,12.577582],[2.61614,12.574652],[2.619558,12.571723],[2.622,12.568427],[2.623953,12.564521],[2.628103,12.552598],[2.628103,12.52558],[2.631358,12.515489],[2.671804,12.515489],[2.672537,12.513129],[2.677745,12.510321],[2.683849,12.511013],[2.686697,12.519232],[2.687999,12.52497],[2.691173,12.532253],[2.695486,12.539008],[2.699718,12.543402],[2.709402,12.54621],[2.718272,12.542914],[2.725027,12.5338],[2.72755,12.519232],[2.727957,12.493964],[2.731619,12.465847],[2.742442,12.442979],[2.764822,12.433539],[2.786306,12.429145],[2.822032,12.40766],[2.843679,12.399441],[2.891612,12.357286],[2.91212,12.346503],[2.922048,12.335801],[2.929942,12.323432],[2.93629,12.301052],[2.944509,12.292589],[2.955496,12.286973],[2.967214,12.282742],[3.000499,12.279079],[3.0088,12.276475],[3.012462,12.271267],[3.022227,12.252631],[3.062755,12.193956],[3.234793,12.03974],[3.237804,12.034369],[3.251475,12.024278],[3.254649,12.018907],[3.257009,11.997585],[3.262136,11.97488],[3.269298,11.956651],[3.292247,11.918891],[3.306407,11.902533],[3.314952,11.894721],[3.327159,11.886542],[3.341075,11.883083],[3.354503,11.889228],[3.368663,11.897488],[3.3803,11.895209],[3.391043,11.888983],[3.402354,11.885443],[3.447032,11.858181],[3.483653,11.845323],[3.494802,11.837714],[3.50294,11.830146],[3.536388,11.783067],[3.543142,11.777289],[3.548595,11.773953],[3.553233,11.769843],[3.556895,11.76199],[3.562022,11.746161],[3.565603,11.738552],[3.567556,11.729763],[3.571218,11.721991],[3.5796,11.717475],[3.588796,11.701687],[3.617442,11.680772],[3.627615,11.666938],[3.631277,11.65001],[3.634451,11.643256],[3.642507,11.636664],[3.712413,11.600043],[3.72755,11.595486],[3.837413,11.575873],[3.851329,11.569892],[3.857432,11.565294],[3.90919,11.512152],[3.918468,11.508572],[3.933279,11.50727],[3.948009,11.508409],[3.957205,11.512152],[3.96461,11.513617],[3.973562,11.508124],[3.98821,11.494452],[4.048839,11.464464],[4.067068,11.460313],[4.079275,11.455349],[4.090994,11.443549],[4.110362,11.41946],[4.115489,11.414618],[4.116954,11.412462],[4.122,11.400214],[4.124278,11.374579],[4.129568,11.372016],[4.144054,11.361111],[4.177175,11.345038],[4.186046,11.338935],[4.193614,11.331407],[4.200125,11.322211],[4.214041,11.291612],[4.221446,11.282538],[4.247488,11.260321],[4.255056,11.251736],[4.279226,11.212958],[4.294607,11.196601],[4.314952,11.189154],[4.368582,11.189724],[4.424246,11.182237],[4.448171,11.176093],[4.471609,11.167304],[4.513357,11.142686],[4.514334,11.138617],[4.573904,11.100206],[4.586355,11.088446],[4.595714,11.075466],[4.626231,11.013943],[4.656016,10.967963],[4.668875,10.956488],[4.700613,10.938178],[4.721446,10.913601],[4.723888,10.879503],[4.690603,10.700995],[4.690929,10.663194],[4.689138,10.64586],[4.681326,10.632432],[4.656179,10.607204]],[[4.625743,9.864529],[4.65032,9.718695],[4.647634,9.709906],[4.628103,9.704413],[4.622813,9.699246],[4.619802,9.691677],[4.615652,9.666449],[4.597423,9.627224],[4.572439,9.585639],[4.56837,9.553656],[4.57366,9.521796],[4.608816,9.444403],[4.616222,9.415107],[4.618907,9.377265],[4.617686,9.358018],[4.618826,9.358222],[4.619802,9.358669],[4.620535,9.359239],[4.621104,9.360134],[4.621511,9.341376],[4.625011,9.324774],[4.633474,9.310736],[4.648692,9.299831],[4.664561,9.293728],[4.71461,9.285427],[4.742605,9.27497],[4.754812,9.254584],[4.756033,9.227851],[4.750662,9.198513],[4.752452,9.168321],[4.770763,9.148749],[4.798595,9.139919],[4.829356,9.141954],[4.869802,9.154079],[4.914317,9.179145],[4.979177,9.199774],[4.992849,9.199774],[5.00587,9.196601],[5.030772,9.185248],[5.032156,9.179877],[5.049734,9.171658],[5.083181,9.148749],[5.135671,9.124132],[5.150157,9.113349],[5.167166,9.09101],[5.184337,9.073188],[5.18922,9.06269],[5.189871,9.052354],[5.18922,9.041693],[5.190196,9.0303],[5.197439,9.01671],[5.209483,9.008368],[5.224376,9.003852],[5.319509,8.988349],[5.386485,8.992377],[5.401052,8.989529],[5.413097,8.983344],[5.423595,8.975124],[5.442068,8.95657],[5.453868,8.947048],[5.466238,8.94123],[5.479666,8.938341],[5.510265,8.936713],[5.524425,8.934149],[5.538015,8.92947],[5.55128,8.921942],[5.557302,8.917019],[5.570242,8.900214],[5.591563,8.882148],[5.600597,8.87226],[5.608409,8.861843],[5.617849,8.844346],[5.621349,8.839219],[5.634288,8.829047],[5.650076,8.823839],[5.707937,8.822292],[5.715587,8.821072],[5.737559,8.812608],[5.746023,8.811225],[5.7588,8.790107],[5.773692,8.77086],[5.78419,8.752387],[5.790538,8.745795],[5.802419,8.741807],[5.855642,8.742621],[5.899669,8.735867],[5.914561,8.73546],[5.926524,8.738064],[5.958181,8.752875],[5.982677,8.757595],[6.092459,8.758612],[6.107921,8.756212],[6.122732,8.750556],[6.153005,8.721991],[6.160655,8.719346],[6.259939,8.738389],[6.277354,8.736762],[6.284597,8.730658],[6.321707,8.705675],[6.341726,8.702582],[6.357677,8.693956],[6.370535,8.680976],[6.395274,8.639675],[6.396007,8.621405],[6.397878,8.613308],[6.413341,8.582058],[6.415782,8.574042],[6.421316,8.572821],[6.424978,8.564276],[6.427175,8.555609],[6.429698,8.526231],[6.442638,8.478135],[6.465343,8.431749],[6.473399,8.427761],[6.572276,8.353624],[6.583914,8.340277],[6.622976,8.27794],[6.660655,8.238064],[6.672862,8.231879],[6.674001,8.226508],[6.688487,8.213568],[6.704112,8.177558],[6.714529,8.160834],[6.740489,8.129665],[6.762706,8.095486],[6.770681,8.078721],[6.776296,8.062812],[6.798106,7.936632],[6.796804,7.919989],[6.792166,7.903591],[6.773204,7.865505],[6.770518,7.857611],[6.757986,7.770331],[6.748953,7.740424],[6.74822,7.733995],[6.748953,7.726833],[6.754812,7.710639],[6.756765,7.702663],[6.75587,7.693386],[6.75115,7.683173],[6.729421,7.656684],[6.725027,7.648139],[6.712332,7.605536],[6.709727,7.591661],[6.70989,7.577948],[6.716238,7.54324],[6.707286,7.394151],[6.709727,7.372992],[6.70989,7.362006],[6.696462,7.239325],[6.697195,7.220404],[6.699392,7.211941],[6.715343,7.177517],[6.718028,7.168402],[6.719412,7.148993],[6.715343,7.130439],[6.703136,7.093777],[6.698416,7.042019],[6.689708,7.0185],[6.688894,7.008165],[6.689382,6.964138],[6.687429,6.955186],[6.661306,6.899604],[6.650401,6.860622],[6.649181,6.843858],[6.65504,6.791327],[6.650645,6.663275],[6.654714,6.620795],[6.674815,6.564276],[6.676768,6.549262],[6.676687,6.503485],[6.680919,6.474066],[6.690603,6.440375],[6.708751,6.376166],[6.715017,6.321112],[6.732839,6.272284],[6.736746,6.233344],[6.740896,6.21955],[6.753917,6.194403],[6.759044,6.181098],[6.760916,6.167182],[6.757742,6.122911],[6.753835,6.109646],[6.746837,6.10163],[6.736583,6.096625],[6.723399,6.091864],[6.703787,6.075995],[6.699392,6.053494],[6.703298,6.001003],[6.689952,5.950059],[6.688975,5.941107],[6.69044,5.923692],[6.688975,5.914374],[6.685313,5.905829],[6.645437,5.852729],[6.625987,5.818549],[6.61614,5.792792],[6.609386,5.765896],[6.605724,5.723212],[6.579845,5.607774],[6.559825,5.561794],[6.556326,5.541327],[6.551931,5.513861],[6.546886,5.501003],[6.53948,5.489569],[6.519786,5.468817],[6.514415,5.465033],[6.496104,5.458075],[6.490408,5.453559],[6.480724,5.442694],[6.47462,5.438585],[6.476085,5.43655],[6.493093,5.393093],[6.495372,5.371365],[6.479177,5.362087],[6.34962,5.342719],[6.333263,5.337185],[6.314952,5.323554],[6.305837,5.314805],[6.298106,5.305732],[6.292979,5.295478],[6.291026,5.283515],[6.290701,5.269355],[6.288585,5.263739],[6.270518,5.258979],[6.228282,5.259345],[6.209483,5.252712],[6.201671,5.228583],[6.203787,5.217353],[6.213145,5.202745],[6.215261,5.193874],[6.210378,5.183702],[6.19866,5.177761],[6.174327,5.170233],[6.16627,5.163886],[6.160818,5.157497],[6.153575,5.152167],[6.14031,5.149115],[6.128429,5.150824],[6.115896,5.154608],[6.104259,5.156684],[6.09547,5.152859],[6.066824,5.113471],[6.050222,5.104682],[6.023448,5.108222],[6.002859,5.11697],[5.981863,5.12934],[5.915538,5.187771],[5.901622,5.191759],[5.843028,5.186957],[5.82545,5.192206],[5.818126,5.20779],[5.809255,5.205878],[5.749766,5.170233],[5.735037,5.180243],[5.725841,5.184434],[5.721853,5.180203],[5.718679,5.164984],[5.710704,5.163153],[5.691417,5.170233],[5.653087,5.164984],[5.619395,5.156602],[5.611746,5.152208],[5.602306,5.143866],[5.594981,5.142361],[5.586681,5.146674],[5.58074,5.16588],[5.574718,5.170233],[5.566661,5.167426],[5.536876,5.149115],[5.525645,5.147406],[5.506114,5.14704],[5.49586,5.142361]],[[6.564708,5.540147],[6.580089,5.527859],[6.595632,5.518378],[6.607677,5.505154],[6.612559,5.481513],[6.604747,5.417833],[6.605724,5.395575],[6.612559,5.3546],[6.614431,5.350124],[6.617605,5.345974],[6.620128,5.341091],[6.620046,5.334093],[6.616954,5.328681],[6.607595,5.320258],[6.605724,5.317003],[6.601329,5.31391],[6.582693,5.309638],[6.57838,5.303738],[6.575694,5.292833],[6.569591,5.282294],[6.536143,5.240749],[6.511729,5.222602],[6.490001,5.202338],[6.476085,5.170233],[6.470632,5.124945],[6.462413,5.103583],[6.444591,5.09455],[6.43865,5.085639],[6.43214,5.064399],[6.427664,5.039333],[6.427501,5.018826],[6.430186,5.007758],[6.434255,4.996934],[6.440115,4.986884],[6.448009,4.977851],[6.457693,4.990505],[6.469168,4.989081],[6.482188,4.982042],[6.496511,4.977851],[6.511648,4.982245],[6.522227,4.988715],[6.528575,4.98725],[6.530528,4.967882],[6.535899,4.960395],[6.547618,4.958116],[6.5595,4.953925],[6.568777,4.931464],[6.586925,4.906684],[6.592052,4.89586],[6.591726,4.884223],[6.585867,4.859483],[6.585867,4.84748],[6.602957,4.807074],[6.61199,4.769558],[6.628347,4.748481],[6.650564,4.738471],[6.674571,4.745063],[6.687755,4.727891],[6.702566,4.684841],[6.712169,4.676215],[6.718028,4.667751],[6.724294,4.648017],[6.72877,4.625271],[6.736095,4.607937]],[[6.502696,5.381903],[6.501475,5.356757],[6.485362,5.351264],[6.463308,5.351752],[6.444591,5.344672],[6.434988,5.330634],[6.417735,5.298367],[6.407725,5.286933],[6.390554,5.281195],[6.372244,5.279649],[6.357677,5.273993],[6.351817,5.255642],[6.349864,5.243842],[6.344981,5.233181],[6.33782,5.223578],[6.328868,5.214667],[6.3213,5.203152],[6.326101,5.196479],[6.345632,5.190131],[6.355886,5.190701],[6.364187,5.195909],[6.370128,5.196601],[6.372976,5.183295],[6.370046,5.172797],[6.362071,5.162624],[6.352061,5.156928],[6.342214,5.16002],[6.330007,5.1612],[6.3178,5.112657],[6.304698,5.09455],[6.281749,5.092393],[6.264415,5.097968],[6.253347,5.095771],[6.24822,5.048407],[6.249197,5.037055],[6.253184,5.029364],[6.263438,5.027696],[6.274425,5.031317],[6.282481,5.031317],[6.28419,5.018826],[6.280447,5.013007],[6.273692,5.012966],[6.266856,5.014268],[6.263113,5.012641],[6.260997,5.004096],[6.261404,5.000841],[6.262625,4.998236],[6.263113,4.991523],[6.269949,4.970282],[6.269949,4.956651],[6.26002,4.950507],[6.257009,4.949774]],[[6.256847,4.950507],[6.257009,4.949774]],[[6.257009,4.949774],[6.261485,4.935126],[6.273611,4.911566],[6.277354,4.89586],[6.276541,4.890815],[6.271739,4.879991],[6.270518,4.87169],[6.270518,4.844102],[6.266287,4.828437],[6.246837,4.797227],[6.242605,4.78266],[6.245046,4.764472],[6.255382,4.73253],[6.256847,4.7178],[6.251882,4.70128],[6.234386,4.681667],[6.228933,4.669989],[6.229503,4.654364],[6.240001,4.620673],[6.242605,4.604519],[6.247569,4.592841],[6.256765,4.579861],[6.261485,4.565497],[6.247244,4.539415],[6.236339,4.498074]],[[6.257009,4.949774],[6.245372,4.946845],[6.239431,4.938422],[6.234386,4.929267],[6.222667,4.923204],[6.22169,4.929877],[6.216563,4.940375],[6.211111,4.941433],[6.202891,4.885932],[6.188487,4.880561],[6.168712,4.883816],[6.146983,4.875434],[6.144542,4.870795],[6.142996,4.859076],[6.14031,4.854315],[6.135753,4.851142],[6.130544,4.849066],[6.124034,4.847927],[6.115977,4.84748],[6.108653,4.842108],[6.084972,4.806505],[6.090099,4.799994],[6.098562,4.779242],[6.088145,4.779649],[6.081065,4.77794],[6.075938,4.773505],[6.0713,4.76557],[6.090343,4.755683],[6.095876,4.734402],[6.092459,4.686713],[6.094168,4.655097],[6.092459,4.642646],[6.087413,4.633897],[6.081554,4.626899],[6.081065,4.619167],[6.092459,4.607937],[6.084158,4.598171],[6.077403,4.583564],[6.073009,4.568386],[6.0713,4.556708],[6.067882,4.545762],[6.051931,4.517442],[6.04713,4.511746],[6.039806,4.50495],[6.044688,4.490302],[6.053233,4.476264],[6.057628,4.471381],[6.0595,4.456122],[6.058279,4.443793],[6.055431,4.419867]]]}},{"type":"Feature","properties":{"layerId":"waterways","kind":"waterways","id":"river-benue","name":"Benue River","waterwayClass":"major","neNames":"[\"Benue\",\"Bénoué\"]","type":"Major tributary","summary":"The Niger's largest tributary; enters from Cameroon and meets the Niger at Lokoja.","description":"The Benue drains the Cameroon highlands and the Nigerian Middle Belt. Seasonal floods fertilise yam and rice plains in Adamawa, Taraba, and Benue. Makurdi is the main urban crossing. The confluence at Lokoja is one of West Africa's great geographic landmarks.","lengthKm":1400,"sourceNote":"Adamawa Plateau, Cameroon","mouthNote":"Joins the Niger at Lokoja, Kogi State","tributaries":"[\"Gongola\",\"Katsina-Ala\",\"Donga\"]","statesCrossed":"[\"Adamawa\",\"Taraba\",\"Benue\",\"Nassarawa\",\"Kogi\"]","economy":"Irrigation, fisheries, sand mining, and a historic (now limited) inland waterway.","ecology":"Seasonal floodplains; hippo and fish habitats; erosion on sandy banks.","significance":"Agricultural belt, Makurdi bridge, confluence at Lokoja.","highlights":"[\"Largest Niger tributary\",\"Food Basket floodplains\",\"Lokoja confluence\"]","wikiUrl":"https://en.wikipedia.org/wiki/Benue_River","featureKind":"line"},"geometry":{"type":"LineString","coordinates":[[11.924083,9.490546],[11.907644,9.497178],[11.873057,9.505439],[11.819753,9.50906],[11.777029,9.506456],[11.736746,9.498562],[11.695486,9.476101],[11.666759,9.465359],[11.652843,9.456122],[11.626964,9.43476],[11.601573,9.41824],[11.42628,9.331488],[11.375662,9.294745],[11.345225,9.262397],[11.334158,9.25377],[11.301443,9.24494],[11.286388,9.236884],[11.28004,9.219997],[11.263357,9.19892],[11.224376,9.185981],[11.149832,9.17182],[11.086192,9.140733],[11.028575,9.09394],[10.979991,9.036444],[10.915782,8.916124],[10.905935,8.887071],[10.90211,8.85338],[10.892996,8.820624],[10.870046,8.792304],[10.841075,8.769599],[10.752615,8.719346],[10.733165,8.714789],[10.683604,8.719346],[10.650157,8.710761],[10.586436,8.67536],[10.553233,8.670966],[10.539968,8.676215],[10.513357,8.693874],[10.498709,8.698839],[10.479421,8.697821],[10.46282,8.690782],[10.432872,8.667833],[10.421886,8.666693],[10.390636,8.68122],[10.374522,8.685167],[10.357839,8.684434],[10.342214,8.681952],[10.327566,8.677558],[10.313731,8.670966],[10.284353,8.671576],[10.269542,8.639675],[10.257823,8.601386],[10.238292,8.582831],[10.221202,8.578681],[10.21046,8.56863],[10.188975,8.53795],[10.183523,8.521511],[10.177989,8.514757],[10.169688,8.51085],[10.141124,8.507107],[10.113292,8.496772],[10.112315,8.45661],[10.106456,8.445258],[10.095144,8.438341],[10.068126,8.433905],[10.055186,8.427924],[10.048025,8.419949],[10.043386,8.410264],[10.030284,8.364936],[10.021414,8.350775],[10.019705,8.345649],[10.012136,8.344346],[9.990408,8.334988],[9.980724,8.333075],[9.950613,8.331977],[9.91505,8.32335],[9.88087,8.308661],[9.859386,8.289862],[9.847097,8.272244],[9.827078,8.24372],[9.804128,8.226833],[9.784923,8.22248],[9.744884,8.223944],[9.725515,8.221747],[9.71754,8.218614],[9.710704,8.214179],[9.677745,8.185981],[9.654226,8.173122],[9.631847,8.164089],[9.624929,8.159939],[9.607107,8.14407],[9.600108,8.139838],[9.566905,8.129706],[9.559093,8.126044],[9.555105,8.123562],[9.552175,8.120876],[9.549978,8.117377],[9.547862,8.110541],[9.546072,8.107367],[9.538992,8.101345],[9.530772,8.097764],[9.432791,8.073798],[9.424327,8.070095],[9.420177,8.066718],[9.412771,8.059272],[9.407644,8.057074],[9.388194,8.041571],[9.367686,8.003282],[9.360281,7.993191],[9.35377,7.988471],[9.340261,7.984076],[9.333018,7.980089],[9.328054,7.973741],[9.322927,7.958075],[9.319347,7.952175],[9.307872,7.944688],[9.270925,7.938544],[9.223155,7.917426],[9.135671,7.890082],[9.099376,7.883897],[9.025808,7.883368],[8.989513,7.874538],[8.976736,7.866563],[8.966726,7.856309],[8.948904,7.832628],[8.917898,7.811591],[8.878917,7.803778],[8.799327,7.799018],[8.763194,7.788601],[8.659923,7.740668],[8.640147,7.735785],[8.619884,7.73371],[8.520518,7.73961],[8.50172,7.742987],[8.492117,7.747178],[8.465505,7.764431],[8.455577,7.7685],[8.410818,7.776435],[8.398611,7.780382],[8.38738,7.786485],[8.362478,7.805732],[8.316173,7.831081],[8.293386,7.855577],[8.264334,7.863959],[8.232188,7.867214],[8.200369,7.876573],[8.146983,7.904161],[8.119558,7.914171],[8.03533,7.928534],[8.018321,7.935126],[7.968272,7.964423],[7.933849,7.973741],[7.86321,7.982001],[7.828868,7.990017],[7.781179,8.006049],[7.716807,8.013129],[7.653331,8.028917],[7.636729,8.030097],[7.495128,8.016425],[7.319265,8.031684],[7.285818,8.028144],[7.083995,7.96015],[7.032725,7.929551],[7.031505,7.924018],[7.024343,7.920681],[7.005056,7.903591],[6.97047,7.882188],[6.860037,7.836208],[6.816173,7.829779],[6.801199,7.82392],[6.784434,7.813788],[6.771251,7.800645],[6.767263,7.785712]]}},{"type":"Feature","properties":{"layerId":"waterways","kind":"waterways","id":"river-cross","name":"Cross River","waterwayClass":"major","geometrySource":"manual","type":"Coastal / border river","summary":"Eastern river forming much of the Cameroon border before the Gulf of Guinea.","description":"The Cross (Oyono) drains rainforest of Cross River State and western Cameroon. It is associated with Cross River National Park, Calabar port access, and high freshwater biodiversity. Seasonal floods affect Ogoja–Ikom–Calabar corridors.","lengthKm":480,"sourceNote":"Cameroon highlands","mouthNote":"Cross River estuary near Calabar, Gulf of Guinea","statesCrossed":"[\"Cross River\",\"Akwa Ibom\"]","economy":"Port access, fisheries, timber hinterland, border trade.","ecology":"Rainforest, primates (including Cross River gorilla in the wider basin), estuary mangroves.","significance":"Rainforest ecology, Calabar port, international border.","highlights":"[\"Rainforest basin\",\"Calabar estuary\",\"Transboundary river\"]","wikiUrl":"https://en.wikipedia.org/wiki/Cross_River_(Nigeria)","featureKind":"line"},"geometry":{"type":"LineString","coordinates":[[9.35,6.25],[9.15,6.05],[8.95,5.85],[8.75,5.65],[8.55,5.45],[8.38,5.25],[8.22,5.05],[8.12,4.92],[8.05,4.85]]}},{"type":"Feature","properties":{"layerId":"waterways","kind":"waterways","id":"river-kaduna","name":"Kaduna River","waterwayClass":"tributary","neNames":"[\"Kaduna\"]","type":"Niger tributary","summary":"Major tributary of the Niger flowing through Kaduna and Niger states.","description":"The Kaduna (named from 'crocodile' in Hausa, Kada) gives Kaduna city its name. It joins the Niger in Niger State. Shiroro Dam is a major hydro station on the system.","lengthKm":550,"sourceNote":"Jos Plateau / north-central highlands","mouthNote":"Niger River in Niger State","statesCrossed":"[\"Kaduna\",\"Niger\",\"Kogi\"]","economy":"Hydropower (Shiroro), urban water, fisheries.","ecology":"Savanna river; seasonal flow variation.","significance":"Kaduna city namesake, Shiroro hydro, joins Niger.","highlights":"[\"Shiroro Dam\",\"City namesake\",\"Jos Plateau headwaters\"]","wikiUrl":"https://en.wikipedia.org/wiki/Kaduna_River","featureKind":"line"},"geometry":{"type":"LineString","coordinates":[[6.085623,10.490587],[6.058116,10.471381],[6.047862,10.458279],[6.042979,10.442084],[6.04005,10.401719],[6.049001,10.322292],[6.049001,10.301378],[6.045095,10.280829],[6.026378,10.220567],[6.023692,10.199734],[6.026052,10.138373],[6.024669,10.131456],[6.018809,10.118028],[6.017507,10.110907],[6.019298,10.106065],[6.023448,10.103217],[6.027354,10.09988],[6.028494,10.093533],[6.02296,10.079413],[6.003917,10.054267],[5.997569,10.039618],[5.997,10.027208],[5.999522,10.018012],[6.00294,10.009345],[6.005382,9.998481],[6.004161,9.985378],[5.996267,9.966132],[5.996755,9.952501],[5.991222,9.923407],[5.967784,9.904649],[5.915538,9.880072],[5.906179,9.861884],[5.904063,9.834784],[5.909841,9.729112],[5.906505,9.684678],[5.904552,9.6588],[5.905935,9.649237],[5.911794,9.640163],[5.923269,9.636094],[5.933279,9.640489],[5.941335,9.641954],[5.946788,9.628974],[5.947927,9.607774],[5.945323,9.585761],[5.931163,9.540351],[5.881358,9.433132],[5.87672,9.41413],[5.875499,9.353624],[5.812918,9.017524],[5.81544,8.991563],[5.827647,8.976508],[5.8449,8.964545],[5.86321,8.94831],[5.874197,8.927314],[5.87379,8.907294],[5.864757,8.887885],[5.76295,8.78559]]}},{"type":"Feature","properties":{"layerId":"waterways","kind":"waterways","id":"river-sokoto","name":"Sokoto River","waterwayClass":"tributary","neNames":"[\"Sokoto\"]","type":"Sahel river","summary":"Principal river of north-western Nigeria; feeds the Rima and Niger systems.","description":"The Sokoto–Rima basin is the agricultural heart of the far northwest. Seasonal flooding supports irrigation schemes and grazing. The Bakolori and Goronyo dams regulate parts of the system.","lengthKm":320,"sourceNote":"Northwestern uplands / Falgore–Rima headwaters","mouthNote":"Niger River via the Rima in Kebbi / Niger","statesCrossed":"[\"Sokoto\",\"Kebbi\",\"Zamfara\",\"Niger\"]","economy":"Irrigation (Bakolori, Goronyo), millet and rice, livestock.","ecology":"Sahel floodplain; drought-sensitive.","significance":"Sokoto basin irrigation, seasonal flooding, Hausa–Fulani heartland.","highlights":"[\"Bakolori irrigation\",\"Sahel floodplain\",\"Caliphate hinterland\"]","wikiUrl":"https://en.wikipedia.org/wiki/Sokoto_River","featureKind":"line"},"geometry":{"type":"LineString","coordinates":[[7.230479,11.585883],[7.153331,11.600857],[7.123546,11.613389],[7.044932,11.681464],[6.940684,11.752468],[6.896007,11.797471],[6.866954,11.844835],[6.819753,11.945868],[6.791921,11.991807],[6.739513,12.042589],[6.72462,12.061143],[6.720225,12.071112],[6.714041,12.092149],[6.708995,12.102322],[6.693044,12.121772],[6.619314,12.188422],[6.576671,12.238227],[6.559581,12.253282],[6.497732,12.278184],[6.406993,12.332099],[6.400401,12.340359],[6.391775,12.360175],[6.383556,12.367987],[6.372976,12.36994],[6.362804,12.368516],[6.35377,12.370144],[6.341563,12.390977],[6.334483,12.393622],[6.325938,12.393175],[6.31544,12.394232],[6.303722,12.399237],[6.289236,12.411811],[6.280935,12.416815],[6.258962,12.423651],[6.248953,12.428534],[6.240733,12.43712],[6.233572,12.449327],[6.212332,12.499945],[6.20753,12.504747],[6.198171,12.511542],[6.185802,12.516954],[6.174327,12.519558],[6.16448,12.524604],[6.14446,12.559638],[6.110037,12.591376],[6.095225,12.609931],[6.09254,12.619412],[6.091726,12.639716],[6.087169,12.649034],[6.073741,12.659003],[6.061941,12.659491],[6.050792,12.65766],[6.039724,12.660834],[5.997,12.687934],[5.975597,12.69363],[5.904796,12.692003],[5.879405,12.708604],[5.865245,12.739122],[5.841075,12.820014],[5.830007,12.835273],[5.793956,12.853339],[5.7824,12.869412],[5.772146,12.887763],[5.725108,12.938015],[5.708995,12.950792],[5.639822,12.974229],[5.622569,12.987494],[5.549001,13.083767],[5.512218,13.10163],[5.462169,13.093329],[5.428233,13.08157],[5.316091,13.063829],[5.278819,13.065619],[5.214285,13.085557],[5.185232,13.084093],[5.156423,13.074897],[5.129324,13.059597],[5.100515,13.030626],[5.086599,13.023546],[5.024425,13.009833],[4.961436,13.007758],[4.835623,13.025092],[4.814708,13.03502],[4.796886,13.04914],[4.776622,13.058051],[4.748953,13.052314],[4.731944,13.03974],[4.715099,13.020087],[4.701589,12.997667],[4.686209,12.952216],[4.656993,12.918402],[4.645763,12.898464],[4.627371,12.85578],[4.601817,12.816352],[4.569591,12.782823],[4.483328,12.726426],[4.420421,12.667996],[4.372488,12.63585],[4.352061,12.615343],[4.32252,12.577582],[4.284679,12.543728],[4.257498,12.529324],[4.163259,12.505642],[4.118337,12.485907],[4.071462,12.457709],[4.029959,12.422919],[4.00115,12.383246],[3.994884,12.362087],[3.994395,12.320746],[3.98699,12.274237],[3.990408,12.258083],[4.009776,12.223985],[4.013194,12.214667],[4.015554,12.20543],[4.016531,12.195746],[4.016287,12.185248],[4.014822,12.180243],[4.009695,12.169786],[4.008474,12.165798],[4.009532,12.15705],[4.12615,11.856228],[4.142263,11.771918],[4.153005,11.751654],[4.155935,11.741278],[4.152354,11.722195],[4.138194,11.679145],[4.140391,11.656684],[4.145763,11.647895],[4.167735,11.623114],[4.180837,11.592597],[4.186778,11.58279],[4.228526,11.544989],[4.242198,11.525336],[4.239431,11.500515],[4.226248,11.483913],[4.190359,11.460476],[4.174083,11.446601],[4.122325,11.386501]]}},{"type":"Feature","properties":{"layerId":"waterways","kind":"waterways","id":"waterway-gongola","name":"Gongola River","waterwayClass":"tributary","neNames":"[\"Gongola\"]","type":"Benue tributary","summary":"Major Benue tributary draining the Bauchi–Gombe plateau and Adamawa foothills.","description":"The Gongola flows through northeastern Nigeria before joining the Benue. Its basin supports rice, sorghum, and livestock in a savanna–Sahel transition zone. Seasonal floods shape farming calendars in Gombe and Adamawa.","statesCrossed":"[\"Bauchi\",\"Gombe\",\"Adamawa\"]","economy":"Irrigation, rice, livestock, sand mining.","ecology":"Savanna floodplain; seasonal wetlands.","significance":"Benue feeder, northeastern agricultural belt.","highlights":"[\"Benue tributary\",\"Gombe basin\"]","wikiUrl":"https://en.wikipedia.org/wiki/Gongola_River","featureKind":"line"},"geometry":{"type":"LineString","coordinates":[[9.117198,9.722683],[9.130382,9.739285],[9.153331,9.757392],[9.178966,9.771999],[9.200206,9.777859],[9.29835,9.773383],[9.328136,9.776679],[9.350271,9.785997],[9.357921,9.799587],[9.359874,9.817654],[9.365001,9.840684],[9.381033,9.864814],[9.401541,9.871609],[9.457449,9.868028],[9.519949,9.874783],[9.533621,9.874783],[9.560232,9.869574],[9.573985,9.868679],[9.655447,9.882758],[9.695811,9.895941],[9.753917,9.922065],[9.856944,9.946234],[9.919444,9.952582],[9.945242,9.962958],[9.953624,9.97073],[9.968923,9.989691],[9.979015,9.997829],[10.011485,10.0185],[10.020437,10.026231],[10.033376,10.044542],[10.0595,10.105658],[10.082693,10.143378],[10.115164,10.226671],[10.128673,10.242051],[10.169688,10.252631],[10.209483,10.29088],[10.229666,10.306098],[10.241954,10.310329],[10.267263,10.315131],[10.279714,10.318956],[10.294932,10.327094],[10.388357,10.390692],[10.408214,10.4088],[10.424815,10.432888],[10.433849,10.452216],[10.438894,10.469306],[10.460216,10.591091],[10.486746,10.669867],[10.511974,10.71369],[10.689952,10.932156],[10.830821,11.030463],[10.870291,11.050849],[10.912527,11.065294],[10.979747,11.077704],[10.99879,11.07864],[11.017589,11.077338],[11.050466,11.070421],[11.059093,11.067654],[11.068126,11.065945],[11.080089,11.06627],[11.08782,11.068468],[11.10255,11.07628],[11.110118,11.078803],[11.117361,11.078315],[11.130056,11.073106],[11.136974,11.072862],[11.266368,11.111518],[11.314952,11.112657],[11.368419,11.100206],[11.41212,11.07628],[11.450125,11.042344],[11.486501,10.999945],[11.511648,10.961453],[11.525645,10.923163],[11.535411,10.836859],[11.532237,10.797675],[11.514659,10.720771],[11.512462,10.681912],[11.522146,10.559149],[11.51588,10.519314],[11.506277,10.497341],[11.482432,10.462673],[11.475515,10.440985],[11.468272,10.3463],[11.474376,10.325873],[11.488455,10.309678],[11.510916,10.297187],[11.564871,10.280341],[11.584158,10.269232],[11.628347,10.212673],[11.645925,10.199774],[11.667491,10.192694],[11.694509,10.197211],[11.742361,10.227729],[11.76824,10.233181],[11.790457,10.223415],[11.802257,10.203803],[11.807058,10.179714],[11.807546,10.156521],[11.800466,10.115098],[11.800466,10.097276],[11.809581,10.07685],[11.82781,10.058295],[11.850759,10.045722],[11.902517,10.031195],[11.934337,10.029486],[11.959239,10.031562],[11.976085,10.025173],[11.98463,9.998358],[12.014415,9.759955],[12.010753,9.707221],[12.014822,9.689724],[12.025645,9.675645],[12.06129,9.655829],[12.066417,9.641872],[12.024669,9.463935]]}},{"type":"Feature","properties":{"layerId":"waterways","kind":"waterways","id":"waterway-ogun","name":"Ogun River","waterwayClass":"tributary","neNames":"[\"Ogun\"]","type":"Coastal river","summary":"Southwestern river flowing through Ogun State toward the Lagos Lagoon.","description":"The Ogun drains Yoruba highlands and feeds the Lagos Lagoon system with the Osun. It supports Abeokuta's water supply, quarrying, and peri-urban agriculture along its banks.","statesCrossed":"[\"Ogun\",\"Lagos\"]","economy":"Urban water, quarrying, agriculture, lagoon fisheries.","ecology":"Forest–savanna transition; urban pollution pressure downstream.","significance":"Abeokuta water source, Lagos Lagoon feeder.","highlights":"[\"Southwest drainage\",\"Lagos Lagoon system\"]","wikiUrl":"https://en.wikipedia.org/wiki/Ogun_River","featureKind":"line"},"geometry":{"type":"LineString","coordinates":[[3.491873,8.76907],[3.497732,8.765001],[3.503103,8.764838],[3.50823,8.765489],[3.512869,8.763983],[3.537364,8.74079],[3.574962,8.687201],[3.591482,8.670925],[3.67335,8.627794],[3.699718,8.604519],[3.7553,8.526475],[3.784923,8.480251],[3.791677,8.463975],[3.792491,8.454047],[3.787852,8.432807],[3.787283,8.421983],[3.801036,8.353217],[3.802664,8.328233],[3.79713,8.291083],[3.787852,8.254462],[3.771251,8.214545],[3.749522,8.176703],[3.732351,8.137722],[3.729991,8.094265],[3.742117,7.999783],[3.739757,7.97248],[3.724864,7.936591],[3.726736,7.851874],[3.730235,7.835313],[3.750743,7.801296],[3.754893,7.790147],[3.755789,7.774482],[3.751394,7.772284],[3.741873,7.774482],[3.727794,7.772244],[3.714854,7.764757],[3.593028,7.659613],[3.573171,7.620714],[3.571544,7.597927],[3.577403,7.580105],[3.584972,7.56391],[3.588308,7.546088],[3.582286,7.515733],[3.569021,7.488349],[3.550304,7.463731],[3.528494,7.441962],[3.471202,7.405219],[3.457774,7.392157],[3.427419,7.346869],[3.398448,7.321885],[3.362966,7.301581],[3.333995,7.278022],[3.32488,7.243516],[3.329356,7.226833],[3.342459,7.195014],[3.344493,7.177069],[3.338796,7.154649],[3.318777,7.112738],[3.316335,7.090033],[3.324474,7.065375],[3.335623,7.048855],[3.341563,7.031562],[3.334239,7.004462],[3.31422,6.966986],[3.312755,6.949001],[3.324148,6.927924],[3.364513,6.899848],[3.38087,6.880968],[3.379324,6.855292],[3.373953,6.84044],[3.366466,6.797675],[3.364919,6.797919],[3.354259,6.785183],[3.351003,6.779975],[3.349132,6.771755],[3.348318,6.751817],[3.346853,6.742703],[3.348399,6.731391],[3.355886,6.718085],[3.374522,6.693956],[3.380138,6.682237],[3.385997,6.642198],[3.398123,6.619412],[3.414317,6.608832],[3.434825,6.602118],[3.459646,6.590603]]}},{"type":"Feature","properties":{"layerId":"waterways","kind":"waterways","id":"waterway-hadejia","name":"Hadejia River","waterwayClass":"tributary","neNames":"[\"Hadejia\"]","type":"Sahel floodplain river","summary":"Northeastern river feeding the Hadejia–Nguru wetlands and Komadugu Yobe system.","description":"The Hadejia is central to one of Nigeria's largest seasonal wetland complexes. Flood recession farming and fishing depend on its pulse. Upstream dams and climate change have altered flow regimes.","statesCrossed":"[\"Jigawa\",\"Yobe\",\"Bauchi\",\"Kano\"]","economy":"Flood-recession farming, fishing, pastoralism.","ecology":"Seasonal wetlands; bird habitat; drought sensitivity.","significance":"Hadejia–Nguru wetlands, Sahel agriculture.","highlights":"[\"Wetland complex\",\"Seasonal floods\"]","wikiUrl":"https://en.wikipedia.org/wiki/Hadejia_River","featureKind":"line"},"geometry":{"type":"LineString","coordinates":[[7.493093,11.540839],[7.572032,11.558214],[7.59669,11.554307],[7.622244,11.544379],[7.642507,11.552558],[7.661306,11.565456],[7.683604,11.573594],[7.705577,11.577745],[7.738455,11.595282],[7.772227,11.613837],[7.805675,11.620307],[7.843272,11.630398],[7.92156,11.641791],[8.000011,11.64997],[8.011729,11.689643],[8.030528,11.724962],[8.053966,11.72956],[8.0796,11.727729],[8.094249,11.738715],[8.11085,11.752712],[8.15089,11.775092],[8.194509,11.788886],[8.236746,11.784491],[8.277761,11.788886],[8.290457,11.802843],[8.3095,11.815212],[8.324962,11.828437],[8.341726,11.844428],[8.371593,11.872667],[8.405284,11.898546],[8.441173,11.886786],[8.480398,11.868272],[8.518321,11.848415],[8.550059,11.822211],[8.584646,11.805365],[8.613943,11.783311],[8.628591,11.747138],[8.655528,11.722235],[8.684093,11.738471],[8.714854,11.755561],[8.763113,11.753241],[8.80836,11.763861],[8.830251,11.784003],[8.855642,11.797187],[8.882091,11.808132],[8.888927,11.836127],[8.883962,11.920762],[8.905528,12.000027],[8.921316,12.038764],[8.955333,12.067898],[8.997488,12.071885],[9.044444,12.066677],[9.058849,12.072577],[9.072276,12.077745],[9.09669,12.073757],[9.122244,12.072211],[9.154714,12.089789],[9.188975,12.094428],[9.211843,12.096951],[9.216563,12.122178],[9.250011,12.137397],[9.286143,12.14997],[9.303884,12.152777],[9.322276,12.155544],[9.343272,12.16352],[9.361095,12.177761],[9.397227,12.18476],[9.427745,12.172187],[9.431407,12.193061],[9.438894,12.211046],[9.449474,12.204657],[9.461111,12.194403],[9.472179,12.202582],[9.483328,12.211046],[9.495779,12.202582],[9.505544,12.194403],[9.530528,12.205268],[9.555593,12.21662],[9.559011,12.211005],[9.566661,12.205593],[9.580496,12.214301],[9.590994,12.229031],[9.610525,12.241563],[9.633311,12.250027],[9.666759,12.261257],[9.701182,12.280463],[9.719168,12.298855],[9.738943,12.311103],[9.760509,12.302314],[9.779714,12.300238],[9.806082,12.309597],[9.830577,12.311103],[9.835867,12.31863],[9.838878,12.327745],[9.856456,12.328152],[9.872244,12.333319],[9.892751,12.344997],[9.916677,12.355536],[9.91741,12.36168],[9.919444,12.369452],[9.931163,12.369981],[9.944509,12.372178],[9.961355,12.389838],[9.977794,12.405544],[9.986583,12.404079],[10.000011,12.416612],[10.028738,12.427802],[10.055593,12.427802],[10.080251,12.439399],[10.100027,12.452745],[10.135997,12.479071],[10.175059,12.502753],[10.199962,12.513251],[10.223399,12.528998],[10.239431,12.5303],[10.255544,12.527777],[10.261729,12.535956],[10.267833,12.544216],[10.279063,12.548407],[10.288829,12.549994],[10.296316,12.567572],[10.305593,12.583319],[10.309581,12.579901],[10.316661,12.577745],[10.322765,12.581855],[10.329031,12.586005],[10.337413,12.584744],[10.344412,12.577745],[10.36964,12.576687],[10.395681,12.586249],[10.421397,12.586859],[10.449962,12.588894],[10.455496,12.602078],[10.461111,12.616645],[10.47991,12.628038],[10.500011,12.638861],[10.527273,12.65705],[10.555349,12.670762],[10.5678,12.675116],[10.580577,12.677761],[10.592296,12.686103],[10.600027,12.699978],[10.617198,12.707628],[10.633311,12.716661],[10.641124,12.732856],[10.649913,12.749945],[10.677419,12.761542],[10.70574,12.757025],[10.740652,12.767198],[10.777761,12.772162]]}},{"type":"Feature","properties":{"layerId":"waterways","kind":"waterways","id":"waterway-komadugu-yobe","name":"Komadugu Yobe","waterwayClass":"tributary","neNames":"[\"Komadugu Yobe\"]","type":"Endorheic river system","summary":"Northeastern river system flowing toward Lake Chad via the Hadejia–Nguru wetlands.","description":"The Komadugu Yobe (Yobe River) drains the Chad basin fringe of Nigeria. It connects to seasonal channels toward Lake Chad and supports transhumance corridors in Borno and Yobe.","statesCrossed":"[\"Yobe\",\"Borno\",\"Jigawa\"]","economy":"Pastoralism, recession farming, cross-border trade toward Chad.","ecology":"Sahel channels; Lake Chad basin dependency.","significance":"Lake Chad feeder system, Sahel livelihoods.","highlights":"[\"Chad basin\",\"Seasonal channels\"]","wikiUrl":"https://en.wikipedia.org/wiki/Yobe_River","featureKind":"line"},"geometry":{"type":"LineString","coordinates":[[10.728526,12.746772],[10.752615,12.756293],[10.800548,12.79088],[10.80714,12.80036],[10.861827,12.831407],[10.880789,12.828152],[10.90325,12.821234],[10.92213,12.820258],[10.929942,12.834825],[10.940196,12.842353],[10.963796,12.853583],[10.990977,12.861436],[11.011974,12.85871],[11.020437,12.871365],[11.028331,12.86994],[11.037283,12.862982],[11.049815,12.85871],[11.063487,12.861436],[11.0713,12.865994],[11.0796,12.866889],[11.094493,12.85871],[11.109304,12.871283],[11.13738,12.873318],[11.238048,12.85281],[11.245372,12.848497],[11.252208,12.834662],[11.267751,12.82746],[11.284109,12.824815],[11.293712,12.824571],[11.322683,12.834052],[11.336681,12.849392],[11.347911,12.857489],[11.411876,12.817654],[11.436534,12.811876],[11.44337,12.831407],[11.455089,12.823798],[11.468923,12.817247],[11.484793,12.812608],[11.501964,12.810899],[11.506358,12.813992],[11.52589,12.831407],[11.528575,12.835069],[11.528575,12.838202],[11.529307,12.841335],[11.533946,12.845079],[11.547048,12.851874],[11.557058,12.849229],[11.604747,12.851874],[11.614675,12.849718],[11.619884,12.845079],[11.622732,12.840399],[11.625499,12.838202],[11.634939,12.839301],[11.652273,12.84394],[11.674327,12.847195],[11.692393,12.856513],[11.704031,12.85871],[11.712901,12.856024],[11.732921,12.852607],[11.748709,12.855658],[11.745616,12.872382],[11.748953,12.873114],[11.750987,12.873155],[11.752126,12.874457],[11.751882,12.878607],[11.771658,12.871772],[11.788015,12.876817],[11.80364,12.886339],[11.8213,12.89289],[11.82252,12.883816],[11.82488,12.880561],[11.828868,12.878363],[11.834972,12.872382],[11.855398,12.893907],[11.869558,12.901638],[11.875987,12.889472],[11.880544,12.873114],[11.891043,12.879584],[11.910167,12.906521],[11.903738,12.909776],[11.899425,12.914089],[11.889659,12.927029],[11.909353,12.957099],[11.92213,12.969916],[11.937429,12.974799],[11.933604,12.984687],[11.931163,12.988471],[11.939464,12.995632],[11.951101,13.002753],[11.97755,12.99018],[11.985281,12.988471],[11.997081,12.992458],[12.00294,12.998847],[12.006765,13.005439],[12.012462,13.009548],[12.02239,13.008979],[12.030284,13.004014],[12.036306,12.998358],[12.040457,12.995917],[12.051768,12.997341],[12.059093,12.999783],[12.060232,13.005439],[12.053477,13.016384],[12.059581,13.021999],[12.067149,13.026719],[12.076589,13.029568],[12.088145,13.029405],[12.081716,13.044135],[12.086843,13.054999],[12.108816,13.07099],[12.113943,13.078681],[12.115001,13.085476],[12.117198,13.090277],[12.125743,13.092108],[12.134532,13.092312],[12.140636,13.093695],[12.145274,13.097764],[12.149099,13.10578],[12.163259,13.108181],[12.184255,13.12226],[12.200938,13.125596],[12.251231,13.108181],[12.262706,13.102078],[12.266531,13.095323],[12.266856,13.089789],[12.268728,13.086046],[12.276622,13.084662],[12.280284,13.087022],[12.284679,13.092231],[12.291026,13.097032],[12.300466,13.098334],[12.310476,13.0928],[12.317882,13.084052],[12.325206,13.078966],[12.334727,13.084662],[12.351003,13.080024],[12.413748,13.077826],[12.436697,13.074164],[12.455821,13.067572],[12.472179,13.064399],[12.486095,13.07099],[12.490652,13.08279],[12.499197,13.136176],[12.503917,13.139838],[12.526378,13.143826],[12.533865,13.146064],[12.542003,13.154975],[12.547374,13.165595],[12.553722,13.18769],[12.537771,13.193549],[12.544607,13.20836],[12.557791,13.226671],[12.560557,13.242947],[12.596934,13.276679],[12.602224,13.280137],[12.605479,13.274441],[12.612722,13.276679],[12.61964,13.281602],[12.626394,13.288438],[12.628184,13.294379],[12.629405,13.310614],[12.640147,13.302558],[12.648692,13.293809],[12.658702,13.286729],[12.673839,13.283881],[12.682628,13.28913],[12.689464,13.312201],[12.701182,13.31741],[12.723806,13.322537],[12.740245,13.335028],[12.766124,13.365831],[12.772716,13.382432],[12.774181,13.38288],[12.776866,13.386908],[12.782725,13.382514],[12.788341,13.375678],[12.790538,13.372016],[12.804617,13.373155],[12.80421,13.377021],[12.797862,13.384467],[12.793956,13.396267],[12.796804,13.399848],[12.810069,13.404486],[12.814464,13.406806],[12.817068,13.407497],[12.825857,13.406195],[12.828787,13.406806],[12.829519,13.409532],[12.828054,13.41767],[12.828787,13.420478],[12.856456,13.450873],[12.86964,13.461371],[12.863292,13.469428],[12.856944,13.475531],[12.850027,13.47956],[12.841726,13.481879],[12.841726,13.489325],[12.857188,13.485053],[12.870046,13.479071],[12.879161,13.479844],[12.883311,13.496161],[12.911143,13.490098],[12.938731,13.495225],[13.028738,13.539374],[13.054373,13.548611],[13.08196,13.550808],[13.08196,13.544623],[13.076345,13.534857],[13.087657,13.530788],[13.106456,13.531765],[13.122976,13.537136],[13.123302,13.533637],[13.122976,13.522895],[13.130544,13.530056],[13.13795,13.546698],[13.143484,13.550808],[13.153087,13.548936],[13.155447,13.540961],[13.153087,13.53087],[13.149669,13.522895],[13.176443,13.534695],[13.20338,13.539578],[13.22755,13.548163],[13.24586,13.571234],[13.231619,13.573065],[13.229503,13.577948],[13.239024,13.591742],[13.243419,13.593451],[13.250255,13.592882],[13.256765,13.594428],[13.259532,13.602322],[13.258067,13.607978],[13.253103,13.615058],[13.253347,13.619086],[13.258718,13.629096],[13.265636,13.638251],[13.305431,13.674872],[13.320567,13.685329]]}},{"type":"Feature","properties":{"layerId":"waterways","kind":"waterways","id":"river-imo","name":"Imo River","waterwayClass":"tributary","geometrySource":"manual","type":"Southeastern river","summary":"Major river of the southeast flowing through Imo toward Rivers State and the delta.","description":"The Imo drains the rain-fed southeast and feeds delta creeks. It is important for oil-palm landscapes, local fisheries, and as a cultural boundary river among Igbo communities.","lengthKm":240,"sourceNote":"Uplands of Imo / Abia hinterland","mouthNote":"Atlantic via Niger Delta creeks","statesCrossed":"[\"Imo\",\"Abia\",\"Rivers\"]","economy":"Oil palm, fisheries, sand, local transport.","ecology":"Freshwater swamp and delta transition.","significance":"Oil palm belt, local fisheries, delta tributary.","highlights":"[\"Southeast drainage\",\"Palm belt river\"]","wikiUrl":"https://en.wikipedia.org/wiki/Imo_River","featureKind":"line"},"geometry":{"type":"LineString","coordinates":[[7.35,5.95],[7.22,5.75],[7.08,5.55],[6.95,5.35],[6.82,5.15],[6.72,4.98],[6.65,4.88]]}},{"type":"Feature","properties":{"layerId":"waterways","kind":"waterways","id":"river-oshun","name":"Osun River","waterwayClass":"tributary","geometrySource":"manual","type":"Sacred / cultural river","summary":"Sacred Yoruba river flowing through Osun State toward the Lagos lagoon system.","description":"The Osun is central to Yoruba cosmology (Ọṣun). The Osun-Osogbo Sacred Grove on its banks is a UNESCO World Heritage Site. Hydrologically it is part of the Ogun–Osun drainage toward the Lagos Lagoon.","lengthKm":320,"sourceNote":"Yoruba uplands (Ekiti–Osun)","mouthNote":"Lekki / Lagos Lagoon system","statesCrossed":"[\"Osun\",\"Ogun\",\"Lagos\"]","economy":"Water supply, tourism/festival economy, peri-urban agriculture.","ecology":"Sacred grove forest remnant; urban pressure downstream.","significance":"Osun-Osogbo heritage, Osogbo festival, Lagos water supply.","highlights":"[\"UNESCO Sacred Grove\",\"Yoruba goddess river\",\"Festival tourism\"]","wikiUrl":"https://en.wikipedia.org/wiki/Osun_River","featureKind":"line"},"geometry":{"type":"LineString","coordinates":[[4.65,7.85],[4.52,7.55],[4.38,7.25],[4.22,6.95],[4.05,6.65],[3.88,6.38],[3.72,6.18],[3.55,6.02]]}},{"type":"Feature","properties":{"layerId":"waterways","kind":"waterways","id":"waterway-anambra","name":"Anambra River","waterwayClass":"tributary","geometrySource":"manual","type":"Niger tributary","summary":"Important Niger tributary draining Anambra and Enugu states into the main stem.","description":"The Anambra (Omambala) is a key southeastern tributary of the Niger. Its floodplains support yam and rice farming and local fisheries. Onitsha sits at its confluence zone with the Niger.","statesCrossed":"[\"Anambra\",\"Enugu\",\"Kogi\"]","economy":"Agriculture, fisheries, sand mining.","ecology":"Freshwater swamp forest; seasonal flooding.","significance":"Onitsha hinterland, Niger feeder.","highlights":"[\"Omambala basin\",\"Onitsha approaches\"]","wikiUrl":"https://en.wikipedia.org/wiki/Anambra_River","featureKind":"line"},"geometry":{"type":"LineString","coordinates":[[7.15,6.55],[7.05,6.42],[6.92,6.28],[6.78,6.15],[6.62,6.05],[6.48,5.95],[6.38,5.88],[6.32,5.82]]}},{"type":"Feature","properties":{"layerId":"waterways","kind":"waterways","id":"creek-nun","name":"Nun River","waterwayClass":"delta","geometrySource":"manual","type":"Niger Delta distributary","summary":"Major Niger distributary carrying a large share of Niger flow to the Atlantic through Bayelsa.","description":"The Nun is one of the Niger's primary delta outlets. It is lined with oil infrastructure, riverine settlements, and mangrove. Navigation and pipeline corridors follow its banks. Seasonal flooding shapes Ijaw livelihoods.","statesCrossed":"[\"Bayelsa\",\"Delta\"]","economy":"Oil logistics, river transport, artisanal fishing.","ecology":"Mangrove and freshwater swamp; oil-spill exposure.","significance":"Main Niger outlet branch, oil corridor, Ijaw riverine heartland.","highlights":"[\"Primary Niger outlet\",\"Bayelsa spine waterway\"]","wikiUrl":"https://en.wikipedia.org/wiki/Nun_River","featureKind":"line"},"geometry":{"type":"LineString","coordinates":[[6.45,5.52],[6.38,5.35],[6.28,5.15],[6.15,4.98],[6.02,4.82],[5.88,4.68],[5.75,4.55],[5.62,4.45]]}},{"type":"Feature","properties":{"layerId":"waterways","kind":"waterways","id":"creek-forcados","name":"Forcados River","waterwayClass":"delta","geometrySource":"manual","type":"Delta waterway / export channel","summary":"Western delta channel serving historic Forcados oil terminal and navigation.","description":"Forcados was a Royal Niger Company and later oil-export anchorage. The river remains a pipeline and terminal access route in Delta State, with mixed fishing and oil-service traffic.","statesCrossed":"[\"Delta\"]","economy":"Crude export logistics, fishing, bunkering-risk waterway.","ecology":"Mangrove creeks; industrial shoreline.","significance":"Forcados oil terminal, pipeline hub, colonial-era ocean outlet.","highlights":"[\"Historic ocean outlet\",\"Oil terminal access\"]","wikiUrl":"https://en.wikipedia.org/wiki/Forcados_River","featureKind":"line"},"geometry":{"type":"LineString","coordinates":[[5.55,5.35],[5.42,5.18],[5.28,5.02],[5.12,4.88],[4.95,4.78],[4.78,4.68],[4.62,4.58]]}},{"type":"Feature","properties":{"layerId":"waterways","kind":"waterways","id":"creek-escravos","name":"Escravos River","waterwayClass":"delta","geometrySource":"manual","type":"Gas and oil channel","summary":"Delta channel serving Warri and the Escravos gas-to-liquids / terminal complex.","description":"Escravos ('slaves' in Portuguese, a colonial toponym) is now synonymous with Chevron and gas infrastructure. The waterway links Warri's industrial waterfront to the Bight of Benin.","statesCrossed":"[\"Delta\"]","economy":"Gas-to-liquids, terminals, Warri port access.","ecology":"Industrial mangrove; dredged channels.","significance":"Escravos GTL, Warri access, western delta energy corridor.","highlights":"[\"GTL complex\",\"Warri–ocean link\"]","wikiUrl":"https://en.wikipedia.org/wiki/Escravos_River","featureKind":"line"},"geometry":{"type":"LineString","coordinates":[[5.72,5.48],[5.58,5.32],[5.45,5.15],[5.32,4.98],[5.18,4.82],[5.05,4.68]]}},{"type":"Feature","properties":{"layerId":"waterways","kind":"waterways","id":"creek-bonny","name":"Bonny River","waterwayClass":"delta","geometrySource":"manual","type":"Deep-water LNG / port channel","summary":"Deep channel to Port Harcourt and Bonny Island LNG and oil terminals.","description":"The Bonny estuary is Nigeria's premier LNG (NLNG) and a historic Ibani (Bonny) kingdom waterway. Large tankers and LNG carriers use dredged channels. Port Harcourt's port sits upriver.","statesCrossed":"[\"Rivers\"]","economy":"LNG, crude export, Port Harcourt harbour, oil services.","ecology":"Estuarine mangrove; heavy shipping.","significance":"NLNG Bonny Island, PH port, eastern export gateway.","highlights":"[\"NLNG access\",\"Deep-water harbour\",\"Ibani kingdom waters\"]","wikiUrl":"https://en.wikipedia.org/wiki/Bonny_River","featureKind":"line"},"geometry":{"type":"LineString","coordinates":[[6.95,4.92],[6.82,4.78],[6.68,4.62],[6.55,4.48],[6.42,4.38],[6.28,4.32]]}},{"type":"Feature","properties":{"layerId":"waterways","kind":"waterways","id":"creek-new-calabar","name":"New Calabar River","waterwayClass":"delta","geometrySource":"manual","type":"Coastal creek","summary":"Creek system west of Port Harcourt used for fisheries and peri-urban waterways.","description":"The New Calabar (Kalabari) river system serves Kalabari communities and PH's western waterfront. It is important for artisanal fishing and local transport rather than deep-sea export.","statesCrossed":"[\"Rivers\"]","economy":"Fisheries, local boats, peri-urban settlement.","ecology":"Mangrove; urban encroachment.","significance":"Kalabari waterways, PH western creeks.","highlights":"[\"Kalabari creeks\",\"Artisanal fisheries\"]","wikiUrl":"https://en.wikipedia.org/wiki/New_Calabar_River","featureKind":"line"},"geometry":{"type":"LineString","coordinates":[[6.88,4.88],[6.78,4.78],[6.68,4.68],[6.58,4.58],[6.48,4.52]]}},{"type":"Feature","properties":{"layerId":"waterways","kind":"waterways","id":"army-1-division","name":"1 Division (Kaduna)","waterwayClass":"military","militaryBranch":"army","militaryCategory":"army-division","type":"Nigerian Army division / brigade-level formation","summary":"Headquarters in Kaduna; area of responsibility covers the northwest and parts of the north-central belt.","description":"The 1 Division is one of the Nigerian Army's oldest fighting formations. Based in Kaduna, its AOR traditionally covers the northwest states and adjoining north-central areas, including internal security deployments and border defence along the Niger frontier.","lon":7.495,"lat":10.56,"stateName":"Kaduna","stateId":"NG-KD","nickname":"Northwest Command","founded":"1960s (post-independence restructuring)","coversStates":"[\"Kaduna\",\"Kano\",\"Jigawa\",\"Katsina\",\"Sokoto\",\"Zamfara\",\"Kebbi\",\"Niger\"]","economy":"Defence garrison, barracks infrastructure, and military logistics hub.","climate":"Guinea savanna with distinct harmattan season.","landmarks":"[\"1 Division Hqs, Kaduna\",\"Kaduna cantonments\",\"Nigerian Defence Academy nearby\"]","highlights":"[\"Kaduna-based Division\",\"NW + Niger AOR\",\"Historic infantry formation\"]","wikiUrl":"https://en.wikipedia.org/wiki/Nigerian_Army","featureKind":"point"},"geometry":{"type":"Point","coordinates":[7.495,10.56]}},{"type":"Feature","properties":{"layerId":"waterways","kind":"waterways","id":"army-2-division","name":"2 Division (Ibadan)","waterwayClass":"military","militaryBranch":"army","militaryCategory":"army-division","type":"Nigerian Army division / brigade-level formation","summary":"Headquarters at Ibadan; responsible for the southwest geo-political zone and Kwara.","description":"The 2 Division is the Nigerian Army's southwest-facing formation. Its area of responsibility spans the six southwest states plus Kwara, supporting internal security, border patrols with Benin, and national rapid-reaction tasking from Army HQ.","lon":3.9,"lat":7.4,"stateName":"Oyo","stateId":"NG-OY","nickname":"Southwest Command","founded":"1970s reorganisation after the civil war","coversStates":"[\"Oyo\",\"Ogun\",\"Osun\",\"Ekiti\",\"Ondo\",\"Lagos\",\"Kwara\"]","economy":"Defence garrison and cantonment services for the southwest region.","climate":"Tropical wet-and-dry; rainforest–savanna transition.","landmarks":"[\"2 Division Hqs, Ibadan\",\"Dodan Barracks links\",\"Southwest cantonments\"]","highlights":"[\"Ibadan-based Division\",\"SW + Kwara AOR\",\"Benin border flank\"]","wikiUrl":"https://en.wikipedia.org/wiki/Nigerian_Army","featureKind":"point"},"geometry":{"type":"Point","coordinates":[3.9,7.4]}},{"type":"Feature","properties":{"layerId":"waterways","kind":"waterways","id":"army-3-division","name":"3 Division (Jos)","waterwayClass":"military","militaryBranch":"army","militaryCategory":"army-division","type":"Nigerian Army division / brigade-level formation","summary":"Headquarters near Jos; covers the north-central plateau and parts of the northeast interior.","description":"3 Division operates from the Jos Plateau, with brigades and forward operating bases extending across Plateau, Nasarawa, Benue, and parts of the northeast corridor. It has historically been engaged in plateau crisis management and Middle Belt internal security.","lon":8.945,"lat":9.99,"stateName":"Plateau","stateId":"NG-PL","nickname":"North-Central & Northeast Command","founded":"Post-civil-war ground forces restructure","coversStates":"[\"Plateau\",\"Nasarawa\",\"Benue\",\"Bauchi\",\"Gombe\",\"Taraba\",\"Adamawa\"]","economy":"Defence cantonments, peace-support logistics, and Middle Belt garrison network.","climate":"Highland climate on the Jos Plateau; warmer southern sectors.","landmarks":"[\"3 Division Hqs, Jos\",\"Plateau barracks\",\"Benue valley deployments\"]","highlights":"[\"Jos-based Division\",\"Middle Belt AOR\",\"Plateau crisis deployments\"]","wikiUrl":"https://en.wikipedia.org/wiki/Nigerian_Army","featureKind":"point"},"geometry":{"type":"Point","coordinates":[8.945,9.99]}},{"type":"Feature","properties":{"layerId":"waterways","kind":"waterways","id":"army-6-division","name":"6 Division (Port Harcourt)","waterwayClass":"military","militaryBranch":"army","militaryCategory":"army-division","type":"Nigerian Army division / brigade-level formation","summary":"Headquarters in Port Harcourt; area of responsibility covers the Niger Delta states.","description":"6 Division is the Nigerian Army's dedicated formation for the Niger Delta. It supports Joint Task Force (JTF) operations in the oil-producing states, providing internal security and pipeline protection across the south-south.","lon":7.055,"lat":4.82,"stateName":"Rivers","stateId":"NG-RI","nickname":"South-South Command","founded":"Created to secure the Niger Delta theatre","coversStates":"[\"Rivers\",\"Bayelsa\",\"Delta\",\"Edo\"]","economy":"Oil-region security, JTF deployments, delta logistics support.","climate":"Equatorial; heavy rainfall and mangrove delta.","landmarks":"[\"6 Division Hqs, Port Harcourt\",\"Delta cantonments\",\"Bonny / Escravos sector coverage\"]","highlights":"[\"Port Harcourt-based Division\",\"Delta oil-region AOR\",\"JTF support formation\"]","wikiUrl":"https://en.wikipedia.org/wiki/Nigerian_Army","featureKind":"point"},"geometry":{"type":"Point","coordinates":[7.055,4.82]}},{"type":"Feature","properties":{"layerId":"waterways","kind":"waterways","id":"army-7-division","name":"7 Division (Maiduguri)","waterwayClass":"military","militaryBranch":"army","militaryCategory":"army-division","type":"Nigerian Army division / brigade-level formation","summary":"Headquarters in Maiduguri; frontline counter-insurgency division for Borno and Yobe.","description":"7 Division was raised specifically for the northeast counter-insurgency theatre. It is the Nigerian Army's principal fighting formation against insurgent groups in Borno, Yobe, and adjoining Lake Chad basin areas, with extensive forward operating bases.","lon":13.36,"lat":11.85,"stateName":"Borno","stateId":"NG-BO","nickname":"Northeast Counter-Insurgency Command","founded":"2010s during the insurgency-era expansion","coversStates":"[\"Borno\",\"Yobe\"]","economy":"Counter-insurgency garrison, theatre logistics, military-civilian aid coordination.","climate":"Sahel; very hot dry season with short rains.","landmarks":"[\"7 Division Hqs, Maiduguri\",\"Lake Chad sector bases\",\"Northeast theatre FOBs\"]","highlights":"[\"Maiduguri-based Division\",\"Borno + Yobe AOR\",\"Lead counter-insurgency formation\"]","wikiUrl":"https://en.wikipedia.org/wiki/Nigerian_Army","featureKind":"point"},"geometry":{"type":"Point","coordinates":[13.36,11.85]}},{"type":"Feature","properties":{"layerId":"waterways","kind":"waterways","id":"army-8-division","name":"8 Division (Sokoto)","waterwayClass":"military","militaryBranch":"army","militaryCategory":"army-division","type":"Nigerian Army division / brigade-level formation","summary":"Headquarters in Sokoto; area of responsibility for the far northwest states and Niger border arc.","description":"8 Division is tasked with the far-northwest corridor, covering the Sokoto caliphate heartland and contiguous border states facing Niger. Responsibilities include border defence, anti-banditry operations, and coordination with regional security forces.","lon":5.63,"lat":13.06,"stateName":"Sokoto","stateId":"NG-SO","nickname":"Far-Northwest & Niger Border Command","founded":"Restructured to cover the far northwest frontier and border security corridor","coversStates":"[\"Sokoto\",\"Kebbi\",\"Zamfara\",\"Katsina\",\"Niger (western sectors)\"]","economy":"Border security, anti-banditry deployments, caliphate-region garrison.","climate":"Sahel; short rains and intense harmattan.","landmarks":"[\"8 Division Hqs, Sokoto\",\"Niger border FOBs\",\"Far NW cantonments\"]","highlights":"[\"Sokoto-based Division\",\"Far NW border AOR\",\"Anti-banditry sector\"]","wikiUrl":"https://en.wikipedia.org/wiki/Nigerian_Army","featureKind":"point"},"geometry":{"type":"Point","coordinates":[5.63,13.06]}},{"type":"Feature","properties":{"layerId":"waterways","kind":"waterways","id":"army-81-division","name":"81 Division (Lagos)","waterwayClass":"military","militaryBranch":"army","militaryCategory":"army-division","type":"Nigerian Army division / brigade-level formation","summary":"Headquarters in Lagos; defends the federal economic capital, seaports, and southwest maritime flank.","description":"81 Division is the Nigerian Army's Lagos-based formation, responsible for the defence of the Lagos metropolis, Apapa and Lekki ports, and the immediate southwest maritime hinterland. It also provides ceremonial and national-capital standby roles.","lon":3.4,"lat":6.85,"stateName":"Lagos","stateId":"NG-LA","nickname":"Lagos Garrison & Southwest Quick Reaction","founded":"Lagos garrison restructured as a division-level formation","coversStates":"[\"Lagos\",\"Ogun\",\"Oyo (western corridor)\"]","economy":"Lagos garrison, port security forces, state ceremonial duties.","climate":"Tropical monsoon; high humidity year-round.","landmarks":"[\"81 Division Hqs, Lagos\",\"Dodan Barracks heritage\",\"Lekki + Apapa port sectors\"]","highlights":"[\"Lagos-based Division\",\"Economic capital defence\",\"Port + ceremonial role\"]","wikiUrl":"https://en.wikipedia.org/wiki/Nigerian_Army","featureKind":"point"},"geometry":{"type":"Point","coordinates":[3.4,6.85]}},{"type":"Feature","properties":{"layerId":"waterways","kind":"waterways","id":"army-82-division","name":"82 Division (Enugu)","waterwayClass":"military","militaryBranch":"army","militaryCategory":"army-division","type":"Nigerian Army division / brigade-level formation","summary":"Headquarters in Enugu; area of responsibility covers the southeast and eastern south-south states.","description":"82 Division is the Nigerian Army's formation for the southeast. Based in Enugu, it extends across the five southeast states plus the eastern south-south corridor, handling internal security and the Cameroon border flank near Cross River.","lon":7.855,"lat":6.4,"stateName":"Enugu","stateId":"NG-EN","nickname":"Southeast & South-South East Command","founded":"Post-civil-war reorganisation for the eastern theatre","coversStates":"[\"Enugu\",\"Abia\",\"Imo\",\"Anambra\",\"Ebonyi\",\"Cross River\",\"Akwa Ibom\"]","economy":"Southeast garrison, border security near Cameroon, eastern corridor deployments.","climate":"Tropical; escarpment hills and rainforest fringe.","landmarks":"[\"82 Division Hqs, Enugu\",\"Southeast cantonments\",\"Cameroon border sector\"]","highlights":"[\"Enugu-based Division\",\"SE + eastern SS AOR\",\"Cameroon border flank\"]","wikiUrl":"https://en.wikipedia.org/wiki/Nigerian_Army","featureKind":"point"},"geometry":{"type":"Point","coordinates":[7.855,6.4]}},{"type":"Feature","properties":{"layerId":"waterways","kind":"waterways","id":"army-guards-brigade","name":"Guards Brigade (Abuja)","waterwayClass":"military","militaryBranch":"army","militaryCategory":"army-division","type":"Nigerian Army division / brigade-level formation","summary":"Headquarters in Abuja; elite formation protecting the FCT, presidential villa, and federal institutions.","description":"The Guards Brigade is the Nigerian Army's elite capital-guard formation. It is responsible for protecting the Presidential Villa (Aso Rock), National Assembly, Supreme Court, foreign missions, and the wider Abuja Federal Capital Territory. It also mounts state ceremonial parades.","lon":7.49,"lat":9.96,"stateName":"Federal Capital Territory","stateId":"NG-FC","nickname":"Presidential & Federal Capital Guard","founded":"FCT-era elite brigade for Abuja and federal institutions","coversStates":"[\"Federal Capital Territory\",\"Niger (Abuja environs)\",\"Nasarawa (Abuja environs)\",\"Kogi (confluence corridor)\"]","economy":"FCT defence, federal institutions protection, state ceremonial events.","climate":"Guinea savanna with cooler nights than the coast.","landmarks":"[\"Guards Brigade Hqs, Abuja\",\"Aso Rock Presidential Villa\",\"Three Arms Zone coverage\"]","highlights":"[\"Abuja-based Elite Brigade\",\"FCT + federal institutions AOR\",\"State ceremonial role\"]","wikiUrl":"https://en.wikipedia.org/wiki/Nigerian_Army","featureKind":"point"},"geometry":{"type":"Point","coordinates":[7.49,9.96]}},{"type":"Feature","properties":{"layerId":"waterways","kind":"waterways","id":"navy-western-command","name":"Western Naval Command (Lagos)","waterwayClass":"military","militaryBranch":"navy","militaryCategory":"navy-base","type":"Nigerian Navy Western Command HQ","summary":"Headquarters of the Nigerian Navy Western Naval Command; controls the Lagos barrier coast and adjoining maritime area.","description":"The Western Naval Command is one of the Nigerian Navy's three principal formations, based in the Lagos area with responsibility for the entire western maritime flank including the Lagos Lagoon, Lekki approaches, and Badagry creeks. It hosts key naval bases, jetties, and security assets for the nation's premier port cluster.","lon":3.32,"lat":6.45,"stateName":"Lagos","stateId":"NG-LA","coversStates":"[\"Lagos\",\"Ogun\",\"Ondo\"]","economy":"Maritime security, naval base infrastructure, coastal patrol.","significance":"Defence of Lagos ports, maritime domain awareness, western coast security.","landmarks":"[\"Western Command HQ\",\"Lagos naval jetties\",\"Apapa / Lekki port defence\"]","highlights":"[\"Western Command HQ\",\"Lagos naval jetties\",\"Apapa / Lekki port defence\"]","wikiUrl":"https://en.wikipedia.org/wiki/Nigerian_Navy","featureKind":"point"},"geometry":{"type":"Point","coordinates":[3.32,6.45]}},{"type":"Feature","properties":{"layerId":"waterways","kind":"waterways","id":"navy-central-command","name":"Central Naval Command (Yenagoa / Warri)","waterwayClass":"military","militaryBranch":"navy","militaryCategory":"navy-base","type":"Nigerian Navy Central Command HQ","summary":"Headquarters of the Nigerian Navy Central Naval Command; responsible for the Niger Delta maritime flank and delta creeks.","description":"The Central Naval Command is the Nigerian Navy's delta-facing formation, operating across the Niger Delta creeks from the Escravos/Forcados terminals to Bonny and the central delta waterways. It coordinates JTF maritime components, anti-piracy, and oil-and-gas infrastructure protection.","lon":5.82,"lat":4.92,"stateName":"Bayelsa","stateId":"NG-BY","coversStates":"[\"Delta\",\"Bayelsa\",\"Rivers (western sectors)\",\"Edo\"]","economy":"Delta maritime security, anti-piracy patrols, oil infrastructure defence.","significance":"Niger Delta maritime domain and oil-terminal security command.","landmarks":"[\"Central Command HQ\",\"Escravos / Forcados sector\",\"Delta creek patrols\"]","highlights":"[\"Central Command HQ\",\"Escravos / Forcados sector\",\"Delta creek patrols\"]","wikiUrl":"https://en.wikipedia.org/wiki/Nigerian_Navy","featureKind":"point"},"geometry":{"type":"Point","coordinates":[5.82,4.92]}},{"type":"Feature","properties":{"layerId":"waterways","kind":"waterways","id":"navy-eastern-command","name":"Eastern Naval Command (Calabar)","waterwayClass":"military","militaryBranch":"navy","militaryCategory":"navy-base","type":"Nigerian Navy Eastern Command HQ","summary":"Headquarters of the Nigerian Navy Eastern Naval Command; covers the Cross River estuary, eastern seaboard, and Cameroon border maritime approaches.","description":"The Eastern Naval Command is the Nigerian Navy's formation for the eastern coast, including the Cross River estuary at Calabar, Akwa Ibom coast, and the Bakassi/Cameroon maritime frontier. It supports Calabar Port security and joint border maritime operations.","lon":8.32,"lat":4.97,"stateName":"Cross River","stateId":"NG-CR","coversStates":"[\"Cross River\",\"Akwa Ibom\",\"Rivers (eastern sectors)\"]","economy":"Eastern seaboard maritime security, Calabar port defence, Cameroon border patrol.","significance":"Defence of the eastern coast, Cross River estuary, and Calabar harbour.","landmarks":"[\"Eastern Command HQ\",\"Calabar naval base\",\"Bakassi / Cameroon frontier\"]","highlights":"[\"Eastern Command HQ\",\"Calabar naval base\",\"Bakassi / Cameroon frontier\"]","wikiUrl":"https://en.wikipedia.org/wiki/Nigerian_Navy","featureKind":"point"},"geometry":{"type":"Point","coordinates":[8.32,4.97]}},{"type":"Feature","properties":{"layerId":"waterways","kind":"waterways","id":"airforce-hq-abuja","name":"Nigerian Air Force HQ (Abuja)","waterwayClass":"military","militaryBranch":"airforce","militaryCategory":"airforce-hq","type":"NAF Headquarters & Abuja air defence sector","summary":"Headquarters of the Nigerian Air Force in Abuja; coordinates national air defence, air operations, and the NAF chain of command.","description":"The Nigerian Air Force (NAF) is commanded from its headquarters in the Abuja military cantonment area. It oversees air combat, airlift, intelligence, surveillance, and reconnaissance (ISR) across all tactical commands. HQ NAF coordinates with the Defence Headquarters and service branches on joint operations.","lon":7.495,"lat":9.065,"stateName":"Federal Capital Territory","stateId":"NG-FC","founded":"Established 1964; HQ relocated to Abuja after FCT became seat of government","coversStates":"[\"Federal Capital Territory\",\"Nationwide command\"]","economy":"HQ staff, defence planning, ISR coordination, and joint task-force liaison.","climate":"Guinea savanna; cooler nights than coastal Nigeria.","landmarks":"[\"HQ NAF, Abuja\",\"Nnamdi Azikiwe International Airport NAF detachment\",\"Defence Headquarters area\"]","highlights":"[\"Overall NAF command HQ\",\"National air defence coordination\",\"Joint operations HQ\"]","wikiUrl":"https://en.wikipedia.org/wiki/Nigerian_Air_Force","featureKind":"point"},"geometry":{"type":"Point","coordinates":[7.495,9.065]}},{"type":"Feature","properties":{"layerId":"waterways","kind":"waterways","id":"airforce-tac-makurdi","name":"Tactical Air Command (Makurdi)","waterwayClass":"military","militaryBranch":"airforce","militaryCategory":"airforce-base","type":"Tactical Air Command HQ — combat & close air support","summary":"NAF Tactical Air Command HQ at Makurdi; leads fighter, ground-attack, and helicopter combat elements for northeast and Middle Belt theatres.","description":"The Tactical Air Command (TAC) is the NAF's principal fighting headquarters. Based in Makurdi, Benue State, it controls fighter jets (F-7, Alpha Jet, Super Tucano), attack helicopters, and close air support squadrons that have been heavily used in the northeast counter-insurgency campaign and across Middle Belt internal-security deployments.","lon":8.59,"lat":7.76,"stateName":"Benue","stateId":"NG-BE","founded":"NAF Makurdi developed as the tactical fighter hub","coversStates":"[\"Benue\",\"Borno\",\"Yobe\",\"Adamawa\",\"Taraba\",\"Plateau\",\"Nasarawa\"]","economy":"Combat air operations, maintenance depots, ordnance, and airbase support services.","climate":"Guinea savanna; Benue River valley humidity.","landmarks":"[\"NAF Base Makurdi / TAC HQ\",\"Benue River bridge approach\",\"Makurdi airbase apron\"]","highlights":"[\"Tactical Air Command HQ\",\"Fighter & attack helicopter fleet\",\"CAS for northeast theatre\"]","wikiUrl":"https://en.wikipedia.org/wiki/Nigerian_Air_Force","featureKind":"point"},"geometry":{"type":"Point","coordinates":[8.59,7.76]}},{"type":"Feature","properties":{"layerId":"waterways","kind":"waterways","id":"airforce-atc-kaduna","name":"Air Training Command (Kaduna)","waterwayClass":"military","militaryBranch":"airforce","militaryCategory":"airforce-base","type":"Training & ab-initio flying command","summary":"NAF Air Training Command in Kaduna; runs flying schools, ground-training colleges, and the NAF military aviation pipeline.","description":"The Air Training Command (ATC) headquartered at Kaduna (NAF Base Kaduna) is the NAF's training command. It runs the Nigerian Air Force Academy, 301 Flying Training School, 303/325 training wings, and technical schools for pilots, engineers, air defence, and ground-support trades.","lon":7.445,"lat":10.685,"stateName":"Kaduna","stateId":"NG-KD","founded":"Training command evolved with the expansion of the NAF in the 1970s–80s","coversStates":"[\"Kaduna\",\"Nationwide training cadre\"]","economy":"Flying instruction, maintenance training, cadet academies, and NAF education services.","climate":"Guinea savanna with distinct harmattan season.","landmarks":"[\"NAF Base Kaduna / ATC HQ\",\"Nigerian Air Force Academy\",\"301 Flying Training School\"]","highlights":"[\"NAF pilot training pipeline\",\"Air Training Command HQ\",\"NAF Academy\"]","wikiUrl":"https://en.wikipedia.org/wiki/Nigerian_Air_Force","featureKind":"point"},"geometry":{"type":"Point","coordinates":[7.445,10.685]}},{"type":"Feature","properties":{"layerId":"waterways","kind":"waterways","id":"airforce-mc-yenagoa","name":"Mobility Command (Yenagoa / Bayelsa)","waterwayClass":"military","militaryBranch":"airforce","militaryCategory":"airforce-base","type":"Airlift, maritime patrol, and special-ops mobility command","summary":"NAF Mobility Command HQ in the Yenagoa/Port Harcourt axis; runs transport, SAR, and maritime-patrol fixed-wing and rotary assets.","description":"Mobility Command (MC) was stood up to unify the NAF's airlift, search-and-rescue (SAR), and maritime domain-awareness fleets. It operates C-130, Dornier 228, King Air, AW109/139 helicopters, and the ATR-42/72 maritime-patrol fleet, with responsibility over the Niger Delta waterways and coastal approaches.","lon":6.275,"lat":4.945,"stateName":"Bayelsa","stateId":"NG-BY","founded":"Established to coordinate NAF mobility & maritime assets","coversStates":"[\"Bayelsa\",\"Rivers\",\"Delta\",\"Akwa Ibom\",\"Cross River\"]","economy":"Airlift, maritime patrol, medevac, special-forces insertion, coastal SAR.","climate":"Equatorial delta; mangrove wetlands, heavy rainfall.","landmarks":"[\"Mobility Command HQ, Bayelsa\",\"NAF maritime patrol detachments\",\"Niger Delta air logistics\"]","highlights":"[\"Airlift & SAR command\",\"Maritime patrol (ATR fleet)\",\"Delta sector mobility\"]","wikiUrl":"https://en.wikipedia.org/wiki/Nigerian_Air_Force","featureKind":"point"},"geometry":{"type":"Point","coordinates":[6.275,4.945]}},{"type":"Feature","properties":{"layerId":"waterways","kind":"waterways","id":"airforce-lc-ikeja","name":"Logistics Command (Ikeja / Lagos)","waterwayClass":"military","militaryBranch":"airforce","militaryCategory":"airforce-base","type":"Maintenance, supply, and depot logistics command","summary":"NAF Logistics Command at Ikeja (Lagos); manages airframe/engine maintenance depots, supply chains, and national-level NAF logistics support.","description":"The Logistics Command (LC) headquartered at NAF Base Ikeja (adjacent to Murtala Muhammed International Airport) is the NAF's maintenance-and-supply backbone. It runs the 431 Engineering Group (airframe depot), 435 Maintenance Depot, national supply and ammunition pipelines, and Lagos-area NAF air-transport detachments.","lon":3.335,"lat":6.585,"stateName":"Lagos","stateId":"NG-LA","founded":"Logistics Command was created to consolidate NAF maintenance & supply","coversStates":"[\"Lagos\",\"Nationwide logistics chain\"]","economy":"Aircraft maintenance, engine overhaul, supply depots, ordnance, and NAF logistics services.","climate":"Tropical monsoon; high humidity and two rainfall peaks.","landmarks":"[\"NAF Base Ikeja / LC HQ\",\"431 Engineering Group\",\"MMIA NAF liaison & apron\"]","highlights":"[\"Logistics Command HQ\",\"Airframe & engine depot\",\"NAF national supply chain\"]","wikiUrl":"https://en.wikipedia.org/wiki/Nigerian_Air_Force","featureKind":"point"},"geometry":{"type":"Point","coordinates":[3.335,6.585]}}]}