{"type":"FeatureCollection","features":[{"type":"Feature","properties":{"CNTRY_NAME":"Nigeria","CNTRY_CODE":"NGA","ADM1_NAME":"Adamawa","ADM1_CODE":"NGA002","ADM2_NAME":"Demsa","ADM2_CODE":"NGA002001","HRname":"Demsa","HRpcode":"NG002001","HRparent":"NG002","Shape_Leng":1.87987674932,"Shape_Area":0.149766087146,"ADM2_New":"Demsa","id":"NG-AD-DEMSA","name":"Demsa","parentId":"NG-AD","stateName":"Adamawa","regionId":"NG-NE","fillColor":"#6BA368"},"geometry":{"type":"Polygon","coordinates":[[[12.070940971000084,9.646491051000055],[12.211006165000072,9.654330254000058],[12.25154113800005,9.665712357000075],[12.258467674000087,9.657705307000072],[12.28036022200007,9.615394592000087],[12.278005600000085,9.598254204000057],[12.265226364000057,9.57769680000007],[12.266327858000068,9.553695679000043],[12.27322483100005,9.533116341000039],[12.26502227800006,9.489697456000044],[12.286952972000051,9.463386536000087],[12.31353092200004,9.445071220000045],[12.284495354000057,9.401675224000087],[12.272860527000091,9.375403404000053],[12.216059685000062,9.337753296000074],[12.167332649000059,9.287523270000065],[12.140593529000057,9.236125946000072],[12.083758354000054,9.183619499000088],[12.062941551000051,9.190500259000089],[12.01086902600008,9.19513130200005],[11.942544937000036,9.179209709000077],[11.919393539000055,9.178092957000047],[11.759691238000073,9.186275482000042],[11.701661110000089,9.180823326000052],[11.700067520000061,9.210051537000083],[11.71154785200008,9.209595680000064],[11.764515877000065,9.27084159900005],[11.817985535000048,9.370208740000066],[11.842371941000067,9.40446662900007],[11.899143219000052,9.429544449000048],[11.973207474000048,9.424888611000085],[12.03805255900005,9.438528061000056],[12.04617595700006,9.447662354000045],[12.056740761000071,9.511650085000042],[12.055665016000091,9.547080040000083],[12.07320022600004,9.622488022000084],[12.070940971000084,9.646491051000055]]]}},{"type":"Feature","properties":{"CNTRY_NAME":"Nigeria","CNTRY_CODE":"NGA","ADM1_NAME":"Adamawa","ADM1_CODE":"NGA002","ADM2_NAME":"Gombi","ADM2_CODE":"NGA002004","HRname":"Gombi","HRpcode":"NG002004","HRparent":"NG002","Shape_Leng":1.75586921532,"Shape_Area":0.151825424506,"ADM2_New":"Gombi","id":"NG-AD-GOMBI","name":"Gombi","parentId":"NG-AD","stateName":"Adamawa","regionId":"NG-NE","fillColor":"#B8956B"},"geometry":{"type":"Polygon","coordinates":[[[12.319760323000082,10.315629959000091],[12.329026222000039,10.31961345700006],[12.443597794000084,10.31706237800006],[12.507370949000062,10.342087746000061],[12.55799102800006,10.374835014000041],[12.564443588000074,10.419760704000055],[12.59564971900005,10.443598747000067],[12.614389420000066,10.416154861000052],[12.651341438000088,10.379540443000053],[12.703278542000078,10.31662464100009],[12.77019500700004,10.223976135000044],[12.796682358000055,10.166803360000074],[12.79892635300007,10.135943413000064],[12.828836441000078,10.057052612000064],[12.831892014000061,10.00586319000007],[12.774334908000071,10.012543678000043],[12.729246140000043,10.034309387000064],[12.672554970000078,10.043517113000064],[12.569548607000058,10.044777870000075],[12.490823746000046,10.035724640000069],[12.435287476000042,10.043787956000074],[12.32996273000009,10.043908119000037],[12.268591881000077,10.031407356000045],[12.241979599000047,10.034866333000082],[12.257179260000044,10.10113430000007],[12.282802582000045,10.170819283000071],[12.321150780000039,10.237062454000068],[12.330508232000057,10.279335976000084],[12.32824039500008,10.299910545000046],[12.319760323000082,10.315629959000091]]]}},{"type":"Feature","properties":{"CNTRY_NAME":"Nigeria","CNTRY_CODE":"NGA","ADM1_NAME":"Adamawa","ADM1_CODE":"NGA002","ADM2_NAME":"Gireri","ADM2_CODE":"NGA002005","HRname":"Gireri","HRpcode":"NG002005","HRparent":"NG002","Shape_Leng":1.39972174612,"Shape_Area":0.0902345120096,"ADM2_New":"Girei","id":"NG-AD-GIRERI","name":"Gireri","parentId":"NG-AD","stateName":"Adamawa","regionId":"NG-NE","fillColor":"#A8BF7A"},"geometry":{"type":"Polygon","coordinates":[[[12.272093773000051,9.522192001000064],[12.299821854000072,9.522800446000076],[12.311406136000073,9.527359009000065],[12.40067958800006,9.593542099000047],[12.444687843000054,9.60492038700005],[12.457421303000046,9.606048584000064],[12.485180855000067,9.598016739000059],[12.505982399000061,9.584279060000085],[12.533694267000044,9.555676460000086],[12.54062652600004,9.551096916000063],[12.555674553000074,9.551079750000042],[12.575368881000088,9.559057236000058],[12.656505585000048,9.610392570000045],[12.691947937000066,9.611592293000058],[12.68309402500006,9.596648216000062],[12.651775360000045,9.566969872000072],[12.618094444000064,9.516722679000054],[12.611104965000038,9.497302055000091],[12.618939400000045,9.381864548000067],[12.607304573000079,9.35559272800009],[12.589903831000072,9.338469505000091],[12.587568283000053,9.329329491000067],[12.602481842000088,9.272169113000075],[12.607023239000057,9.233878136000044],[12.576899529000059,9.22076988200007],[12.544482231000075,9.216235161000043],[12.52365493800005,9.218544960000088],[12.500535011000068,9.231142998000053],[12.386208534000048,9.342130661000056],[12.319301605000078,9.438206673000082],[12.27425289200005,9.47711563100006],[12.26502227800006,9.489697456000044],[12.272093773000051,9.522192001000064]]]}},{"type":"Feature","properties":{"CNTRY_NAME":"Nigeria","CNTRY_CODE":"NGA","ADM1_NAME":"Adamawa","ADM1_CODE":"NGA002","ADM2_NAME":"Guyuk","ADM2_CODE":"NGA002006","HRname":"Guyuk","HRpcode":"NG002006","HRparent":"NG002","Shape_Leng":1.30016398925,"Shape_Area":0.0622282630482,"ADM2_New":"Guyuk","id":"NG-AD-GUYUK","name":"Guyuk","parentId":"NG-AD","stateName":"Adamawa","regionId":"NG-NE","fillColor":"#6AADA3"},"geometry":{"type":"Polygon","coordinates":[[[11.843390465000084,10.04458999600007],[11.865954399000088,10.04607296000006],[11.919665337000083,10.032396317000064],[12.003088951000052,10.022182465000071],[11.981425285000057,9.97573566400007],[11.976682663000076,9.926598549000062],[11.978973389000089,9.916309357000046],[11.998585701000081,9.88885879500009],[12.00301647200007,9.803139687000055],[12.013306618000058,9.748270988000058],[12.013208389000056,9.705985069000064],[12.018959045000088,9.689978600000074],[12.037418365000065,9.66481494900006],[12.065173149000088,9.654497147000086],[12.070940971000084,9.646491051000055],[12.002643585000044,9.641997337000078],[11.966782570000078,9.650038719000065],[11.947584152000047,9.64861583700008],[11.92052078200004,9.664948463000087],[11.845350266000082,9.691319466000039],[11.77594375600006,9.70739936800004],[11.756587982000042,9.71867466000009],[11.803272247000052,9.756742477000046],[11.840398788000073,9.776108742000076],[11.856681824000077,9.79323387100004],[11.85332584400004,9.818412781000063],[11.836150169000064,9.858498573000077],[11.839738846000046,9.883661270000061],[11.85498619100008,9.927104950000057],[11.850626945000045,9.985466957000085],[11.855346680000082,10.004907608000053],[11.843390465000084,10.04458999600007]]]}},{"type":"Feature","properties":{"CNTRY_NAME":"Nigeria","CNTRY_CODE":"NGA","ADM1_NAME":"Adamawa","ADM1_CODE":"NGA002","ADM2_NAME":"Hong","ADM2_CODE":"NGA002007","HRname":"Hong","HRpcode":"NG002007","HRparent":"NG002","Shape_Leng":1.96821389874,"Shape_Area":0.215574804571,"ADM2_New":"Hong","id":"NG-AD-HONG","name":"Hong","parentId":"NG-AD","stateName":"Adamawa","regionId":"NG-NE","fillColor":"#8FAF6E"},"geometry":{"type":"Polygon","coordinates":[[[12.59564971900005,10.443598747000067],[12.625939369000037,10.45280075100004],[12.639759064000089,10.437894821000043],[12.652495384000076,10.43900966600006],[12.665322304000085,10.459575653000059],[12.673680305000062,10.484930038000073],[12.728324890000067,10.568127632000085],[12.735306740000055,10.576120377000052],[12.760801315000037,10.58292675000007],[12.780449867000073,10.577160835000086],[12.875340462000054,10.57351112400005],[12.94007015200009,10.555056572000069],[13.002415657000086,10.52173328400005],[13.051918983000064,10.464411736000045],[13.122425079000038,10.443655968000087],[13.159387589000062,10.42755317700005],[13.211980820000065,10.435908318000088],[13.21273517600008,10.401756287000069],[13.185998917000063,10.35150146500007],[13.17199897800009,10.303517342000077],[13.132452011000055,10.218991280000068],[13.109096527000077,10.129875183000081],[13.06493568400009,10.05221080800004],[13.056936264000058,10.026335716000062],[13.038254738000091,10.025956154000085],[12.980334282000058,10.004307747000041],[12.898060799000064,9.962116241000047],[12.89111328100006,9.96098136900008],[12.848340034000046,9.98274421700006],[12.82988262200007,10.009051323000051],[12.828836441000078,10.057052612000064],[12.79892635300007,10.135943413000064],[12.796682358000055,10.166803360000074],[12.77019500700004,10.223976135000044],[12.703278542000078,10.31662464100009],[12.651341438000088,10.379540443000053],[12.614389420000066,10.416154861000052],[12.59564971900005,10.443598747000067]]]}},{"type":"Feature","properties":{"CNTRY_NAME":"Nigeria","CNTRY_CODE":"NGA","ADM1_NAME":"Adamawa","ADM1_CODE":"NGA002","ADM2_NAME":"Lamurde","ADM2_CODE":"NGA002009","HRname":"Lamurde","HRpcode":"NG002009","HRparent":"NG002","Shape_Leng":1.40350970947,"Shape_Area":0.0961547983431,"ADM2_New":"Lamurde","id":"NG-AD-LAMURDE","name":"Lamurde","parentId":"NG-AD","stateName":"Adamawa","regionId":"NG-NE","fillColor":"#688EB5"},"geometry":{"type":"Polygon","coordinates":[[[11.756587982000042,9.71867466000009],[11.77594375600006,9.70739936800004],[11.845350266000082,9.691319466000039],[11.92052078200004,9.664948463000087],[11.95981693300007,9.640903473000037],[11.969028473000037,9.620321274000048],[11.970088005000036,9.578034401000082],[11.962990761000071,9.511756897000055],[11.95368671400007,9.492339134000076],[11.933983803000046,9.48093318900004],[11.87847137500006,9.499281883000037],[11.831032753000045,9.506193161000056],[11.740718842000092,9.490297318000046],[11.681640625000057,9.468649864000042],[11.638751030000037,9.440127373000053],[11.553246498000078,9.399619102000088],[11.530007362000049,9.403909683000052],[11.469977379000056,9.477334023000083],[11.429598808000037,9.549625397000057],[11.441893578000077,9.56043148000009],[11.444465637000064,9.576152802000081],[11.468048096000075,9.598470688000077],[11.484278679000056,9.604154587000039],[11.52732276900008,9.60823726700005],[11.562986374000047,9.605118752000067],[11.615117073000079,9.615296364000073],[11.654569626000068,9.636945724000043],[11.672015190000081,9.655212402000075],[11.746321678000072,9.705385208000052],[11.756587982000042,9.71867466000009]]]}},{"type":"Feature","properties":{"CNTRY_NAME":"Nigeria","CNTRY_CODE":"NGA","ADM1_NAME":"Adamawa","ADM1_CODE":"NGA002","ADM2_NAME":"Mayo-Belwa","ADM2_CODE":"NGA002012","HRname":"Mayo-Belwa","HRpcode":"NG002012","HRparent":"NG002","Shape_Leng":2.12935290274,"Shape_Area":0.144944253073,"ADM2_New":"Mayo-Belwa","id":"NG-AD-MAYO-BELWA","name":"Mayo-Belwa","parentId":"NG-AD","stateName":"Adamawa","regionId":"NG-NE","fillColor":"#5E9E78"},"geometry":{"type":"Polygon","coordinates":[[[11.701661110000089,9.180823326000052],[11.759691238000073,9.186275482000042],[11.919393539000055,9.178092957000047],[11.942544937000036,9.179209709000077],[12.01086902600008,9.19513130200005],[12.062941551000051,9.190500259000089],[12.083758354000054,9.183619499000088],[12.09717369100008,9.176241875000073],[12.07670879400007,9.137912750000055],[12.062700272000086,9.086501122000072],[12.057914734000065,9.019077301000038],[12.074110985000061,9.015630722000083],[12.118121147000068,9.028151512000079],[12.157478333000086,9.030392647000042],[12.171298027000091,9.000661850000085],[12.19691085800008,8.915528297000037],[12.147877693000055,8.882974625000088],[12.108425140000065,8.83959198000008],[12.07596778900006,8.817914009000049],[11.949562073000038,8.710630417000061],[11.915902138000092,8.669526100000041],[11.876476288000049,8.637571335000075],[11.85213947300008,8.623884201000067],[11.796403885000075,8.546234131000062],[11.779387474000089,8.597758293000084],[11.780634880000036,8.61720657300009],[11.797056198000064,8.664079666000077],[11.809861183000066,8.680068016000064],[11.830975533000071,8.740660667000043],[11.861358643000074,8.803520203000062],[11.874137878000056,8.813788414000044],[11.89980220800004,8.857208252000078],[11.903432846000044,8.891525269000056],[11.898962021000045,8.925860405000037],[11.880640030000052,8.96823597000008],[11.856493950000072,9.002615929000058],[11.791758537000078,9.019927025000072],[11.76751709000007,9.033712387000037],[11.752534866000076,9.04971504200006],[11.735177040000053,9.053277016000038],[11.729636192000044,9.061677933000055],[11.70675659200009,9.074490547000039],[11.694935799000064,9.106829643000083],[11.701661110000089,9.180823326000052]]]}},{"type":"Feature","properties":{"CNTRY_NAME":"Nigeria","CNTRY_CODE":"NGA","ADM1_NAME":"Adamawa","ADM1_CODE":"NGA002","ADM2_NAME":"Numan","ADM2_CODE":"NGA002016","HRname":"Numan","HRpcode":"NG002016","HRparent":"NG002","Shape_Leng":1.68382754167,"Shape_Area":0.0743246500648,"ADM2_New":"Numan","id":"NG-AD-NUMAN","name":"Numan","parentId":"NG-AD","stateName":"Adamawa","regionId":"NG-NE","fillColor":"#D4896A"},"geometry":{"type":"Polygon","coordinates":[[[11.947584152000047,9.64861583700008],[11.966782570000078,9.650038719000065],[12.002643585000044,9.641997337000078],[12.070940971000084,9.646491051000055],[12.07320022600004,9.622488022000084],[12.055665016000091,9.547080040000083],[12.056740761000071,9.511650085000042],[12.04617595700006,9.447662354000045],[12.03805255900005,9.438528061000056],[11.973207474000048,9.424888611000085],[11.899143219000052,9.429544449000048],[11.842371941000067,9.40446662900007],[11.817985535000048,9.370208740000066],[11.764515877000065,9.27084159900005],[11.713453293000043,9.211470604000056],[11.700067520000061,9.210051537000083],[11.670155525000041,9.25361442600007],[11.64774704000007,9.30539989500005],[11.59625625600006,9.379207611000083],[11.557318687000077,9.380875587000048],[11.540976524000087,9.392592430000093],[11.53452873200007,9.40320682500004],[11.551544189000083,9.398502350000058],[11.638751030000037,9.440127373000053],[11.681640625000057,9.468649864000042],[11.768509865000055,9.495979309000063],[11.831032753000045,9.506193161000056],[11.87847137500006,9.499281883000037],[11.925885201000085,9.482085228000074],[11.946728706000044,9.486632347000068],[11.96065425900008,9.50261688200004],[11.962990761000071,9.511756897000055],[11.970088005000036,9.578034401000082],[11.965585709000038,9.63289642300009],[11.947584152000047,9.64861583700008]]]}},{"type":"Feature","properties":{"CNTRY_NAME":"Nigeria","CNTRY_CODE":"NGA","ADM1_NAME":"Adamawa","ADM1_CODE":"NGA002","ADM2_NAME":"Shelleng","ADM2_CODE":"NGA002017","HRname":"Shelleng","HRpcode":"NG002017","HRparent":"NG002","Shape_Leng":1.76436158191,"Shape_Area":0.111693190475,"ADM2_New":"Shelleng","id":"NG-AD-SHELLENG","name":"Shelleng","parentId":"NG-AD","stateName":"Adamawa","regionId":"NG-NE","fillColor":"#9B8B72"},"geometry":{"type":"Polygon","coordinates":[[[12.263949394000065,10.263086319000081],[12.295408249000047,10.308249474000093],[12.319760323000082,10.315629959000091],[12.32824039500008,10.299910545000046],[12.330508232000057,10.279335976000084],[12.321150780000039,10.237062454000068],[12.282802582000045,10.170819283000071],[12.257179260000044,10.10113430000007],[12.222051620000059,9.92631721500004],[12.222009659000037,9.90803146400009],[12.21267890900009,9.877185822000058],[12.21145057700005,9.846329689000072],[12.198641777000091,9.813201904000039],[12.19394397700006,9.783493042000089],[12.205430031000049,9.745765686000084],[12.25154113800005,9.665712357000075],[12.211006165000072,9.654330254000058],[12.070940971000084,9.646491051000055],[12.065173149000088,9.654497147000086],[12.037418365000065,9.66481494900006],[12.018959045000088,9.689978600000074],[12.013208389000056,9.705985069000064],[12.013306618000058,9.748270988000058],[12.00301647200007,9.803139687000055],[11.998585701000081,9.88885879500009],[11.978973389000089,9.916309357000046],[11.976682663000076,9.926598549000062],[11.981425285000057,9.97573566400007],[12.00590324400008,10.025157928000056],[12.048785210000062,10.03764534000004],[12.084664345000078,10.037563324000075],[12.098601341000062,10.047828674000073],[12.106760979000057,10.060396194000077],[12.109187126000052,10.08441829700007],[12.145337105000067,10.142687798000054],[12.194185257000072,10.19406318700004],[12.248704910000072,10.220253944000092],[12.258043289000057,10.237395287000083],[12.263949394000065,10.263086319000081]]]}},{"type":"Feature","properties":{"CNTRY_NAME":"Nigeria","CNTRY_CODE":"NGA","ADM1_NAME":"Adamawa","ADM1_CODE":"NGA002","ADM2_NAME":"Song","ADM2_CODE":"NGA002018","HRname":"Song","HRpcode":"NG002018","HRparent":"NG002","Shape_Leng":2.91348358737,"Shape_Area":0.349157531627,"ADM2_New":"Song","id":"NG-AD-SONG","name":"Song","parentId":"NG-AD","stateName":"Adamawa","regionId":"NG-NE","fillColor":"#A3C986"},"geometry":{"type":"Polygon","coordinates":[[[12.241979599000047,10.034866333000082],[12.268591881000077,10.031407356000045],[12.32996273000009,10.043908119000037],[12.435287476000042,10.043787956000074],[12.490823746000046,10.035724640000069],[12.569548607000058,10.044777870000075],[12.672554970000078,10.043517113000064],[12.729246140000043,10.034309387000064],[12.774334908000071,10.012543678000043],[12.831892014000061,10.00586319000007],[12.848340034000046,9.98274421700006],[12.89111328100006,9.96098136900008],[12.915434837000078,9.967810631000077],[12.980334282000058,10.004307747000041],[13.038254738000091,10.025956154000085],[13.056936264000058,10.026335716000062],[13.047452927000052,9.99965953800006],[13.04272556300009,9.957379341000092],[13.054170609000039,9.90136623400008],[13.058670044000053,9.845361710000077],[13.09207058000004,9.774466515000086],[13.093184471000086,9.755036354000083],[13.088521957000069,9.741327286000057],[13.090696335000075,9.680753708000054],[13.08476924900009,9.620188713000061],[13.088202477000038,9.603042603000063],[13.082446098000048,9.569345474000045],[13.052280426000038,9.584797859000048],[12.993291855000052,9.602007866000065],[12.875350952000076,9.651285172000087],[12.83721733100009,9.677615166000066],[12.787504196000043,9.701671600000054],[12.727437973000065,9.753169060000062],[12.72163772600004,9.747461319000081],[12.709826469000063,9.644617081000092],[12.704000473000065,9.627481461000059],[12.691947937000066,9.611592293000058],[12.656505585000048,9.610392570000045],[12.575368881000088,9.559057236000058],[12.555674553000074,9.551079750000042],[12.54062652600004,9.551096916000063],[12.533694267000044,9.555676460000086],[12.505982399000061,9.584279060000085],[12.485180855000067,9.598016739000059],[12.457421303000046,9.606048584000064],[12.444687843000054,9.60492038700005],[12.40067958800006,9.593542099000047],[12.311406136000073,9.527359009000065],[12.299821854000072,9.522800446000076],[12.272093773000051,9.522192001000064],[12.265226364000057,9.57769680000007],[12.278005600000085,9.598254204000057],[12.28036022200007,9.615394592000087],[12.273460388000046,9.634830475000058],[12.205430031000049,9.745765686000084],[12.19394397700006,9.783493042000089],[12.198641777000091,9.813201904000039],[12.21145057700005,9.846329689000072],[12.21267890900009,9.877185822000058],[12.222009659000037,9.90803146400009],[12.241979599000047,10.034866333000082]]]}},{"type":"Feature","properties":{"CNTRY_NAME":"Nigeria","CNTRY_CODE":"NGA","ADM1_NAME":"Adamawa","ADM1_CODE":"NGA002","ADM2_NAME":"Yola North","ADM2_CODE":"NGA002020","HRname":"Yola North","HRpcode":"NG002020","HRparent":"NG002","Shape_Leng":1.68818975032,"Shape_Area":0.0588153767824,"ADM2_New":"Yola North","id":"NG-AD-YOLA-NORTH","name":"Yola North","parentId":"NG-AD","stateName":"Adamawa","regionId":"NG-NE","fillColor":"#BFA882"},"geometry":{"type":"Polygon","coordinates":[[[12.31353092200004,9.445071220000045],[12.358534813000063,9.386734009000065],[12.376976013000046,9.353569984000046],[12.41854476900005,9.311236382000061],[12.376835823000079,9.292998314000045],[12.347845078000091,9.26903152500006],[12.34086704300006,9.254182816000082],[12.341997147000086,9.242753029000085],[12.353545189000045,9.231310844000063],[12.42873191800004,9.211796761000073],[12.455359459000078,9.215194702000076],[12.473896980000063,9.223173141000075],[12.48203277600004,9.23802089700007],[12.48205852500007,9.249704361000056],[12.507466316000091,9.225420952000093],[12.529438972000037,9.21739578200004],[12.576899529000059,9.22076988200007],[12.607023239000057,9.233878136000044],[12.609196663000091,9.172733307000044],[12.589390755000068,9.116755486000045],[12.571990013000061,9.099633217000076],[12.561557770000093,9.092787743000088],[12.547666550000088,9.091660500000046],[12.459713936000071,9.096332550000056],[12.438894272000084,9.102070808000065],[12.40423584000007,9.129538536000041],[12.316532135000045,9.24163913700005],[12.303818703000047,9.249653816000091],[12.263336182000046,9.261128426000084],[12.23785495800007,9.253157616000067],[12.212352753000062,9.23604393000005],[12.17987346600006,9.20522403700005],[12.11961460100008,9.173292160000074],[12.109192848000077,9.171018600000082],[12.083758354000054,9.183619499000088],[12.140593529000057,9.236125946000072],[12.167332649000059,9.287523270000065],[12.216059685000062,9.337753296000074],[12.272860527000091,9.375403404000053],[12.284495354000057,9.401675224000087],[12.31353092200004,9.445071220000045]]]}},{"type":"Feature","properties":{"CNTRY_NAME":"Nigeria","CNTRY_CODE":"NGA","ADM1_NAME":"Adamawa","ADM1_CODE":"NGA002","ADM2_NAME":"Yola South","ADM2_CODE":"NGA002021","HRname":"Yola South","HRpcode":"NG002021","HRparent":"NG002","Shape_Leng":0.371266955498,"Shape_Area":0.00923967788455,"ADM2_New":"Yola South","id":"NG-AD-YOLA-SOUTH","name":"Yola South","parentId":"NG-AD","stateName":"Adamawa","regionId":"NG-NE","fillColor":"#6BA368"},"geometry":{"type":"Polygon","coordinates":[[[12.41854476900005,9.311236382000061],[12.48205852500007,9.249704361000056],[12.48203277600004,9.23802089700007],[12.473896980000063,9.223173141000075],[12.455359459000078,9.215194702000076],[12.42873191800004,9.211796761000073],[12.362793922000037,9.226729393000085],[12.341997147000086,9.242753029000085],[12.34086704300006,9.254182816000082],[12.353648186000044,9.275882721000073],[12.38263130200005,9.296421051000038],[12.41854476900005,9.311236382000061]]]}},{"type":"Feature","properties":{"CNTRY_NAME":"Nigeria","CNTRY_CODE":"NGA","ADM1_NAME":"Adamawa","ADM1_CODE":"NGA002","ADM2_NAME":"Madagali","ADM2_CODE":"NGA002010","HRname":"Madagali","HRpcode":"NG002010","HRparent":"NG002","Shape_Leng":1.30638088295,"Shape_Area":0.0764839343303,"ADM2_New":"Madagali","id":"NG-AD-MADAGALI","name":"Madagali","parentId":"NG-AD","stateName":"Adamawa","regionId":"NG-NE","fillColor":"#7CB087"},"geometry":{"type":"Polygon","coordinates":[[[13.71302936300009,10.94394624000006],[13.73377812800004,10.922092233000058],[13.73175817200007,10.91240524300008],[13.721408831000076,10.901472744000046],[13.723207417000083,10.884748670000079],[13.71784765800004,10.862267474000078],[13.70215518200007,10.858246541000085],[13.700939145000063,10.848650406000047],[13.693370998000091,10.844081221000067],[13.683212544000071,10.84515729900005],[13.672469876000036,10.82146169400005],[13.673798720000036,10.81476910400005],[13.65186047800006,10.812432512000044],[13.640690341000038,10.790311025000051],[13.65370732000008,10.784956062000049],[13.656688779000092,10.775003578000053],[13.644364973000052,10.766812800000082],[13.639355909000074,10.75189189200006],[13.63257006400005,10.749384127000042],[13.627674992000038,10.71121153100006],[13.61258665400004,10.704921786000057],[13.605610850000062,10.692494873000044],[13.58554078700007,10.69269035900004],[13.580088205000038,10.687723455000082],[13.588540025000043,10.674791773000038],[13.589565138000069,10.663081803000068],[13.57819924800009,10.65406039000004],[13.580207224000048,10.626879145000089],[13.528134346000058,10.653966904000072],[13.47269153600007,10.703172684000037],[13.422982216000037,10.728372574000048],[13.380224228000088,10.75699329400004],[13.328001976000053,10.77518653900006],[13.335881233000066,10.800146103000088],[13.336970329000053,10.920900345000064],[13.34574413300004,10.930559158000051],[13.358469963000061,10.929385185000058],[13.42316818200004,10.904066086000057],[13.475245476000055,10.902802467000072],[13.541327477000038,10.926678658000071],[13.577307701000052,10.948335648000068],[13.71302936300009,10.94394624000006]]]}},{"type":"Feature","properties":{"CNTRY_NAME":"Nigeria","CNTRY_CODE":"NGA","ADM1_NAME":"Adamawa","ADM1_CODE":"NGA002","ADM2_NAME":"Michika","ADM2_CODE":"NGA002013","HRname":"Michika","HRpcode":"NG002013","HRparent":"NG002","Shape_Leng":1.34445169446,"Shape_Area":0.0841089260393,"ADM2_New":"Michika","id":"NG-AD-MICHIKA","name":"Michika","parentId":"NG-AD","stateName":"Adamawa","regionId":"NG-NE","fillColor":"#94B86A"},"geometry":{"type":"Polygon","coordinates":[[[13.580207224000048,10.626879145000089],[13.576338941000074,10.616368781000062],[13.571379962000037,10.622595931000092],[13.564668134000044,10.620998408000048],[13.56789617600009,10.612117771000044],[13.564185257000076,10.607246365000037],[13.573629303000075,10.585793479000074],[13.566739042000052,10.570213520000038],[13.567203385000084,10.559231082000053],[13.571507645000054,10.549948412000049],[13.576724752000075,10.553662572000064],[13.583275461000085,10.551068340000086],[13.589089136000041,10.534085429000072],[13.595852144000048,10.528103654000063],[13.594223192000072,10.51850696300005],[13.573691563000068,10.506398308000087],[13.56146758300008,10.516871838000043],[13.551640673000065,10.50976595600008],[13.539994045000071,10.514891539000075],[13.540190524000081,10.48516783100007],[13.53671074600004,10.47744020600004],[13.529327444000046,10.476719374000083],[13.529722198000059,10.46333333800004],[13.520720016000041,10.454767913000069],[13.526235704000044,10.39971209500004],[13.541659786000082,10.372116125000048],[13.509387970000091,10.379373550000082],[13.497430801000064,10.390002251000055],[13.428063393000059,10.423224449000088],[13.36449623100009,10.462154388000044],[13.219491005000066,10.481513023000048],[13.242266655000037,10.579537392000077],[13.283183098000052,10.667544365000083],[13.311245918000054,10.713460922000081],[13.328001976000053,10.77518653900006],[13.380224228000088,10.75699329400004],[13.422982216000037,10.728372574000048],[13.47269153600007,10.703172684000037],[13.528134346000058,10.653966904000072],[13.580207224000048,10.626879145000089]]]}},{"type":"Feature","properties":{"CNTRY_NAME":"Nigeria","CNTRY_CODE":"NGA","ADM1_NAME":"Adamawa","ADM1_CODE":"NGA002","ADM2_NAME":"Mubi North","ADM2_CODE":"NGA002014","HRname":"Mubi North","HRpcode":"NG002014","HRparent":"NG002","Shape_Leng":1.34781692074,"Shape_Area":0.0773928476389,"ADM2_New":"Mubi North","id":"NG-AD-MUBI-NORTH","name":"Mubi North","parentId":"NG-AD","stateName":"Adamawa","regionId":"NG-NE","fillColor":"#C2A882"},"geometry":{"type":"Polygon","coordinates":[[[13.541659786000082,10.372116125000048],[13.535007866000058,10.321597197000074],[13.520038432000092,10.291243020000081],[13.522333421000042,10.273024502000055],[13.496919243000036,10.246964657000092],[13.468891566000082,10.243368626000063],[13.402197838000063,10.24954032900007],[13.35823822000009,10.25873279600006],[13.315411568000059,10.257638931000088],[13.284172058000081,10.262246132000087],[13.270270348000054,10.256547928000089],[13.244738579000057,10.226862907000054],[13.219145775000072,10.170891762000053],[13.20048999800008,10.111484528000062],[13.201607704000082,10.094340324000086],[13.179645538000045,10.106937408000078],[13.123581886000068,10.17656612400009],[13.132452011000055,10.218991280000068],[13.17199897800009,10.303517342000077],[13.185998917000063,10.35150146500007],[13.21273517600008,10.401756287000069],[13.211980820000065,10.435908318000088],[13.219491005000066,10.481513023000048],[13.36449623100009,10.462154388000044],[13.508245468000041,10.381431580000083],[13.541659786000082,10.372116125000048]]]}},{"type":"Feature","properties":{"CNTRY_NAME":"Nigeria","CNTRY_CODE":"NGA","ADM1_NAME":"Adamawa","ADM1_CODE":"NGA002","ADM2_NAME":"Mubi South","ADM2_CODE":"NGA002015","HRname":"Mubi South","HRpcode":"NG002015","HRparent":"NG002","Shape_Leng":0.958071545523,"Shape_Area":0.0376111756287,"ADM2_New":"Mubi South","id":"NG-AD-MUBI-SOUTH","name":"Mubi South","parentId":"NG-AD","stateName":"Adamawa","regionId":"NG-NE","fillColor":"#72A898"},"geometry":{"type":"Polygon","coordinates":[[[13.496919243000036,10.246964657000092],[13.50363591300004,10.222793397000089],[13.498739115000092,10.205018374000076],[13.478209547000063,10.190105474000063],[13.471059874000048,10.192547604000083],[13.463136317000078,10.168069696000089],[13.45471200500009,10.170756293000068],[13.445909498000049,10.15911778700007],[13.423386877000041,10.15621038800009],[13.437859250000088,10.144048569000063],[13.430927884000084,10.118512982000084],[13.419487987000082,10.120698529000038],[13.396721325000044,10.13613408000009],[13.393152126000075,10.127917408000087],[13.400256898000066,10.122710874000063],[13.400314476000062,10.11470002200008],[13.366295652000076,10.116222764000042],[13.358415644000047,10.107411313000057],[13.349312510000061,10.107125103000044],[13.342159955000056,10.117771433000087],[13.311257605000037,10.106673555000043],[13.305203453000047,10.100447392000092],[13.305230968000046,10.091872725000087],[13.29726942700006,10.086058910000077],[13.297222220000037,10.058888890000048],[13.290317937000054,10.047590976000038],[13.260570526000038,10.066844940000067],[13.208525658000042,10.082904816000053],[13.20390892000006,10.088624001000085],[13.20048999800008,10.111484528000062],[13.219145775000072,10.170891762000053],[13.244738579000057,10.226862907000054],[13.270270348000054,10.256547928000089],[13.284172058000081,10.262246132000087],[13.315411568000059,10.257638931000088],[13.35823822000009,10.25873279600006],[13.402197838000063,10.24954032900007],[13.468891566000082,10.243368626000063],[13.496919243000036,10.246964657000092]]]}},{"type":"Feature","properties":{"CNTRY_NAME":"Nigeria","CNTRY_CODE":"NGA","ADM1_NAME":"Adamawa","ADM1_CODE":"NGA002","ADM2_NAME":"Maiha","ADM2_CODE":"NGA002011","HRname":"Maiha","HRpcode":"NG002011","HRparent":"NG002","Shape_Leng":1.68780901936,"Shape_Area":0.102573982623,"ADM2_New":"Maiha","id":"NG-AD-MAIHA","name":"Maiha","parentId":"NG-AD","stateName":"Adamawa","regionId":"NG-NE","fillColor":"#C9B896"},"geometry":{"type":"Polygon","coordinates":[[[13.202670097000066,10.091702461000068],[13.208525658000042,10.082904816000053],[13.260570526000038,10.066844940000067],[13.290317937000054,10.047590976000038],[13.28194443700005,10.03388889100006],[13.246695148000072,10.034587902000055],[13.247573926000086,10.003300680000052],[13.261336824000068,9.992728469000042],[13.277058580000073,9.990346399000089],[13.288146864000055,9.97877825800009],[13.287004061000061,9.963024937000057],[13.281751415000087,9.938527415000067],[13.265189023000062,9.926936375000082],[13.251383028000078,9.928060622000089],[13.234975224000038,9.905944412000053],[13.23767008100009,9.884645925000086],[13.24608141400006,9.872394976000066],[13.243112685000085,9.863624783000091],[13.249271988000089,9.857461515000068],[13.274200144000076,9.85065303600004],[13.301992453000082,9.826012064000054],[13.287306329000046,9.80208920800004],[13.259950311000068,9.775709395000092],[13.255798219000042,9.749866931000042],[13.259856180000043,9.739219180000077],[13.248944924000057,9.722269578000066],[13.246951896000041,9.710418839000056],[13.251667711000039,9.698840945000086],[13.246725610000055,9.690878632000079],[13.23372125800006,9.686626537000052],[13.230420713000058,9.678325554000082],[13.23747235500008,9.66723696200006],[13.228384873000039,9.649711489000083],[13.235852099000056,9.621579826000072],[13.225322536000078,9.600013535000073],[13.228578986000059,9.587257237000074],[13.225477651000062,9.578588711000066],[13.207811847000073,9.555792967000059],[13.191933439000081,9.55902862000005],[13.17442253900009,9.543269832000078],[13.148796837000077,9.53727023600004],[13.082446098000048,9.569345474000045],[13.088202477000038,9.603042603000063],[13.084827423000092,9.645331383000041],[13.090696335000075,9.680753708000054],[13.088521957000069,9.741327286000057],[13.093184471000086,9.755036354000083],[13.09207058000004,9.774466515000086],[13.058670044000053,9.845361710000077],[13.054170609000039,9.90136623400008],[13.04272556300009,9.957379341000092],[13.047452927000052,9.99965953800006],[13.06493568400009,10.05221080800004],[13.09630203200004,10.102460861000054],[13.123581886000068,10.17656612400009],[13.179645538000045,10.106937408000078],[13.202670097000066,10.091702461000068]]]}},{"type":"Feature","properties":{"CNTRY_NAME":"Nigeria","CNTRY_CODE":"NGA","ADM1_NAME":"Adamawa","ADM1_CODE":"NGA002","ADM2_NAME":"Fufore","ADM2_CODE":"NGA002002","HRname":"Fufore","HRpcode":"NG002002","HRparent":"NG002","Shape_Leng":3.90364886983,"Shape_Area":0.409343108201,"ADM2_New":"Fufore","id":"NG-AD-FUFORE","name":"Fufore","parentId":"NG-AD","stateName":"Adamawa","regionId":"NG-NE","fillColor":"#C4A574"},"geometry":{"type":"Polygon","coordinates":[[[13.082446098000048,9.569345474000045],[13.148796837000077,9.53727023600004],[13.125987769000062,9.526134165000087],[13.105673581000076,9.522488903000067],[13.094641379000052,9.525323594000042],[13.086244196000052,9.51124386400005],[13.067583552000087,9.515186958000072],[13.048048615000084,9.504870568000058],[13.034414306000087,9.506588498000042],[13.011101543000052,9.490112828000065],[13.005374353000036,9.480644812000037],[12.975567657000056,9.464334296000061],[12.961320245000081,9.440089817000057],[12.950716470000089,9.436933963000058],[12.94373064000007,9.426884103000077],[12.945089857000085,9.421564609000086],[12.903876995000076,9.399044034000042],[12.878039348000073,9.393701063000037],[12.86853483100009,9.379930338000065],[12.871388297000067,9.368919706000042],[12.847572625000055,9.37177564500007],[12.87428605100007,9.346753806000038],[12.881368648000091,9.34622216200006],[12.889826644000038,9.353208145000053],[12.909332930000062,9.353596000000039],[12.925936866000086,9.33522995800007],[12.919172394000043,9.330861564000088],[12.918904471000076,9.323254593000058],[12.910626308000076,9.31327460700004],[12.911408946000051,9.290941388000078],[12.918316960000084,9.279023523000092],[12.911090192000074,9.265810694000038],[12.916985336000039,9.251703232000068],[12.906488109000065,9.223373045000073],[12.900558642000078,9.220635946000073],[12.899170870000091,9.194774417000076],[12.887930526000048,9.178517593000038],[12.89293761500005,9.17428975200005],[12.884838982000076,9.14781521100008],[12.897214143000042,9.134637603000044],[12.89242074200007,9.127195781000069],[12.900726710000072,9.11423338700007],[12.888214305000076,9.101796308000075],[12.891247212000053,9.089305693000085],[12.865277778000063,9.017500002000077],[12.822777777000056,8.971666673000072],[12.81945384700009,8.950234715000079],[12.81355476400006,8.955356598000037],[12.79851055100005,8.95651722000008],[12.784603119000053,8.948533058000066],[12.752060890000052,8.89028453800006],[12.689492226000084,8.860641479000037],[12.628060341000037,8.82185459100009],[12.494864464000045,8.780863762000081],[12.45547199200007,8.763766289000046],[12.424238205000051,8.770659447000071],[12.378005028000075,8.798140526000054],[12.35606193500007,8.81873703000008],[12.351462364000042,8.831314087000067],[12.339879990000043,8.82789802600007],[12.309726715000068,8.801647186000082],[12.25194835700006,8.84171295200008],[12.198866844000065,8.910345078000091],[12.171298027000091,9.000661850000085],[12.157478333000086,9.030392647000042],[12.118121147000068,9.028151512000079],[12.074110985000061,9.015630722000083],[12.057914734000065,9.019077301000038],[12.062700272000086,9.086501122000072],[12.07670879400007,9.137912750000055],[12.09717369100008,9.176241875000073],[12.109192848000077,9.171018600000082],[12.124249458000065,9.175573349000047],[12.17987346600006,9.20522403700005],[12.212352753000062,9.23604393000005],[12.23785495800007,9.253157616000067],[12.263336182000046,9.261128426000084],[12.303818703000047,9.249653816000091],[12.316532135000045,9.24163913700005],[12.40423584000007,9.129538536000041],[12.438894272000084,9.102070808000065],[12.459713936000071,9.096332550000056],[12.547666550000088,9.091660500000046],[12.561557770000093,9.092787743000088],[12.583585739000057,9.108762741000078],[12.596369743000082,9.131605148000062],[12.595233917000087,9.14074897800009],[12.609196663000091,9.172733307000044],[12.602481842000088,9.272169113000075],[12.587568283000053,9.329329491000067],[12.589903831000072,9.338469505000091],[12.607304573000079,9.35559272800009],[12.618939400000045,9.381864548000067],[12.611104965000038,9.497302055000091],[12.618094444000064,9.516722679000054],[12.651775360000045,9.566969872000072],[12.68309402500006,9.596648216000062],[12.706324577000089,9.63205051400007],[12.722805977000064,9.752031326000065],[12.727437973000065,9.753169060000062],[12.787504196000043,9.701671600000054],[12.83721733100009,9.677615166000066],[12.875350952000076,9.651285172000087],[12.993291855000052,9.602007866000065],[13.052280426000038,9.584797859000048],[13.082446098000048,9.569345474000045]]]}},{"type":"Feature","properties":{"CNTRY_NAME":"Nigeria","CNTRY_CODE":"NGA","ADM1_NAME":"Adamawa","ADM1_CODE":"NGA002","ADM2_NAME":"Jada","ADM2_CODE":"NGA002008","HRname":"Jada","HRpcode":"NG002008","HRparent":"NG002","Shape_Leng":2.9975487288,"Shape_Area":0.229010785729,"ADM2_New":"Jada","id":"NG-AD-JADA","name":"Jada","parentId":"NG-AD","stateName":"Adamawa","regionId":"NG-NE","fillColor":"#D4C4A0"},"geometry":{"type":"Polygon","coordinates":[[[12.81945384700009,8.950234715000079],[12.815214385000047,8.92289960800008],[12.803314640000053,8.913080879000063],[12.807140792000041,8.903434743000048],[12.817417161000037,8.903675988000089],[12.818647762000069,8.896380364000038],[12.807233875000065,8.88772571900006],[12.811845978000065,8.86471657800007],[12.804254308000054,8.863264591000075],[12.80131530500006,8.855413415000044],[12.818449423000061,8.829938698000092],[12.810515432000045,8.818964999000059],[12.811770133000039,8.799930127000039],[12.787160809000056,8.78316852800009],[12.792607450000048,8.769278903000043],[12.784442843000079,8.745930347000069],[12.768741934000047,8.749037012000088],[12.75112710600007,8.764951748000044],[12.73998246800005,8.757491421000054],[12.719895911000037,8.761795889000041],[12.710921218000067,8.734596898000063],[12.70724313800008,8.711649002000058],[12.710219944000073,8.702732706000063],[12.697359214000073,8.679022874000054],[12.700905254000077,8.670181329000059],[12.67405083300008,8.64735083000005],[12.654472145000057,8.652746539000077],[12.642283414000076,8.646497828000065],[12.635592139000039,8.64830575700006],[12.630862673000081,8.63662408600004],[12.61509338500008,8.640132923000067],[12.608208925000042,8.633874388000038],[12.60134940200004,8.608126905000063],[12.619919033000087,8.603896520000092],[12.604754504000084,8.599981787000047],[12.599049599000068,8.591319172000055],[12.548329218000049,8.612618582000039],[12.548341049000044,8.621453553000038],[12.537711818000048,8.63161318200008],[12.523171973000046,8.630776149000042],[12.503765945000055,8.64198735900004],[12.49268135400007,8.641077489000054],[12.463262101000055,8.621669729000075],[12.431740653000077,8.620085305000089],[12.446332125000083,8.602668956000059],[12.446122973000058,8.570460146000073],[12.45338673200007,8.568153334000044],[12.458744421000063,8.551464767000084],[12.412597428000083,8.54097809600006],[12.394134136000048,8.496226783000054],[12.408859395000093,8.47532585600004],[12.366461234000042,8.420612748000053],[12.335165360000076,8.431113150000044],[12.311524268000085,8.426201259000038],[12.301633389000074,8.44190860100008],[12.277147488000082,8.446280411000089],[12.273090363000051,8.474832535000075],[12.25112628900007,8.486286163000045],[12.153848648000064,8.462397575000068],[12.11333370200009,8.460157394000078],[12.073955536000085,8.448774338000078],[12.055413246000057,8.438509941000063],[12.040367126000092,8.438527107000084],[11.999921799000049,8.466001511000059],[11.977999687000079,8.495740891000082],[11.978068352000037,8.525455475000058],[12.00474739100008,8.550567627000078],[12.01870441400007,8.580265999000062],[12.022232056000064,8.604261398000062],[11.999160767000092,8.63743114500005],[11.958710670000073,8.662619591000066],[11.915902138000092,8.669526100000041],[11.918230057000073,8.675237656000093],[11.963479996000046,8.723185539000042],[12.048126221000075,8.790517807000072],[12.07596778900006,8.817914009000049],[12.108425140000065,8.83959198000008],[12.147877693000055,8.882974625000088],[12.19691085800008,8.915528297000037],[12.25194835700006,8.84171295200008],[12.301632881000046,8.805085182000084],[12.309726715000068,8.801647186000082],[12.31783580800004,8.805066109000052],[12.339879990000043,8.82789802600007],[12.351462364000042,8.831314087000067],[12.35606193500007,8.81873703000008],[12.378005028000075,8.798140526000054],[12.424238205000051,8.770659447000071],[12.45547199200007,8.763766289000046],[12.494864464000045,8.780863762000081],[12.628060341000037,8.82185459100009],[12.689492226000084,8.860641479000037],[12.752060890000052,8.89028453800006],[12.790403366000078,8.954240799000047],[12.806612968000081,8.95650768300004],[12.81945384700009,8.950234715000079]]]}},{"type":"Feature","properties":{"CNTRY_NAME":"Nigeria","CNTRY_CODE":"NGA","ADM1_NAME":"Adamawa","ADM1_CODE":"NGA002","ADM2_NAME":"Ganaye","ADM2_CODE":"NGA002003","HRname":"Ganaye","HRpcode":"NG002003","HRparent":"NG002","Shape_Leng":1.9146821659,"Shape_Area":0.155622300535,"ADM2_New":"Ganye","id":"NG-AD-GANAYE","name":"Ganaye","parentId":"NG-AD","stateName":"Adamawa","regionId":"NG-NE","fillColor":"#5B8FA8"},"geometry":{"type":"Polygon","coordinates":[[[12.274528069000041,8.446818498000084],[12.267441394000059,8.448274260000062],[12.259681483000065,8.442364245000078],[12.260746170000061,8.425762052000039],[12.252089522000063,8.415625110000065],[12.243967413000064,8.383575779000068],[12.23741562300006,8.247204329000056],[12.204248428000085,8.23491096500004],[12.191532135000045,8.241783142000088],[12.15682601900005,8.24868011500007],[12.081497192000086,8.206480026000065],[12.017848015000084,8.209980965000057],[11.96002483400008,8.230619431000093],[11.914941788000078,8.254670143000055],[11.843240738000077,8.279894829000057],[11.809718132000057,8.298219681000091],[11.758830070000045,8.314277649000076],[11.628797531000089,8.384893417000058],[11.651279449000072,8.426426888000037],[11.674528122000083,8.44811248800005],[11.730189323000047,8.470869064000055],[11.780158043000085,8.514232635000042],[11.796403885000075,8.546234131000062],[11.845178604000068,8.617035866000037],[11.915902138000092,8.669526100000041],[11.958710670000073,8.662619591000066],[11.981826782000041,8.648879051000051],[11.999160767000092,8.63743114500005],[12.022232056000064,8.604261398000062],[12.01870441400007,8.580265999000062],[12.00474739100008,8.550567627000078],[11.978068352000037,8.525455475000058],[11.975701332000085,8.50260067000005],[11.992996216000051,8.474009514000045],[12.02186965900006,8.44769096400006],[12.040367126000092,8.438527107000084],[12.055413246000057,8.438509941000063],[12.073955536000085,8.448774338000078],[12.11333370200009,8.460157394000078],[12.153848648000064,8.462397575000068],[12.25112628900007,8.486286163000045],[12.273090363000051,8.474832535000075],[12.274528069000041,8.446818498000084]]]}},{"type":"Feature","properties":{"CNTRY_NAME":"Nigeria","CNTRY_CODE":"NGA","ADM1_NAME":"Adamawa","ADM1_CODE":"NGA002","ADM2_NAME":"Toungo","ADM2_CODE":"NGA002019","HRname":"Toungo","HRpcode":"NG002019","HRparent":"NG002","Shape_Leng":3.45671601573,"Shape_Area":0.443040375657,"ADM2_New":"Toungo","id":"NG-AD-TOUNGO","name":"Toungo","parentId":"NG-AD","stateName":"Adamawa","regionId":"NG-NE","fillColor":"#8AAB76"},"geometry":{"type":"Polygon","coordinates":[[[12.23741562300006,8.247204329000056],[12.234418619000053,8.16298289000008],[12.225347798000087,8.144103157000075],[12.202641301000085,8.128718270000093],[12.193281379000041,8.112039616000061],[12.190931375000048,8.09636553200005],[12.200038386000074,8.062781361000077],[12.198720027000093,8.010240298000042],[12.212462444000039,7.981945483000061],[12.206417376000047,7.966957985000079],[12.189511491000076,7.956420966000053],[12.194506684000089,7.94120315400005],[12.182929800000068,7.937013167000089],[12.171126981000043,7.923833153000089],[12.162763510000048,7.912684461000083],[12.162064660000055,7.902687520000086],[12.077534190000051,7.799127474000045],[12.072717128000079,7.798445117000085],[12.057571521000057,7.769373994000091],[12.062650955000038,7.758225234000065],[12.058600982000087,7.749316054000076],[12.050321718000077,7.734269100000063],[12.03898748000006,7.732232983000074],[12.036803808000059,7.718616090000069],[12.019104204000087,7.697216125000068],[12.017339740000068,7.6820724340000766],[12.014051119000044,7.677620399000091],[11.998044465000078,7.676141372000075],[11.996708681000086,7.667298110000047],[12.006987311000046,7.649427674000037],[12.003237604000049,7.638993321000044],[12.011606697000047,7.630754487000047],[12.004854633000036,7.604571564000082],[12.012024242000052,7.592927854000038],[12.00470151400009,7.5811182430000486],[12.011135505000084,7.567382789000078],[12.006748911000045,7.564435085000071],[12.012299161000044,7.55916766100006],[12.009837665000077,7.545289368000056],[12.024259397000037,7.530005172000074],[12.019053283000062,7.522614820000058],[12.010289612000065,7.522657196000068],[12.001357339000037,7.511566112000082],[11.97576382200009,7.504237034000084],[11.95830329100005,7.490138941000055],[11.932644407000055,7.486125460000039],[11.914197950000073,7.466606875000082],[11.915859415000057,7.452525570000091],[11.931211924000081,7.437422156000082],[11.924149588000091,7.425241471000049],[11.92774744400009,7.395003995000081],[11.888101474000052,7.3325987180000425],[11.831790924000074,7.4168601040000794],[11.77193546300009,7.487935543000049],[11.762919426000053,7.540587902000084],[11.77159881600005,7.665281773000061],[11.757985115000054,7.724809170000071],[11.747658730000069,7.7442841530000806],[11.687712669000064,7.795908451000059],[11.671657562000064,7.827981949000048],[11.636000633000037,7.876118183000074],[11.578268051000066,7.9059987070000375],[11.551552773000083,7.903331757000046],[11.544662476000042,7.896922112000084],[11.51419353500006,7.815756321000038],[11.500230789000057,7.799769878000063],[11.48981380500004,7.799793720000082],[11.472526550000055,7.815851212000041],[11.411566734000075,7.898370743000044],[11.393233299000087,7.938458920000073],[11.354151726000055,7.996901035000064],[11.350749016000066,8.011782646000086],[11.341521263000061,8.018668175000073],[11.342720985000085,8.027819633000092],[11.354290009000067,8.026648521000084],[11.34625721000009,8.041541100000074],[11.390476227000079,8.092926979000083],[11.52298641200008,8.215049744000055],[11.554442406000078,8.259599686000058],[11.60116767900007,8.352170944000079],[11.628797531000089,8.384893417000058],[11.758830070000045,8.314277649000076],[11.809718132000057,8.298219681000091],[11.843240738000077,8.279894829000057],[11.914941788000078,8.254670143000055],[11.96002483400008,8.230619431000093],[12.017848015000084,8.209980965000057],[12.081497192000086,8.206480026000065],[12.15682601900005,8.24868011500007],[12.191532135000045,8.241783142000088],[12.204248428000085,8.23491096500004],[12.23741562300006,8.247204329000056]]]}}]}