{"type":"FeatureCollection","features":[{"type":"Feature","properties":{"CNTRY_NAME":"Nigeria","CNTRY_CODE":"NGA","ADM1_NAME":"Anambra","ADM1_CODE":"NGA004","ADM2_NAME":"Aguata","ADM2_CODE":"NGA004001","HRname":"Aguata","HRpcode":"NG004001","HRparent":"NG004","Shape_Leng":0.62933700682,"Shape_Area":0.015930032622,"ADM2_New":"Aguata","id":"NG-AN-AGUATA","name":"Aguata","parentId":"NG-AN","stateName":"Anambra","regionId":"NG-SE","fillColor":"#7cb87c"},"geometry":{"type":"Polygon","coordinates":[[[6.983145714000045,6.020396709000067],[7.010327339000071,6.034558296000057],[7.02427244200004,6.049810886000046],[7.040832520000038,6.055911541000057],[7.0504198070000825,6.066370487000086],[7.110122204000049,6.052861214000075],[7.130604267000081,6.017562389000091],[7.134090424000078,6.000131130000057],[7.146545887000059,5.988787651000052],[7.155444145000047,5.9465293880000445],[7.170260906000067,5.934327126000085],[7.202844620000064,5.920961857000066],[7.19518852200008,5.90494108200005],[7.188812733000077,5.89953136400004],[7.142893791000063,5.918504238000082],[7.056444645000056,5.9306135180000865],[7.065671921000046,5.9504513740000675],[7.060878277000086,5.967011452000065],[7.03908920300006,5.982699394000065],[6.988101959000062,5.999695301000088],[6.983145714000045,6.020396709000067]]]}},{"type":"Feature","properties":{"CNTRY_NAME":"Nigeria","CNTRY_CODE":"NGA","ADM1_NAME":"Anambra","ADM1_CODE":"NGA004","ADM2_NAME":"Anambra East","ADM2_CODE":"NGA004002","HRname":"Anambra East","HRpcode":"NG004002","HRparent":"NG004","Shape_Leng":0.714685833913,"Shape_Area":0.0204810091126,"ADM2_New":"Anambra East","id":"NG-AN-ANAMBRA-EAST","name":"Anambra East","parentId":"NG-AN","stateName":"Anambra","regionId":"NG-SE","fillColor":"#8fbc8f"},"geometry":{"type":"Polygon","coordinates":[[[6.860957146000089,6.361516476000077],[6.864992619000077,6.3714208600000575],[6.887435436000089,6.393210411000041],[6.922734261000073,6.400182724000047],[6.9401655200000505,6.414563656000041],[6.9510602950000475,6.435481548000041],[6.965441227000042,6.43983936300009],[6.981354713000087,6.416490555000053],[6.971324444000061,6.405848026000058],[6.9623909000000594,6.384058952000089],[6.96108341200005,6.37490749400007],[6.970234871000059,6.348324299000069],[6.965297699000075,6.317677975000038],[6.883731365000074,6.268139839000071],[6.84385681200007,6.222382069000048],[6.839498997000078,6.205386639000039],[6.818651199000044,6.191106796000042],[6.781200409000064,6.189338207000048],[6.792216301000053,6.249836445000085],[6.802239418000056,6.275983810000071],[6.820542336000074,6.293415070000037],[6.8405885700000795,6.3478884700000435],[6.860957146000089,6.361516476000077]]]}},{"type":"Feature","properties":{"CNTRY_NAME":"Nigeria","CNTRY_CODE":"NGA","ADM1_NAME":"Anambra","ADM1_CODE":"NGA004","ADM2_NAME":"Anambra West","ADM2_CODE":"NGA004003","HRname":"Anambra West","HRpcode":"NG004003","HRparent":"NG004","Shape_Leng":1.53021058695,"Shape_Area":0.0779397289331,"ADM2_New":"Anambra West","id":"NG-AN-ANAMBRA-WEST","name":"Anambra West","parentId":"NG-AN","stateName":"Anambra","regionId":"NG-SE","fillColor":"#a8c686"},"geometry":{"type":"Polygon","coordinates":[[[6.932072639000069,6.76769352000008],[6.930796146000091,6.6908526420000385],[6.943870068000081,6.686930180000047],[6.945177078000086,6.680829525000092],[6.934718132000057,6.673420906000047],[6.939947605000043,6.660783291000087],[6.933846951000078,6.640301228000055],[6.9416909220000775,6.619383335000066],[6.91728687300008,6.583649158000071],[6.922516346000066,6.573190212000043],[6.911185741000054,6.568396568000082],[6.911621571000069,6.5596809390000885],[6.900726795000082,6.557937622000054],[6.906174183000076,6.543992519000085],[6.900073528000064,6.540941715000088],[6.886999607000064,6.510872841000094],[6.883949280000081,6.465550900000039],[6.8608527180000465,6.41717863100007],[6.863903046000075,6.407591343000092],[6.856059074000086,6.386673450000046],[6.860957146000089,6.361516476000077],[6.8405885700000795,6.3478884700000435],[6.820542336000074,6.293415070000037],[6.802239418000056,6.275983810000071],[6.792216301000053,6.249836445000085],[6.783282757000052,6.19231271700005],[6.762889385000051,6.185385704000055],[6.742698193000081,6.209370136000075],[6.731006145000038,6.239092827000093],[6.712820053000087,6.35336589800005],[6.699773788000073,6.3816900250000685],[6.6817650790000584,6.455741882000041],[6.673863888000085,6.468333244000064],[6.664700985000081,6.532356262000064],[6.683923244000084,6.543120861000091],[6.76410818100004,6.563602924000065],[6.808122635000075,6.580162525000048],[6.808993816000054,6.615897179000058],[6.798970699000051,6.679522038000073],[6.80637931800004,6.703054428000087],[6.833833694000077,6.722229004000042],[6.859981060000052,6.7531700130000445],[6.87828397800007,6.760578156000065],[6.896804810000049,6.792390823000062],[6.912057400000037,6.800670624000077],[6.92338800400006,6.8019781110000395],[6.931231976000049,6.78803300900006],[6.932072639000069,6.76769352000008]]]}},{"type":"Feature","properties":{"CNTRY_NAME":"Nigeria","CNTRY_CODE":"NGA","ADM1_NAME":"Anambra","ADM1_CODE":"NGA004","ADM2_NAME":"Anaocha","ADM2_CODE":"NGA004004","HRname":"Anaocha","HRpcode":"NG004004","HRparent":"NG004","Shape_Leng":0.418313428528,"Shape_Area":0.00852352824722,"ADM2_New":"Anaocha","id":"NG-AN-ANAOCHA","name":"Anaocha","parentId":"NG-AN","stateName":"Anambra","regionId":"NG-SE","fillColor":"#c2b280"},"geometry":{"type":"Polygon","coordinates":[[[6.974891186000093,6.123594761000049],[7.0037903790000655,6.1265091900000925],[7.016863823000051,6.1600646970000525],[7.033859730000074,6.161372185000062],[7.0395250320000855,6.158321381000064],[7.036910057000057,6.15091323900009],[7.045626163000065,6.136968136000064],[7.081796169000086,6.115178585000081],[7.056956291000063,6.0868525510000495],[7.04693317400006,6.061141014000043],[6.983145714000045,6.020396709000067],[6.968491554000082,6.0240993500000855],[6.971542358000079,6.0615768430000685],[6.98200130500004,6.0964398380000375],[6.974891186000093,6.123594761000049]]]}},{"type":"Feature","properties":{"CNTRY_NAME":"Nigeria","CNTRY_CODE":"NGA","ADM1_NAME":"Anambra","ADM1_CODE":"NGA004","ADM2_NAME":"Awka North","ADM2_CODE":"NGA004005","HRname":"Awka North","HRpcode":"NG004005","HRparent":"NG004","Shape_Leng":0.694284493329,"Shape_Area":0.0287448578634,"ADM2_New":"Awka North","id":"NG-AN-AWKA-NORTH","name":"Awka North","parentId":"NG-AN","stateName":"Anambra","regionId":"NG-SE","fillColor":"#9bb898"},"geometry":{"type":"Polygon","coordinates":[[[6.981354713000087,6.416490555000053],[7.025144100000091,6.444197178000081],[7.088768959000049,6.430252075000055],[7.096612930000049,6.422408104000056],[7.135833740000066,6.3727283480000665],[7.16219902000006,6.30474567400006],[7.142588615000079,6.289057255000046],[7.149125099000059,6.26247453700006],[7.146946430000071,6.244606972000042],[7.117312908000088,6.241120815000045],[7.092037201000039,6.2602953910000565],[7.066761494000048,6.26901102100004],[7.018863201000045,6.2381911280000395],[6.987884045000044,6.303874016000066],[6.9782967570000665,6.314332962000037],[6.965297699000075,6.317677975000038],[6.970234871000059,6.348324299000069],[6.96108341200005,6.37490749400007],[6.9623909000000594,6.384058952000089],[6.971324444000061,6.405848026000058],[6.981354713000087,6.416490555000053]]]}},{"type":"Feature","properties":{"CNTRY_NAME":"Nigeria","CNTRY_CODE":"NGA","ADM1_NAME":"Anambra","ADM1_CODE":"NGA004","ADM2_NAME":"Awka South","ADM2_CODE":"NGA004006","HRname":"Awka South","HRpcode":"NG004006","HRparent":"NG004","Shape_Leng":0.465150153794,"Shape_Area":0.0139076373554,"ADM2_New":"Awka South","id":"NG-AN-AWKA-SOUTH","name":"Awka South","parentId":"NG-AN","stateName":"Anambra","regionId":"NG-SE","fillColor":"#6ba3be"},"geometry":{"type":"Polygon","coordinates":[[[7.018863201000045,6.2381911280000395],[7.066761494000048,6.26901102100004],[7.092037201000039,6.2602953910000565],[7.117312908000088,6.241120815000045],[7.147720337000067,6.2424564360000545],[7.152611732000082,6.19928550700007],[7.1397557260000895,6.159628868000084],[7.124938965000069,6.1491699220000555],[7.108815193000055,6.128252029000066],[7.080924511000092,6.112564087000067],[7.0395250320000855,6.144812107000064],[7.039960861000054,6.180546761000073],[7.018863201000045,6.2381911280000395]]]}},{"type":"Feature","properties":{"CNTRY_NAME":"Nigeria","CNTRY_CODE":"NGA","ADM1_NAME":"Anambra","ADM1_CODE":"NGA004","ADM2_NAME":"Ayamelum","ADM2_CODE":"NGA004007","HRname":"Ayamelum","HRpcode":"NG004007","HRparent":"NG004","Shape_Leng":1.10885040873,"Shape_Area":0.0481140124556,"ADM2_New":"Ayamelum","id":"NG-AN-AYAMELUM","name":"Ayamelum","parentId":"NG-AN","stateName":"Anambra","regionId":"NG-SE","fillColor":"#89a96d"},"geometry":{"type":"Polygon","coordinates":[[[6.931667805000075,6.698696613000038],[6.956507683000041,6.71002721800005],[6.990934849000041,6.71307754500009],[7.007494450000081,6.708719730000041],[7.05063772200009,6.6825723650000555],[7.070247650000056,6.685623169000053],[7.1016244890000735,6.67560005200005],[7.129078865000054,6.659475803000078],[7.131693840000082,6.643351555000038],[7.109468460000073,6.5932364460000485],[7.084193230000039,6.562295437000046],[7.06327533700005,6.554887295000071],[7.05543136600005,6.545300007000037],[7.046279430000084,6.512179852000088],[7.049659252000083,6.4743566510000505],[7.036256313000081,6.4738307000000646],[7.0274682040000584,6.443563461000053],[7.009891510000045,6.43678903600005],[6.981354713000087,6.416490555000053],[6.965441227000042,6.43983936300009],[6.9510602950000475,6.435481548000041],[6.9401655200000505,6.414563656000041],[6.922734261000073,6.400182724000047],[6.887435436000089,6.393210411000041],[6.864992619000077,6.3714208600000575],[6.860957146000089,6.361516476000077],[6.856059074000086,6.386673450000046],[6.863903046000075,6.407591343000092],[6.8608527180000465,6.41717863100007],[6.883949280000081,6.465550900000039],[6.886999607000064,6.510872841000094],[6.900073528000064,6.540941715000088],[6.906174183000076,6.543992519000085],[6.900726795000082,6.557937622000054],[6.90944290200008,6.557937622000054],[6.911185741000054,6.568396568000082],[6.922516346000066,6.573190212000043],[6.91728687300008,6.583649158000071],[6.9416909220000775,6.619383335000066],[6.933846951000078,6.640301228000055],[6.939947605000043,6.660783291000087],[6.934718132000057,6.673420906000047],[6.945177078000086,6.680829525000092],[6.943870068000081,6.686930180000047],[6.930796146000091,6.6908526420000385],[6.931667805000075,6.698696613000038]]]}},{"type":"Feature","properties":{"CNTRY_NAME":"Nigeria","CNTRY_CODE":"NGA","ADM1_NAME":"Anambra","ADM1_CODE":"NGA004","ADM2_NAME":"Dunukofia","ADM2_CODE":"NGA004008","HRname":"Dunukofia","HRpcode":"NG004008","HRparent":"NG004","Shape_Leng":0.535977003603,"Shape_Area":0.00535552481352,"ADM2_New":"Dunukofia","id":"NG-AN-DUNUKOFIA","name":"Dunukofia","parentId":"NG-AN","stateName":"Anambra","regionId":"NG-SE","fillColor":"#b5c99a"},"geometry":{"type":"MultiPolygon","coordinates":[[[[6.965297699000075,6.317677975000038],[6.9782967570000665,6.314332962000037],[6.998778820000041,6.282956600000091],[7.008366108000075,6.255501747000039],[6.996600151000052,6.23545551300009],[6.9865770340000495,6.236763000000053],[6.970016956000052,6.251579762000063],[6.9523677830000565,6.244171619000042],[6.95628976800009,6.289057255000046],[6.965297699000075,6.317677975000038]]],[[[6.908619404000092,6.170330048000039],[6.944959164000068,6.199721336000039],[6.9544148450000876,6.2351641650000715],[6.986359119000042,6.208001137000053],[6.9549822810000705,6.195799351000062],[6.942780495000079,6.1766242980000925],[6.968254089000084,6.138195992000078],[6.955853939000065,6.13609647800007],[6.947138309000081,6.140454292000072],[6.908619404000092,6.170330048000039]]]]}},{"type":"Feature","properties":{"CNTRY_NAME":"Nigeria","CNTRY_CODE":"NGA","ADM1_NAME":"Anambra","ADM1_CODE":"NGA004","ADM2_NAME":"Ekwusigo","ADM2_CODE":"NGA004009","HRname":"Ekwusigo","HRpcode":"NG004009","HRparent":"NG004","Shape_Leng":0.571535439305,"Shape_Area":0.00950667937886,"ADM2_New":"Ekwusigo","id":"NG-AN-EKWUSIGO","name":"Ekwusigo","parentId":"NG-AN","stateName":"Anambra","regionId":"NG-SE","fillColor":"#d4a574"},"geometry":{"type":"Polygon","coordinates":[[[6.784153938000088,6.05809068700006],[6.80027818700006,6.045017242000085],[6.846907616000067,6.041966438000088],[6.864338875000044,6.048503399000083],[6.895715237000047,6.075521946000038],[6.89310073900009,6.041530609000063],[6.875233650000041,5.994029999000077],[6.861605644000065,5.9392018320000375],[6.914200783000069,5.916433334000089],[6.9096608160000415,5.897285461000081],[6.894844055000078,5.89859294900009],[6.869132519000061,5.909487724000087],[6.819016933000057,5.952194691000045],[6.812480450000066,5.964832306000062],[6.811172962000057,5.983571053000048],[6.798534870000083,6.00405311600008],[6.784153938000088,6.05809068700006]]]}},{"type":"Feature","properties":{"CNTRY_NAME":"Nigeria","CNTRY_CODE":"NGA","ADM1_NAME":"Anambra","ADM1_CODE":"NGA004","ADM2_NAME":"Idemili North","ADM2_CODE":"NGA004010","HRname":"Idemili North","HRpcode":"NG004010","HRparent":"NG004","Shape_Leng":0.47165586437,"Shape_Area":0.00942902077392,"ADM2_New":"Idemili North","id":"NG-AN-IDEMILI-NORTH","name":"Idemili North","parentId":"NG-AN","stateName":"Anambra","regionId":"NG-SE","fillColor":"#5a9e6f"},"geometry":{"type":"Polygon","coordinates":[[[6.835141182000086,6.182289600000047],[6.844728470000064,6.167037010000058],[6.874361992000047,6.164422512000044],[6.9022521970000525,6.166165829000079],[6.908619404000092,6.170330048000039],[6.947138309000081,6.140454292000072],[6.955853939000065,6.13609647800007],[6.968254089000084,6.138195992000078],[6.974891186000093,6.123594761000049],[6.958468914000093,6.1143069270000865],[6.93450021700005,6.090774536000083],[6.911839485000087,6.094260693000081],[6.890921593000087,6.106027126000072],[6.865646362000064,6.094260693000081],[6.831655025000089,6.103412628000058],[6.8011498450000545,6.098618984000041],[6.790690899000083,6.103847980000069],[6.791934013000059,6.1079044340000905],[6.811608791000083,6.123894215000064],[6.835141182000086,6.182289600000047]]]}},{"type":"Feature","properties":{"CNTRY_NAME":"Nigeria","CNTRY_CODE":"NGA","ADM1_NAME":"Anambra","ADM1_CODE":"NGA004","ADM2_NAME":"Idemili South","ADM2_CODE":"NGA004011","HRname":"Idemili South","HRpcode":"NG004011","HRparent":"NG004","Shape_Leng":0.599439623593,"Shape_Area":0.01119064031,"ADM2_New":"Idemili South","id":"NG-AN-IDEMILI-SOUTH","name":"Idemili South","parentId":"NG-AN","stateName":"Anambra","regionId":"NG-SE","fillColor":"#84b882"},"geometry":{"type":"Polygon","coordinates":[[[6.790690899000083,6.103847980000069],[6.8011498450000545,6.098618984000041],[6.831655025000089,6.103412628000058],[6.865646362000064,6.094260693000081],[6.890921593000087,6.106027126000072],[6.911839485000087,6.094260693000081],[6.93450021700005,6.090774536000083],[6.972414017000062,6.123023033000038],[6.98200130500004,6.0964398380000375],[6.971542358000079,6.0615768430000685],[6.968491554000082,6.0240993500000855],[6.954110622000087,6.020177364000062],[6.93362903600007,6.02366352100006],[6.9244775770000615,6.032379150000054],[6.909224987000073,6.063320160000046],[6.896720886000082,6.073711872000047],[6.854751587000067,6.044145584000091],[6.821631908000086,6.041530609000063],[6.80027818700006,6.045017242000085],[6.77892494200006,6.059834003000049],[6.776309967000088,6.071164131000046],[6.775874138000063,6.097311497000078],[6.790690899000083,6.103847980000069]]]}},{"type":"Feature","properties":{"CNTRY_NAME":"Nigeria","CNTRY_CODE":"NGA","ADM1_NAME":"Anambra","ADM1_CODE":"NGA004","ADM2_NAME":"Ihiala","ADM2_CODE":"NGA004012","HRname":"Ihiala","HRpcode":"NG004012","HRparent":"NG004","Shape_Leng":0.676221338515,"Shape_Area":0.0205517249062,"ADM2_New":"Ihiala","id":"NG-AN-IHIALA","name":"Ihiala","parentId":"NG-AN","stateName":"Anambra","regionId":"NG-SE","fillColor":"#c9b896"},"geometry":{"type":"Polygon","coordinates":[[[6.826373100000069,5.944403172000079],[6.869132519000061,5.909487724000087],[6.894844055000078,5.89859294900009],[6.9096608160000415,5.897285461000081],[6.914200783000069,5.916433334000089],[6.993331432000048,5.898157120000064],[6.988824844000078,5.886844635000045],[6.949820518000081,5.840328217000092],[6.891510963000087,5.808869839000067],[6.883652687000051,5.754102230000058],[6.876645565000047,5.744104385000071],[6.863240719000089,5.749650478000092],[6.819803715000091,5.783531666000044],[6.797228813000061,5.789427757000055],[6.788947582000048,5.814486027000044],[6.793741226000066,5.8519635200000835],[6.787204742000085,5.865909100000067],[6.811172962000057,5.895106316000067],[6.826373100000069,5.944403172000079]]]}},{"type":"Feature","properties":{"CNTRY_NAME":"Nigeria","CNTRY_CODE":"NGA","ADM1_NAME":"Anambra","ADM1_CODE":"NGA004","ADM2_NAME":"Njikoka","ADM2_CODE":"NGA004013","HRname":"Njikoka","HRpcode":"NG004013","HRparent":"NG004","Shape_Leng":0.445093556918,"Shape_Area":0.00777042301159,"ADM2_New":"Njikoka","id":"NG-AN-NJIKOKA","name":"Njikoka","parentId":"NG-AN","stateName":"Anambra","regionId":"NG-SE","fillColor":"#7eb09a"},"geometry":{"type":"Polygon","coordinates":[[[7.008366108000075,6.255501747000039],[7.0356030460000625,6.199721336000039],[7.0395250320000855,6.158321381000064],[7.016863823000051,6.1600646970000525],[7.0037903790000655,6.1265091900000925],[6.974891186000093,6.123594761000049],[6.942780495000079,6.1766242980000925],[6.9549822810000705,6.195799351000062],[6.986359119000042,6.208001137000053],[6.9544148450000876,6.2351641650000715],[6.9523677830000565,6.244171619000042],[6.970016956000052,6.251579762000063],[6.9865770340000495,6.236763000000053],[6.996600151000052,6.23545551300009],[7.008366108000075,6.255501747000039]]]}},{"type":"Feature","properties":{"CNTRY_NAME":"Nigeria","CNTRY_CODE":"NGA","ADM1_NAME":"Anambra","ADM1_CODE":"NGA004","ADM2_NAME":"Nnewi North","ADM2_CODE":"NGA004014","HRname":"Nnewi North","HRpcode":"NG004014","HRparent":"NG004","Shape_Leng":0.341309609911,"Shape_Area":0.00488594007178,"ADM2_New":"Nnewi North","id":"NG-AN-NNEWI-NORTH","name":"Nnewi North","parentId":"NG-AN","stateName":"Anambra","regionId":"NG-SE","fillColor":"#a4c4a0"},"geometry":{"type":"Polygon","coordinates":[[[6.896720886000082,6.073711872000047],[6.909224987000073,6.063320160000046],[6.9244775770000615,6.032379150000054],[6.93362903600007,6.02366352100006],[6.9460830690000535,6.020750523000061],[6.944087505000084,6.0031814580000855],[6.898766041000044,5.9613461490000645],[6.861605644000065,5.9392018320000375],[6.875233650000041,5.994029999000077],[6.89310073900009,6.041530609000063],[6.896720886000082,6.073711872000047]]]}},{"type":"Feature","properties":{"CNTRY_NAME":"Nigeria","CNTRY_CODE":"NGA","ADM1_NAME":"Anambra","ADM1_CODE":"NGA004","ADM2_NAME":"Nnewi South","ADM2_CODE":"NGA004015","HRname":"Nnewi South","HRpcode":"NG004015","HRparent":"NG004","Shape_Leng":0.519610616468,"Shape_Area":0.0142007647597,"ADM2_New":"Nnewi South","id":"NG-AN-NNEWI-SOUTH","name":"Nnewi South","parentId":"NG-AN","stateName":"Anambra","regionId":"NG-SE","fillColor":"#96b57c"},"geometry":{"type":"Polygon","coordinates":[[[6.968491554000082,6.0240993500000855],[6.983145714000045,6.020396709000067],[6.984179974000085,6.004924774000074],[6.992895603000079,5.9966449740000485],[7.03908920300006,5.982699394000065],[7.060878277000086,5.967011452000065],[7.065671921000046,5.9504513740000675],[7.056444645000056,5.9306135180000865],[7.031001091000064,5.91209936100006],[7.009156227000062,5.907657623000091],[6.993331432000048,5.898157120000064],[6.9022521970000525,5.918639183000039],[6.861605644000065,5.9392018320000375],[6.898766041000044,5.9613461490000645],[6.9401655200000505,5.9966449740000485],[6.9460830690000535,6.020750523000061],[6.968491554000082,6.0240993500000855]]]}},{"type":"Feature","properties":{"CNTRY_NAME":"Nigeria","CNTRY_CODE":"NGA","ADM1_NAME":"Anambra","ADM1_CODE":"NGA004","ADM2_NAME":"Ogbaru","ADM2_CODE":"NGA004016","HRname":"Ogbaru","HRpcode":"NG004016","HRparent":"NG004","Shape_Leng":1.03096271257,"Shape_Area":0.0370077020039,"ADM2_New":"Ogbaru","id":"NG-AN-OGBARU","name":"Ogbaru","parentId":"NG-AN","stateName":"Anambra","regionId":"NG-SE","fillColor":"#7cb87c"},"geometry":{"type":"Polygon","coordinates":[[[6.755804062000038,6.123312473000055],[6.786333084000091,6.123458385000049],[6.789819241000089,6.118229389000078],[6.790690899000083,6.103847980000069],[6.775874138000063,6.097311497000078],[6.776309967000088,6.071164131000046],[6.77892494200006,6.059834003000049],[6.784153938000088,6.05809068700006],[6.8024573330000635,5.993158340000093],[6.811172962000057,5.983571053000048],[6.812480450000066,5.964832306000062],[6.82403516800008,5.946235657000045],[6.824682236000058,5.936506271000042],[6.811172962000057,5.895106316000067],[6.787204742000085,5.865909100000067],[6.793741226000066,5.8519635200000835],[6.788947582000048,5.814486027000044],[6.794939041000077,5.789730549000069],[6.749246120000066,5.781147480000072],[6.688261986000043,5.7422447200000875],[6.668275833000052,5.721829414000069],[6.633620262000079,5.730035782000073],[6.6548681260000535,5.771530151000093],[6.650763512000083,5.817113400000039],[6.660915852000073,5.856529236000085],[6.697762012000055,5.913572788000067],[6.713212967000061,5.956697941000073],[6.726493835000042,6.028930187000071],[6.725058079000064,6.04625606500008],[6.709276199000044,6.078023911000059],[6.722111225000049,6.097548008000047],[6.749240875000055,6.113724232000038],[6.755804062000038,6.123312473000055]]]}},{"type":"Feature","properties":{"CNTRY_NAME":"Nigeria","CNTRY_CODE":"NGA","ADM1_NAME":"Anambra","ADM1_CODE":"NGA004","ADM2_NAME":"Onitsha North","ADM2_CODE":"NGA004017","HRname":"Onitsha North","HRpcode":"NG004017","HRparent":"NG004","Shape_Leng":0.26688178182,"Shape_Area":0.00344055461439,"ADM2_New":"Onitsha North","id":"NG-AN-ONITSHA-NORTH","name":"Onitsha North","parentId":"NG-AN","stateName":"Anambra","regionId":"NG-SE","fillColor":"#8fbc8f"},"geometry":{"type":"Polygon","coordinates":[[[6.781200409000064,6.189338207000048],[6.8159666060000745,6.190569878000076],[6.82293891900008,6.194491863000053],[6.835141182000086,6.182289600000047],[6.811608791000083,6.123894215000064],[6.791934013000059,6.1079044340000905],[6.783718586000077,6.149605751000081],[6.76478385900009,6.155804634000049],[6.769402027000069,6.167984009000065],[6.762889385000051,6.185385704000055],[6.781200409000064,6.189338207000048]]]}},{"type":"Feature","properties":{"CNTRY_NAME":"Nigeria","CNTRY_CODE":"NGA","ADM1_NAME":"Anambra","ADM1_CODE":"NGA004","ADM2_NAME":"Onitsha South","ADM2_CODE":"NGA004018","HRname":"Onitsha South","HRpcode":"NG004018","HRparent":"NG004","Shape_Leng":0.11352595639,"Shape_Area":0.00081739838579,"ADM2_New":"Onitsha South","id":"NG-AN-ONITSHA-SOUTH","name":"Onitsha South","parentId":"NG-AN","stateName":"Anambra","regionId":"NG-SE","fillColor":"#a8c686"},"geometry":{"type":"Polygon","coordinates":[[[6.76478385900009,6.155804634000049],[6.783718586000077,6.149605751000081],[6.7876405720000434,6.142632961000061],[6.786333084000091,6.123458385000049],[6.755804062000038,6.123312473000055],[6.76478385900009,6.155804634000049]]]}},{"type":"Feature","properties":{"CNTRY_NAME":"Nigeria","CNTRY_CODE":"NGA","ADM1_NAME":"Anambra","ADM1_CODE":"NGA004","ADM2_NAME":"Orumba North","ADM2_CODE":"NGA004019","HRname":"Orumba North","HRpcode":"NG004019","HRparent":"NG004","Shape_Leng":0.801051302639,"Shape_Area":0.0242780816988,"ADM2_New":"Orumba North","id":"NG-AN-ORUMBA-NORTH","name":"Orumba North","parentId":"NG-AN","stateName":"Anambra","regionId":"NG-SE","fillColor":"#c2b280"},"geometry":{"type":"Polygon","coordinates":[[[7.080924511000092,6.112564087000067],[7.108815193000055,6.128252029000066],[7.124938965000069,6.1491699220000555],[7.1397557260000895,6.159628868000084],[7.150868416000037,6.18534040500009],[7.150997639000082,6.232611656000074],[7.1569981580000785,6.230040073000055],[7.189296246000083,6.239493370000048],[7.199536800000089,6.234766960000059],[7.204263687000093,6.208770752000078],[7.223957539000082,6.191440105000083],[7.223957539000082,6.142599583000049],[7.239712715000053,6.114240170000073],[7.254803181000057,6.104719639000052],[7.26308345800004,6.070728302000077],[7.2731065750000425,6.057219028000077],[7.244344711000053,6.049375057000077],[7.2234268190000535,6.051989555000091],[7.178104877000067,6.0454530720000434],[7.147600174000047,6.020613194000077],[7.155444145000047,6.0127687450000735],[7.165903091000075,6.011897087000079],[7.167645931000038,6.005360603000042],[7.146728516000053,5.990979671000048],[7.139319897000064,5.991415501000063],[7.126682281000058,6.025842667000063],[7.110122204000049,6.052861214000075],[7.0504198070000825,6.066370487000086],[7.056956291000063,6.0868525510000495],[7.080924511000092,6.112564087000067]]]}},{"type":"Feature","properties":{"CNTRY_NAME":"Nigeria","CNTRY_CODE":"NGA","ADM1_NAME":"Anambra","ADM1_CODE":"NGA004","ADM2_NAME":"Orumba South","ADM2_CODE":"NGA004020","HRname":"Orumba South","HRpcode":"NG004020","HRparent":"NG004","Shape_Leng":0.587628493859,"Shape_Area":0.0157086255994,"ADM2_New":"Orumba South","id":"NG-AN-ORUMBA-SOUTH","name":"Orumba South","parentId":"NG-AN","stateName":"Anambra","regionId":"NG-SE","fillColor":"#9bb898"},"geometry":{"type":"Polygon","coordinates":[[[7.2731065750000425,6.057219028000077],[7.3018684390000885,6.045017242000085],[7.339062691000038,6.04214954400004],[7.3182816510000634,5.99860334400006],[7.272595882000076,5.997651577000056],[7.264029980000089,5.991465092000055],[7.254512310000052,5.965291023000077],[7.259231567000086,5.93635988200009],[7.245119572000078,5.931290627000067],[7.217018127000074,5.93091011000007],[7.202844620000064,5.920961857000066],[7.170260906000067,5.934327126000085],[7.155444145000047,5.9465293880000445],[7.146545887000059,5.988787651000052],[7.168953419000047,6.00884676000004],[7.155444145000047,6.0127687450000735],[7.147600174000047,6.020613194000077],[7.152829170000075,6.028021336000052],[7.178104877000067,6.0454530720000434],[7.2234268190000535,6.051989555000091],[7.244344711000053,6.049375057000077],[7.2731065750000425,6.057219028000077]]]}},{"type":"Feature","properties":{"CNTRY_NAME":"Nigeria","CNTRY_CODE":"NGA","ADM1_NAME":"Anambra","ADM1_CODE":"NGA004","ADM2_NAME":"Oyi","ADM2_CODE":"NGA004021","HRname":"Oyi","HRpcode":"NG004021","HRparent":"NG004","Shape_Leng":0.46630095822,"Shape_Area":0.0111457530033,"ADM2_New":"Oyi","id":"NG-AN-OYI","name":"Oyi","parentId":"NG-AN","stateName":"Anambra","regionId":"NG-SE","fillColor":"#6ba3be"},"geometry":{"type":"Polygon","coordinates":[[[6.965297699000075,6.317677975000038],[6.95628976800009,6.289057255000046],[6.9544148450000876,6.2351641650000715],[6.944959164000068,6.199721336000039],[6.9022521970000525,6.166165829000079],[6.844728470000064,6.167037010000058],[6.82293891900008,6.194491863000053],[6.839498997000078,6.205386639000039],[6.845818043000065,6.224997044000077],[6.891139507000048,6.274240494000082],[6.930360317000066,6.292979717000037],[6.951278210000055,6.31171846400008],[6.965297699000075,6.317677975000038]]]}}]}