{"type":"FeatureCollection","features":[{"type":"Feature","properties":{"CNTRY_NAME":"Nigeria","CNTRY_CODE":"NGA","ADM1_NAME":"Abia","ADM1_CODE":"NGA001","ADM2_NAME":"Aba North","ADM2_CODE":"NGA001001","HRname":"Aba North","HRpcode":"NG001001","HRparent":"NG001","Shape_Leng":0.286931669505,"Shape_Area":0.00185743022254,"ADM2_New":"Aba North","id":"NG-AB-ABA-NORTH","name":"Aba North","parentId":"NG-AB","stateName":"Abia","regionId":"NG-SE","fillColor":"#6BA368"},"geometry":{"type":"Polygon","coordinates":[[[7.320203304000074,5.102926731000082],[7.357000351000067,5.130892277000044],[7.382203102000062,5.1335492130000375],[7.401715755000055,5.104776382000068],[7.398077965000084,5.070712090000086],[7.38529062300006,5.060147762000042],[7.386502743000051,5.099153996000041],[7.3848490720000655,5.110729218000074],[7.37691164000006,5.118997574000048],[7.369305134000058,5.120320320000076],[7.344501019000063,5.1004772190000836],[7.320203304000074,5.102926731000082]]]}},{"type":"Feature","properties":{"CNTRY_NAME":"Nigeria","CNTRY_CODE":"NGA","ADM1_NAME":"Abia","ADM1_CODE":"NGA001","ADM2_NAME":"Aba South","ADM2_CODE":"NGA001002","HRname":"Aba South","HRpcode":"NG001002","HRparent":"NG001","Shape_Leng":0.253419215529,"Shape_Area":0.00400956152107,"ADM2_New":"Aba South","id":"NG-AB-ABA-SOUTH","name":"Aba South","parentId":"NG-AB","stateName":"Abia","regionId":"NG-SE","fillColor":"#C4A574"},"geometry":{"type":"Polygon","coordinates":[[[7.3066811560000815,5.077480316000049],[7.320203304000074,5.102926731000082],[7.344501019000063,5.1004772190000836],[7.369305134000058,5.120320320000076],[7.3848490720000655,5.110729218000074],[7.38529062300006,5.060147762000042],[7.349461555000062,5.0521917340000755],[7.314074516000062,5.055168152000078],[7.3066811560000815,5.077480316000049]]]}},{"type":"Feature","properties":{"CNTRY_NAME":"Nigeria","CNTRY_CODE":"NGA","ADM1_NAME":"Abia","ADM1_CODE":"NGA001","ADM2_NAME":"Arochukwu","ADM2_CODE":"NGA001003","HRname":"Arochukwu","HRpcode":"NG001003","HRparent":"NG001","Shape_Leng":1.25168373995,"Shape_Area":0.0427996045941,"ADM2_New":"Arochukwu","id":"NG-AB-AROCHUKWU","name":"Arochukwu","parentId":"NG-AB","stateName":"Abia","regionId":"NG-SE","fillColor":"#5B8FA8"},"geometry":{"type":"Polygon","coordinates":[[[7.904579163000051,5.568675518000077],[7.9079427720000695,5.535781860000043],[7.931040764000045,5.477268219000052],[7.954034805000049,5.441740990000085],[7.986322880000046,5.370625019000045],[7.982965946000093,5.355668068000057],[7.933869839000067,5.357740879000062],[7.87611198400009,5.368900776000089],[7.88398408900008,5.384547234000081],[7.865297794000071,5.4184479710000915],[7.821098804000087,5.423285007000061],[7.792839050000055,5.439794064000068],[7.778172016000042,5.473149776000071],[7.760225773000059,5.490318775000048],[7.758902073000058,5.508200169000077],[7.742755890000069,5.517303944000048],[7.713566780000065,5.51187419900009],[7.707765102000053,5.518753052000079],[7.695939064000072,5.518277645000069],[7.6520924570000375,5.563500404000081],[7.641417027000045,5.578652859000044],[7.634185314000092,5.601381779000064],[7.648648739000066,5.616878510000049],[7.673788071000047,5.623076916000059],[7.679297924000082,5.630309105000038],[7.676543236000043,5.650282383000047],[7.656225204000066,5.667845726000053],[7.656798363000064,5.678161621000072],[7.676026344000093,5.66991186100006],[7.68842363400006,5.671289444000081],[7.7097749710000585,5.6829977040000585],[7.720106125000086,5.682653427000048],[7.737324715000057,5.678865433000055],[7.755232334000084,5.664746284000046],[7.801033974000063,5.5480036740000855],[7.808265686000084,5.507023335000042],[7.84201431300005,5.532506943000044],[7.895391941000071,5.551447392000057],[7.904579163000051,5.568675518000077]]]}},{"type":"Feature","properties":{"CNTRY_NAME":"Nigeria","CNTRY_CODE":"NGA","ADM1_NAME":"Abia","ADM1_CODE":"NGA001","ADM2_NAME":"Bende","ADM2_CODE":"NGA001004","HRname":"Bende","HRpcode":"NG001004","HRparent":"NG001","Shape_Leng":1.28076549404,"Shape_Area":0.0491128060522,"ADM2_New":"Bende","id":"NG-AB-BENDE","name":"Bende","parentId":"NG-AB","stateName":"Abia","regionId":"NG-SE","fillColor":"#A8BF7A"},"geometry":{"type":"Polygon","coordinates":[[[7.551944733000084,5.843462944000066],[7.566697598000076,5.843938828000091],[7.617618084000071,5.827282429000093],[7.713078976000077,5.818000793000067],[7.709258556000066,5.757382393000057],[7.656913757000041,5.680243015000087],[7.656225204000066,5.667845726000053],[7.676543236000043,5.650282383000047],[7.679297924000082,5.630309105000038],[7.673788071000047,5.623076916000059],[7.648648739000066,5.616878510000049],[7.634185314000092,5.601381779000064],[7.641417027000045,5.578652859000044],[7.6520924570000375,5.563500404000081],[7.695939064000072,5.518277645000069],[7.690116882000041,5.505912781000063],[7.7046799660000715,5.482944965000058],[7.700029850000078,5.431540966000057],[7.663176060000069,5.44740295400004],[7.651240826000048,5.440418720000082],[7.619371414000057,5.500503540000068],[7.606794357000069,5.507577896000043],[7.577647209000077,5.511944294000045],[7.579989910000052,5.5665678980000735],[7.571649075000039,5.578833580000094],[7.514736652000067,5.612686634000056],[7.479411602000084,5.668127060000074],[7.466164589000073,5.699527264000039],[7.508358479000037,5.711302280000041],[7.5603647230000774,5.712774277000051],[7.564289570000085,5.71620845800004],[7.568214893000061,5.761345863000088],[7.564289570000085,5.775083542000061],[7.5490803720000486,5.7942180630000735],[7.54564619100006,5.812371254000084],[7.551944733000084,5.843462944000066]]]}},{"type":"Feature","properties":{"CNTRY_NAME":"Nigeria","CNTRY_CODE":"NGA","ADM1_NAME":"Abia","ADM1_CODE":"NGA001","ADM2_NAME":"Ikwuano","ADM2_CODE":"NGA001005","HRname":"Ikwuano","HRpcode":"NG001005","HRparent":"NG001","Shape_Leng":0.748310003438,"Shape_Area":0.0229745297087,"ADM2_New":"Ikwuano","id":"NG-AB-IKWUANO","name":"Ikwuano","parentId":"NG-AB","stateName":"Abia","regionId":"NG-SE","fillColor":"#B8956B"},"geometry":{"type":"Polygon","coordinates":[[[7.5425872800000775,5.50312471400008],[7.561346054000069,5.512108326000089],[7.575573921000057,5.512598991000061],[7.623537540000086,5.496211052000092],[7.651240826000048,5.440418720000082],[7.6364459990000455,5.425255775000039],[7.624279976000082,5.38013982800004],[7.633471012000086,5.378482819000055],[7.659700871000041,5.393124104000037],[7.67523288700005,5.388054848000081],[7.677584171000092,5.382303238000077],[7.666472912000074,5.346429825000087],[7.648910999000066,5.324934006000092],[7.622033119000093,5.317790985000045],[7.6030201910000415,5.326870918000054],[7.591633797000043,5.318698883000081],[7.572082996000063,5.324313164000046],[7.556207180000058,5.306293011000093],[7.532069683000088,5.314115524000044],[7.521114826000087,5.3232173920000605],[7.519642830000066,5.337936401000093],[7.553005219000056,5.347748756000044],[7.553005219000056,5.354617596000082],[7.5250396730000375,5.364920616000063],[7.512773991000074,5.372770786000046],[7.510321140000087,5.380129814000043],[7.512283325000055,5.410058022000044],[7.507867813000075,5.434589386000084],[7.5250396730000375,5.447836399000039],[7.5425872800000775,5.50312471400008]]]}},{"type":"Feature","properties":{"CNTRY_NAME":"Nigeria","CNTRY_CODE":"NGA","ADM1_NAME":"Abia","ADM1_CODE":"NGA001","ADM2_NAME":"Isiala-Ngwa North","ADM2_CODE":"NGA001006","HRname":"Isiala-Ngwa North","HRpcode":"NG001006","HRparent":"NG001","Shape_Leng":0.812765407284,"Shape_Area":0.0230891556765,"ADM2_New":"Isiala-Ngwa North","id":"NG-AB-ISIALA-NGWA-NORTH","name":"Isiala-Ngwa North","parentId":"NG-AB","stateName":"Abia","regionId":"NG-SE","fillColor":"#6AADA3"},"geometry":{"type":"Polygon","coordinates":[[[7.291588783000066,5.319604874000049],[7.303522110000074,5.348239422000063],[7.364850521000051,5.345295429000089],[7.387664318000077,5.353145599000072],[7.464692593000052,5.359033108000062],[7.501980305000075,5.353636265000091],[7.506886482000084,5.34627676000008],[7.497192860000041,5.31155061700008],[7.502546310000071,5.29785585400009],[7.491952896000043,5.2586030960000585],[7.459946632000083,5.221225262000075],[7.424706936000064,5.199089050000055],[7.384800434000056,5.200843811000084],[7.3879098890000705,5.295742512000061],[7.3834943770000905,5.307517529000052],[7.374662876000059,5.31144237500007],[7.350622177000048,5.293779850000078],[7.338847160000057,5.274645329000066],[7.30744743300005,5.2417736050000485],[7.294691086000057,5.234414101000084],[7.266949654000086,5.239419460000079],[7.291099548000091,5.303534985000056],[7.291588783000066,5.319604874000049]]]}},{"type":"Feature","properties":{"CNTRY_NAME":"Nigeria","CNTRY_CODE":"NGA","ADM1_NAME":"Abia","ADM1_CODE":"NGA001","ADM2_NAME":"Isiala-Ngwa South","ADM2_CODE":"NGA001007","HRname":"Isiala-Ngwa South","HRpcode":"NG001007","HRparent":"NG001","Shape_Leng":0.791284233698,"Shape_Area":0.0210598734708,"ADM2_New":"Isiala-Ngwa South","id":"NG-AB-ISIALA-NGWA-SOUTH","name":"Isiala-Ngwa South","parentId":"NG-AB","stateName":"Abia","regionId":"NG-SE","fillColor":"#8FAF6E"},"geometry":{"type":"Polygon","coordinates":[[[7.3735399250000455,5.475182533000066],[7.391589642000042,5.463536263000037],[7.477939606000064,5.451761246000046],[7.507867813000075,5.434589386000084],[7.512773991000074,5.372770786000046],[7.553005219000056,5.354617596000082],[7.553005219000056,5.347748756000044],[7.527002335000077,5.341370583000071],[7.5176801680000835,5.332048893000092],[7.521114826000087,5.3232173920000605],[7.540698051000049,5.309052944000086],[7.535016060000089,5.303812981000078],[7.5206241610000575,5.30506420100005],[7.502546310000071,5.29785585400009],[7.498055458000067,5.3016300200000614],[7.499526978000063,5.324689388000081],[7.506886482000084,5.34627676000008],[7.501980305000075,5.353636265000091],[7.485789776000047,5.357561111000052],[7.42004585300009,5.357561111000052],[7.347678661000089,5.344314575000055],[7.303522110000074,5.348239422000063],[7.321912766000082,5.382541656000058],[7.321908474000054,5.4049296380000555],[7.331327915000088,5.4243826870000476],[7.3435602190000395,5.439510822000045],[7.35597419700008,5.446313858000053],[7.36424732200004,5.465774536000083],[7.3735399250000455,5.475182533000066]]]}},{"type":"Feature","properties":{"CNTRY_NAME":"Nigeria","CNTRY_CODE":"NGA","ADM1_NAME":"Abia","ADM1_CODE":"NGA001","ADM2_NAME":"Isuikwato","ADM2_CODE":"NGA001008","HRname":"Isuikwato","HRpcode":"NG001008","HRparent":"NG001","Shape_Leng":0.726509253254,"Shape_Area":0.0321372372021,"ADM2_New":"Isiukwuato","id":"NG-AB-ISUIKWATO","name":"Isuikwato","parentId":"NG-AB","stateName":"Abia","regionId":"NG-SE","fillColor":"#D4C4A0"},"geometry":{"type":"Polygon","coordinates":[[[7.394222260000049,5.910171509000065],[7.418083191000051,5.916874409000059],[7.467636585000093,5.9046087270000385],[7.539571762000037,5.907232285000077],[7.539571762000037,5.851077080000039],[7.551944733000084,5.843462944000066],[7.546136379000075,5.821692944000063],[7.5490803720000486,5.7942180630000735],[7.564289570000085,5.775083542000061],[7.568214893000061,5.761345863000088],[7.56870555900008,5.738777161000087],[7.5603647230000774,5.712774277000051],[7.528473854000083,5.714246273000072],[7.466164589000073,5.699527264000039],[7.4391803740000455,5.701489925000089],[7.402873993000071,5.71179294600006],[7.395293713000058,5.745124340000075],[7.392649651000056,5.830963135000047],[7.3864617350000685,5.863152981000042],[7.396083832000045,5.898677826000039],[7.394222260000049,5.910171509000065]]]}},{"type":"Feature","properties":{"CNTRY_NAME":"Nigeria","CNTRY_CODE":"NGA","ADM1_NAME":"Abia","ADM1_CODE":"NGA001","ADM2_NAME":"Obi Nwa","ADM2_CODE":"NGA001009","HRname":"Obi Nwa","HRpcode":"NG001009","HRparent":"NG001","Shape_Leng":0.864580891162,"Shape_Area":0.0322430500656,"ADM2_New":"Obi Ngwa","id":"NG-AB-OBI-NWA","name":"Obi Nwa","parentId":"NG-AB","stateName":"Abia","regionId":"NG-SE","fillColor":"#688EB5"},"geometry":{"type":"Polygon","coordinates":[[[7.502546310000071,5.29785585400009],[7.5206241610000575,5.30506420100005],[7.535016060000089,5.303812981000078],[7.55307102200004,5.275679111000045],[7.541839123000045,5.251924992000056],[7.540123940000058,5.193620205000059],[7.527884007000068,5.156005859000061],[7.533771992000084,5.140470982000068],[7.534063816000071,5.111039162000054],[7.545794964000038,5.084585190000041],[7.537951946000078,5.066052914000068],[7.52028703700006,5.05494499200006],[7.525102139000069,5.050471306000077],[7.488488197000038,5.037673473000041],[7.420185566000043,5.002353668000069],[7.41858243900009,5.012505054000087],[7.406345844000043,5.02970266300008],[7.386833191000051,5.040285587000085],[7.385179520000065,5.057813644000078],[7.398077965000084,5.070712090000086],[7.401715755000055,5.104776382000068],[7.382203102000062,5.1335492130000375],[7.365308285000083,5.134108543000082],[7.365831852000042,5.167689323000047],[7.382513046000042,5.180445671000086],[7.384800434000056,5.200843811000084],[7.424706936000064,5.199089050000055],[7.459946632000083,5.221225262000075],[7.491952896000043,5.2586030960000585],[7.502546310000071,5.29785585400009]]]}},{"type":"Feature","properties":{"CNTRY_NAME":"Nigeria","CNTRY_CODE":"NGA","ADM1_NAME":"Abia","ADM1_CODE":"NGA001","ADM2_NAME":"Ohafia","ADM2_CODE":"NGA001010","HRname":"Ohafia","HRpcode":"NG001010","HRparent":"NG001","Shape_Leng":0.928640280946,"Shape_Area":0.035787837698,"ADM2_New":"Ohafia","id":"NG-AB-OHAFIA","name":"Ohafia","parentId":"NG-AB","stateName":"Abia","regionId":"NG-SE","fillColor":"#7CB087"},"geometry":{"type":"Polygon","coordinates":[[[7.713078976000077,5.818000793000067],[7.7641925810000885,5.813957214000084],[7.78632164000004,5.804915428000072],[7.803929806000042,5.744953156000065],[7.840573311000071,5.710688591000064],[7.893288612000049,5.682270527000071],[7.917696953000075,5.64962005600006],[7.909989834000044,5.587515831000076],[7.895391941000071,5.551447392000057],[7.84201431300005,5.532506943000044],[7.808265686000084,5.507023335000042],[7.788980484000092,5.583818436000058],[7.74937772800007,5.672666550000088],[7.720106125000086,5.682653427000048],[7.7097749710000585,5.6829977040000585],[7.68842363400006,5.671289444000081],[7.676026344000093,5.66991186100006],[7.656798363000064,5.678161621000072],[7.709258556000066,5.757382393000057],[7.713078976000077,5.818000793000067]]]}},{"type":"Feature","properties":{"CNTRY_NAME":"Nigeria","CNTRY_CODE":"NGA","ADM1_NAME":"Abia","ADM1_CODE":"NGA001","ADM2_NAME":"Osisioma Ngwa","ADM2_CODE":"NGA001011","HRname":"Osisioma Ngwa","HRpcode":"NG001011","HRparent":"NG001","Shape_Leng":0.625107642693,"Shape_Area":0.0161308856785,"ADM2_New":"Osisioma Ngwa","id":"NG-AB-OSISIOMA-NGWA","name":"Osisioma Ngwa","parentId":"NG-AB","stateName":"Abia","regionId":"NG-SE","fillColor":"#C9B896"},"geometry":{"type":"Polygon","coordinates":[[[7.26391744600005,5.21561050400004],[7.266949654000086,5.239419460000079],[7.294691086000057,5.234414101000084],[7.30744743300005,5.2417736050000485],[7.365831852000042,5.3084988590000535],[7.374662876000059,5.31144237500007],[7.3834943770000905,5.307517529000052],[7.3879098890000705,5.295742512000061],[7.388891220000062,5.252567291000048],[7.382513046000042,5.180445671000086],[7.365831852000042,5.167689323000047],[7.3662319180000395,5.136272430000076],[7.332468987000084,5.114701748000073],[7.313825607000069,5.09409523000005],[7.3066811560000815,5.077480316000049],[7.298615932000075,5.07299852400007],[7.284878731000049,5.098510742000087],[7.27135419800004,5.103509903000088],[7.278698921000057,5.116788864000057],[7.292564869000046,5.1726231580000785],[7.281322002000081,5.201615810000078],[7.26391744600005,5.21561050400004]]]}},{"type":"Feature","properties":{"CNTRY_NAME":"Nigeria","CNTRY_CODE":"NGA","ADM1_NAME":"Abia","ADM1_CODE":"NGA001","ADM2_NAME":"Ugwunagbo","ADM2_CODE":"NGA001012","HRname":"Ugwunagbo","HRpcode":"NG001012","HRparent":"NG001","Shape_Leng":0.414875540783,"Shape_Area":0.00879574126735,"ADM2_New":"Ugwunagbo","id":"NG-AB-UGWUNAGBO","name":"Ugwunagbo","parentId":"NG-AB","stateName":"Abia","regionId":"NG-SE","fillColor":"#5E9E78"},"geometry":{"type":"Polygon","coordinates":[[[7.298615932000075,5.07299852400007],[7.3066811560000815,5.077480316000049],[7.314074516000062,5.055168152000078],[7.325318813000081,5.053183556000079],[7.349461555000062,5.0521917340000755],[7.3825340270000765,5.059136868000053],[7.386833191000051,5.040285587000085],[7.406345844000043,5.02970266300008],[7.41858243900009,5.012505054000087],[7.420185566000043,5.002353668000069],[7.414403439000068,4.993516922000083],[7.393306732000042,4.9827232360000835],[7.320203304000074,4.968986034000068],[7.301069260000077,4.972420216000046],[7.291747093000083,4.985176563000039],[7.29076623900005,4.994498253000074],[7.301559925000049,5.034729481000056],[7.298615932000075,5.07299852400007]]]}},{"type":"Feature","properties":{"CNTRY_NAME":"Nigeria","CNTRY_CODE":"NGA","ADM1_NAME":"Abia","ADM1_CODE":"NGA001","ADM2_NAME":"Ukwa East","ADM2_CODE":"NGA001013","HRname":"Ukwa East","HRpcode":"NG001013","HRparent":"NG001","Shape_Leng":0.843806697202,"Shape_Area":0.0228376169846,"ADM2_New":"Ukwa East","id":"NG-AB-UKWA-EAST","name":"Ukwa East","parentId":"NG-AB","stateName":"Abia","regionId":"NG-SE","fillColor":"#94B86A"},"geometry":{"type":"Polygon","coordinates":[[[7.420185566000043,5.002353668000069],[7.488488197000038,5.037673473000041],[7.522831917000076,5.048957825000059],[7.53411579100009,5.048130989000072],[7.527913094000041,5.037692070000048],[7.509670258000085,5.034508705000064],[7.51197385800009,5.0260200500000565],[7.504658222000046,5.012110233000044],[7.4919090270000765,5.007781029000057],[7.485214233000079,4.998169422000046],[7.471143246000054,4.995911121000063],[7.4602751730000705,4.977698803000067],[7.4735879900000555,4.96510982500007],[7.491418839000062,4.959482193000042],[7.4904451370000515,4.9421601300000475],[7.4807901380000885,4.932847977000051],[7.477023125000073,4.907999992000043],[7.481891155000085,4.879758835000075],[7.499338150000085,4.855082989000039],[7.5006909370000585,4.834317207000083],[7.488712311000086,4.8218045230000826],[7.471591473000046,4.842277050000064],[7.446667671000057,4.845414639000069],[7.4292120930000465,4.862449169000058],[7.416359901000078,4.866746902000045],[7.373507023000059,4.862891197000067],[7.352412224000091,4.871914864000075],[7.326064587000076,4.876126766000084],[7.329525471000068,4.919432640000082],[7.314806461000046,4.946907520000082],[7.310042381000073,4.970205307000072],[7.393306732000042,4.9827232360000835],[7.414403439000068,4.993516922000083],[7.420185566000043,5.002353668000069]]]}},{"type":"Feature","properties":{"CNTRY_NAME":"Nigeria","CNTRY_CODE":"NGA","ADM1_NAME":"Abia","ADM1_CODE":"NGA001","ADM2_NAME":"Ukwa West","ADM2_CODE":"NGA001014","HRname":"Ukwa West","HRpcode":"NG001014","HRparent":"NG001","Shape_Leng":0.727432835799,"Shape_Area":0.022070981535,"ADM2_New":"Ukwa West","id":"NG-AB-UKWA-WEST","name":"Ukwa West","parentId":"NG-AB","stateName":"Abia","regionId":"NG-SE","fillColor":"#C2A882"},"geometry":{"type":"Polygon","coordinates":[[[7.27135419800004,5.103509903000088],[7.284878731000049,5.098510742000087],[7.298615932000075,5.07299852400007],[7.301559925000049,5.034729481000056],[7.292237759000045,5.00431108500004],[7.291747093000083,4.985176563000039],[7.301069260000077,4.972420216000046],[7.307938099000069,4.970457554000063],[7.329525471000068,4.919432640000082],[7.328053474000058,4.880673409000053],[7.326064587000076,4.876126766000084],[7.319794178000052,4.879632950000087],[7.271389961000068,4.873023987000067],[7.240856171000075,4.856948853000063],[7.205420017000051,4.858627796000064],[7.191195965000077,4.8638691900000595],[7.173842907000051,4.87939119300006],[7.147241116000089,4.890325069000085],[7.140429020000056,4.900634766000053],[7.143767834000073,4.913196087000074],[7.168517113000064,4.94475221600004],[7.209084034000057,4.956501007000043],[7.235092163000047,4.981004238000082],[7.248316765000084,5.017261982000093],[7.255775928000048,5.0773429870000655],[7.27135419800004,5.103509903000088]]]}},{"type":"Feature","properties":{"CNTRY_NAME":"Nigeria","CNTRY_CODE":"NGA","ADM1_NAME":"Abia","ADM1_CODE":"NGA001","ADM2_NAME":"Umu-Neochi","ADM2_CODE":"NGA001017","HRname":"Umu-Neochi","HRpcode":"NG001017","HRparent":"NG001","Shape_Leng":0.78335950788,"Shape_Area":0.0300960016299,"ADM2_New":"Umu-Nneochi","id":"NG-AB-UMU-NEOCHI","name":"Umu-Neochi","parentId":"NG-AB","stateName":"Abia","regionId":"NG-SE","fillColor":"#72A898"},"geometry":{"type":"Polygon","coordinates":[[[7.339062691000038,6.04214954400004],[7.384793282000089,6.0373167990000525],[7.404417992000049,6.012404442000047],[7.415839672000061,6.006217957000047],[7.520060062000084,6.020018578000077],[7.5333848000000785,6.0109767910000755],[7.553372383000067,5.98147153900004],[7.552896500000088,5.9538698200000795],[7.539571762000037,5.907232285000077],[7.467636585000093,5.9046087270000385],[7.418083191000051,5.916874409000059],[7.394222260000049,5.910171509000065],[7.387948036000068,5.912797928000089],[7.367187977000071,5.9034690860000865],[7.273681641000053,5.922770023000055],[7.25641584400006,5.9505386350000435],[7.254512310000052,5.965291023000077],[7.264029980000089,5.991465092000055],[7.272595882000076,5.997651577000056],[7.3182816510000634,5.99860334400006],[7.339062691000038,6.04214954400004]]]}},{"type":"Feature","properties":{"CNTRY_NAME":"Nigeria","CNTRY_CODE":"NGA","ADM1_NAME":"Abia","ADM1_CODE":"NGA001","ADM2_NAME":"Umuahia North","ADM2_CODE":"NGA001015","HRname":"Umuahia North","HRpcode":"NG001015","HRparent":"NG001","Shape_Leng":0.696224243032,"Shape_Area":0.0199660272112,"ADM2_New":"Umuahia North","id":"NG-AB-UMUAHIA-NORTH","name":"Umuahia North","parentId":"NG-AB","stateName":"Abia","regionId":"NG-SE","fillColor":"#D4896A"},"geometry":{"type":"Polygon","coordinates":[[[7.3816075330000785,5.705608845000086],[7.402873993000071,5.71179294600006],[7.4391803740000455,5.701489925000089],[7.466164589000073,5.699527264000039],[7.479411602000084,5.668127060000074],[7.514736652000067,5.612686634000056],[7.571649075000039,5.578833580000094],[7.579989910000052,5.5665678980000735],[7.577647209000077,5.511944294000045],[7.561346054000069,5.512108326000089],[7.5425872800000775,5.50312471400008],[7.484317780000083,5.512598991000061],[7.458314419000089,5.52192068100004],[7.4563522340000645,5.557736397000042],[7.447030067000071,5.562642574000051],[7.41735506100008,5.56213665000007],[7.415235043000052,5.57592868800009],[7.425965309000048,5.585613251000041],[7.4322857860000795,5.60939312000005],[7.410162926000055,5.673839092000037],[7.3897433280000655,5.691488743000093],[7.3816075330000785,5.705608845000086]]]}},{"type":"Feature","properties":{"CNTRY_NAME":"Nigeria","CNTRY_CODE":"NGA","ADM1_NAME":"Abia","ADM1_CODE":"NGA001","ADM2_NAME":"Umuahia South","ADM2_CODE":"NGA001016","HRname":"Umuahia South","HRpcode":"NG001016","HRparent":"NG001","Shape_Leng":0.489029713787,"Shape_Area":0.0114590978513,"ADM2_New":"Umuahia South","id":"NG-AB-UMUAHIA-SOUTH","name":"Umuahia South","parentId":"NG-AB","stateName":"Abia","regionId":"NG-SE","fillColor":"#9B8B72"},"geometry":{"type":"Polygon","coordinates":[[[7.38803243600006,5.510386944000061],[7.404317856000091,5.528644562000068],[7.4094986920000565,5.553005695000081],[7.41735506100008,5.56213665000007],[7.447030067000071,5.562642574000051],[7.4563522340000645,5.557736397000042],[7.458805084000062,5.549396038000054],[7.458314419000089,5.52192068100004],[7.515227318000086,5.50523948700004],[7.5425872800000775,5.50312471400008],[7.5250396730000375,5.447836399000039],[7.507867813000075,5.434589386000084],[7.477939606000064,5.451761246000046],[7.391589642000042,5.463536263000037],[7.3827581410000676,5.468933105000076],[7.3735399250000455,5.475182533000066],[7.38803243600006,5.510386944000061]]]}}]}