{"type":"FeatureCollection","features":[{"type":"Feature","properties":{"CNTRY_NAME":"Nigeria","CNTRY_CODE":"NGA","ADM1_NAME":"Akwa lbom","ADM1_CODE":"NGA003","ADM2_NAME":"Abak","ADM2_CODE":"NGA003001","HRname":"Abak","HRpcode":"NG003001","HRparent":"NG003","Shape_Leng":0.75208514302,"Shape_Area":0.0154976270742,"ADM2_New":"Abak","id":"NG-AK-ABAK","name":"Abak","parentId":"NG-AK","stateName":"Akwa Ibom","regionId":"NG-SS","fillColor":"#6BA368"},"geometry":{"type":"Polygon","coordinates":[[[7.787409782000054,5.120588779000059],[7.812160969000047,5.110978127000067],[7.806526184000063,5.10111999500009],[7.816427231000091,5.085618019000037],[7.810836792000089,5.071144104000041],[7.832687855000074,5.007256985000083],[7.82888078700006,4.986448765000091],[7.815975189000085,4.958065033000082],[7.805625916000054,4.903151989000094],[7.79430818600008,4.888054848000081],[7.7867860790000805,4.8949198720000595],[7.779090881000059,4.919097900000054],[7.785805225000047,4.935890198000038],[7.786138058000063,4.960133076000091],[7.771195889000069,4.963473797000063],[7.765370846000053,4.972661972000083],[7.745241165000039,4.978847980000069],[7.74861192700007,4.985801220000042],[7.729065895000076,4.990837097000053],[7.736416817000077,5.001285076000045],[7.7536458970000695,4.998538017000044],[7.758111954000071,5.010694981000086],[7.745423794000089,5.018095016000075],[7.720942020000052,5.000583172000063],[7.706035137000072,5.000463009000043],[7.689844131000086,5.014183044000049],[7.680967808000048,5.04181385000004],[7.68376016600007,5.049339771000064],[7.709555149000039,5.050125122000054],[7.713970184000061,5.067474842000081],[7.721365929000058,5.073307037000063],[7.755210876000092,5.071847916000081],[7.787409782000054,5.120588779000059]]]}},{"type":"Feature","properties":{"CNTRY_NAME":"Nigeria","CNTRY_CODE":"NGA","ADM1_NAME":"Akwa lbom","ADM1_CODE":"NGA003","ADM2_NAME":"Eket","ADM2_CODE":"NGA003003","HRname":"Eket","HRpcode":"NG003003","HRparent":"NG003","Shape_Leng":0.666985648539,"Shape_Area":0.0136562861528,"ADM2_New":"Eket","id":"NG-AK-EKET","name":"Eket","parentId":"NG-AK","stateName":"Akwa Ibom","regionId":"NG-SS","fillColor":"#5B8FA8"},"geometry":{"type":"Polygon","coordinates":[[[7.88489198700006,4.716220856000064],[7.91021204000009,4.707190990000072],[7.9466080670000565,4.679781914000046],[7.968801975000076,4.696699142000057],[7.9890179630000375,4.681856155000048],[8.022169113000075,4.692512989000079],[8.01795482600005,4.65496397000004],[7.999763012000074,4.639235020000058],[8.01004886600009,4.585065842000063],[8.003776550000055,4.581552982000062],[7.987682819000042,4.5854620930000465],[7.947078228000066,4.574746132000087],[7.931128025000078,4.564228058000083],[7.896823883000081,4.554140091000079],[7.9000978470000405,4.570902824000086],[7.890769005000038,4.586410999000066],[7.889496803000043,4.599098206000065],[7.892329216000064,4.602582932000075],[7.920496941000067,4.595307827000056],[7.928462029000059,4.601720810000074],[7.907074928000043,4.618863106000049],[7.915458202000082,4.64086198800004],[7.8948168750000605,4.640695095000069],[7.880948067000077,4.651548862000084],[7.879125118000047,4.661921978000066],[7.893778801000053,4.687435150000056],[7.88448476800005,4.699481010000056],[7.88489198700006,4.716220856000064]]]}},{"type":"Feature","properties":{"CNTRY_NAME":"Nigeria","CNTRY_CODE":"NGA","ADM1_NAME":"Akwa lbom","ADM1_CODE":"NGA003","ADM2_NAME":"Esit Eket","ADM2_CODE":"NGA003004","HRname":"Esit Eket","HRpcode":"NG003004","HRparent":"NG003","Shape_Leng":0.465740541727,"Shape_Area":0.0136966727785,"ADM2_New":"Esit - Eket","id":"NG-AK-ESIT-EKET","name":"Esit Eket","parentId":"NG-AK","stateName":"Akwa Ibom","regionId":"NG-SS","fillColor":"#A8BF7A"},"geometry":{"type":"Polygon","coordinates":[[[8.022169113000075,4.692512989000079],[8.036508560000073,4.692050934000065],[8.047901154000044,4.699645996000072],[8.067934036000054,4.70327091200005],[8.138759613000047,4.673254967000048],[8.152141571000072,4.653739929000039],[8.150364876000083,4.601781845000062],[8.039862633000041,4.585307121000085],[8.01004886600009,4.585065842000063],[7.998639107000088,4.636917114000084],[8.019072533000042,4.6578588490000925],[8.022169113000075,4.692512989000079]]]}},{"type":"Feature","properties":{"CNTRY_NAME":"Nigeria","CNTRY_CODE":"NGA","ADM1_NAME":"Akwa lbom","ADM1_CODE":"NGA003","ADM2_NAME":"Essien Udim","ADM2_CODE":"NGA003005","HRname":"Essien Udim","HRpcode":"NG003005","HRparent":"NG003","Shape_Leng":0.747799932476,"Shape_Area":0.0240690724532,"ADM2_New":"Essien Udim","id":"NG-AK-ESSIEN-UDIM","name":"Essien Udim","parentId":"NG-AK","stateName":"Akwa Ibom","regionId":"NG-SS","fillColor":"#B8956B"},"geometry":{"type":"Polygon","coordinates":[[[7.5308070180000755,5.1502590180000425],[7.565679073000069,5.16092920300008],[7.585022926000079,5.176091194000094],[7.605102062000071,5.1750988960000655],[7.614901066000073,5.1699838640000735],[7.631487846000084,5.174158096000042],[7.628569126000059,5.179327965000084],[7.638236046000088,5.187487125000075],[7.65090704000005,5.18181800800005],[7.654512882000063,5.165110111000047],[7.664914131000046,5.15711402900007],[7.711463928000057,5.146523952000052],[7.735704899000041,5.130559921000042],[7.748887062000051,5.131243229000063],[7.764188766000075,5.149259090000044],[7.800367832000063,5.143778801000053],[7.755210876000092,5.071847916000081],[7.736256123000089,5.075158119000093],[7.717376232000049,5.070965767000075],[7.706699848000085,5.048947811000062],[7.690629005000062,5.0505499840000425],[7.655724049000071,5.043342113000051],[7.6261329650000675,5.020594120000055],[7.617847919000042,5.046498775000089],[7.570639133000043,5.065740108000057],[7.546906948000071,5.08805704100007],[7.5346608160000415,5.108735085000092],[7.5308070180000755,5.1502590180000425]]]}},{"type":"Feature","properties":{"CNTRY_NAME":"Nigeria","CNTRY_CODE":"NGA","ADM1_NAME":"Akwa lbom","ADM1_CODE":"NGA003","ADM2_NAME":"Etim Ekpo","ADM2_CODE":"NGA003006","HRname":"Etim Ekpo","HRpcode":"NG003006","HRparent":"NG003","Shape_Leng":0.757244469448,"Shape_Area":0.0167922679305,"ADM2_New":"Etim Ekpo","id":"NG-AK-ETIM-EKPO","name":"Etim Ekpo","parentId":"NG-AK","stateName":"Akwa Ibom","regionId":"NG-SS","fillColor":"#6AADA3"},"geometry":{"type":"Polygon","coordinates":[[[7.617847919000042,5.046498775000089],[7.6261329650000675,5.020594120000055],[7.655724049000071,5.043342113000051],[7.680325985000081,5.048735142000055],[7.688100815000041,5.01647806200009],[7.7020039560000555,5.002161980000039],[7.714657784000053,4.998222828000053],[7.699281216000088,4.98770999900006],[7.705181122000056,4.971021175000089],[7.6961388590000865,4.957674026000063],[7.694625854000037,4.936883926000064],[7.684936047000065,4.931035042000076],[7.6723217960000625,4.930932999000049],[7.633581161000052,4.963517189000072],[7.597035885000082,4.9482159610000735],[7.5781331060000525,4.946331978000046],[7.5167961120000655,4.886967182000092],[7.495840073000068,4.860826015000043],[7.480714798000065,4.882636070000046],[7.477023125000073,4.907999992000043],[7.4807901380000885,4.932847977000051],[7.491546154000048,4.9467859270000645],[7.513350010000067,4.94523096100005],[7.5321850780000545,4.954041004000089],[7.578005791000066,5.0167422290000445],[7.617847919000042,5.046498775000089]]]}},{"type":"Feature","properties":{"CNTRY_NAME":"Nigeria","CNTRY_CODE":"NGA","ADM1_NAME":"Akwa lbom","ADM1_CODE":"NGA003","ADM2_NAME":"Etinan","ADM2_CODE":"NGA003007","HRname":"Etinan","HRpcode":"NG003007","HRparent":"NG003","Shape_Leng":0.680686792057,"Shape_Area":0.0142618881365,"ADM2_New":"Etinan","id":"NG-AK-ETINAN","name":"Etinan","parentId":"NG-AK","stateName":"Akwa Ibom","regionId":"NG-SS","fillColor":"#8FAF6E"},"geometry":{"type":"Polygon","coordinates":[[[7.8070249560000775,4.877768993000075],[7.825940132000085,4.878499985000076],[7.832190037000089,4.884321213000078],[7.827045918000067,4.940262794000091],[7.845496178000076,4.987738132000061],[7.854273796000086,4.9699168210000835],[7.853518009000084,4.930665016000091],[7.875191212000061,4.884668827000041],[7.866240978000064,4.862088203000042],[7.873355865000065,4.8384819030000585],[7.867880821000085,4.81246709800007],[7.8847370150000415,4.78951692600009],[7.8815212250000855,4.7669830320000415],[7.886928082000054,4.742208958000049],[7.88489198700006,4.716220856000064],[7.840297222000061,4.703163147000055],[7.809738159000062,4.7202310560000456],[7.812276840000038,4.7531490330000565],[7.800488949000055,4.785373211000092],[7.805953026000054,4.812542915000051],[7.82010316800006,4.831126213000061],[7.8070249560000775,4.877768993000075]]]}},{"type":"Feature","properties":{"CNTRY_NAME":"Nigeria","CNTRY_CODE":"NGA","ADM1_NAME":"Akwa lbom","ADM1_CODE":"NGA003","ADM2_NAME":"Ibesikpo Asutan","ADM2_CODE":"NGA003009","HRname":"Ibesikpo Asutan","HRpcode":"NG003009","HRparent":"NG003","Shape_Leng":0.487704844178,"Shape_Area":0.0126011867062,"ADM2_New":"Ibesikpo Asutan","id":"NG-AK-IBESIKPO-ASUTAN","name":"Ibesikpo Asutan","parentId":"NG-AK","stateName":"Akwa Ibom","regionId":"NG-SS","fillColor":"#688EB5"},"geometry":{"type":"Polygon","coordinates":[[[7.882637978000048,5.000734806000082],[7.957248211000092,4.993834972000059],[7.993620872000065,4.968735218000063],[8.001499176000038,4.926088810000067],[8.008511543000054,4.912871838000058],[8.00708961500004,4.882849216000068],[7.999331951000045,4.855659962000061],[7.984028816000091,4.837645054000063],[7.974884987000053,4.834684849000041],[7.973106861000076,4.840443134000054],[7.9507918360000644,4.835645199000055],[7.940392017000079,4.843640804000074],[7.927113056000053,4.910482883000043],[7.895073891000038,4.961011887000041],[7.882637978000048,5.000734806000082]]]}},{"type":"Feature","properties":{"CNTRY_NAME":"Nigeria","CNTRY_CODE":"NGA","ADM1_NAME":"Akwa lbom","ADM1_CODE":"NGA003","ADM2_NAME":"Ibiono Ibom","ADM2_CODE":"NGA003010","HRname":"Ibiono Ibom","HRpcode":"NG003010","HRparent":"NG003","Shape_Leng":0.973657718039,"Shape_Area":0.0274947559493,"ADM2_New":"Ibiono Ibom","id":"NG-AK-IBIONO-IBOM","name":"Ibiono Ibom","parentId":"NG-AK","stateName":"Akwa Ibom","regionId":"NG-SS","fillColor":"#7CB087"},"geometry":{"type":"Polygon","coordinates":[[[7.87611198400009,5.368900776000089],[7.9033169750000525,5.3431491850000725],[7.901671886000088,5.335632801000088],[7.8965339660000495,5.33328294800009],[7.856290817000058,5.343924046000041],[7.8459768300000405,5.343263149000052],[7.840874195000083,5.3374509810000745],[7.862884998000084,5.315118790000042],[7.892114162000041,5.316510201000085],[7.912880898000083,5.303979874000049],[7.9296970370000395,5.285070896000093],[7.940071106000062,5.2497229580000635],[7.961822987000062,5.236031055000069],[7.969827652000049,5.220265388000087],[7.95412778900004,5.192348003000063],[7.962384224000061,5.169329166000068],[7.92719221100009,5.133261204000064],[7.911425114000053,5.104277134000085],[7.916114807000042,5.093925953000053],[7.913334846000055,5.085246086000041],[7.893967152000073,5.07239198700006],[7.874783039000079,5.041071892000048],[7.86389493900009,5.040407181000091],[7.8432321550000665,5.04254818000004],[7.851659775000087,5.059930801000064],[7.842325211000059,5.076014996000083],[7.85068988800009,5.099746227000082],[7.840828896000062,5.111208916000066],[7.843529224000065,5.12796783400006],[7.834855080000068,5.135400772000082],[7.844296932000077,5.166066170000079],[7.8343439100000865,5.186762810000062],[7.834218025000041,5.199459076000039],[7.846063137000044,5.219178200000044],[7.843460083000082,5.250321865000046],[7.832387924000045,5.268125057000077],[7.822560787000043,5.276124954000068],[7.811077118000071,5.277763844000049],[7.806398869000077,5.286960125000064],[7.807987213000047,5.300248146000058],[7.837852001000044,5.353009224000061],[7.87611198400009,5.368900776000089]]]}},{"type":"Feature","properties":{"CNTRY_NAME":"Nigeria","CNTRY_CODE":"NGA","ADM1_NAME":"Akwa lbom","ADM1_CODE":"NGA003","ADM2_NAME":"Ika","ADM2_CODE":"NGA003011","HRname":"Ika","HRpcode":"NG003011","HRparent":"NG003","Shape_Leng":0.490116878485,"Shape_Area":0.00919681082356,"ADM2_New":"Ika","id":"NG-AK-IKA","name":"Ika","parentId":"NG-AK","stateName":"Akwa Ibom","regionId":"NG-SS","fillColor":"#C9B896"},"geometry":{"type":"Polygon","coordinates":[[[7.525102139000069,5.050471306000077],[7.518901825000057,5.053178787000093],[7.537951946000078,5.066052914000068],[7.546906948000071,5.08805704100007],[7.577558994000071,5.061756134000063],[7.616105080000068,5.048792839000043],[7.606483936000075,5.036017895000043],[7.578005791000066,5.0167422290000445],[7.544116020000047,4.965103149000072],[7.5321850780000545,4.954041004000089],[7.513350010000067,4.94523096100005],[7.491546154000048,4.9467859270000645],[7.491418839000062,4.959482193000042],[7.4735879900000555,4.96510982500007],[7.4602751730000705,4.977698803000067],[7.471143246000054,4.995911121000063],[7.483599663000064,4.996338367000078],[7.4905247690000465,5.006178856000076],[7.504658222000046,5.012110233000044],[7.51197385800009,5.0260200500000565],[7.509670258000085,5.034508705000064],[7.531323910000083,5.040605068000048],[7.53411579100009,5.048130989000072],[7.525102139000069,5.050471306000077]]]}},{"type":"Feature","properties":{"CNTRY_NAME":"Nigeria","CNTRY_CODE":"NGA","ADM1_NAME":"Akwa lbom","ADM1_CODE":"NGA003","ADM2_NAME":"Ikono","ADM2_CODE":"NGA003012","HRname":"Ikono","HRpcode":"NG003012","HRparent":"NG003","Shape_Leng":0.809183507854,"Shape_Area":0.0211310659112,"ADM2_New":"Ikono","id":"NG-AK-IKONO","name":"Ikono","parentId":"NG-AK","stateName":"Akwa Ibom","regionId":"NG-SS","fillColor":"#5E9E78"},"geometry":{"type":"Polygon","coordinates":[[[7.679695129000038,5.303296089000071],[7.703527927000039,5.310369015000049],[7.718894005000038,5.32203578900004],[7.754425049000076,5.324055195000085],[7.791450977000068,5.290878773000088],[7.80580186800006,5.2892642020000835],[7.808772087000079,5.278899193000086],[7.825445175000084,5.274416924000093],[7.842857838000043,5.253202915000088],[7.846608162000052,5.22206783300004],[7.834218025000041,5.199459076000039],[7.834946156000058,5.183882236000045],[7.844296932000077,5.166066170000079],[7.834855080000068,5.135400772000082],[7.843529224000065,5.12796783400006],[7.8414368630000695,5.107750893000059],[7.850730896000073,5.095705986000041],[7.842830181000068,5.082944870000063],[7.842325211000059,5.076014996000083],[7.851058006000073,5.062810898000066],[7.8432321550000665,5.04254818000004],[7.824172974000078,5.056245804000071],[7.820022106000067,5.070064068000079],[7.821529865000059,5.091430187000071],[7.810515881000072,5.103460789000053],[7.810407162000047,5.114426136000077],[7.787409782000054,5.120588779000059],[7.80153703700006,5.141479969000045],[7.770524979000072,5.146423817000084],[7.758409977000042,5.153829098000074],[7.746741772000064,5.17393493700007],[7.752216816000043,5.1999511720000555],[7.7498211860000765,5.210319996000067],[7.72091817900008,5.233748913000056],[7.708597183000052,5.261929989000066],[7.681334019000076,5.293453217000092],[7.679695129000038,5.303296089000071]]]}},{"type":"Feature","properties":{"CNTRY_NAME":"Nigeria","CNTRY_CODE":"NGA","ADM1_NAME":"Akwa lbom","ADM1_CODE":"NGA003","ADM2_NAME":"Ikot Abasi","ADM2_CODE":"NGA003013","HRname":"Ikot Abasi","HRpcode":"NG003013","HRparent":"NG003","Shape_Leng":0.886104545299,"Shape_Area":0.0293103357427,"ADM2_New":"Ikot Abasi","id":"NG-AK-IKOT-ABASI","name":"Ikot Abasi","parentId":"NG-AK","stateName":"Akwa Ibom","regionId":"NG-SS","fillColor":"#94B86A"},"geometry":{"type":"Polygon","coordinates":[[[7.527896881000061,4.693136215000038],[7.547688961000063,4.663284779000094],[7.553451061000089,4.6604452130000595],[7.5660080910000715,4.666317940000056],[7.58325386000007,4.661839962000045],[7.608384132000083,4.671854973000052],[7.6313691140000515,4.666845798000054],[7.629499912000085,4.681837082000072],[7.659893036000085,4.681506157000058],[7.6729879380000625,4.690845013000057],[7.683699131000083,4.70940113100005],[7.7124061580000784,4.705593109000063],[7.717675209000049,4.6946702000000755],[7.716149807000079,4.6750350000000935],[7.704339981000089,4.651853085000084],[7.741246223000076,4.6307969090000825],[7.74422693300005,4.61927795400004],[7.739251137000053,4.600769997000043],[7.711534977000042,4.562454224000078],[7.685321808000083,4.546082020000085],[7.677569389000041,4.549957275000054],[7.650485039000046,4.531949043000054],[7.624053955000079,4.537507057000084],[7.609239101000071,4.528152943000066],[7.6058330540000725,4.524662018000072],[7.627155781000056,4.513868809000087],[7.623761177000063,4.509223938000048],[7.617396355000039,4.511308670000062],[7.6158747670000935,4.506283283000073],[7.608666420000077,4.506283283000073],[7.60379028300008,4.514975548000052],[7.589797497000063,4.519427776000043],[7.5684781070000895,4.507408142000088],[7.559268475000067,4.510947227000088],[7.523955822000062,4.55061960200004],[7.52726841000009,4.560557365000079],[7.536634922000076,4.563926220000042],[7.545081139000047,4.5795769690000725],[7.5196962360000725,4.63103437400008],[7.523182392000081,4.657178402000056],[7.517953396000053,4.676873684000043],[7.527896881000061,4.693136215000038]]]}},{"type":"Feature","properties":{"CNTRY_NAME":"Nigeria","CNTRY_CODE":"NGA","ADM1_NAME":"Akwa lbom","ADM1_CODE":"NGA003","ADM2_NAME":"Ikot Ekpene","ADM2_CODE":"NGA003014","HRname":"Ikot Ekpene","HRpcode":"NG003014","HRparent":"NG003","Shape_Leng":0.414146792835,"Shape_Area":0.00945297247256,"ADM2_New":"Ikot Ekpene","id":"NG-AK-IKOT-EKPENE","name":"Ikot Ekpene","parentId":"NG-AK","stateName":"Akwa Ibom","regionId":"NG-SS","fillColor":"#C2A882"},"geometry":{"type":"Polygon","coordinates":[[[7.65090704000005,5.18181800800005],[7.660893917000067,5.215373039000042],[7.659999847000051,5.247684956000057],[7.680589199000053,5.25304698900004],[7.701624870000046,5.271108150000089],[7.7226610180000534,5.231454849000045],[7.7498211860000765,5.210319996000067],[7.752216816000043,5.1999511720000555],[7.746741772000064,5.17393493700007],[7.764188766000075,5.149259090000044],[7.75116300600007,5.132993221000049],[7.731675148000079,5.132257938000066],[7.708006859000079,5.14822816800006],[7.664914131000046,5.15711402900007],[7.654512882000063,5.165110111000047],[7.65090704000005,5.18181800800005]]]}},{"type":"Feature","properties":{"CNTRY_NAME":"Nigeria","CNTRY_CODE":"NGA","ADM1_NAME":"Akwa lbom","ADM1_CODE":"NGA003","ADM2_NAME":"Ini","ADM2_CODE":"NGA003015","HRname":"Ini","HRpcode":"NG003015","HRparent":"NG003","Shape_Leng":0.925487855961,"Shape_Area":0.0303938492825,"ADM2_New":"Ini","id":"NG-AK-INI","name":"Ini","parentId":"NG-AK","stateName":"Akwa Ibom","regionId":"NG-SS","fillColor":"#72A898"},"geometry":{"type":"Polygon","coordinates":[[[7.651240826000048,5.440418720000082],[7.667761803000076,5.447441101000038],[7.69773101800007,5.432099819000086],[7.7046799660000715,5.482944965000058],[7.691304207000087,5.5018830300000445],[7.692903996000041,5.514016151000078],[7.695939064000072,5.518277645000069],[7.707765102000053,5.518753052000079],[7.710693836000075,5.512427807000051],[7.734149933000083,5.517811775000041],[7.748500824000075,5.516195774000039],[7.758902073000058,5.508200169000077],[7.761395931000038,5.48801994300004],[7.778172016000042,5.473149776000071],[7.792839050000055,5.439794064000068],[7.821098804000087,5.423285007000061],[7.861256123000089,5.421300888000076],[7.88398408900008,5.384547234000081],[7.869856834000075,5.363656044000038],[7.837852001000044,5.353009224000061],[7.809111118000089,5.302565098000059],[7.80580186800006,5.2892642020000835],[7.791450977000068,5.290878773000088],[7.764228821000074,5.318362236000041],[7.749825954000073,5.325171947000058],[7.721755028000075,5.322637081000039],[7.703527927000039,5.310369015000049],[7.681804180000086,5.303844929000093],[7.658548832000065,5.335977077000052],[7.675990105000039,5.369593143000088],[7.676970005000044,5.38633823400005],[7.659700871000041,5.393124104000037],[7.633471012000086,5.378482819000055],[7.624279976000082,5.38013982800004],[7.6364459990000455,5.425255775000039],[7.651240826000048,5.440418720000082]]]}},{"type":"Feature","properties":{"CNTRY_NAME":"Nigeria","CNTRY_CODE":"NGA","ADM1_NAME":"Akwa lbom","ADM1_CODE":"NGA003","ADM2_NAME":"Itu","ADM2_CODE":"NGA003016","HRname":"Itu","HRpcode":"NG003016","HRparent":"NG003","Shape_Leng":0.675307330923,"Shape_Area":0.0142522070428,"ADM2_New":"Itu","id":"NG-AK-ITU","name":"Itu","parentId":"NG-AK","stateName":"Akwa Ibom","regionId":"NG-SS","fillColor":"#D4896A"},"geometry":{"type":"Polygon","coordinates":[[[7.969827652000049,5.220265388000087],[7.976094246000059,5.208294392000084],[7.992694855000082,5.206701756000086],[8.016752243000042,5.246951103000072],[8.034794807000083,5.243249893000041],[8.065328598000065,5.198836803000063],[8.063014984000063,5.158124924000049],[8.069683075000057,5.135974884000063],[8.008607864000055,5.133918762000064],[7.992680073000088,5.1210927960000845],[7.965836048000085,5.1104879380000625],[7.9402651790000505,5.087194920000059],[7.911443233000057,5.044830799000067],[7.901735783000049,5.04071188000006],[7.874783039000079,5.041071892000048],[7.891691208000054,5.0706429480000565],[7.914463997000041,5.086987019000048],[7.911425114000053,5.104277134000085],[7.929450989000088,5.13674306900009],[7.962384224000061,5.169329166000068],[7.95412778900004,5.192348003000063],[7.969827652000049,5.220265388000087]]]}},{"type":"Feature","properties":{"CNTRY_NAME":"Nigeria","CNTRY_CODE":"NGA","ADM1_NAME":"Akwa lbom","ADM1_CODE":"NGA003","ADM2_NAME":"Mkpat Enin","ADM2_CODE":"NGA003018","HRname":"Mkpat Enin","HRpcode":"NG003018","HRparent":"NG003","Shape_Leng":1.01199028239,"Shape_Area":0.0268677520647,"ADM2_New":"Mkpat Enin","id":"NG-AK-MKPAT-ENIN","name":"Mkpat Enin","parentId":"NG-AK","stateName":"Akwa Ibom","regionId":"NG-SS","fillColor":"#A3C986"},"geometry":{"type":"Polygon","coordinates":[[[7.79897499100008,4.880012989000079],[7.8070249560000775,4.877768993000075],[7.820079803000056,4.833435059000067],[7.805953026000054,4.812542915000051],[7.800488949000055,4.785373211000092],[7.812891006000086,4.7491140370000835],[7.80880880400008,4.698291779000044],[7.7956957820000525,4.690682888000083],[7.836221218000048,4.65176391600005],[7.830051899000068,4.637863159000062],[7.796412945000043,4.618546009000056],[7.8107128140000555,4.564408779000075],[7.6786079410000525,4.529291153000088],[7.672804832000054,4.536170006000077],[7.676210880000042,4.539659977000042],[7.711534977000042,4.562454224000078],[7.725726128000076,4.576996803000043],[7.74422693300005,4.61927795400004],[7.742977142000086,4.629656792000048],[7.704339981000089,4.651853085000084],[7.715072155000087,4.668099880000057],[7.717640877000065,4.69813203800004],[7.714142799000058,4.703876019000063],[7.683699131000083,4.70940113100005],[7.683663845000069,4.712862968000081],[7.705675125000084,4.748247147000086],[7.730163097000059,4.7651820180000755],[7.735764027000073,4.778501987000084],[7.731554985000059,4.798090935000062],[7.734347820000039,4.805615902000056],[7.751410007000061,4.819604874000049],[7.79897499100008,4.880012989000079]]]}},{"type":"Feature","properties":{"CNTRY_NAME":"Nigeria","CNTRY_CODE":"NGA","ADM1_NAME":"Akwa lbom","ADM1_CODE":"NGA003","ADM2_NAME":"Nsit Atai","ADM2_CODE":"NGA003019","HRname":"Nsit Atai","HRpcode":"NG003019","HRparent":"NG003","Shape_Leng":0.484082627973,"Shape_Area":0.0109546256479,"ADM2_New":"Nsit Atai","id":"NG-AK-NSIT-ATAI","name":"Nsit Atai","parentId":"NG-AK","stateName":"Akwa Ibom","regionId":"NG-SS","fillColor":"#8AAB76"},"geometry":{"type":"Polygon","coordinates":[[[8.005793571000083,4.897843838000085],[8.024644852000051,4.9049220090000745],[8.066596985000047,4.895450115000074],[8.08921623200007,4.869660854000074],[8.077812195000092,4.863220215000069],[8.074469566000062,4.853382111000087],[8.059677124000075,4.8417191510000634],[8.050079346000075,4.8266358380000725],[8.05593299900005,4.814562798000054],[8.073862076000069,4.799125195000045],[8.075662613000077,4.791059017000066],[8.05084800700007,4.749304771000084],[8.050435066000091,4.733140945000059],[8.033727646000045,4.741086006000046],[8.006533623000053,4.765684128000089],[7.975034237000045,4.819681168000045],[7.974884987000053,4.834684849000041],[7.989717007000081,4.842308044000049],[8.002692223000054,4.863768101000062],[8.007691383000065,4.879968166000083],[8.005793571000083,4.897843838000085]]]}},{"type":"Feature","properties":{"CNTRY_NAME":"Nigeria","CNTRY_CODE":"NGA","ADM1_NAME":"Akwa lbom","ADM1_CODE":"NGA003","ADM2_NAME":"Nsit Ibom","ADM2_CODE":"NGA003020","HRname":"Nsit Ibom","HRpcode":"NG003020","HRparent":"NG003","Shape_Leng":0.555517666688,"Shape_Area":0.0115714560987,"ADM2_New":"Nsit Ibom","id":"NG-AK-NSIT-IBOM","name":"Nsit Ibom","parentId":"NG-AK","stateName":"Akwa Ibom","regionId":"NG-SS","fillColor":"#BFA882"},"geometry":{"type":"Polygon","coordinates":[[[7.845496178000076,4.987738132000061],[7.865327835000073,5.011560917000054],[7.869325161000063,5.013325214000076],[7.8808889390000445,5.003606796000042],[7.893904209000084,4.963312149000046],[7.927113056000053,4.910482883000043],[7.936635971000044,4.875353813000061],[7.937461853000059,4.849966049000045],[7.945609093000087,4.837912083000049],[7.956532001000085,4.8351140020000685],[7.949250221000057,4.817740917000037],[7.940116882000041,4.813626766000084],[7.9211559300000545,4.817513943000051],[7.9097180370000615,4.814536095000051],[7.885263920000057,4.794137955000053],[7.869043827000041,4.81074476200007],[7.873355865000065,4.8384819030000585],[7.865633011000057,4.8655462270000385],[7.875218868000047,4.88178300900006],[7.853518009000084,4.930665016000091],[7.854273796000086,4.9699168210000835],[7.845496178000076,4.987738132000061]]]}},{"type":"Feature","properties":{"CNTRY_NAME":"Nigeria","CNTRY_CODE":"NGA","ADM1_NAME":"Akwa lbom","ADM1_CODE":"NGA003","ADM2_NAME":"Nsit Ubium","ADM2_CODE":"NGA003021","HRname":"Nsit Ubium","HRpcode":"NG003021","HRparent":"NG003","Shape_Leng":0.584250838924,"Shape_Area":0.0167810067759,"ADM2_New":"Nsit Ubium","id":"NG-AK-NSIT-UBIUM","name":"Nsit Ubium","parentId":"NG-AK","stateName":"Akwa Ibom","regionId":"NG-SS","fillColor":"#6BA368"},"geometry":{"type":"Polygon","coordinates":[[[7.956532001000085,4.8351140020000685],[7.970818996000048,4.839847088000056],[7.974287987000082,4.8369889260000605],[7.975034237000045,4.819681168000045],[7.991414070000076,4.786915779000083],[8.025053024000044,4.748518944000068],[8.050435066000091,4.733140945000059],[8.055772781000087,4.715292931000079],[8.067934036000054,4.70327091200005],[8.033068657000058,4.692024231000062],[8.015862465000055,4.6924619670000425],[7.986156940000058,4.681255817000078],[7.968801975000076,4.696699142000057],[7.94947385800009,4.679804802000092],[7.91021204000009,4.707190990000072],[7.88489198700006,4.716220856000064],[7.882977009000058,4.793542862000038],[7.9097180370000615,4.814536095000051],[7.94526004800008,4.815401077000047],[7.953228951000085,4.82123613400006],[7.956532001000085,4.8351140020000685]]]}},{"type":"Feature","properties":{"CNTRY_NAME":"Nigeria","CNTRY_CODE":"NGA","ADM1_NAME":"Akwa lbom","ADM1_CODE":"NGA003","ADM2_NAME":"Obot Akara","ADM2_CODE":"NGA003022","HRname":"Obot Akara","HRpcode":"NG003022","HRparent":"NG003","Shape_Leng":0.659997791577,"Shape_Area":0.0193797628653,"ADM2_New":"Obot Akara","id":"NG-AK-OBOT-AKARA","name":"Obot Akara","parentId":"NG-AK","stateName":"Akwa Ibom","regionId":"NG-SS","fillColor":"#C4A574"},"geometry":{"type":"Polygon","coordinates":[[[7.540698051000049,5.309052944000086],[7.556207180000058,5.306293011000093],[7.572082996000063,5.324313164000046],[7.591633797000043,5.318698883000081],[7.6030201910000415,5.326870918000054],[7.6099629400000595,5.320579052000085],[7.625466824000057,5.318396091000068],[7.648910999000066,5.324934006000092],[7.658548832000065,5.335977077000052],[7.679695129000038,5.303296089000071],[7.6801700590000905,5.295175076000078],[7.701624870000046,5.271108150000089],[7.682298183000057,5.254213810000067],[7.661128998000038,5.249425888000076],[7.659288883000045,5.203816891000088],[7.65090704000005,5.18181800800005],[7.638236046000088,5.187487125000075],[7.630823135000071,5.183386803000076],[7.626917839000043,5.172389984000063],[7.617187977000071,5.170578957000089],[7.581594944000074,5.174909115000048],[7.565679073000069,5.16092920300008],[7.5308070180000755,5.1502590180000425],[7.528978825000081,5.161210060000087],[7.539574146000064,5.1913070680000715],[7.542372227000044,5.255970001000037],[7.553099155000041,5.272792816000049],[7.535634995000066,5.299201012000083],[7.540698051000049,5.309052944000086]]]}},{"type":"Feature","properties":{"CNTRY_NAME":"Nigeria","CNTRY_CODE":"NGA","ADM1_NAME":"Akwa lbom","ADM1_CODE":"NGA003","ADM2_NAME":"Okobo","ADM2_CODE":"NGA003023","HRname":"Okobo","HRpcode":"NG003023","HRparent":"NG003","Shape_Leng":0.708835291925,"Shape_Area":0.0244294911112,"ADM2_New":"Okobo","id":"NG-AK-OKOBO","name":"Okobo","parentId":"NG-AK","stateName":"Akwa Ibom","regionId":"NG-SS","fillColor":"#5B8FA8"},"geometry":{"type":"Polygon","coordinates":[[[8.08921623200007,4.869660854000074],[8.140896797000039,4.919713020000074],[8.153120995000052,4.938528061000056],[8.171456337000052,4.93346977200008],[8.207357407000075,4.908302307000042],[8.230303764000041,4.860188484000048],[8.240281105000065,4.854086399000039],[8.236801147000051,4.847189903000071],[8.205972672000087,4.833666801000049],[8.192894936000073,4.8225960730000565],[8.191404343000045,4.799498081000081],[8.177259445000061,4.780337811000038],[8.180275917000074,4.765356064000059],[8.136821747000056,4.7528848650000555],[8.092145920000064,4.6901931760000934],[8.057510376000039,4.71357488600006],[8.049816132000046,4.737752914000055],[8.055336952000062,4.75915193600008],[8.075662613000077,4.791059017000066],[8.073862076000069,4.799125195000045],[8.049529076000056,4.824323177000053],[8.059677124000075,4.8417191510000634],[8.074469566000062,4.853382111000087],[8.077812195000092,4.863220215000069],[8.08921623200007,4.869660854000074]]]}},{"type":"Feature","properties":{"CNTRY_NAME":"Nigeria","CNTRY_CODE":"NGA","ADM1_NAME":"Akwa lbom","ADM1_CODE":"NGA003","ADM2_NAME":"Onna","ADM2_CODE":"NGA003024","HRname":"Onna","HRpcode":"NG003024","HRparent":"NG003","Shape_Leng":0.644908745986,"Shape_Area":0.0132164937527,"ADM2_New":"Onna","id":"NG-AK-ONNA","name":"Onna","parentId":"NG-AK","stateName":"Akwa Ibom","regionId":"NG-SS","fillColor":"#A8BF7A"},"geometry":{"type":"Polygon","coordinates":[[[7.809738159000062,4.7202310560000456],[7.840297222000061,4.703163147000055],[7.88489198700006,4.716220856000064],[7.88448476800005,4.699481010000056],[7.893778801000053,4.687435150000056],[7.879125118000047,4.661921978000066],[7.880948067000077,4.651548862000084],[7.8948168750000605,4.640695095000069],[7.915458202000082,4.64086198800004],[7.915537834000077,4.63278198200004],[7.907626152000091,4.6211757660000785],[7.927865028000042,4.604024887000094],[7.920496941000067,4.595307827000056],[7.889473915000053,4.601406097000051],[7.890769005000038,4.586410999000066],[7.9000978470000405,4.570902824000086],[7.896823883000081,4.554140091000079],[7.814025879000042,4.555246830000044],[7.796964169000091,4.620859146000043],[7.830051899000068,4.637863159000062],[7.836248875000081,4.648879051000051],[7.8269209860000615,4.66438579600009],[7.7956957820000525,4.690682888000083],[7.808263779000072,4.69540214500006],[7.809738159000062,4.7202310560000456]]]}},{"type":"Feature","properties":{"CNTRY_NAME":"Nigeria","CNTRY_CODE":"NGA","ADM1_NAME":"Akwa lbom","ADM1_CODE":"NGA003","ADM2_NAME":"Oruk Anam","ADM2_CODE":"NGA003026","HRname":"Oruk Anam","HRpcode":"NG003026","HRparent":"NG003","Shape_Leng":1.01003345732,"Shape_Area":0.0426939385638,"ADM2_New":"Oruk Anam","id":"NG-AK-ORUK-ANAM","name":"Oruk Anam","parentId":"NG-AK","stateName":"Akwa Ibom","regionId":"NG-SS","fillColor":"#6AADA3"},"geometry":{"type":"Polygon","coordinates":[[[7.743298054000093,4.980801105000069],[7.7636342050000735,4.974379063000072],[7.771195889000069,4.963473797000063],[7.787887096000077,4.957261086000074],[7.779090881000059,4.919097900000054],[7.7867860790000805,4.8949198720000595],[7.79897499100008,4.880012989000079],[7.76104784000006,4.830648899000039],[7.734347820000039,4.805615902000056],[7.731554985000059,4.798090935000062],[7.735764027000073,4.778501987000084],[7.731860161000043,4.76750516900006],[7.705675125000084,4.748247147000086],[7.676956177000079,4.695495129000051],[7.659893036000085,4.681506157000058],[7.629499912000085,4.681837082000072],[7.6319141390000595,4.669735909000053],[7.626781940000058,4.666810036000072],[7.610671043000082,4.67245101900005],[7.587262154000086,4.662449837000054],[7.5660080910000715,4.666317940000056],[7.5494318010000825,4.660990238000068],[7.529640198000038,4.690842152000073],[7.5470981600000755,4.726191044000075],[7.523907185000041,4.753246784000055],[7.525195599000085,4.779658318000088],[7.5214633940000795,4.788544178000052],[7.535464764000039,4.797082901000067],[7.568288803000087,4.840634823000073],[7.586044788000038,4.842508793000093],[7.624534130000086,4.835318089000054],[7.65358591100005,4.854598045000046],[7.678842068000051,4.909630775000039],[7.712433815000054,4.9335651400000415],[7.730408192000084,4.971224785000061],[7.743298054000093,4.980801105000069]]]}},{"type":"Feature","properties":{"CNTRY_NAME":"Nigeria","CNTRY_CODE":"NGA","ADM1_NAME":"Akwa lbom","ADM1_CODE":"NGA003","ADM2_NAME":"Ukanafun","ADM2_CODE":"NGA003028","HRname":"Ukanafun","HRpcode":"NG003028","HRparent":"NG003","Shape_Leng":0.881643010654,"Shape_Area":0.0200932410595,"ADM2_New":"Ukanafun","id":"NG-AK-UKANAFUN","name":"Ukanafun","parentId":"NG-AK","stateName":"Akwa Ibom","regionId":"NG-SS","fillColor":"#D4C4A0"},"geometry":{"type":"Polygon","coordinates":[[[7.714657784000053,4.998222828000053],[7.745423794000089,5.018095016000075],[7.759287834000077,5.007818222000083],[7.7553539280000905,4.9997072220000405],[7.730718136000064,4.997776031000058],[7.729065895000076,4.990837097000053],[7.748641014000043,4.9829149250000455],[7.73323488200009,4.975287914000091],[7.712433815000054,4.9335651400000415],[7.681106091000061,4.9125351910000745],[7.6626391410000565,4.866790771000069],[7.635387897000044,4.839445114000057],[7.626828194000041,4.835336208000058],[7.58834505100009,4.841950893000046],[7.568288803000087,4.840634823000073],[7.535464764000039,4.797082901000067],[7.522950172000037,4.790340424000078],[7.49227380800005,4.815780163000056],[7.488712311000086,4.8218045230000826],[7.5006909370000585,4.834317207000083],[7.495840073000068,4.860826015000043],[7.569015980000074,4.940485954000053],[7.633581161000052,4.963517189000072],[7.66828584700005,4.933207989000039],[7.684936047000065,4.931035042000076],[7.696310997000069,4.940361023000094],[7.6961388590000865,4.957674026000063],[7.705181122000056,4.971021175000089],[7.697584152000047,4.985387802000048],[7.714657784000053,4.998222828000053]]]}},{"type":"Feature","properties":{"CNTRY_NAME":"Nigeria","CNTRY_CODE":"NGA","ADM1_NAME":"Akwa lbom","ADM1_CODE":"NGA003","ADM2_NAME":"Uruan","ADM2_CODE":"NGA003029","HRname":"Uruan","HRpcode":"NG003029","HRparent":"NG003","Shape_Leng":0.862836638123,"Shape_Area":0.0282732353166,"ADM2_New":"Uruan","id":"NG-AK-URUAN","name":"Uruan","parentId":"NG-AK","stateName":"Akwa Ibom","regionId":"NG-SS","fillColor":"#688EB5"},"geometry":{"type":"Polygon","coordinates":[[[7.932318211000052,5.0790510180000865],[7.968686104000085,5.112242222000077],[7.992680073000088,5.1210927960000845],[8.008607864000055,5.133918762000064],[8.067083359000037,5.134969234000039],[8.095214844000054,5.115192413000045],[8.09928607900008,5.107050419000075],[8.098175049000076,5.043021679000049],[8.102616310000087,5.023776054000052],[8.122232437000093,4.99416732800006],[8.128153801000053,4.968999863000079],[8.153120995000052,4.938528061000056],[8.140896797000039,4.919713020000074],[8.120979309000063,4.9045457840000495],[8.093779564000045,4.872005939000076],[8.085173607000058,4.872513771000058],[8.066596985000047,4.895450115000074],[8.027511597000057,4.904944897000064],[8.005793571000083,4.897843838000085],[8.008511543000054,4.912871838000058],[8.00090313000004,4.928392887000086],[7.993620872000065,4.968735218000063],[8.010798454000053,4.971181870000066],[8.026192665000053,4.979962826000076],[8.03463268300004,4.99619197800007],[8.033353806000093,5.009456158000091],[7.999802113000044,5.039196014000083],[7.994962215000044,5.064550877000045],[7.962246895000078,5.067749977000062],[7.932318211000052,5.0790510180000865]]]}},{"type":"Feature","properties":{"CNTRY_NAME":"Nigeria","CNTRY_CODE":"NGA","ADM1_NAME":"Akwa lbom","ADM1_CODE":"NGA003","ADM2_NAME":"Urue-Offong/Oruko","ADM2_CODE":"NGA003030","HRname":"Urue-Offong/Oruko","HRpcode":"NG003030","HRparent":"NG003","Shape_Leng":0.541553609431,"Shape_Area":0.0103592955375,"ADM2_New":"Urue-Offong/Oruko","id":"NG-AK-URUE-OFFONG-ORUKO","name":"Urue-Offong/Oruko","parentId":"NG-AK","stateName":"Akwa Ibom","regionId":"NG-SS","fillColor":"#7CB087"},"geometry":{"type":"Polygon","coordinates":[[[8.200428963000093,4.75686216400004],[8.200509071000056,4.748783112000069],[8.208043098000076,4.740763187000084],[8.230397224000058,4.7415208820000885],[8.24367398700008,4.732395957000051],[8.215065956000046,4.726390839000089],[8.228362083000093,4.715532780000046],[8.210273743000073,4.689414978000059],[8.204820633000054,4.66109085100004],[8.197447777000093,4.652952194000079],[8.179582596000046,4.662042141000086],[8.151681323000048,4.645664398000065],[8.149790764000045,4.659492016000058],[8.138759613000047,4.673254967000048],[8.116278648000048,4.685193062000053],[8.092145920000064,4.6901931760000934],[8.13909721400006,4.754634857000042],[8.165443420000088,4.757732868000062],[8.180275917000074,4.765356064000059],[8.177259445000061,4.780337811000038],[8.191404343000045,4.799498081000081],[8.21278953600006,4.78235578500005],[8.202567101000056,4.772461891000091],[8.200428963000093,4.75686216400004]]]}},{"type":"Feature","properties":{"CNTRY_NAME":"Nigeria","CNTRY_CODE":"NGA","ADM1_NAME":"Akwa lbom","ADM1_CODE":"NGA003","ADM2_NAME":"Uyo","ADM2_CODE":"NGA003031","HRname":"Uyo","HRpcode":"NG003031","HRparent":"NG003","Shape_Leng":0.96423964785,"Shape_Area":0.0152161442773,"ADM2_New":"Uyo","id":"NG-AK-UYO","name":"Uyo","parentId":"NG-AK","stateName":"Akwa Ibom","regionId":"NG-SS","fillColor":"#C9B896"},"geometry":{"type":"Polygon","coordinates":[[[7.810515881000072,5.103460789000053],[7.82033681900009,5.096037865000085],[7.823003769000081,5.058545113000093],[7.831713200000081,5.0476489070000525],[7.8432321550000665,5.04254818000004],[7.906311035000044,5.041903019000074],[7.932318211000052,5.0790510180000865],[7.962246895000078,5.067749977000062],[7.992651939000041,5.066264153000077],[7.997862816000065,5.06111192700007],[7.999802113000044,5.039196014000083],[8.033353806000093,5.009456158000091],[8.031851768000081,4.987512112000047],[8.014226913000073,4.972363949000055],[7.993620872000065,4.968735218000063],[7.957248211000092,4.993834972000059],[7.886662960000081,4.999612808000052],[7.867031097000051,5.013306141000044],[7.842095852000057,4.9836702350000905],[7.827597141000069,4.942575932000068],[7.831059933000063,4.8825812340000425],[7.8185029030000806,4.876708031000078],[7.79897499100008,4.880012989000079],[7.79430818600008,4.888054848000081],[7.805625916000054,4.903151989000094],[7.815423965000093,4.955751896000038],[7.832745075000048,5.001485825000088],[7.810836792000089,5.071144104000041],[7.815814018000083,5.089653015000067],[7.804821968000056,5.099374771000043],[7.810515881000072,5.103460789000053]]]}},{"type":"Feature","properties":{"CNTRY_NAME":"Nigeria","CNTRY_CODE":"NGA","ADM1_NAME":"Akwa lbom","ADM1_CODE":"NGA003","ADM2_NAME":"Udung Uko","ADM2_CODE":"NGA003027","HRname":"Udung Uko","HRpcode":"NG003027","HRparent":"NG003","Shape_Leng":0.354019898686,"Shape_Area":0.00510226005461,"ADM2_New":"Udung Uko","id":"NG-AK-UDUNG-UKO","name":"Udung Uko","parentId":"NG-AK","stateName":"Akwa Ibom","regionId":"NG-SS","fillColor":"#8FAF6E"},"geometry":{"type":"Polygon","coordinates":[[[8.287810143000058,4.78233335200008],[8.30827045400008,4.7676601410000785],[8.317993164000086,4.751837730000091],[8.31469631200008,4.725136280000072],[8.298799515000042,4.746125698000071],[8.302725792000047,4.733448982000084],[8.289079666000077,4.721795082000085],[8.27132892600008,4.719343185000071],[8.230397224000058,4.7415208820000885],[8.212079048000078,4.73848676700004],[8.199327469000082,4.752235889000076],[8.202567101000056,4.772461891000091],[8.214527130000079,4.780639172000065],[8.230632782000043,4.775575161000063],[8.273049355000069,4.7770709990000455],[8.287810143000058,4.78233335200008]]]}},{"type":"Feature","properties":{"CNTRY_NAME":"Nigeria","CNTRY_CODE":"NGA","ADM1_NAME":"Akwa lbom","ADM1_CODE":"NGA003","ADM2_NAME":"Mbo","ADM2_CODE":"NGA003017","HRname":"Mbo","HRpcode":"NG003017","HRparent":"NG003","Shape_Leng":0.85793319798,"Shape_Area":0.0200882894118,"ADM2_New":"Mbo","id":"NG-AK-MBO","name":"Mbo","parentId":"NG-AK","stateName":"Akwa Ibom","regionId":"NG-SS","fillColor":"#9B8B72"},"geometry":{"type":"MultiPolygon","coordinates":[[[[8.332864761000053,4.589964866000059],[8.315431594000074,4.589643955000042],[8.31027793900006,4.609402180000075],[8.319655418000082,4.614511013000083],[8.324601173000076,4.633170128000074],[8.332365036000056,4.639882088000093],[8.341629982000086,4.623597145000076],[8.338012695000089,4.613686084000051],[8.340371132000087,4.601736069000083],[8.332864761000053,4.589964866000059]]],[[[8.313142776000063,4.720416069000066],[8.309906006000062,4.718474865000076],[8.318174362000093,4.718482018000088],[8.324888229000067,4.707245827000065],[8.323491096000055,4.6688208580000605],[8.312069893000057,4.659561158000088],[8.329823494000038,4.643320084000038],[8.319562912000038,4.631534100000067],[8.318259239000042,4.618185044000086],[8.307508469000084,4.61260795600009],[8.30646801000006,4.59281778400009],[8.290273666000076,4.575709820000043],[8.292222794000054,4.5652465990000906],[8.276936531000047,4.558941841000092],[8.243018440000071,4.564010756000073],[8.246287812000048,4.566021140000089],[8.242261108000093,4.577079800000092],[8.21800231900005,4.6040611270000795],[8.150364876000083,4.601781845000062],[8.153689384000074,4.613351822000084],[8.151098251000064,4.6433429720000845],[8.177294731000075,4.6614460950000876],[8.197447777000093,4.652952194000079],[8.204820633000054,4.66109085100004],[8.209460508000063,4.686878759000081],[8.227232933000039,4.713792801000068],[8.22718715700006,4.7184100150000745],[8.215065956000046,4.726390839000089],[8.24367398700008,4.732395957000051],[8.256892204000053,4.729615211000066],[8.268462181000075,4.719319820000067],[8.286792755000079,4.72119998900007],[8.302725792000047,4.733448982000084],[8.300177333000079,4.746127847000082],[8.313142776000063,4.720416069000066]]]]}},{"type":"Feature","properties":{"CNTRY_NAME":"Nigeria","CNTRY_CODE":"NGA","ADM1_NAME":"Akwa lbom","ADM1_CODE":"NGA003","ADM2_NAME":"Oron","ADM2_CODE":"NGA003025","HRname":"Oron","HRpcode":"NG003025","HRparent":"NG003","Shape_Leng":0.302709264028,"Shape_Area":0.00444411150374,"ADM2_New":"Oron","id":"NG-AK-ORON","name":"Oron","parentId":"NG-AK","stateName":"Akwa Ibom","regionId":"NG-SS","fillColor":"#B8956B"},"geometry":{"type":"Polygon","coordinates":[[[8.262868576000074,4.83815698300009],[8.266617775000043,4.831622124000091],[8.263430595000045,4.8270039560000555],[8.25016117000007,4.819804192000049],[8.269346237000093,4.79437112800008],[8.28661727900004,4.783188820000078],[8.283911483000054,4.779630163000093],[8.21971607200004,4.777794838000091],[8.191404343000045,4.799498081000081],[8.195158958000093,4.825500011000088],[8.235098839000045,4.845445156000039],[8.240281105000065,4.854086399000039],[8.262868576000074,4.83815698300009]]]}},{"type":"Feature","properties":{"CNTRY_NAME":"Nigeria","CNTRY_CODE":"NGA","ADM1_NAME":"Akwa lbom","ADM1_CODE":"NGA003","ADM2_NAME":"Ibeno","ADM2_CODE":"NGA003008","HRname":"Ibeno","HRpcode":"NG003008","HRparent":"NG003","Shape_Leng":1.09149529408,"Shape_Area":0.0192834084041,"ADM2_New":"Ibeno","id":"NG-AK-IBENO","name":"Ibeno","parentId":"NG-AK","stateName":"Akwa Ibom","regionId":"NG-SS","fillColor":"#D4C4A0"},"geometry":{"type":"Polygon","coordinates":[[[8.294628340000088,4.573084522000045],[8.29923629800004,4.572766781000041],[8.280111313000077,4.5464410780000435],[8.282655716000079,4.542543888000068],[8.27190113100005,4.5376558300000625],[8.124584198000093,4.546533107000073],[8.00075244900006,4.539869785000064],[7.992013931000088,4.543501854000056],[7.967737198000066,4.536924839000051],[7.929965973000037,4.538766861000056],[7.937013149000052,4.5346808430000465],[7.825105898000061,4.522017567000091],[7.814025879000042,4.555246830000044],[7.893958092000048,4.554115772000046],[7.987682819000042,4.5854620930000465],[8.018098831000088,4.5828218460000585],[8.162387848000037,4.603610992000085],[8.21800231900005,4.6040611270000795],[8.248770850000085,4.565643732000069],[8.241366386000038,4.564007282000091],[8.274643898000079,4.5589241980000565],[8.290072441000063,4.564242840000077],[8.294628340000088,4.573084522000045]]]}},{"type":"Feature","properties":{"CNTRY_NAME":"Nigeria","CNTRY_CODE":"NGA","ADM1_NAME":"Akwa lbom","ADM1_CODE":"NGA003","ADM2_NAME":"Eastern Obolo","ADM2_CODE":"NGA003002","HRname":"Eastern Obolo","HRpcode":"NG003002","HRparent":"NG003","Shape_Leng":0.703478947607,"Shape_Area":0.00927286918624,"ADM2_New":"Eastern Obolo","id":"NG-AK-EASTERN-OBOLO","name":"Eastern Obolo","parentId":"NG-AK","stateName":"Akwa Ibom","regionId":"NG-SS","fillColor":"#C4A574"},"geometry":{"type":"Polygon","coordinates":[[[7.814025879000042,4.555246830000044],[7.82488584500004,4.522970200000088],[7.68581533400004,4.500555992000045],[7.678045272000077,4.495907784000053],[7.660570144000076,4.502705097000046],[7.661317825000083,4.493047238000088],[7.6146183020000535,4.478272915000048],[7.602911949000088,4.479581833000054],[7.598925114000053,4.493590832000052],[7.591593266000075,4.492166996000037],[7.5684781070000895,4.507408142000088],[7.589797497000063,4.519427776000043],[7.60379028300008,4.514975548000052],[7.607394695000039,4.507979393000085],[7.623761177000063,4.509223938000048],[7.626687527000058,4.511583328000086],[7.621387005000088,4.513915539000038],[7.623083115000043,4.517307758000072],[7.607563972000037,4.523521900000048],[7.609239101000071,4.528152943000066],[7.624053955000079,4.537507057000084],[7.650485039000046,4.531949043000054],[7.677569389000041,4.549957275000054],[7.680156231000069,4.5466179850000685],[7.673408031000065,4.533288002000063],[7.6786079410000525,4.529291153000088],[7.8107128140000555,4.564408779000075],[7.814025879000042,4.555246830000044]]]}}]}