{"type":"FeatureCollection","features":[{"type":"Feature","properties":{"CNTRY_NAME":"Nigeria","CNTRY_CODE":"NGA","ADM1_NAME":"Bayelsa","ADM1_CODE":"NGA006","ADM2_NAME":"Kolokuma/Opokuma","ADM2_CODE":"NGA006003","HRname":"Kolokuma/Opokuma","HRpcode":"NG006003","HRparent":"NG006","Shape_Leng":0.826395647096,"Shape_Area":0.0293998378322,"ADM2_New":"Kolokuma/Opokuma","id":"NG-BY-KOLOKUMA-OPOKUMA","name":"Kolokuma/Opokuma","parentId":"NG-BY","stateName":"Bayelsa","regionId":"NG-SS","fillColor":"#7cb87c"},"geometry":{"type":"Polygon","coordinates":[[[6.142096043000038,4.99865198100008],[6.141942978000088,5.014918804000047],[6.1575608250000755,5.041594982000049],[6.2192339900000775,5.130188942000075],[6.254354954000064,5.170927048000067],[6.265036106000082,5.178637981000065],[6.300445080000088,5.185912132000055],[6.379288197000051,5.188702106000051],[6.388543129000084,5.1936497690000465],[6.397731781000061,5.170718193000084],[6.399549961000048,5.145593166000083],[6.369017124000038,5.105239868000069],[6.358265877000065,5.0938119890000735],[6.321924210000077,5.08562517200005],[6.3117580410000755,5.056529999000077],[6.305215836000059,5.049674988000049],[6.29185676600008,5.045729160000064],[6.292538166000043,5.055182934000072],[6.28306198100006,5.061213017000057],[6.273586273000092,5.056044102000044],[6.261198044000082,5.0230360030000725],[6.248579979000056,5.009782791000077],[6.159770966000053,4.93978977200004],[6.147355080000068,4.940584183000055],[6.142096043000038,4.99865198100008]]]}},{"type":"Feature","properties":{"CNTRY_NAME":"Nigeria","CNTRY_CODE":"NGA","ADM1_NAME":"Bayelsa","ADM1_CODE":"NGA006","ADM2_NAME":"Nembe","ADM2_CODE":"NGA006004","HRname":"Nembe","HRpcode":"NG006004","HRparent":"NG006","Shape_Leng":0.958019894574,"Shape_Area":0.0618633500412,"ADM2_New":"Nembe","id":"NG-BY-NEMBE","name":"Nembe","parentId":"NG-BY","stateName":"Bayelsa","regionId":"NG-SS","fillColor":"#8fbc8f"},"geometry":{"type":"Polygon","coordinates":[[[6.201821804000076,4.64211511600007],[6.224243164000086,4.6407899860000725],[6.251170158000093,4.659831047000068],[6.268667221000044,4.664632797000081],[6.292901993000044,4.662345886000082],[6.314700127000037,4.6522030830000745],[6.326653957000076,4.630152225000074],[6.338386059000072,4.6206507680000755],[6.386468887000092,4.619801998000071],[6.393124104000037,4.583903790000079],[6.408126831000061,4.553433895000069],[6.410377026000049,4.526907921000088],[6.4210190770000395,4.508131981000076],[6.431394100000091,4.450792789000047],[6.429927826000039,4.4215440750000425],[6.407699108000088,4.384296894000045],[6.364418030000081,4.372515202000045],[6.3546700480000595,4.3657169340000905],[6.303779125000062,4.363362789000064],[6.256450176000044,4.379998207000085],[6.243397236000078,4.392310143000088],[6.2372999190000655,4.4091458320000925],[6.2212238310000885,4.431271076000087],[6.1874680520000425,4.438837051000064],[6.150812149000046,4.46271801000006],[6.145734787000038,4.485113144000081],[6.146681786000045,4.5111179350000725],[6.164867878000052,4.552618980000091],[6.159706116000052,4.5665721890000555],[6.193117142000062,4.617640018000088],[6.201821804000076,4.64211511600007]]]}},{"type":"Feature","properties":{"CNTRY_NAME":"Nigeria","CNTRY_CODE":"NGA","ADM1_NAME":"Bayelsa","ADM1_CODE":"NGA006","ADM2_NAME":"Ogbia","ADM2_CODE":"NGA006005","HRname":"Ogbia","HRpcode":"NG006005","HRparent":"NG006","Shape_Leng":1.11610156321,"Shape_Area":0.0565891516895,"ADM2_New":"Ogbia","id":"NG-BY-OGBIA","name":"Ogbia","parentId":"NG-BY","stateName":"Bayelsa","regionId":"NG-SS","fillColor":"#a8c686"},"geometry":{"type":"Polygon","coordinates":[[[6.421666145000074,4.98163414000004],[6.437415123000051,4.966485977000048],[6.440640926000071,4.943194866000056],[6.400884151000071,4.87512397800009],[6.399279118000038,4.8384418490000485],[6.429982185000085,4.7658739090000495],[6.444660187000068,4.775567055000067],[6.44142198600008,4.745329857000058],[6.4459419250000565,4.730044842000041],[6.459428787000093,4.723997116000078],[6.461060047000046,4.713280201000089],[6.450611115000072,4.6934828760000755],[6.386468887000092,4.619801998000071],[6.338386059000072,4.6206507680000755],[6.326653957000076,4.630152225000074],[6.314700127000037,4.6522030830000745],[6.292901993000044,4.662345886000082],[6.268667221000044,4.664632797000081],[6.251170158000093,4.659831047000068],[6.224243164000086,4.6407899860000725],[6.201821804000076,4.64211511600007],[6.196331024000074,4.666840076000085],[6.206951141000047,4.720090866000078],[6.20810318000008,4.781408787000089],[6.213963985000078,4.8008217810000815],[6.235286236000093,4.838550091000059],[6.242722988000082,4.8686227800000665],[6.294254780000074,4.880723953000086],[6.374542236000082,4.9359970090000616],[6.41828584700005,4.9724001880000515],[6.421666145000074,4.98163414000004]]]}},{"type":"Feature","properties":{"CNTRY_NAME":"Nigeria","CNTRY_CODE":"NGA","ADM1_NAME":"Bayelsa","ADM1_CODE":"NGA006","ADM2_NAME":"Sagbama","ADM2_CODE":"NGA006006","HRname":"Sagbama","HRpcode":"NG006006","HRparent":"NG006","Shape_Leng":2.3208174873,"Shape_Area":0.076999035973,"ADM2_New":"Sagbama","id":"NG-BY-SAGBAMA","name":"Sagbama","parentId":"NG-BY","stateName":"Bayelsa","regionId":"NG-SS","fillColor":"#c2b280"},"geometry":{"type":"Polygon","coordinates":[[[6.338832378000063,5.3199110030000725],[6.408876896000038,5.304768562000049],[6.425990582000054,5.311185837000039],[6.434547424000073,5.323307991000092],[6.450234890000047,5.327586651000047],[6.473052979000045,5.321882248000065],[6.493532181000091,5.326040745000057],[6.5025858880000555,5.338941097000088],[6.495871067000053,5.369657516000075],[6.485476971000082,5.379205227000057],[6.561977863000038,5.3792490960000805],[6.569632053000078,5.372142792000091],[6.563159943000073,5.320212841000057],[6.4869990350000535,5.240703106000069],[6.4009327890000804,5.194825172000037],[6.379288197000051,5.188702106000051],[6.300445080000088,5.185912132000055],[6.265036106000082,5.178637981000065],[6.254354954000064,5.170927048000067],[6.2192339900000775,5.130188942000075],[6.1575608250000755,5.041594982000049],[6.141942978000088,5.014918804000047],[6.142096043000038,4.99865198100008],[6.131466866000039,4.993729115000065],[6.118714809000039,4.9976711270000465],[6.074996948000091,5.060245991000045],[6.0546298030000685,5.048988819000044],[6.05490493800005,5.039226055000086],[6.079895020000038,5.00393295300006],[6.08993101100009,4.9772691730000815],[6.08553409600006,4.93831300700009],[6.073327065000058,4.898100853000074],[6.072821140000087,4.822366238000086],[6.0415411000000745,4.815484047000041],[5.989294052000048,4.814083099000072],[5.989272118000088,4.83731699000009],[6.003293991000078,4.876567841000053],[6.002613068000073,4.889126778000048],[5.992608070000074,4.893021107000038],[5.980811119000066,4.923432827000056],[5.980175018000068,4.938313961000063],[5.992520809000041,4.985959053000045],[5.992317200000059,5.048230171000057],[5.971264839000071,5.073695183000041],[5.959865093000076,5.100848198000051],[5.97492647200005,5.137524605000067],[6.004523277000089,5.103686810000056],[6.027214527000069,5.095670700000085],[6.054965973000037,5.097167969000054],[6.06226778000007,5.103009701000076],[6.069569588000093,5.141344070000059],[6.0857925420000925,5.150802612000064],[6.097852707000072,5.149941444000092],[6.129725933000088,5.129266739000059],[6.143735886000059,5.134776115000079],[6.165906429000074,5.161139965000075],[6.190907001000085,5.158570766000082],[6.200734138000087,5.16954994200006],[6.194151402000045,5.216709137000066],[6.2020869260000495,5.231778145000078],[6.213285446000043,5.238669395000045],[6.23353290600005,5.238167763000092],[6.259417534000079,5.227870941000049],[6.290450096000086,5.234077454000044],[6.292275429000085,5.245395184000074],[6.283834457000069,5.266500950000079],[6.286762238000051,5.2823090550000416],[6.300047874000086,5.299026489000084],[6.325403214000062,5.306539536000059],[6.338832378000063,5.3199110030000725]]]}},{"type":"Feature","properties":{"CNTRY_NAME":"Nigeria","CNTRY_CODE":"NGA","ADM1_NAME":"Bayelsa","ADM1_CODE":"NGA006","ADM2_NAME":"Yenegoa","ADM2_CODE":"NGA006008","HRname":"Yenegoa","HRpcode":"NG006008","HRparent":"NG006","Shape_Leng":1.40028598458,"Shape_Area":0.0575384628424,"ADM2_New":"Yenegoa","id":"NG-BY-YENEGOA","name":"Yenegoa","parentId":"NG-BY","stateName":"Bayelsa","regionId":"NG-SS","fillColor":"#9bb898"},"geometry":{"type":"Polygon","coordinates":[[[6.388543129000084,5.1936497690000465],[6.4009327890000804,5.194825172000037],[6.4869990350000535,5.240703106000069],[6.530881882000074,5.284537792000037],[6.537384987000053,5.2649059300000545],[6.566636086000074,5.236972809000065],[6.552762032000089,5.22654056500005],[6.549230099000056,5.212652206000087],[6.558826447000058,5.198422909000044],[6.553380966000077,5.189809799000045],[6.534568310000054,5.186845303000041],[6.526298523000094,5.17416477200004],[6.493334770000047,5.163454056000091],[6.485816002000092,5.153363228000046],[6.439036846000079,5.052887917000078],[6.41156101200005,5.00458192800005],[6.410391808000043,4.991127014000085],[6.421666145000074,4.98163414000004],[6.41828584700005,4.9724001880000515],[6.3489718440000615,4.91600322700009],[6.294254780000074,4.880723953000086],[6.242722988000082,4.8686227800000665],[6.238286972000083,4.851973057000066],[6.179998875000081,4.846032143000059],[6.1566958430000795,4.849230766000062],[6.15229988100009,4.859066963000089],[6.147355080000068,4.940584183000055],[6.159770966000053,4.93978977200004],[6.248579979000056,5.009782791000077],[6.261198044000082,5.0230360030000725],[6.273586273000092,5.056044102000044],[6.28306198100006,5.061213017000057],[6.292538166000043,5.055182934000072],[6.29185676600008,5.045729160000064],[6.305215836000059,5.049674988000049],[6.3117580410000755,5.056529999000077],[6.321924210000077,5.08562517200005],[6.358265877000065,5.0938119890000735],[6.399549961000048,5.145593166000083],[6.397731781000061,5.170718193000084],[6.388543129000084,5.1936497690000465]]]}},{"type":"Feature","properties":{"CNTRY_NAME":"Nigeria","CNTRY_CODE":"NGA","ADM1_NAME":"Bayelsa","ADM1_CODE":"NGA006","ADM2_NAME":"Brass","ADM2_CODE":"NGA006001","HRname":"Brass","HRpcode":"NG006001","HRparent":"NG006","Shape_Leng":2.71132705661,"Shape_Area":0.112708767303,"ADM2_New":"Brass","id":"NG-BY-BRASS","name":"Brass","parentId":"NG-BY","stateName":"Bayelsa","regionId":"NG-SS","fillColor":"#6ba3be"},"geometry":{"type":"Polygon","coordinates":[[[6.607241154000064,4.746353149000072],[6.593472481000049,4.722457886000086],[6.5789356230000635,4.715189457000065],[6.57312107100006,4.7016220090000616],[6.56052255600008,4.697745323000049],[6.562364101000071,4.692440033000082],[6.5465931890000775,4.682030201000089],[6.511964798000065,4.643144131000042],[6.516617775000043,4.622614861000045],[6.535140991000048,4.608811855000056],[6.538109779000081,4.596213818000081],[6.548893452000073,4.5862970350000865],[6.540171146000091,4.57660579700007],[6.543078423000054,4.568368435000082],[6.551316261000068,4.558192730000087],[6.566337109000074,4.5538315770000395],[6.560038090000091,4.54123306300005],[6.54501676600006,4.53348016700005],[6.542593956000076,4.521851063000042],[6.54986238500004,4.510221481000087],[6.539985180000087,4.500919819000046],[6.512575150000089,4.431702137000059],[6.514143944000068,4.3689417840000715],[6.520407200000079,4.360930920000044],[6.54457283000005,4.354928017000077],[6.548645020000038,4.327236176000042],[6.493475914000044,4.323717117000058],[6.466251850000049,4.315001965000079],[6.435450077000041,4.324434757000063],[6.429216862000089,4.329679012000042],[6.433989048000058,4.33546590800006],[6.430038929000091,4.342109203000064],[6.421101093000061,4.341351986000063],[6.403470993000042,4.33753824300004],[6.398240089000069,4.3319768910000676],[6.415142059000061,4.31116914800009],[6.411489963000065,4.308840752000037],[6.288669109000068,4.296404839000047],[6.238419056000055,4.299929142000053],[6.213540078000051,4.285242081000092],[6.084265232000064,4.2775559430000385],[6.062577248000082,4.293718814000044],[6.000000000000057,4.312030792000087],[5.9883632660000785,4.310305119000077],[5.965749264000067,4.331365108000057],[5.8810782440000935,4.378964901000074],[5.855247021000082,4.400037289000068],[5.87659215900004,4.398787022000079],[5.953460217000043,4.369548798000039],[5.964485168000067,4.371212959000047],[5.973324776000084,4.37849187900008],[5.97141647300009,4.4034781460000545],[5.994878769000081,4.452925205000042],[6.047431946000074,4.470584869000049],[6.075696945000061,4.487742901000047],[6.115873814000054,4.529319763000046],[6.126414776000047,4.529599190000056],[6.138486862000093,4.53821516000005],[6.159706116000052,4.5665721890000555],[6.164867878000052,4.552618980000091],[6.146681786000045,4.5111179350000725],[6.145734787000038,4.485113144000081],[6.150812149000046,4.46271801000006],[6.1874680520000425,4.438837051000064],[6.2212238310000885,4.431271076000087],[6.2372999190000655,4.4091458320000925],[6.243397236000078,4.392310143000088],[6.256450176000044,4.379998207000085],[6.303779125000062,4.363362789000064],[6.323470116000067,4.363015175000044],[6.3546700480000595,4.3657169340000905],[6.364418030000081,4.372515202000045],[6.407699108000088,4.384296894000045],[6.429927826000039,4.4215440750000425],[6.431394100000091,4.450792789000047],[6.4210190770000395,4.508131981000076],[6.410377026000049,4.526907921000088],[6.408126831000061,4.553433895000069],[6.393124104000037,4.583903790000079],[6.386468887000092,4.619801998000071],[6.439350128000058,4.679276943000048],[6.461060047000046,4.713280201000089],[6.478478909000046,4.71390199700005],[6.5273118020000425,4.7530031200000735],[6.552611828000067,4.758596897000075],[6.579172134000089,4.758128166000063],[6.607241154000064,4.746353149000072]]]}},{"type":"Feature","properties":{"CNTRY_NAME":"Nigeria","CNTRY_CODE":"NGA","ADM1_NAME":"Bayelsa","ADM1_CODE":"NGA006","ADM2_NAME":"Southern Ijaw","ADM2_CODE":"NGA006007","HRname":"Southern Ijaw","HRpcode":"NG006007","HRparent":"NG006","Shape_Leng":2.66433214903,"Shape_Area":0.218311429727,"ADM2_New":"Southern Ijaw","id":"NG-BY-SOUTHERN-IJAW","name":"Southern Ijaw","parentId":"NG-BY","stateName":"Bayelsa","regionId":"NG-SS","fillColor":"#89a96d"},"geometry":{"type":"MultiPolygon","coordinates":[[[[5.746891976000086,4.491475105000063],[5.740920067000047,4.490119934000063],[5.726994992000073,4.506759167000041],[5.746891976000086,4.491475105000063]]],[[[6.118714809000039,4.9976711270000465],[6.131466866000039,4.993729115000065],[6.142096043000038,4.99865198100008],[6.15229988100009,4.859066963000089],[6.1566958430000795,4.849230766000062],[6.179998875000081,4.846032143000059],[6.238286972000083,4.851973057000066],[6.20810318000008,4.781408787000089],[6.206951141000047,4.720090866000078],[6.196331024000074,4.666840076000085],[6.201821804000076,4.64211511600007],[6.193117142000062,4.617640018000088],[6.138486862000093,4.53821516000005],[6.126414776000047,4.529599190000056],[6.115873814000054,4.529319763000046],[6.075696945000061,4.487742901000047],[6.05622005500004,4.475076199000057],[5.994878769000081,4.452925205000042],[5.97141647300009,4.4034781460000545],[5.973324776000084,4.37849187900008],[5.964485168000067,4.371212959000047],[5.953460217000043,4.369548798000039],[5.87659215900004,4.398787022000079],[5.855247021000082,4.400037289000068],[5.848643303000074,4.411118030000068],[5.760585308000088,4.474606037000058],[5.746708393000063,4.502064705000066],[5.714225292000037,4.525465011000051],[5.703269958000078,4.539556980000043],[5.683338165000066,4.546782970000038],[5.641980171000057,4.588866711000094],[5.566684246000079,4.694171906000065],[5.5380807340000615,4.748128033000057],[5.552110192000043,4.74410271000005],[5.569565773000079,4.7226138110000875],[5.595687866000048,4.735066891000088],[5.597630024000068,4.744769573000042],[5.610184669000091,4.738861561000078],[5.610184669000091,4.7303681370000845],[5.620523930000047,4.728891373000067],[5.6208934780000845,4.737384319000057],[5.6275401120000765,4.732584000000088],[5.631246567000062,4.736355305000075],[5.625324726000088,4.743661880000047],[5.644756794000045,4.73791790000007],[5.647687912000038,4.747624874000053],[5.6425237660000676,4.765374184000052],[5.648652077000065,4.774559021000073],[5.674067497000067,4.7853884700000435],[5.689576149000061,4.778741837000041],[5.69659233100009,4.792773724000085],[5.69659233100009,4.810498238000093],[5.755305290000081,4.796097279000094],[5.7660136220000595,4.800528049000093],[5.771552563000057,4.814560413000038],[5.785584927000059,4.8034825330000785],[5.7972011570000745,4.805858135000051],[5.895068169000069,4.8459520340000495],[5.992608070000074,4.893021107000038],[6.002613068000073,4.889126778000048],[6.003293991000078,4.876567841000053],[5.989272118000088,4.83731699000009],[5.989294052000048,4.814083099000072],[6.0415411000000745,4.815484047000041],[6.072821140000087,4.822366238000086],[6.073327065000058,4.898100853000074],[6.08553409600006,4.93831300700009],[6.08993101100009,4.9772691730000815],[6.079895020000038,5.00393295300006],[6.05490493800005,5.039226055000086],[6.0546298030000685,5.048988819000044],[6.074996948000091,5.060245991000045],[6.118714809000039,4.9976711270000465]]]]}},{"type":"Feature","properties":{"CNTRY_NAME":"Nigeria","CNTRY_CODE":"NGA","ADM1_NAME":"Bayelsa","ADM1_CODE":"NGA006","ADM2_NAME":"Ekeremor","ADM2_CODE":"NGA006002","HRname":"Ekeremor","HRpcode":"NG006002","HRparent":"NG006","Shape_Leng":2.19733896152,"Shape_Area":0.150527546491,"ADM2_New":"Ekeremor","id":"NG-BY-EKEREMOR","name":"Ekeremor","parentId":"NG-BY","stateName":"Bayelsa","regionId":"NG-SS","fillColor":"#b5c99a"},"geometry":{"type":"Polygon","coordinates":[[[5.97492647200005,5.137524605000067],[5.959865093000076,5.100848198000051],[5.971264839000071,5.073695183000041],[5.992317200000059,5.048230171000057],[5.992520809000041,4.985959053000045],[5.980175018000068,4.938313961000063],[5.98246908200008,4.914111137000077],[5.992608070000074,4.893021107000038],[5.895068169000069,4.8459520340000495],[5.7972011570000745,4.805858135000051],[5.785584927000059,4.8034825330000785],[5.771552563000057,4.814560413000038],[5.7660136220000595,4.800528049000093],[5.755305290000081,4.796097279000094],[5.69659233100009,4.810498238000093],[5.69659233100009,4.792773724000085],[5.689576149000061,4.778741837000041],[5.674067497000067,4.7853884700000435],[5.648652077000065,4.774559021000073],[5.6425237660000676,4.765374184000052],[5.647687912000038,4.747624874000053],[5.644756794000045,4.73791790000007],[5.625324726000088,4.743661880000047],[5.630494118000058,4.7329530720000434],[5.624456882000061,4.738062859000081],[5.6208934780000845,4.737384319000057],[5.620523930000047,4.728891373000067],[5.610184669000091,4.7303681370000845],[5.610184669000091,4.738861561000078],[5.597630024000068,4.744769573000042],[5.595687866000048,4.735066891000088],[5.569565773000079,4.7226138110000875],[5.51951885200009,4.775238037000065],[5.458873271000073,4.8813261980000675],[5.463314057000048,4.9006428720000486],[5.446002960000044,4.935015202000045],[5.444527149000066,4.967708111000093],[5.4229450220000786,5.027462005000075],[5.367559910000068,5.130304813000066],[5.37332391700005,5.136266232000082],[5.390387058000044,5.134204865000072],[5.436465263000059,5.141396523000083],[5.469812393000041,5.123188496000068],[5.472471714000051,5.1123456950000445],[5.467469215000051,5.101708889000065],[5.472823143000085,5.092679024000063],[5.502870560000076,5.092460632000041],[5.511565208000093,5.088287354000045],[5.524085045000049,5.068811893000088],[5.533127308000076,5.062899590000086],[5.550863743000093,5.055596352000066],[5.58459806400009,5.055248260000042],[5.590857983000092,5.043424129000073],[5.619723320000048,5.034729481000056],[5.63293886200006,5.018383980000067],[5.656670570000074,5.011776447000045],[5.661808968000059,5.012883663000082],[5.666662216000077,5.028277874000082],[5.71028709400008,5.0238261220000595],[5.719368458000076,5.030948639000087],[5.730586052000092,5.054452896000043],[5.751953602000071,5.05374050100005],[5.764239788000054,5.064246178000076],[5.779018879000091,5.05801391600005],[5.788122177000048,5.072540760000038],[5.789144993000093,5.084376335000059],[5.803610802000037,5.081892490000087],[5.809017181000058,5.086421967000092],[5.82026863100009,5.0751705170000605],[5.840140820000045,5.0830612180000685],[5.840871334000042,5.067572594000069],[5.848323822000054,5.0665497780000806],[5.857383251000044,5.077362537000056],[5.8677387240000485,5.068109512000092],[5.880772746000048,5.109508991000041],[5.885300636000068,5.0999722480000855],[5.914507866000065,5.108150005000084],[5.916377068000088,5.131515980000074],[5.926891804000093,5.139927864000072],[5.927826405000076,5.160723209000082],[5.933200836000083,5.1646952630000555],[5.960538864000057,5.1572184560000665],[5.97492647200005,5.137524605000067]]]}}]}