{"type":"FeatureCollection","features":[{"type":"Feature","properties":{"CNTRY_NAME":"Nigeria","CNTRY_CODE":"NGA","ADM1_NAME":"Borno","ADM1_CODE":"NGA008","ADM2_NAME":"Askira/Uba","ADM2_CODE":"NGA008002","HRname":"Askira/Uba","HRpcode":"NG008002","HRparent":"NG008","Shape_Leng":2.60569745847,"Shape_Area":0.194122643575,"ADM2_New":"Askira/Uba","id":"NG-BO-ASKIRA-UBA","name":"Askira/Uba","parentId":"NG-BO","stateName":"Borno","regionId":"NG-NE","fillColor":"#C4A574"},"geometry":{"type":"Polygon","coordinates":[[[13.01152992200008,10.81820964800005],[13.054189682000072,10.829600334000077],[13.162030220000076,10.826379776000067],[13.198329926000042,10.812560081000072],[13.25240993500006,10.80967998500006],[13.334794044000091,10.815339088000087],[13.335881233000066,10.800146103000088],[13.311245918000054,10.713460922000081],[13.283183098000052,10.667544365000083],[13.242266655000037,10.579537392000077],[13.225771904000055,10.516645432000075],[13.213832855000078,10.43772602100006],[13.159387589000062,10.42755317700005],[13.122425079000038,10.443655968000087],[13.051918983000064,10.464411736000045],[13.002415657000086,10.52173328400005],[12.94007015200009,10.555056572000069],[12.875340462000054,10.57351112400005],[12.776977539000086,10.57716941800004],[12.760801315000037,10.58292675000007],[12.731818199000088,10.572695732000057],[12.673680305000062,10.484930038000073],[12.665322304000085,10.459575653000059],[12.652495384000076,10.43900966600006],[12.639759064000089,10.437894821000043],[12.628249168000082,10.45165157300005],[12.612779617000058,10.448619843000074],[12.601099968000085,10.478349686000058],[12.567890167000087,10.531439781000074],[12.554149628000062,10.569219589000056],[12.540010452000047,10.588800430000049],[12.50658035300006,10.596739769000067],[12.462809563000064,10.627820015000054],[12.427080154000066,10.632900238000047],[12.395070076000081,10.65501022300009],[12.417539597000086,10.692440033000082],[12.471369743000082,10.74709987600005],[12.491459846000055,10.760910034000062],[12.517270088000089,10.76294994400007],[12.522990227000037,10.768300056000044],[12.545949936000056,10.724880219000056],[12.576519966000092,10.722820282000043],[12.585729599000047,10.717180252000048],[12.670869827000047,10.716959953000071],[12.75115966800007,10.700090408000051],[12.833829880000053,10.706839561000038],[12.869569778000084,10.701760292000074],[12.893950462000078,10.706749916000092],[12.985360146000062,10.703129768000053],[13.00162982900008,10.71337032300005],[13.004090309000048,10.72352027900007],[13.004079819000083,10.809100151000052],[13.01152992200008,10.81820964800005]]]}},{"type":"Feature","properties":{"CNTRY_NAME":"Nigeria","CNTRY_CODE":"NGA","ADM1_NAME":"Borno","ADM1_CODE":"NGA008","ADM2_NAME":"Bayo","ADM2_CODE":"NGA008004","HRname":"Bayo","HRpcode":"NG008004","HRparent":"NG008","Shape_Leng":1.44282250055,"Shape_Area":0.0787522791055,"ADM2_New":"Bayo","id":"NG-BO-BAYO","name":"Bayo","parentId":"NG-BO","stateName":"Borno","regionId":"NG-NE","fillColor":"#A8BF7A"},"geometry":{"type":"Polygon","coordinates":[[[11.768280029000039,10.680339813000046],[11.774669647000053,10.682140350000054],[11.79388046300005,10.707260132000044],[11.811200142000075,10.713470459000064],[11.818900108000037,10.707130432000042],[11.822079659000053,10.698690414000055],[11.818349838000074,10.68165016200004],[11.801600456000074,10.649570465000068],[11.807660103000046,10.619099617000074],[11.796279907000041,10.611069679000082],[11.785400391000053,10.591620445000046],[11.768250465000051,10.57557010700009],[11.760160446000043,10.529479980000076],[11.773360252000089,10.449099541000066],[11.794010162000063,10.402810097000042],[11.806090355000038,10.35704994200006],[11.806570053000087,10.310429573000079],[11.81801033000005,10.286899567000091],[11.789429665000057,10.243229866000092],[11.751423836000072,10.23930454300006],[11.726303101000042,10.213863373000038],[11.72068977400005,10.198628426000084],[11.68781471300008,10.184196472000053],[11.676617622000037,10.174118042000089],[11.597208977000037,10.20183658600007],[11.573154449000072,10.261171341000079],[11.533062935000089,10.300460815000065],[11.533864975000085,10.311686516000066],[11.543486595000047,10.32611846900005],[11.602020264000089,10.35658836400006],[11.635479927000063,10.39455032300009],[11.635866165000039,10.46573925000007],[11.640370369000038,10.50006675700007],[11.65020084400004,10.529296875000057],[11.648750305000078,10.543184280000048],[11.63907432600007,10.562100410000085],[11.640150070000061,10.609040260000086],[11.703680038000073,10.628549576000069],[11.747830391000036,10.667010307000055],[11.763239861000045,10.67144012500006],[11.768280029000039,10.680339813000046]]]}},{"type":"Feature","properties":{"CNTRY_NAME":"Nigeria","CNTRY_CODE":"NGA","ADM1_NAME":"Borno","ADM1_CODE":"NGA008","ADM2_NAME":"Biu","ADM2_CODE":"NGA008005","HRname":"Biu","HRpcode":"NG008005","HRparent":"NG008","Shape_Leng":2.53114148056,"Shape_Area":0.273166298123,"ADM2_New":"Biu","id":"NG-BO-BIU","name":"Biu","parentId":"NG-BO","stateName":"Borno","regionId":"NG-NE","fillColor":"#B8956B"},"geometry":{"type":"Polygon","coordinates":[[[12.007828712000048,11.033950806000064],[12.022150040000042,11.057100296000044],[12.035730362000038,11.063389778000044],[12.054389954000044,11.063019753000049],[12.088859558000081,11.051059723000037],[12.128560066000091,11.056830406000074],[12.146030426000038,11.070329666000077],[12.170889854000052,11.062919617000091],[12.210920334000036,11.03190040600009],[12.273269653000057,10.996809959000075],[12.311869621000085,10.968740463000074],[12.34037971500004,10.940500259000089],[12.366589546000057,10.926509857000042],[12.39852047000005,10.900759697000069],[12.427200317000086,10.845569611000087],[12.441419601000064,10.829629898000064],[12.46286010700004,10.819740295000088],[12.508669853000072,10.818200111000067],[12.507100105000063,10.810489655000083],[12.522990227000037,10.768300056000044],[12.517270088000089,10.76294994400007],[12.482410431000062,10.756719589000056],[12.417539597000086,10.692440033000082],[12.392780304000041,10.656609535000086],[12.318829536000067,10.617910385000073],[12.286600113000077,10.59486961400006],[12.235380173000067,10.540530205000039],[12.21329975100008,10.538410187000068],[12.198929787000054,10.54706955000006],[12.177080154000066,10.572990417000085],[12.166119576000085,10.601249695000092],[12.15985012100009,10.60464954400004],[12.153490067000064,10.604410172000087],[12.13992023500009,10.581009865000055],[12.117839813000046,10.578889847000085],[12.076700211000059,10.610289574000092],[12.056119919000082,10.643110275000083],[12.044369698000082,10.652079582000056],[12.029760361000058,10.64982032800009],[12.001649857000075,10.627790451000067],[11.990130424000085,10.61345005000004],[11.984419823000053,10.590979576000052],[11.96393966700009,10.55897998800009],[11.929470062000064,10.553830147000042],[11.911600113000077,10.556360245000064],[11.879440308000085,10.571200371000089],[11.856960297000057,10.585109711000086],[11.840200424000045,10.60437965400007],[11.810179710000057,10.614800453000043],[11.804780006000044,10.624010086000055],[11.801600456000074,10.649570465000068],[11.821599960000071,10.69396972700008],[11.814530373000082,10.712309837000078],[11.79388046300005,10.707260132000044],[11.774669647000053,10.682140350000054],[11.768280029000039,10.680339813000046],[11.76601028400006,10.696149826000067],[11.750519753000049,10.722310066000091],[11.721130371000072,10.74473953200004],[11.722880363000058,10.756360054000083],[11.737250328000073,10.781929970000078],[11.73620986900005,10.803070068000068],[11.711750031000065,10.81157016800006],[11.68498992900004,10.834309578000045],[11.651229858000079,10.82769012500006],[11.642649651000056,10.84533977500007],[11.624939919000042,10.855150223000066],[11.623200417000078,10.860650063000037],[11.647489548000067,10.879110336000053],[11.68385982500007,10.886039734000065],[11.822360039000046,10.935759544000064],[11.93052005800007,10.964220047000083],[11.975299835000044,10.997570038000049],[12.007828712000048,11.033950806000064]]]}},{"type":"Feature","properties":{"CNTRY_NAME":"Nigeria","CNTRY_CODE":"NGA","ADM1_NAME":"Borno","ADM1_CODE":"NGA008","ADM2_NAME":"Chibok","ADM2_CODE":"NGA008006","HRname":"Chibok","HRpcode":"NG008006","HRparent":"NG008","Shape_Leng":1.33197893291,"Shape_Area":0.111046605244,"ADM2_New":"Chibok","id":"NG-BO-CHIBOK","name":"Chibok","parentId":"NG-BO","stateName":"Borno","regionId":"NG-NE","fillColor":"#6AADA3"},"geometry":{"type":"Polygon","coordinates":[[[12.508669853000072,10.818200111000067],[12.574910164000073,10.889639854000052],[12.67560005200005,10.952480316000049],[12.724510193000071,10.969730377000076],[12.79454994200006,10.979640007000057],[12.818619728000044,10.987179756000046],[12.895090103000086,10.98384952500004],[12.904700279000053,10.97929954500006],[12.951410294000084,10.928850174000047],[12.973420143000055,10.875980377000076],[13.01152992200008,10.81820964800005],[13.004079819000083,10.809100151000052],[13.004090309000048,10.72352027900007],[12.995920181000088,10.708020210000086],[12.979000092000092,10.702890396000043],[12.893950462000078,10.706749916000092],[12.869569778000084,10.701760292000074],[12.833829880000053,10.706839561000038],[12.75115966800007,10.700090408000051],[12.670869827000047,10.716959953000071],[12.585729599000047,10.717180252000048],[12.576519966000092,10.722820282000043],[12.545949936000056,10.724880219000056],[12.53649044000008,10.736720085000059],[12.535619736000058,10.748020172000054],[12.527910233000057,10.754369736000058],[12.508850098000039,10.805000305000078],[12.508669853000072,10.818200111000067]]]}},{"type":"Feature","properties":{"CNTRY_NAME":"Nigeria","CNTRY_CODE":"NGA","ADM1_NAME":"Borno","ADM1_CODE":"NGA008","ADM2_NAME":"Damboa","ADM2_CODE":"NGA008007","HRname":"Damboa","HRpcode":"NG008007","HRparent":"NG008","Shape_Leng":3.8243518434,"Shape_Area":0.512138324486,"ADM2_New":"Damboa","id":"NG-BO-DAMBOA","name":"Damboa","parentId":"NG-BO","stateName":"Borno","regionId":"NG-NE","fillColor":"#8FAF6E"},"geometry":{"type":"Polygon","coordinates":[[[12.324412346000088,11.498019218000081],[12.34156990100007,11.47799015000004],[12.355790138000089,11.444930077000038],[12.38342952700009,11.410889626000085],[12.511859894000054,11.340629578000062],[12.566980362000038,11.28236961400006],[12.59891033200006,11.256609917000048],[12.63337993600004,11.244649887000037],[12.644969940000067,11.245510101000093],[12.70532989500009,11.273460388000046],[12.773870468000041,11.231320381000046],[12.800160408000067,11.220970154000042],[12.80937004100008,11.19820976300008],[12.822319984000046,11.19250011400004],[12.838910103000046,11.200180054000043],[12.84883976000009,11.227299690000052],[12.896080017000088,11.270799637000039],[12.923800468000081,11.27462005600006],[12.950949669000067,11.287199974000089],[12.968110085000092,11.303250313000092],[12.989549637000039,11.310469627000089],[13.017180443000086,11.327779770000063],[13.048700333000056,11.386509895000074],[13.052740097000083,11.418120384000076],[13.06346035000007,11.430290222000053],[13.078149796000048,11.436189651000063],[13.099840164000057,11.437219620000064],[13.130570412000054,11.42533016200008],[13.15590953800006,11.405529976000082],[13.21420955700006,11.338829994000037],[13.245900154000083,11.319270134000078],[13.332859993000056,11.282970428000056],[13.331760406000058,11.266240120000077],[13.349720001000037,11.181759834000047],[13.351869583000052,11.108880043000056],[13.35791015600006,11.094559669000091],[13.353549957000041,11.065520287000083],[13.326560020000045,11.008870125000044],[13.31274032600004,10.991660118000084],[13.340912819000039,10.926430702000062],[13.334440231000087,10.890000343000054],[13.334794044000091,10.815339088000087],[13.25240993500006,10.80967998500006],[13.198329926000042,10.812560081000072],[13.162030220000076,10.826379776000067],[13.054189682000072,10.829600334000077],[13.01152992200008,10.81820964800005],[12.973420143000055,10.875980377000076],[12.960069656000087,10.914839745000052],[12.946330070000045,10.935509682000088],[12.904700279000053,10.97929954500006],[12.86157989500009,10.988160133000065],[12.818619728000044,10.987179756000046],[12.707989693000059,10.965680122000037],[12.64612960800008,10.93704032900007],[12.580229759000076,10.893910408000067],[12.508669853000072,10.818200111000067],[12.45135021200008,10.822520256000075],[12.427200317000086,10.845569611000087],[12.39852047000005,10.900759697000069],[12.366589546000057,10.926509857000042],[12.34037971500004,10.940500259000089],[12.311869621000085,10.968740463000074],[12.273269653000057,10.996809959000075],[12.210920334000036,11.03190040600009],[12.187490463000074,11.053489685000045],[12.146030426000038,11.070329666000077],[12.149680138000065,11.08106994600007],[12.13912010200005,11.095950127000037],[12.133480072000054,11.128470421000088],[12.127360344000067,11.13916015600006],[12.12100982700008,11.138919830000077],[12.114649773000053,11.15579032900007],[12.114170074000072,11.185299873000076],[12.101849556000047,11.237250328000073],[12.104789734000065,11.252129555000067],[12.117730141000038,11.263529778000077],[12.186900139000045,11.301859856000078],[12.196579933000066,11.318059921000042],[12.20277023300008,11.36236000100007],[12.214200020000078,11.390179634000049],[12.255809784000064,11.431969643000059],[12.303609848000065,11.466719627000089],[12.323539734000065,11.490360260000045],[12.324412346000088,11.498019218000081]]]}},{"type":"Feature","properties":{"CNTRY_NAME":"Nigeria","CNTRY_CODE":"NGA","ADM1_NAME":"Borno","ADM1_CODE":"NGA008","ADM2_NAME":"Dikwa","ADM2_CODE":"NGA008008","HRname":"Dikwa","HRpcode":"NG008008","HRparent":"NG008","Shape_Leng":1.82941039516,"Shape_Area":0.14597356219,"ADM2_New":"Dikwa","id":"NG-BO-DIKWA","name":"Dikwa","parentId":"NG-BO","stateName":"Borno","regionId":"NG-NE","fillColor":"#D4C4A0"},"geometry":{"type":"Polygon","coordinates":[[[13.893469810000056,12.114769936000073],[13.89848995200009,12.123259544000064],[13.909370422000052,12.125599861000069],[13.960590363000051,12.111479759000076],[13.988699913000062,12.16773986800007],[14.048660278000057,12.10902023300008],[14.10021972700008,12.006770134000078],[14.132229805000065,11.98464965800008],[14.165189743000042,11.989100456000074],[14.172570229000087,12.002429962000065],[14.198060036000072,12.02414989500005],[14.237449646000073,12.03248024000004],[14.261190414000055,12.042570114000057],[14.282159805000049,12.045069695000052],[14.308520317000045,12.038359642000046],[14.320910454000057,12.039799690000052],[14.31243038200006,11.942870140000082],[14.314339638000092,11.910420418000058],[14.305930138000065,11.849769592000087],[14.294580460000077,11.84270954100009],[14.255270004000067,11.838020325000059],[14.242010117000063,11.82917976400006],[14.155920029000072,11.802829742000085],[14.127969742000062,11.805199623000078],[14.105099678000045,11.80091953300007],[14.074290276000056,11.77493953700008],[14.051980019000041,11.744790077000062],[14.050310135000075,11.719699860000048],[14.008859634000089,11.702300072000071],[13.969470024000088,11.711090088000049],[13.934760094000069,11.729249954000068],[13.916339874000073,11.723420143000055],[13.892200470000091,11.729359627000065],[13.854000092000092,11.724280357000055],[13.827159882000046,11.72626972200004],[13.801580429000069,11.73515033700005],[13.759249687000079,11.763290405000077],[13.773300171000074,11.77431011200008],[13.798480034000079,11.78145980800008],[13.810390472000051,11.796879768000053],[13.821180344000084,11.829810143000088],[13.846579552000037,11.950579643000083],[13.83393955200006,12.00508976000009],[13.836790085000075,12.067669868000053],[13.88109970100004,12.096289635000062],[13.893469810000056,12.114769936000073]]]}},{"type":"Feature","properties":{"CNTRY_NAME":"Nigeria","CNTRY_CODE":"NGA","ADM1_NAME":"Borno","ADM1_CODE":"NGA008","ADM2_NAME":"Gubio","ADM2_CODE":"NGA008009","HRname":"Gubio","HRpcode":"NG008009","HRparent":"NG008","Shape_Leng":1.98928593167,"Shape_Area":0.204042542512,"ADM2_New":"Gubio","id":"NG-BO-GUBIO","name":"Gubio","parentId":"NG-BO","stateName":"Borno","regionId":"NG-NE","fillColor":"#688EB5"},"geometry":{"type":"Polygon","coordinates":[[[12.85060977900008,13.05064010600006],[12.871979713000087,13.00288009600007],[12.897239685000045,12.979439735000085],[12.910579681000058,12.957690239000044],[12.928059578000045,12.90272998800009],[12.929659843000081,12.872830391000036],[12.915840149000076,12.838509560000091],[12.920220375000042,12.816209793000041],[12.93307972000008,12.80685043300008],[12.99631977100006,12.800660133000065],[13.000829697000086,12.796779633000085],[13.002659798000082,12.777810097000042],[12.989410400000054,12.700499535000063],[12.952329636000059,12.626569748000065],[12.929949760000056,12.541440010000088],[12.897000313000092,12.46852016400004],[12.88000965100008,12.442640305000054],[12.86723995200009,12.38716983800009],[12.815690041000039,12.403840065000054],[12.76581955000006,12.411379814000043],[12.743740082000045,12.409259796000072],[12.66090965300009,12.429459572000042],[12.63621044200005,12.444149971000058],[12.61841011000007,12.467450142000075],[12.59895038600007,12.482760429000052],[12.517390251000052,12.492739677000088],[12.48888015700004,12.503860474000078],[12.467599869000082,12.521030426000038],[12.448690414000055,12.561820030000092],[12.43389987900008,12.581310272000053],[12.444549561000088,12.612159729000041],[12.477259636000042,12.63992023500009],[12.486140251000052,12.66080665600009],[12.485520363000091,12.69328975700006],[12.472960472000068,12.717209816000093],[12.494009972000072,12.723349571000085],[12.527830124000047,12.750729561000071],[12.568650246000061,12.756110191000062],[12.608599663000064,12.77280998200007],[12.614310265000086,12.77816009500009],[12.616539955000064,12.794500351000067],[12.65028953600006,12.801119804000052],[12.672599792000085,12.81416034700004],[12.708250046000046,12.87390995000004],[12.756679535000046,12.920660019000081],[12.833140373000049,13.020030022000071],[12.85060977900008,13.05064010600006]]]}},{"type":"Feature","properties":{"CNTRY_NAME":"Nigeria","CNTRY_CODE":"NGA","ADM1_NAME":"Borno","ADM1_CODE":"NGA008","ADM2_NAME":"Guzamala","ADM2_CODE":"NGA008010","HRname":"Guzamala","HRpcode":"NG008010","HRparent":"NG008","Shape_Leng":2.3809549194,"Shape_Area":0.208335083084,"ADM2_New":"Guzamala","id":"NG-BO-GUZAMALA","name":"Guzamala","parentId":"NG-BO","stateName":"Borno","regionId":"NG-NE","fillColor":"#7CB087"},"geometry":{"type":"Polygon","coordinates":[[[13.57009983100005,12.667590141000062],[13.56525993300005,12.650939941000047],[13.542940140000042,12.620789528000046],[13.520110130000091,12.604269981000073],[13.477510452000047,12.582380295000064],[13.408260345000087,12.574640274000046],[13.39404010800007,12.59057998700007],[13.33621978800005,12.62775993300005],[13.31311035200008,12.629679680000038],[13.281270027000062,12.624839783000084],[13.25061035200008,12.640370369000038],[13.209859848000065,12.689970016000075],[13.19643020600006,12.759429932000046],[13.18649959600009,12.766539574000092],[13.166009903000088,12.768770218000043],[13.145050049000076,12.783379555000067],[13.142580032000069,12.790349960000071],[13.148850441000093,12.821180344000084],[13.13551044500008,12.842929840000068],[13.087779999000077,12.863169670000048],[13.064660072000038,12.865079880000053],[13.025910378000049,12.851639748000082],[12.99631977100006,12.800660133000065],[12.927519798000048,12.80877971600006],[12.920220375000042,12.816209793000041],[12.915840149000076,12.838509560000091],[12.929659843000081,12.872830391000036],[12.928059578000045,12.90272998800009],[12.910579681000058,12.957690239000044],[12.897239685000045,12.979439735000085],[12.871979713000087,13.00288009600007],[12.85060977900008,13.05064010600006],[12.866330147000042,13.06962966900005],[12.892140388000087,13.088789940000083],[12.93327045400008,13.108739853000088],[12.955030441000076,13.113409996000087],[13.15548038500009,13.075599670000088],[13.199959755000066,13.077280045000066],[13.219490051000037,13.082719803000089],[13.268799782000087,13.118169785000077],[13.30397987400005,13.156080246000045],[13.315569878000076,13.174059868000086],[13.321439743000042,13.203800201000092],[13.343440056000077,13.200630188000048],[13.345620155000063,13.159190178000074],[13.339079857000058,13.113389969000082],[13.339079857000058,13.056670189000045],[13.343440056000077,13.041410446000043],[13.339079857000058,12.991239548000067],[13.343440056000077,12.989060402000064],[13.341259956000044,12.978150368000058],[13.345620155000063,12.96506977100006],[13.371800423000082,12.932350159000066],[13.41106033300008,12.906169891000047],[13.439410210000062,12.89745044700004],[13.46121978800005,12.88000011400004],[13.48740005500008,12.84945964800005],[13.502670288000047,12.821109772000057],[13.517939568000088,12.770939827000063],[13.537570000000073,12.73822021500007],[13.550649643000042,12.692420006000077],[13.57009983100005,12.667590141000062]]]}},{"type":"Feature","properties":{"CNTRY_NAME":"Nigeria","CNTRY_CODE":"NGA","ADM1_NAME":"Borno","ADM1_CODE":"NGA008","ADM2_NAME":"Hawul","ADM2_CODE":"NGA008012","HRname":"Hawul","HRpcode":"NG008012","HRparent":"NG008","Shape_Leng":1.94731634743,"Shape_Area":0.17260673108,"ADM2_New":"Hawul","id":"NG-BO-HAWUL","name":"Hawul","parentId":"NG-BO","stateName":"Borno","regionId":"NG-NE","fillColor":"#5E9E78"},"geometry":{"type":"Polygon","coordinates":[[[11.957900047000066,10.55618000000004],[11.97933960000006,10.580519676000051],[11.986240387000066,10.606240273000083],[12.001649857000075,10.627790451000067],[12.029760361000058,10.64982032800009],[12.044369698000082,10.652079582000056],[12.056119919000082,10.643110275000083],[12.076700211000059,10.610289574000092],[12.117839813000046,10.578889847000085],[12.13992023500009,10.581009865000055],[12.153490067000064,10.604410172000087],[12.15985012100009,10.60464954400004],[12.166119576000085,10.601249695000092],[12.177080154000066,10.572990417000085],[12.198929787000054,10.54706955000006],[12.21329975100008,10.538410187000068],[12.235380173000067,10.540530205000039],[12.266429901000038,10.577429771000084],[12.310500145000049,10.612250328000073],[12.395070076000081,10.65501022300009],[12.427080154000066,10.632900238000047],[12.462809563000064,10.627820015000054],[12.50658035300006,10.596739769000067],[12.540010452000047,10.588800430000049],[12.554149628000062,10.569219589000056],[12.567890167000087,10.531439781000074],[12.601099968000085,10.478349686000058],[12.612779617000058,10.448619843000074],[12.591164589000073,10.441438675000086],[12.56677436800004,10.423188210000092],[12.559620857000084,10.376506805000076],[12.55496215800008,10.371727943000053],[12.507370949000062,10.342087746000061],[12.443597794000084,10.31706237800006],[12.329026222000039,10.31961345700006],[12.312801361000083,10.315073013000074],[12.295408249000047,10.308249474000093],[12.270965576000037,10.278555870000048],[12.263949394000065,10.263086319000081],[12.233519554000054,10.282010078000042],[12.188570023000068,10.292719841000064],[12.136870384000076,10.284999847000051],[12.110420227000077,10.270950317000086],[12.079770088000089,10.269370079000055],[12.034420013000044,10.296119690000069],[12.003439903000071,10.331319809000092],[11.97453975700006,10.353469849000078],[11.998749733000068,10.390410423000048],[12.008990288000064,10.414970398000037],[12.008740425000042,10.472519875000046],[12.003809929000056,10.503569603000074],[11.994910240000081,10.523770332000083],[11.979660034000062,10.543740273000083],[11.957900047000066,10.55618000000004]]]}},{"type":"Feature","properties":{"CNTRY_NAME":"Nigeria","CNTRY_CODE":"NGA","ADM1_NAME":"Borno","ADM1_CODE":"NGA008","ADM2_NAME":"Jere","ADM2_CODE":"NGA008013","HRname":"Jere","HRpcode":"NG008013","HRparent":"NG008","Shape_Leng":1.7131250906,"Shape_Area":0.0715794367204,"ADM2_New":"Jere","id":"NG-BO-JERE","name":"Jere","parentId":"NG-BO","stateName":"Borno","regionId":"NG-NE","fillColor":"#94B86A"},"geometry":{"type":"Polygon","coordinates":[[[13.149491310000087,12.155835152000066],[13.178110123000067,12.103199959000051],[13.242449760000056,12.056409836000057],[13.257459641000082,12.025529861000052],[13.258649826000067,12.011670113000037],[13.241350174000047,11.971220016000075],[13.248499870000046,11.956509590000053],[13.264940262000039,11.939800262000063],[13.301870346000044,11.920869827000047],[13.32800960500009,11.869009972000072],[13.320389748000082,11.844759941000063],[13.31165027600008,11.838009834000047],[13.293199539000057,11.827300072000071],[13.26027011900004,11.82773017900007],[13.239620209000066,11.822669983000083],[13.223819733000084,11.800040245000048],[13.226840019000065,11.784319878000076],[13.242099762000066,11.764360428000089],[13.273389816000076,11.743709564000085],[13.287210464000054,11.726690292000058],[13.289910316000089,11.713529587000039],[13.28586006200004,11.699040413000091],[13.272210121000057,11.689109802000075],[13.214469910000048,11.695710182000084],[13.207159996000087,11.703140259000065],[13.204540253000062,11.719940186000088],[13.196599960000071,11.73248004900006],[13.185560226000064,11.739979744000038],[13.163880348000077,11.738949776000084],[13.119569778000084,11.710320473000081],[13.07176017800009,11.692689896000047],[13.03221035000007,11.694199562000051],[13.017120361000082,11.704319954000084],[13.012120247000041,11.714619637000055],[13.020689964000042,11.748319626000068],[13.036890030000052,11.754920006000077],[13.057530403000044,11.777090073000068],[13.05998992900004,11.804360390000056],[13.09247016900008,11.804080009000074],[13.143770218000043,11.793600082000069],[13.149490356000058,11.781840324000086],[13.170860291000054,11.785420418000058],[13.172840118000067,11.790849686000058],[13.182530403000044,11.789930344000084],[13.192850113000077,11.801010132000044],[13.172829628000045,11.842189789000088],[13.170610428000089,11.86007976500008],[13.142410278000057,11.90287971500004],[13.115480423000065,11.918339729000081],[13.080860138000048,11.924579620000088],[13.069250107000073,11.990630150000072],[13.068690300000071,12.016489983000042],[13.075989723000077,12.060409546000074],[13.07462978400008,12.101229668000087],[13.08646011400009,12.130129814000043],[13.112899780000077,12.16129016900004],[13.129739761000053,12.162779808000039],[13.149491310000087,12.155835152000066]]]}},{"type":"Feature","properties":{"CNTRY_NAME":"Nigeria","CNTRY_CODE":"NGA","ADM1_NAME":"Borno","ADM1_CODE":"NGA008","ADM2_NAME":"Kaga","ADM2_CODE":"NGA008014","HRname":"Kaga","HRpcode":"NG008014","HRparent":"NG008","Shape_Leng":2.13871303737,"Shape_Area":0.222931474082,"ADM2_New":"Kaga","id":"NG-BO-KAGA","name":"Kaga","parentId":"NG-BO","stateName":"Borno","regionId":"NG-NE","fillColor":"#C2A882"},"geometry":{"type":"Polygon","coordinates":[[[12.246589661000087,11.924671173000092],[12.29423999800008,11.930850029000055],[12.562749863000079,11.914640427000052],[12.585780144000069,11.90909004200006],[12.617159843000081,11.892089844000054],[12.656949997000083,11.850150108000037],[12.676010132000044,11.816639900000041],[12.692379951000078,11.762060165000037],[12.682620049000093,11.742219925000086],[12.636320114000057,11.725290298000061],[12.62178993200007,11.709549904000085],[12.616470337000067,11.688170433000039],[12.61727047000005,11.638990402000047],[12.632929802000092,11.585880280000083],[12.640720367000085,11.514710426000079],[12.66590023000009,11.470520020000038],[12.669400215000053,11.442410469000038],[12.664890289000084,11.371850014000074],[12.672349930000053,11.354590416000065],[12.695229530000063,11.324640274000046],[12.70540046700006,11.294210434000092],[12.70532989500009,11.273460388000046],[12.644969940000067,11.245510101000093],[12.61853027300009,11.248579979000056],[12.594860077000078,11.25924015000004],[12.566980362000038,11.28236961400006],[12.511859894000054,11.340629578000062],[12.41695022600004,11.38947010000004],[12.38342952700009,11.410889626000085],[12.36810016600009,11.427209854000068],[12.34156990100007,11.47799015000004],[12.322660446000043,11.50166988400008],[12.322899818000053,11.512590408000051],[12.299139977000038,11.588069916000052],[12.269989967000072,11.621419907000075],[12.239649773000053,11.634400368000058],[12.168979645000093,11.629599571000085],[12.198980331000087,11.721870422000052],[12.248439789000088,11.798830032000069],[12.25240993500006,11.826789856000062],[12.246290207000072,11.871700287000067],[12.246589661000087,11.924671173000092]]]}},{"type":"Feature","properties":{"CNTRY_NAME":"Nigeria","CNTRY_CODE":"NGA","ADM1_NAME":"Borno","ADM1_CODE":"NGA008","ADM2_NAME":"Konduga","ADM2_CODE":"NGA008016","HRname":"Konduga","HRpcode":"NG008016","HRparent":"NG008","Shape_Leng":4.70575111335,"Shape_Area":0.482586476306,"ADM2_New":"Konduga","id":"NG-BO-KONDUGA","name":"Konduga","parentId":"NG-BO","stateName":"Borno","regionId":"NG-NE","fillColor":"#D4896A"},"geometry":{"type":"Polygon","coordinates":[[[13.123820305000038,12.199680328000056],[13.149491310000087,12.155835152000066],[13.129739761000053,12.162779808000039],[13.112899780000077,12.16129016900004],[13.089960098000063,12.136249542000087],[13.07462978400008,12.101229668000087],[13.075989723000077,12.060409546000074],[13.068690300000071,12.016489983000042],[13.069250107000073,11.990630150000072],[13.089119911000068,11.89081955000006],[13.087849617000074,11.866809845000091],[13.06482982600005,11.821009636000042],[13.057530403000044,11.777090073000068],[13.047530174000087,11.763449669000067],[13.020689964000042,11.748319626000068],[13.01640033700005,11.74003028900006],[13.012120247000041,11.714619637000055],[13.021889687000055,11.700220108000053],[13.044839859000092,11.691029549000064],[13.080019951000054,11.69470977800006],[13.119569778000084,11.710320473000081],[13.163880348000077,11.738949776000084],[13.175869942000077,11.740900040000042],[13.196599960000071,11.73248004900006],[13.204540253000062,11.719940186000088],[13.207159996000087,11.703140259000065],[13.214469910000048,11.695710182000084],[13.24608039900005,11.689629555000067],[13.278240204000042,11.691909790000068],[13.28944015500008,11.708800316000065],[13.287210464000054,11.726690292000058],[13.273389816000076,11.743709564000085],[13.25123024000004,11.755069733000084],[13.223270416000048,11.79168033600007],[13.225810051000053,11.805459976000066],[13.239620209000066,11.822669983000083],[13.26027011900004,11.82773017900007],[13.293199539000057,11.827300072000071],[13.252180099000043,11.798760414000071],[13.250109673000054,11.789690018000044],[13.263620377000052,11.775219917000072],[13.346130371000072,11.791810036000072],[13.423640251000052,11.784460068000044],[13.443570137000052,11.790989876000083],[13.49018955200006,11.788249969000049],[13.546330452000063,11.79442977900004],[13.591670036000039,11.819029808000039],[13.66345977800006,11.82343959800005],[13.696350098000039,11.807140350000054],[13.759249687000079,11.763290405000077],[13.727410316000089,11.72422027600004],[13.715350151000052,11.667289734000065],[13.689620018000085,11.651769638000076],[13.666749954000068,11.613249779000057],[13.662710190000041,11.598770142000092],[13.664930344000084,11.580880165000053],[13.68249034900009,11.546669960000088],[13.680430412000078,11.520489693000059],[13.664549828000077,11.51132965100004],[13.644060135000075,11.513549805000082],[13.529689789000088,11.543479919000049],[13.517700195000089,11.54152965500009],[13.496339798000065,11.520830154000066],[13.447429657000043,11.50358009300004],[13.425350189000085,11.484350204000066],[13.411849976000042,11.464590073000068],[13.40606021900004,11.42136955300009],[13.388279915000055,11.393309593000083],[13.38597965200006,11.37333011600009],[13.356840134000038,11.30397987400005],[13.332859993000056,11.282970428000056],[13.245900154000083,11.319270134000078],[13.21420955700006,11.338829994000037],[13.15590953800006,11.405529976000082],[13.130570412000054,11.42533016200008],[13.110639572000082,11.435919762000083],[13.078149796000048,11.436189651000063],[13.06346035000007,11.430290222000053],[13.052740097000083,11.418120384000076],[13.048700333000056,11.386509895000074],[13.022179604000087,11.33460044900005],[13.011460304000082,11.322429657000043],[12.968110085000092,11.303250313000092],[12.950949669000067,11.287199974000089],[12.923800468000081,11.27462005600006],[12.896080017000088,11.270799637000039],[12.84883976000009,11.227299690000052],[12.838910103000046,11.200180054000043],[12.822319984000046,11.19250011400004],[12.815250397000057,11.193730354000081],[12.800160408000067,11.220970154000042],[12.773870468000041,11.231320381000046],[12.707150459000047,11.27159977000008],[12.70540046700006,11.294210434000092],[12.695229530000063,11.324640274000046],[12.667670250000072,11.362330437000082],[12.66915988900007,11.44859981500008],[12.664159775000087,11.476010323000082],[12.640720367000085,11.514710426000079],[12.632929802000092,11.585880280000083],[12.61727047000005,11.638990402000047],[12.619409561000055,11.70304012300005],[12.636320114000057,11.725290298000061],[12.682620049000093,11.742219925000086],[12.692379951000078,11.762060165000037],[12.679909706000046,11.80673027000006],[12.663060188000088,11.839469910000048],[12.66687965400007,11.843040466000048],[12.687919617000091,11.849180222000086],[12.83786010700004,11.858249664000084],[12.878359795000051,11.866189957000074],[12.907019615000081,11.879469872000072],[12.938549995000074,11.886859894000054],[12.971819878000076,11.905870438000079],[12.982700348000037,11.925319672000057],[12.969269753000049,11.960550308000052],[12.965689659000077,12.002129555000067],[12.978309631000059,12.033200264000072],[12.999039650000043,12.059009552000077],[13.00689983400008,12.077070236000054],[13.008079529000042,12.097439766000036],[13.033490181000047,12.14974021900008],[13.046509743000058,12.164779663000047],[13.123820305000038,12.199680328000056]]]}},{"type":"Feature","properties":{"CNTRY_NAME":"Nigeria","CNTRY_CODE":"NGA","ADM1_NAME":"Borno","ADM1_CODE":"NGA008","ADM2_NAME":"Kwaya Kusar","ADM2_CODE":"NGA008018","HRname":"Kwaya Kusar","HRpcode":"NG008018","HRparent":"NG008","Shape_Leng":1.04534414814,"Shape_Area":0.0602829811286,"ADM2_New":"Kwaya Kusar","id":"NG-BO-KWAYA-KUSAR","name":"Kwaya Kusar","parentId":"NG-BO","stateName":"Borno","regionId":"NG-NE","fillColor":"#A3C986"},"geometry":{"type":"Polygon","coordinates":[[[11.807660103000046,10.619099617000074],[11.81645011900008,10.611399651000056],[11.824319839000054,10.612339973000076],[11.840200424000045,10.60437965400007],[11.856960297000057,10.585109711000086],[11.911600113000077,10.556360245000064],[11.957900047000066,10.55618000000004],[11.979660034000062,10.543740273000083],[12.003809929000056,10.503569603000074],[12.010729790000084,10.426589966000051],[11.998749733000068,10.390410423000048],[11.963649750000059,10.339019775000054],[11.89702987700008,10.297360420000075],[11.874079704000053,10.272319794000055],[11.856300354000041,10.261380196000061],[11.795390129000054,10.242190361000041],[11.789429665000057,10.243229866000092],[11.790699959000051,10.24993038200006],[11.81801033000005,10.286899567000091],[11.806570053000087,10.310429573000079],[11.806090355000038,10.35704994200006],[11.794010162000063,10.402810097000042],[11.773360252000089,10.449099541000066],[11.760160446000043,10.529479980000076],[11.768250465000051,10.57557010700009],[11.785400391000053,10.591620445000046],[11.796279907000041,10.611069679000082],[11.807660103000046,10.619099617000074]]]}},{"type":"Feature","properties":{"CNTRY_NAME":"Nigeria","CNTRY_CODE":"NGA","ADM1_NAME":"Borno","ADM1_CODE":"NGA008","ADM2_NAME":"Mafa","ADM2_CODE":"NGA008019","HRname":"Mafa","HRpcode":"NG008019","HRparent":"NG008","Shape_Leng":2.46947351201,"Shape_Area":0.236488231437,"ADM2_New":"Mafa","id":"NG-BO-MAFA","name":"Mafa","parentId":"NG-BO","stateName":"Borno","regionId":"NG-NE","fillColor":"#8AAB76"},"geometry":{"type":"Polygon","coordinates":[[[13.24034023300004,12.338319778000084],[13.284179687000062,12.327989578000086],[13.313010216000066,12.280079842000077],[13.33374023400006,12.254540443000053],[13.343350410000085,12.249979973000052],[13.358599663000064,12.24713993100005],[13.391160011000068,12.250499725000054],[13.433090210000046,12.272620201000052],[13.466210365000052,12.277319908000038],[13.486700058000054,12.247890472000051],[13.500519753000049,12.213749886000073],[13.518469810000056,12.19773960100008],[13.559769630000062,12.173620224000047],[13.58932018300004,12.14136028300004],[13.60591983800009,12.131930351000051],[13.633790016000091,12.12592029600006],[13.689860344000067,12.128459930000076],[13.707650185000091,12.139399529000059],[13.728529930000036,12.172490120000077],[13.760129929000072,12.200639725000087],[13.820810318000042,12.174679756000046],[13.85138988500006,12.17261982000008],[13.877519608000057,12.154990196000085],[13.88617992400009,12.123869896000087],[13.893469810000056,12.114769936000073],[13.88109970100004,12.096289635000062],[13.835599899000044,12.064410210000062],[13.83393955200006,12.00508976000009],[13.846579552000037,11.950579643000083],[13.821180344000084,11.829810143000088],[13.810390472000051,11.796879768000053],[13.798480034000079,11.78145980800008],[13.773300171000074,11.77431011200008],[13.759249687000079,11.763290405000077],[13.679750443000046,11.816570282000043],[13.66345977800006,11.82343959800005],[13.641070366000065,11.823880196000061],[13.591670036000039,11.819029808000039],[13.546330452000063,11.79442977900004],[13.496540070000037,11.788490295000088],[13.443570137000052,11.790989876000083],[13.423640251000052,11.784460068000044],[13.346130371000072,11.791810036000072],[13.267350197000042,11.775150299000074],[13.255909920000079,11.781570435000049],[13.250109673000054,11.789690018000044],[13.252180099000043,11.798760414000071],[13.320389748000082,11.844759941000063],[13.32800960500009,11.869009972000072],[13.301870346000044,11.920869827000047],[13.264940262000039,11.939800262000063],[13.248499870000046,11.956509590000053],[13.241350174000047,11.971220016000075],[13.258649826000067,12.011670113000037],[13.257459641000082,12.025529861000052],[13.242449760000056,12.056409836000057],[13.26531028700009,12.07781028700009],[13.279049873000076,12.108499527000049],[13.281740189000061,12.12957000700004],[13.272210121000057,12.154879570000048],[13.245429993000073,12.28032016800006],[13.24034023300004,12.338319778000084]]]}},{"type":"Feature","properties":{"CNTRY_NAME":"Nigeria","CNTRY_CODE":"NGA","ADM1_NAME":"Borno","ADM1_CODE":"NGA008","ADM2_NAME":"Magumeri","ADM2_CODE":"NGA008020","HRname":"Magumeri","HRpcode":"NG008020","HRparent":"NG008","Shape_Leng":2.74077412499,"Shape_Area":0.401529771643,"ADM2_New":"Magumeri","id":"NG-BO-MAGUMERI","name":"Magumeri","parentId":"NG-BO","stateName":"Borno","regionId":"NG-NE","fillColor":"#BFA882"},"geometry":{"type":"Polygon","coordinates":[[[12.260620117000087,12.420269966000092],[12.26550006900004,12.431050301000084],[12.29109954800009,12.450519562000068],[12.340530396000077,12.472599983000066],[12.345399857000075,12.479909897000084],[12.363800049000076,12.487380028000075],[12.388899803000072,12.508009911000045],[12.43389987900008,12.581310272000053],[12.448690414000055,12.561820030000092],[12.467599869000082,12.521030426000038],[12.48888015700004,12.503860474000078],[12.517390251000052,12.492739677000088],[12.59895038600007,12.482760429000052],[12.61841011000007,12.467450142000075],[12.63621044200005,12.444149971000058],[12.66090965300009,12.429459572000042],[12.743740082000045,12.409259796000072],[12.76581955000006,12.411379814000043],[12.858019829000057,12.392809868000086],[12.881130219000056,12.373789787000078],[12.88605976100007,12.359849930000053],[12.909890175000044,12.339349747000085],[12.968660355000054,12.31161022200007],[13.046500206000076,12.250359535000086],[13.091529846000071,12.226169586000083],[13.122739792000061,12.201880455000037],[13.046509743000058,12.164779663000047],[13.033490181000047,12.14974021900008],[13.008079529000042,12.097439766000036],[13.00689983400008,12.077070236000054],[12.999039650000043,12.059009552000077],[12.978309631000059,12.033200264000072],[12.965689659000077,12.002129555000067],[12.969269753000049,11.960550308000052],[12.98173999800008,11.932990074000088],[12.977939606000064,11.912309647000086],[12.938549995000074,11.886859894000054],[12.907019615000081,11.879469872000072],[12.878359795000051,11.866189957000074],[12.83786010700004,11.858249664000084],[12.687919617000091,11.849180222000086],[12.663060188000088,11.839469910000048],[12.624139786000057,11.887220383000056],[12.585780144000069,11.90909004200006],[12.562749863000079,11.914640427000052],[12.29423999800008,11.930850029000055],[12.246589661000087,11.924671173000092],[12.249919891000047,12.004920006000077],[12.303090096000062,12.218729973000052],[12.306019783000067,12.284950256000059],[12.304030418000082,12.313759804000085],[12.277580261000082,12.368180275000043],[12.260620117000087,12.420269966000092]]]}},{"type":"Feature","properties":{"CNTRY_NAME":"Nigeria","CNTRY_CODE":"NGA","ADM1_NAME":"Borno","ADM1_CODE":"NGA008","ADM2_NAME":"Maiduguri","ADM2_CODE":"NGA008021","HRname":"Maiduguri","HRpcode":"NG008021","HRparent":"NG008","Shape_Leng":0.46446424408,"Shape_Area":0.0109181762529,"ADM2_New":"Maiduguri","id":"NG-BO-MAIDUGURI","name":"Maiduguri","parentId":"NG-BO","stateName":"Borno","regionId":"NG-NE","fillColor":"#6BA368"},"geometry":{"type":"Polygon","coordinates":[[[13.05998992900004,11.804360390000056],[13.087849617000074,11.866809845000091],[13.089119911000068,11.89081955000006],[13.080860138000048,11.924579620000088],[13.085379601000056,11.925120354000057],[13.115480423000065,11.918339729000081],[13.142410278000057,11.90287971500004],[13.170610428000089,11.86007976500008],[13.172829628000045,11.842189789000088],[13.192850113000077,11.801010132000044],[13.182530403000044,11.789930344000084],[13.172840118000067,11.790849686000058],[13.170860291000054,11.785420418000058],[13.149490356000058,11.781840324000086],[13.143770218000043,11.793600082000069],[13.09247016900008,11.804080009000074],[13.05998992900004,11.804360390000056]]]}},{"type":"Feature","properties":{"CNTRY_NAME":"Nigeria","CNTRY_CODE":"NGA","ADM1_NAME":"Borno","ADM1_CODE":"NGA008","ADM2_NAME":"Marte","ADM2_CODE":"NGA008022","HRname":"Marte","HRpcode":"NG008022","HRparent":"NG008","Shape_Leng":2.30789391705,"Shape_Area":0.262226493676,"ADM2_New":"Marte","id":"NG-BO-MARTE","name":"Marte","parentId":"NG-BO","stateName":"Borno","regionId":"NG-NE","fillColor":"#C4A574"},"geometry":{"type":"Polygon","coordinates":[[[14.193483479000065,12.58316734400006],[14.175244200000066,12.581049136000047],[14.171130180000091,12.573840141000062],[14.049269676000051,12.292180061000067],[14.02958011600009,12.262350082000069],[13.960590363000051,12.111479759000076],[13.909370422000052,12.125599861000069],[13.89848995200009,12.123259544000064],[13.893469810000056,12.114769936000073],[13.88617992400009,12.123869896000087],[13.881170273000066,12.151280403000044],[13.857660294000084,12.169219971000075],[13.820810318000042,12.174679756000046],[13.760129929000072,12.200639725000087],[13.728529930000036,12.172490120000077],[13.707650185000091,12.139399529000059],[13.689860344000067,12.128459930000076],[13.633790016000091,12.12592029600006],[13.60591983800009,12.131930351000051],[13.58932018300004,12.14136028300004],[13.559769630000062,12.173620224000047],[13.518469810000056,12.19773960100008],[13.500519753000049,12.213749886000073],[13.486700058000054,12.247890472000051],[13.466210365000052,12.277319908000038],[13.46247005500004,12.301540375000059],[13.464610100000073,12.331359863000046],[13.478420258000085,12.348569870000063],[13.486359596000057,12.387379646000056],[13.49588966400006,12.396289825000053],[13.531069756000079,12.39997005500004],[13.554809570000089,12.410070419000078],[13.58936023700005,12.401740074000088],[13.602860451000083,12.404390335000073],[13.628109932000086,12.41518020600006],[13.65629959100005,12.440839767000057],[13.689330101000053,12.448929787000054],[13.716890335000073,12.46259021800006],[13.724349976000042,12.479559898000048],[13.721409798000082,12.498920441000053],[13.731800079000038,12.582110405000037],[13.728940010000088,12.605110168000067],[13.756010056000036,12.648280144000069],[13.790630341000053,12.677820206000092],[13.851380348000077,12.689740181000047],[13.902770042000043,12.682900429000085],[13.956529617000058,12.682570457000054],[14.166654791000042,12.70604465100007],[14.193483479000065,12.58316734400006]]]}},{"type":"Feature","properties":{"CNTRY_NAME":"Nigeria","CNTRY_CODE":"NGA","ADM1_NAME":"Borno","ADM1_CODE":"NGA008","ADM2_NAME":"Nganzai","ADM2_CODE":"NGA008026","HRname":"Nganzai","HRpcode":"NG008026","HRparent":"NG008","Shape_Leng":2.19451473403,"Shape_Area":0.203973359006,"ADM2_New":"Nganzai","id":"NG-BO-NGANZAI","name":"Nganzai","parentId":"NG-BO","stateName":"Borno","regionId":"NG-NE","fillColor":"#6AADA3"},"geometry":{"type":"Polygon","coordinates":[[[12.99631977100006,12.800660133000065],[13.014399529000059,12.837300301000084],[13.025910378000049,12.851639748000082],[13.042510033000042,12.859319687000038],[13.064660072000038,12.865079880000053],[13.087779999000077,12.863169670000048],[13.13551044500008,12.842929840000068],[13.148850441000093,12.821180344000084],[13.142580032000069,12.790349960000071],[13.145050049000076,12.783379555000067],[13.166009903000088,12.768770218000043],[13.18649959600009,12.766539574000092],[13.19643020600006,12.759429932000046],[13.209859848000065,12.689970016000075],[13.25061035200008,12.640370369000038],[13.281270027000062,12.624839783000084],[13.31311035200008,12.629679680000038],[13.33621978800005,12.62775993300005],[13.39404010800007,12.59057998700007],[13.403820038000049,12.576180458000067],[13.379039764000083,12.570110321000072],[13.358389854000052,12.547940254000082],[13.288840294000067,12.491410255000062],[13.247309685000062,12.43614006000007],[13.237549782000087,12.416299820000063],[13.237469673000078,12.361319542000047],[13.245429993000073,12.28032016800006],[13.272210121000057,12.154879570000048],[13.281740189000061,12.12957000700004],[13.279049873000076,12.108499527000049],[13.26531028700009,12.07781028700009],[13.242449760000056,12.056409836000057],[13.178110123000067,12.103199959000051],[13.113610268000059,12.211170197000058],[13.046500206000076,12.250359535000086],[12.968660355000054,12.31161022200007],[12.909890175000044,12.339349747000085],[12.88605976100007,12.359849930000053],[12.881130219000056,12.373789787000078],[12.86723995200009,12.38716983800009],[12.88000965100008,12.442640305000054],[12.897000313000092,12.46852016400004],[12.929949760000056,12.541440010000088],[12.952329636000059,12.626569748000065],[12.989410400000054,12.700499535000063],[13.00193977400005,12.762160301000051],[13.000829697000086,12.796779633000085],[12.99631977100006,12.800660133000065]]]}},{"type":"Feature","properties":{"CNTRY_NAME":"Nigeria","CNTRY_CODE":"NGA","ADM1_NAME":"Borno","ADM1_CODE":"NGA008","ADM2_NAME":"Shani","ADM2_CODE":"NGA008027","HRname":"Shani","HRpcode":"NG008027","HRparent":"NG008","Shape_Leng":1.4792807903,"Shape_Area":0.103844124858,"ADM2_New":"Shani","id":"NG-BO-SHANI","name":"Shani","parentId":"NG-BO","stateName":"Borno","regionId":"NG-NE","fillColor":"#8FAF6E"},"geometry":{"type":"Polygon","coordinates":[[[11.97453975700006,10.353469849000078],[12.003439903000071,10.331319809000092],[12.034420013000044,10.296119690000069],[12.079770088000089,10.269370079000055],[12.110420227000077,10.270950317000086],[12.136870384000076,10.284999847000051],[12.188570023000068,10.292719841000064],[12.233519554000054,10.282010078000042],[12.263949394000065,10.263086319000081],[12.249873161000039,10.222539902000051],[12.237093925000067,10.21227169000008],[12.196505547000072,10.195201874000077],[12.145337105000067,10.142687798000054],[12.109187126000052,10.08441829700007],[12.10441970800008,10.054680824000059],[12.084664345000078,10.037563324000075],[12.048785210000062,10.03764534000004],[12.003088951000052,10.022182465000071],[11.919665337000083,10.032396317000064],[11.865954399000088,10.04607296000006],[11.838540077000062,10.045049667000058],[11.81108379400007,10.07479476900005],[11.807842255000082,10.084869385000047],[11.759979248000093,10.133681297000066],[11.73993396800006,10.164150238000047],[11.698238373000038,10.16735744500005],[11.676617622000037,10.174118042000089],[11.68781471300008,10.184196472000053],[11.72068977400005,10.198628426000084],[11.726303101000042,10.213863373000038],[11.751423836000072,10.23930454300006],[11.783869743000082,10.244959831000074],[11.801739693000059,10.242429733000051],[11.856300354000041,10.261380196000061],[11.874079704000053,10.272319794000055],[11.89702987700008,10.297360420000075],[11.963649750000059,10.339019775000054],[11.97453975700006,10.353469849000078]]]}},{"type":"Feature","properties":{"CNTRY_NAME":"Nigeria","CNTRY_CODE":"NGA","ADM1_NAME":"Borno","ADM1_CODE":"NGA008","ADM2_NAME":"Mobbar","ADM2_CODE":"NGA008023","HRname":"Mobbar","HRpcode":"NG008023","HRparent":"NG008","Shape_Leng":2.85099475739,"Shape_Area":0.235275601518,"ADM2_New":"Mobbar","id":"NG-BO-MOBBAR","name":"Mobbar","parentId":"NG-BO","stateName":"Borno","regionId":"NG-NE","fillColor":"#5B8FA8"},"geometry":{"type":"Polygon","coordinates":[[[12.808854474000043,13.406994695000037],[12.816172708000067,13.390996588000064],[12.843890190000081,13.361040115000037],[12.86310958900009,13.351929665000057],[12.896470070000078,13.323229790000084],[12.934269905000065,13.310099602000037],[12.960009575000072,13.291390419000038],[12.992890358000068,13.257969856000045],[13.052069664000044,13.17996978800005],[13.097020149000059,13.135020256000075],[13.115369797000085,13.102970123000091],[13.120140076000041,13.081760406000058],[12.961389542000063,13.113650322000069],[12.93327045400008,13.108739853000088],[12.909529686000042,13.098649979000072],[12.87736988100005,13.079250336000086],[12.85449981700009,13.057849884000063],[12.833140373000049,13.020030022000071],[12.798290253000062,12.97957038900006],[12.761289597000086,12.926400185000091],[12.708250046000046,12.87390995000004],[12.672599792000085,12.81416034700004],[12.65028953600006,12.801119804000052],[12.616539955000064,12.794500351000067],[12.614310265000086,12.77816009500009],[12.608599663000064,12.77280998200007],[12.568650246000061,12.756110191000062],[12.527830124000047,12.750729561000071],[12.494009972000072,12.723349571000085],[12.472960472000068,12.717209816000093],[12.434054375000073,12.753799438000044],[12.39435958900009,12.80068016100006],[12.374447823000082,12.827468872000054],[12.362079620000088,12.85595035600005],[12.360719681000091,12.896769524000092],[12.377710342000057,12.92265033700005],[12.399291992000087,12.980071068000086],[12.403109550000067,13.009189606000064],[12.393550557000083,13.07709738400007],[12.406231284000057,13.083393189000049],[12.420603221000079,13.07471341900009],[12.456150440000044,13.074252175000083],[12.47882476600006,13.063025082000081],[12.482996924000076,13.072669271000052],[12.478793317000054,13.086663826000063],[12.482871130000092,13.08958853100006],[12.49506264200005,13.08560506200007],[12.488888265000071,13.09247130500006],[12.496226236000041,13.098257818000093],[12.489097922000042,13.103866123000046],[12.494716710000091,13.11537625200009],[12.490523584000073,13.116351154000085],[12.489160818000073,13.124611610000045],[12.50203371300006,13.144266885000093],[12.509036233000074,13.145755445000077],[12.514686469000083,13.15383769400006],[12.52472900500004,13.149088979000055],[12.529572064000092,13.155546392000076],[12.539383977000057,13.142138874000068],[12.543346481000071,13.144906337000066],[12.540306466000061,13.152233823000074],[12.55816917900006,13.162177755000073],[12.550978625000084,13.162112237000088],[12.55074931200005,13.182668379000063],[12.56005280900007,13.199309845000073],[12.55363208600005,13.202765897000063],[12.551781215000062,13.196296036000092],[12.542854443000067,13.19683655600005],[12.532535425000049,13.213461643000073],[12.53566389000008,13.218473738000057],[12.549881204000087,13.204141767000067],[12.556138133000047,13.220177195000076],[12.551781214000073,13.227466026000059],[12.570388208000054,13.231773807000081],[12.565343355000039,13.246051727000065],[12.549291547000053,13.259417314000075],[12.551748455000052,13.262594916000069],[12.563410586000089,13.262259139000037],[12.561300920000065,13.252929435000055],[12.56576921800007,13.24888044800008],[12.58107412600009,13.25679497200008],[12.577601694000066,13.275637829000061],[12.584808629000065,13.275467483000057],[12.588294164000047,13.265862606000042],[12.591229351000038,13.26903365700008],[12.59129486900008,13.27781301300007],[12.57919944300005,13.282397839000055],[12.589164420000088,13.28439002600004],[12.59139461300009,13.290354789000048],[12.59516263800009,13.281771589000073],[12.609372740000083,13.28468713500007],[12.613095491000081,13.279846385000042],[12.625209201000075,13.279087053000069],[12.64458000500008,13.30646581700006],[12.641961738000077,13.298581841000043],[12.648080753000045,13.29204711300008],[12.644456021000053,13.28894019900008],[12.655483375000074,13.291405309000083],[12.666182536000065,13.285738474000084],[12.669500953000068,13.274229766000076],[12.675627261000045,13.275848861000043],[12.692483885000058,13.302608909000071],[12.682970793000038,13.320995559000039],[12.69926296400007,13.321171431000039],[12.707001345000037,13.316710670000077],[12.707576928000037,13.31097083700007],[12.71867287100008,13.308300776000067],[12.721247001000052,13.314552237000044],[12.713076934000071,13.316454856000064],[12.709975186000065,13.323777539000048],[12.741136560000086,13.327294985000037],[12.742335690000061,13.335097320000045],[12.734133644000053,13.337479590000044],[12.734533355000053,13.341764479000062],[12.742447608000077,13.354874960000075],[12.761106060000088,13.369184570000073],[12.766666824000083,13.391569916000037],[12.78133777100004,13.385647816000073],[12.776745904000052,13.378433854000036],[12.792555227000037,13.377717574000087],[12.795538021000084,13.385076071000071],[12.783561821000092,13.39704306200008],[12.799605754000083,13.40782413900007],[12.808854474000043,13.406994695000037]]]}},{"type":"Feature","properties":{"CNTRY_NAME":"Nigeria","CNTRY_CODE":"NGA","ADM1_NAME":"Borno","ADM1_CODE":"NGA008","ADM2_NAME":"Abadam","ADM2_CODE":"NGA008001","HRname":"Abadam","HRpcode":"NG008001","HRparent":"NG008","Shape_Leng":3.32731505211,"Shape_Area":0.332450656095,"ADM2_New":"Abadam","id":"NG-BO-ABADAM","name":"Abadam","parentId":"NG-BO","stateName":"Borno","regionId":"NG-NE","fillColor":"#6BA368"},"geometry":{"type":"Polygon","coordinates":[[[13.634550338000054,13.71067903800008],[13.667340000000081,13.660620000000051],[13.712220000000059,13.605560000000082],[13.838365107000072,13.420260005000046],[13.726909637000063,13.39066028600007],[13.597470284000053,13.328020096000046],[13.45921039600006,13.30634021800006],[13.414899826000067,13.311940193000055],[13.385990143000072,13.304860115000054],[13.371540070000037,13.292770386000086],[13.335330009000074,13.241769791000081],[13.322790146000045,13.214340210000046],[13.311280251000085,13.165760040000066],[13.268799782000087,13.118169785000077],[13.219490051000037,13.082719803000089],[13.165169716000037,13.074680328000056],[13.120140076000041,13.081760406000058],[13.115369797000085,13.102970123000091],[13.097020149000059,13.135020256000075],[13.052069664000044,13.17996978800005],[12.992890358000068,13.257969856000045],[12.960009575000072,13.291390419000038],[12.934269905000065,13.310099602000037],[12.896470070000078,13.323229790000084],[12.86310958900009,13.351929665000057],[12.843890190000081,13.361040115000037],[12.817999840000084,13.38959026300006],[12.808854474000043,13.406994695000037],[12.817072834000044,13.406257656000037],[12.822704840000085,13.413367082000036],[12.825544419000039,13.411795359000052],[12.818613122000045,13.406781563000038],[12.82203947700009,13.403161362000048],[12.831322072000091,13.40887667000004],[12.825077093000061,13.426150427000039],[12.814616754000042,13.426661237000076],[12.812353473000087,13.431538817000046],[12.833697469000072,13.43651593900006],[12.837521995000088,13.450111341000081],[12.840597333000062,13.441765493000048],[12.853254940000056,13.445579541000086],[12.85802773800009,13.441372563000073],[12.853678614000046,13.453680370000086],[12.856990211000038,13.473965295000085],[12.84519959000005,13.475665545000084],[12.855650169000057,13.484452427000065],[12.874497432000055,13.472430400000064],[12.87536504700006,13.480359064000083],[12.867903560000059,13.491255416000058],[12.872809810000092,13.502073016000054],[12.889749210000048,13.500656357000082],[12.890945184000088,13.492953717000091],[12.905350260000091,13.488187620000076],[12.918981961000043,13.48780723200008],[12.94505907000007,13.508065481000074],[12.951698270000065,13.49863851300006],[12.958990962000087,13.500404331000084],[12.954089773000078,13.512049001000037],[12.957454561000077,13.521677579000084],[12.964323178000086,13.515121804000046],[12.965310368000075,13.521149224000055],[12.97420898100006,13.514934099000072],[12.978474059000064,13.52195566100005],[12.984723945000042,13.515761392000059],[12.99495735100004,13.519341693000058],[13.000824874000045,13.515677967000045],[12.998634980000077,13.510185854000042],[13.005816439000057,13.510811538000041],[13.023386078000044,13.536729426000079],[13.041665176000038,13.528872873000068],[13.043479625000089,13.543809666000072],[13.050242916000059,13.53792635700006],[13.062248385000089,13.549265554000044],[13.06916252800005,13.547518162000074],[13.07060821400006,13.538994907000074],[13.062097530000074,13.53377787100004],[13.062336382000069,13.528372267000066],[13.090925549000076,13.516852114000073],[13.106820759000072,13.539904543000091],[13.120128313000066,13.522796646000074],[13.12646430500007,13.521814815000084],[13.12850566700007,13.530615982000086],[13.124097882000058,13.541185443000074],[13.136778003000074,13.541355646000056],[13.148028422000039,13.550053018000085],[13.143347840000047,13.54315979800009],[13.141505085000063,13.51775604900007],[13.156132742000068,13.516319106000083],[13.163020645000074,13.533605347000048],[13.18198285200009,13.537431191000053],[13.187344247000055,13.532767629000091],[13.188756932000047,13.518759923000061],[13.199201336000044,13.513767189000077],[13.201442024000073,13.516897834000076],[13.195309271000042,13.52651634600005],[13.212640018000059,13.533182856000053],[13.206714231000092,13.534773233000067],[13.21119125100006,13.54584051200004],[13.207705493000049,13.548389472000054],[13.201834171000087,13.544424423000066],[13.197880015000067,13.547387316000084],[13.199720932000048,13.552561487000048],[13.218838216000051,13.54956242500009],[13.221831660000078,13.559649080000042],[13.226307999000085,13.555955675000064],[13.240058698000041,13.564763679000066],[13.227245818000085,13.576419180000073],[13.230295856000055,13.582355860000064],[13.22708242200008,13.58894612000006],[13.241992204000042,13.58977671000008],[13.251523572000053,13.579864088000079],[13.261762984000086,13.596258040000066],[13.25690198500007,13.604264388000047],[13.25363408800007,13.596966084000087],[13.249385822000079,13.599907192000046],[13.248010582000063,13.604509480000047],[13.252626487000043,13.605517082000063],[13.24314277600007,13.612737774000038],[13.243948857000078,13.616789966000056],[13.259265493000044,13.621329076000052],[13.258021948000078,13.630722320000075],[13.27358515700007,13.640482440000085],[13.272616117000041,13.648736712000073],[13.29988527800009,13.665748798000038],[13.29609408500005,13.671900550000089],[13.31122202000006,13.68826749100009],[13.30747827600004,13.694656458000054],[13.31235754700009,13.698192559000063],[13.323780224000075,13.690389828000036],[13.334307119000073,13.698231965000048],[13.331987815000048,13.714595943000063],[13.416150000000073,13.70918000000006],[13.634550338000054,13.71067903800008]]]}},{"type":"Feature","properties":{"CNTRY_NAME":"Nigeria","CNTRY_CODE":"NGA","ADM1_NAME":"Borno","ADM1_CODE":"NGA008","ADM2_NAME":"Kukawa","ADM2_CODE":"NGA008017","HRname":"Kukawa","HRpcode":"NG008017","HRparent":"NG008","Shape_Leng":2.5602260999,"Shape_Area":0.405728622744,"ADM2_New":"Kukawa","id":"NG-BO-KUKAWA","name":"Kukawa","parentId":"NG-BO","stateName":"Borno","regionId":"NG-NE","fillColor":"#9B8B72"},"geometry":{"type":"Polygon","coordinates":[[[14.144062026000086,12.809521128000085],[13.95563983900007,12.779459953000071],[13.936420441000053,12.771459579000066],[13.886549950000074,12.761879921000059],[13.86915969800009,12.752030373000082],[13.799440384000093,12.739560127000061],[13.737259865000055,12.713470459000064],[13.626560211000083,12.705450058000054],[13.596460342000057,12.695119858000055],[13.57009983100005,12.667590141000062],[13.550649643000042,12.692420006000077],[13.537570000000073,12.73822021500007],[13.517939568000088,12.770939827000063],[13.502670288000047,12.821109772000057],[13.48740005500008,12.84945964800005],[13.46121978800005,12.88000011400004],[13.439410210000062,12.89745044700004],[13.41106033300008,12.906169891000047],[13.373979568000038,12.932350159000066],[13.345620155000063,12.96506977100006],[13.341259956000044,12.978150368000058],[13.343440056000077,12.989060402000064],[13.339079857000058,12.991239548000067],[13.343440056000077,13.041410446000043],[13.339079857000058,13.056670189000045],[13.339079857000058,13.113389969000082],[13.345620155000063,13.183179855000049],[13.343440056000077,13.200630188000048],[13.321439743000042,13.203800201000092],[13.335330009000074,13.241769791000081],[13.371540070000037,13.292770386000086],[13.385990143000072,13.304860115000054],[13.414899826000067,13.311940193000055],[13.456589699000062,13.306019783000067],[13.597470284000053,13.328020096000046],[13.726909637000063,13.39066028600007],[13.836944580000079,13.419547081000076],[14.08295000000004,13.07944000000009],[14.144062026000086,12.809521128000085]]]}},{"type":"Feature","properties":{"CNTRY_NAME":"Nigeria","CNTRY_CODE":"NGA","ADM1_NAME":"Borno","ADM1_CODE":"NGA008","ADM2_NAME":"Monguno","ADM2_CODE":"NGA008024","HRname":"Monguno","HRpcode":"NG008024","HRparent":"NG008","Shape_Leng":2.50753577099,"Shape_Area":0.15908922337,"ADM2_New":"Monguno","id":"NG-BO-MONGUNO","name":"Monguno","parentId":"NG-BO","stateName":"Borno","regionId":"NG-NE","fillColor":"#A8BF7A"},"geometry":{"type":"Polygon","coordinates":[[[14.166654791000042,12.70604465100007],[13.956529617000058,12.682570457000054],[13.902770042000043,12.682900429000085],[13.851380348000077,12.689740181000047],[13.790630341000053,12.677820206000092],[13.756010056000036,12.648280144000069],[13.728940010000088,12.605110168000067],[13.731800079000038,12.582110405000037],[13.721409798000082,12.498920441000053],[13.724349976000042,12.479559898000048],[13.716890335000073,12.46259021800006],[13.689330101000053,12.448929787000054],[13.65629959100005,12.440839767000057],[13.628109932000086,12.41518020600006],[13.602860451000083,12.404390335000073],[13.58936023700005,12.401740074000088],[13.554809570000089,12.410070419000078],[13.531069756000079,12.39997005500004],[13.49588966400006,12.396289825000053],[13.486359596000057,12.387379646000056],[13.478420258000085,12.348569870000063],[13.464610100000073,12.331359863000046],[13.46247005500004,12.301540375000059],[13.466210365000052,12.277319908000038],[13.433090210000046,12.272620201000052],[13.391160011000068,12.250499725000054],[13.358599663000064,12.24713993100005],[13.343350410000085,12.249979973000052],[13.33374023400006,12.254540443000053],[13.313010216000066,12.280079842000077],[13.284179687000062,12.327989578000086],[13.24034023300004,12.338319778000084],[13.237549782000087,12.416299820000063],[13.247309685000062,12.43614006000007],[13.288840294000067,12.491410255000062],[13.383959770000047,12.573289871000043],[13.477510452000047,12.582380295000064],[13.523969650000083,12.606590271000073],[13.542940140000042,12.620789528000046],[13.56525993300005,12.650939941000047],[13.57820034000008,12.679450035000059],[13.604000092000092,12.698610306000091],[13.637040138000089,12.706700325000043],[13.737259865000055,12.713470459000064],[13.799440384000093,12.739560127000061],[13.86915969800009,12.752030373000082],[13.886549950000074,12.761879921000059],[13.936420441000053,12.771459579000066],[13.95563983900007,12.779459953000071],[14.144062026000086,12.809521128000085],[14.166654791000042,12.70604465100007]]]}},{"type":"Feature","properties":{"CNTRY_NAME":"Nigeria","CNTRY_CODE":"NGA","ADM1_NAME":"Borno","ADM1_CODE":"NGA008","ADM2_NAME":"Ngala","ADM2_CODE":"NGA008025","HRname":"Ngala","HRpcode":"NG008025","HRparent":"NG008","Shape_Leng":1.7812256225,"Shape_Area":0.122638084728,"ADM2_New":"Ngala","id":"NG-BO-NGALA","name":"Ngala","parentId":"NG-BO","stateName":"Borno","regionId":"NG-NE","fillColor":"#B8956B"},"geometry":{"type":"Polygon","coordinates":[[[14.203332731000046,12.538057065000089],[14.200046709000048,12.501503339000067],[14.192457342000068,12.49908826300009],[14.187909157000092,12.481873023000048],[14.177613791000056,12.480789167000069],[14.181783624000047,12.447666678000076],[14.194844645000046,12.451438083000085],[14.196148205000043,12.447111644000074],[14.187837124000055,12.442445486000054],[14.194895359000043,12.434978237000053],[14.186226243000078,12.435981064000089],[14.183186730000045,12.427119892000064],[14.178017503000092,12.429903404000072],[14.179612732000066,12.417993907000039],[14.173329231000082,12.411395621000054],[14.187827446000085,12.406343522000043],[14.202600396000037,12.382797748000087],[14.221680873000082,12.374742597000079],[14.217516126000078,12.36760109700009],[14.224104662000059,12.361614863000057],[14.27525319700004,12.373264935000066],[14.284720614000037,12.368732287000057],[14.291147329000069,12.354537631000085],[14.297629224000048,12.360439993000057],[14.291319366000039,12.371979433000092],[14.299867935000066,12.369668877000038],[14.30003697400008,12.361020396000072],[14.308695672000056,12.358315057000084],[14.32891075100008,12.375878880000073],[14.353621622000048,12.364424991000078],[14.369469643000059,12.28369998900007],[14.362739563000048,12.179679871000076],[14.352899551000064,12.156209946000047],[14.341870308000068,12.095239639000056],[14.32131004300004,12.042480469000054],[14.308520317000045,12.038359642000046],[14.282159805000049,12.045069695000052],[14.261190414000055,12.042570114000057],[14.237449646000073,12.03248024000004],[14.198060036000072,12.02414989500005],[14.172570229000087,12.002429962000065],[14.165189743000042,11.989100456000074],[14.132229805000065,11.98464965800008],[14.10021972700008,12.006770134000078],[14.048660278000057,12.10902023300008],[13.988699913000062,12.16773986800007],[14.02958011600009,12.262350082000069],[14.049269676000051,12.292180061000067],[14.098569870000063,12.413209915000039],[14.17487716700009,12.580776215000071],[14.193483479000065,12.58316734400006],[14.203332731000046,12.538057065000089]]]}},{"type":"Feature","properties":{"CNTRY_NAME":"Nigeria","CNTRY_CODE":"NGA","ADM1_NAME":"Borno","ADM1_CODE":"NGA008","ADM2_NAME":"Kala/Balge","ADM2_CODE":"NGA008015","HRname":"Kala/Balge","HRpcode":"NG008015","HRparent":"NG008","Shape_Leng":1.97669039678,"Shape_Area":0.156473704449,"ADM2_New":"Kala/Balge","id":"NG-BO-KALA-BALGE","name":"Kala/Balge","parentId":"NG-BO","stateName":"Borno","regionId":"NG-NE","fillColor":"#72A898"},"geometry":{"type":"Polygon","coordinates":[[[14.443423972000062,12.36328928800009],[14.442790805000072,12.351983105000045],[14.446629088000066,12.349442840000052],[14.46383717000009,12.360136174000047],[14.475328317000049,12.345874850000087],[14.48561275700007,12.350775329000044],[14.487739072000068,12.34611379200004],[14.48351113800004,12.342804044000047],[14.49711328400008,12.330770813000072],[14.52053506100009,12.326626264000083],[14.52146893400004,12.314850318000083],[14.510300666000091,12.31454341500006],[14.51513536400006,12.305400335000058],[14.510990053000057,12.297030806000066],[14.52113605900007,12.297120532000065],[14.54744200500005,12.280728042000078],[14.543554370000038,12.27067259900008],[14.548903953000092,12.258012528000052],[14.557986325000059,12.26046778600005],[14.549008406000041,12.23691105000006],[14.574091940000073,12.227153232000092],[14.594086010000069,12.22793714900007],[14.596245757000077,12.223346457000048],[14.59238339500007,12.219895360000066],[14.602317047000042,12.21370098300008],[14.609158695000076,12.200898153000082],[14.597526707000043,12.196610538000073],[14.615008640000042,12.192256954000072],[14.623558720000062,12.18300918400007],[14.628740229000073,12.182226627000091],[14.626138874000048,12.190190658000063],[14.630948941000042,12.194288577000066],[14.63631556300004,12.19167574800008],[14.642035306000082,12.197712729000045],[14.648242294000056,12.194131731000084],[14.658085540000059,12.198295908000091],[14.66714601700005,12.188329589000091],[14.664016277000087,12.18215272000009],[14.67603045800007,12.172548556000038],[14.678083435000076,12.164188572000057],[14.653408073000037,12.138810159000059],[14.655772545000048,12.115412768000056],[14.635853944000075,12.09180755400007],[14.653938814000071,12.066528064000067],[14.631704984000066,12.05885494000006],[14.62235733700004,12.041794598000081],[14.623321260000068,12.030382815000053],[14.632450318000053,12.020238033000055],[14.633169722000048,12.00053519800008],[14.644503937000081,11.972404078000068],[14.656473603000052,11.962154307000048],[14.634567636000043,11.933701393000092],[14.643161649000092,11.911747394000088],[14.628521163000073,11.904012011000077],[14.61922056900005,11.883075415000064],[14.603899064000075,11.869021148000058],[14.616310481000085,11.853282274000037],[14.60598501700008,11.837404439000068],[14.611248261000071,11.825675452000041],[14.606552242000078,11.797387100000037],[14.615415135000092,11.782536306000054],[14.599563817000046,11.760908208000046],[14.579256066000085,11.75243256300007],[14.544110298000078,11.760970116000067],[14.510919571000045,11.762709618000088],[14.434519768000087,11.786789894000037],[14.371219635000045,11.812439919000042],[14.316180229000054,11.840100288000087],[14.305930138000065,11.849769592000087],[14.314339638000092,11.910420418000058],[14.31243038200006,11.942870140000082],[14.31877040900008,12.028690338000047],[14.325429916000076,12.060609818000046],[14.341870308000068,12.095239639000056],[14.352899551000064,12.156209946000047],[14.361069679000082,12.171710014000041],[14.367970467000077,12.23165988900007],[14.369469643000059,12.28369998900007],[14.353621622000048,12.364424991000078],[14.369388984000068,12.363989149000076],[14.378748403000088,12.35805324100005],[14.39957170200006,12.367215573000067],[14.42090462100009,12.36116078300006],[14.427676320000046,12.369572995000055],[14.443423972000062,12.36328928800009]]]}},{"type":"Feature","properties":{"CNTRY_NAME":"Nigeria","CNTRY_CODE":"NGA","ADM1_NAME":"Borno","ADM1_CODE":"NGA008","ADM2_NAME":"Bama","ADM2_CODE":"NGA008003","HRname":"Bama","HRpcode":"NG008003","HRparent":"NG008","Shape_Leng":3.25619488273,"Shape_Area":0.418693276929,"ADM2_New":"Bama","id":"NG-BO-BAMA","name":"Bama","parentId":"NG-BO","stateName":"Borno","regionId":"NG-NE","fillColor":"#5B8FA8"},"geometry":{"type":"Polygon","coordinates":[[[14.579256066000085,11.75243256300007],[14.570983849000072,11.737426841000058],[14.547657823000065,11.724900926000089],[14.554416426000046,11.711883199000056],[14.566581646000088,11.710968707000063],[14.582655350000039,11.70219931400004],[14.599952398000084,11.703049469000064],[14.608393798000066,11.682459685000083],[14.64207411600006,11.656805552000037],[14.642343420000088,11.636030830000038],[14.648968590000038,11.617662615000086],[14.638871736000056,11.598867022000093],[14.647477388000084,11.58748810600008],[14.645183324000072,11.578416734000086],[14.611274476000062,11.508470634000048],[14.587908067000058,11.486106067000037],[14.567203119000055,11.479525910000064],[14.496076705000064,11.472353205000047],[14.47892949900006,11.463948555000059],[14.458855606000043,11.464450437000039],[14.436334443000078,11.445206305000056],[14.383983503000081,11.426258295000082],[14.38017147800008,11.422601392000047],[14.37651106800007,11.377251916000091],[14.370108353000091,11.366590750000057],[14.32055220300009,11.327360204000058],[14.252133241000081,11.299200900000073],[14.238689592000071,11.272069827000053],[14.228954551000072,11.263969501000076],[14.203314791000082,11.256511320000072],[14.195711366000069,11.245077962000039],[14.186077040000043,11.240721100000087],[14.16964104300007,11.241848101000073],[14.16205652900004,11.247495446000073],[14.156867546000058,11.243565974000092],[14.147798618000081,11.250928997000074],[14.12564193500009,11.25606859800007],[14.08455276400008,11.280887489000065],[14.07216991100006,11.278481455000076],[14.029222283000081,11.295124539000085],[14.02555157900008,11.289945781000085],[14.006863391000081,11.305924779000065],[13.991071366000085,11.310471355000061],[13.98148957300009,11.305390367000086],[13.989648354000053,11.294556347000082],[13.965490341000077,11.302940369000055],[13.918549538000036,11.30823040000007],[13.842949867000073,11.30025005300007],[13.79006004300004,11.289270401000067],[13.764169693000042,11.300700188000064],[13.74368000000004,11.320039749000046],[13.711030006000044,11.364390373000049],[13.673859596000057,11.389519691000089],[13.537810326000056,11.452639580000039],[13.51224041000006,11.461520195000048],[13.474909782000054,11.462260246000085],[13.432820320000076,11.484210014000041],[13.447429657000043,11.50358009300004],[13.496339798000065,11.520830154000066],[13.517700195000089,11.54152965500009],[13.529689789000088,11.543479919000049],[13.644060135000075,11.513549805000082],[13.67280960100004,11.513349533000053],[13.683600426000055,11.529159546000074],[13.680029869000066,11.55362987500007],[13.664930344000084,11.580880165000053],[13.662710190000041,11.598770142000092],[13.666749954000068,11.613249779000057],[13.689620018000085,11.651769638000076],[13.715350151000052,11.667289734000065],[13.727410316000089,11.72422027600004],[13.759249687000079,11.763290405000077],[13.801580429000069,11.73515033700005],[13.827159882000046,11.72626972200004],[13.854000092000092,11.724280357000055],[13.892200470000091,11.729359627000065],[13.916339874000073,11.723420143000055],[13.934760094000069,11.729249954000068],[13.969470024000088,11.711090088000049],[14.008859634000089,11.702300072000071],[14.050310135000075,11.719699860000048],[14.051980019000041,11.744790077000062],[14.074290276000056,11.77493953700008],[14.105099678000045,11.80091953300007],[14.127969742000062,11.805199623000078],[14.155920029000072,11.802829742000085],[14.242010117000063,11.82917976400006],[14.255270004000067,11.838020325000059],[14.294580460000077,11.84270954100009],[14.305930138000065,11.849769592000087],[14.316180229000054,11.840100288000087],[14.371219635000045,11.812439919000042],[14.434519768000087,11.786789894000037],[14.510919571000045,11.762709618000088],[14.544110298000078,11.760970116000067],[14.579256066000085,11.75243256300007]]]}},{"type":"Feature","properties":{"CNTRY_NAME":"Nigeria","CNTRY_CODE":"NGA","ADM1_NAME":"Borno","ADM1_CODE":"NGA008","ADM2_NAME":"Gwoza","ADM2_CODE":"NGA008011","HRname":"Gwoza","HRpcode":"NG008011","HRparent":"NG008","Shape_Leng":2.16589760832,"Shape_Area":0.237847619046,"ADM2_New":"Gwoza","id":"NG-BO-GWOZA","name":"Gwoza","parentId":"NG-BO","stateName":"Borno","regionId":"NG-NE","fillColor":"#C9B896"},"geometry":{"type":"Polygon","coordinates":[[[13.430589676000068,11.484979630000055],[13.474909782000054,11.462260246000085],[13.51224041000006,11.461520195000048],[13.537810326000056,11.452639580000039],[13.673859596000057,11.389519691000089],[13.711030006000044,11.364390373000049],[13.74368000000004,11.320039749000046],[13.764169693000042,11.300700188000064],[13.79006004300004,11.289270401000067],[13.842949867000073,11.30025005300007],[13.918549538000036,11.30823040000007],[13.971440315000052,11.302089691000049],[13.989671894000082,11.294431613000086],[13.97832883400008,11.260041612000066],[13.947215458000073,11.241826075000063],[13.934320577000051,11.205637806000084],[13.91550077100004,11.19346779700004],[13.911268825000036,11.174397814000088],[13.899974729000064,11.161181423000073],[13.88837880400007,11.159035779000078],[13.877556325000057,11.14792328100009],[13.87558280400009,11.141264006000085],[13.880774383000073,11.13600480100007],[13.867563312000073,11.124797300000068],[13.856597394000062,11.095230123000078],[13.830554304000088,11.07744925500009],[13.82526011200008,11.064940467000042],[13.814917611000055,11.065543805000061],[13.811765534000074,11.04662570000005],[13.800606363000043,11.030012901000077],[13.79318873200009,11.00504268700007],[13.761022307000076,11.001432278000038],[13.735141696000085,11.006062501000088],[13.729844903000071,10.996136070000091],[13.731726808000076,10.981986622000079],[13.71142296700009,10.956437974000039],[13.71302936300009,10.94394624000006],[13.577307701000052,10.948335648000068],[13.541327477000038,10.926678658000071],[13.475245476000055,10.902802467000072],[13.42316818200004,10.904066086000057],[13.355003357000044,10.93053722400009],[13.340912819000039,10.926430702000062],[13.337209702000052,10.931819916000052],[13.31274032600004,10.991660118000084],[13.326560020000045,11.008870125000044],[13.353549957000041,11.065520287000083],[13.357669830000077,11.083640099000093],[13.34965038300004,11.126770020000038],[13.349720001000037,11.181759834000047],[13.331669807000083,11.279709816000093],[13.356840134000038,11.30397987400005],[13.38597965200006,11.37333011600009],[13.388279915000055,11.393309593000083],[13.40606021900004,11.42136955300009],[13.411849976000042,11.464590073000068],[13.425350189000085,11.484350204000066],[13.430589676000068,11.484979630000055]]]}}]}