{"type":"FeatureCollection","features":[{"type":"Feature","properties":{"CNTRY_NAME":"Nigeria","CNTRY_CODE":"NGA","ADM1_NAME":"Benue","ADM1_CODE":"NGA007","ADM2_NAME":"Ado","ADM2_CODE":"NGA007001","HRname":"Ado","HRpcode":"NG007001","HRparent":"NG007","Shape_Leng":1.62115300172,"Shape_Area":0.0998746764331,"ADM2_New":"Ado","id":"NG-BE-ADO","name":"Ado","parentId":"NG-BE","stateName":"Benue","regionId":"NG-NC","fillColor":"#7cb87c"},"geometry":{"type":"Polygon","coordinates":[[[8.049489975000085,7.029321671000048],[8.055194855000082,7.022814274000041],[8.082176208000078,7.012579918000085],[8.102643967000063,7.017231941000091],[8.10217952700009,6.988855839000053],[8.112180710000075,6.95489692700005],[8.119624138000063,6.896283627000059],[8.132881165000072,6.858603477000088],[8.162188530000037,6.824179649000087],[8.225453377000065,6.806037426000046],[8.229325294000091,6.800125599000069],[8.22024345400007,6.7787833210000485],[8.17301750200005,6.773334503000058],[8.152583122000067,6.754716396000049],[8.144409180000082,6.7252006530000585],[8.127608299000087,6.7115778920000935],[8.10399532300005,6.712031841000055],[8.098546028000044,6.707036972000083],[8.075387955000053,6.713848114000086],[8.050866127000063,6.7093071940000755],[8.025210381000079,6.714302063000048],[8.000235558000043,6.712031841000055],[7.988428593000037,6.687964916000055],[7.985703945000068,6.669347286000061],[7.987066269000081,6.611223221000046],[7.962545395000063,6.544017315000076],[7.94937658300006,6.532210827000085],[7.932121277000078,6.531756878000067],[7.887166023000077,6.552645206000079],[7.855833530000041,6.580799103000061],[7.846751690000076,6.604411602000084],[7.8335828780000725,6.619396687000062],[7.831766605000041,6.638468742000043],[7.807140827000069,6.633817196000052],[7.804926395000052,6.640460491000056],[7.855342388000054,6.742868423000061],[7.903395653000075,6.7814683910000895],[7.887640476000058,6.789345741000091],[7.890397549000056,6.843700886000079],[7.8825969700000655,6.858291626000039],[7.927268982000044,6.872559071000069],[7.9291296010000565,6.877676010000073],[7.927268982000044,6.89023590100004],[7.895636082000067,6.943267345000038],[7.907265663000089,6.980017185000065],[7.934711933000074,7.008393288000093],[7.966344833000051,7.0223488810000845],[7.998442650000072,7.029326916000059],[8.049489975000085,7.029321671000048]]]}},{"type":"Feature","properties":{"CNTRY_NAME":"Nigeria","CNTRY_CODE":"NGA","ADM1_NAME":"Benue","ADM1_CODE":"NGA007","ADM2_NAME":"Agatu","ADM2_CODE":"NGA007002","HRname":"Agatu","HRpcode":"NG007002","HRparent":"NG007","Shape_Leng":1.31817739094,"Shape_Area":0.0832254460751,"ADM2_New":"Agatu","id":"NG-BE-AGATU","name":"Agatu","parentId":"NG-BE","stateName":"Benue","regionId":"NG-NC","fillColor":"#8fbc8f"},"geometry":{"type":"Polygon","coordinates":[[[7.676837921000072,8.014471054000069],[7.760732174000054,8.003428459000077],[7.838418007000087,7.985285759000078],[7.877028942000038,7.983425140000065],[7.972856998000054,7.939232349000065],[8.072406769000054,7.877362251000079],[8.113808632000087,7.863872051000044],[8.159862518000068,7.8596854210000515],[8.180357933000039,7.852580547000059],[8.163583755000047,7.835960865000061],[8.137533188000077,7.828052521000075],[8.117995262000079,7.8127017020000835],[8.068685532000075,7.735945702000038],[8.056125641000051,7.729433060000076],[7.984951973000079,7.743854046000081],[7.859351635000053,7.789907455000048],[7.840744019000056,7.792698383000072],[7.782130718000076,7.78851175300008],[7.7446904180000615,7.768656731000078],[7.692851067000049,7.838631153000051],[7.663638115000083,7.90588903400004],[7.676837921000072,8.014471054000069]]]}},{"type":"Feature","properties":{"CNTRY_NAME":"Nigeria","CNTRY_CODE":"NGA","ADM1_NAME":"Benue","ADM1_CODE":"NGA007","ADM2_NAME":"Apa","ADM2_CODE":"NGA007003","HRname":"Apa","HRpcode":"NG007003","HRparent":"NG007","Shape_Leng":1.19809350475,"Shape_Area":0.0815964677614,"ADM2_New":"Apa","id":"NG-BE-APA","name":"Apa","parentId":"NG-BE","stateName":"Benue","regionId":"NG-NC","fillColor":"#a8c686"},"geometry":{"type":"Polygon","coordinates":[[[7.7446904180000615,7.768656731000078],[7.782130718000076,7.78851175300008],[7.840744019000056,7.792698383000072],[7.859351635000053,7.789907455000048],[7.9998378750000825,7.739666939000074],[8.045891762000053,7.729433060000076],[8.063687325000046,7.730945587000065],[8.065429687000062,7.701056480000091],[8.076594353000075,7.673610687000064],[8.079909325000074,7.644670486000052],[8.047752380000077,7.626626968000039],[7.917500019000045,7.521029472000066],[7.903544426000053,7.504747868000038],[7.8700509070000635,7.423340321000069],[7.860450745000037,7.413370609000083],[7.848751545000084,7.420332909000081],[7.79288721100005,7.414913177000074],[7.776211262000061,7.4194989200000805],[7.764121056000079,7.433673382000052],[7.750780582000061,7.594179153000084],[7.754673958000069,7.661315918000071],[7.752635479000048,7.74419879900006],[7.7446904180000615,7.768656731000078]]]}},{"type":"Feature","properties":{"CNTRY_NAME":"Nigeria","CNTRY_CODE":"NGA","ADM1_NAME":"Benue","ADM1_CODE":"NGA007","ADM2_NAME":"Buruku","ADM2_CODE":"NGA007004","HRname":"Buruku","HRpcode":"NG007004","HRparent":"NG007","Shape_Leng":1.99646790253,"Shape_Area":0.10207144525,"ADM2_New":"Buruku","id":"NG-BE-BURUKU","name":"Buruku","parentId":"NG-BE","stateName":"Benue","regionId":"NG-NC","fillColor":"#c2b280"},"geometry":{"type":"Polygon","coordinates":[[[8.925806046000048,7.713486671000055],[8.96202373500006,7.686524868000049],[8.995390892000046,7.59499216100005],[9.00531101200005,7.582366943000068],[9.013877869000055,7.577857494000057],[9.026052475000085,7.581464767000057],[9.040029526000069,7.591835499000069],[9.043637276000084,7.601304531000039],[9.071551323000051,7.602123260000042],[9.091986656000074,7.592235565000067],[9.122967720000076,7.564549923000072],[9.165155411000057,7.501927376000083],[9.181634903000088,7.496654034000073],[9.208002090000093,7.499290943000062],[9.233710289000044,7.49467659000004],[9.265351295000073,7.483470440000076],[9.305561066000053,7.451829433000057],[9.312812805000078,7.430735588000061],[9.308856964000086,7.379319668000051],[9.283808708000038,7.342405319000079],[9.279193878000058,7.327903271000082],[9.28512668600007,7.28835248900009],[9.307538986000054,7.246823788000086],[9.302925110000047,7.236277103000077],[9.273261070000046,7.223752499000057],[9.27062511400004,7.213864803000092],[9.279193878000058,7.197385311000062],[9.304720879000058,7.177811146000067],[9.26350021400009,7.14338254900008],[9.25154209100009,7.127265453000064],[9.192272186000082,7.108548641000084],[9.140800476000038,7.108548641000084],[9.103366852000079,7.118426800000066],[9.049295425000082,7.166778564000083],[9.042462349000061,7.1800179480000565],[9.060994148000077,7.196413994000068],[9.084909439000057,7.239046574000042],[9.099467278000077,7.251524448000055],[9.125462532000086,7.2873983380000595],[9.134820938000075,7.308195114000057],[9.163416862000076,7.333670616000063],[9.18317318000004,7.365385532000062],[9.175894737000078,7.3690247540000655],[9.153017998000053,7.364865303000045],[9.138980865000065,7.3695449830000825],[9.110905647000038,7.429854870000042],[9.098427773000083,7.445452213000067],[9.049555779000059,7.478206635000049],[8.995484352000062,7.506281853000075],[8.946092606000093,7.5140805240000645],[8.892541885000071,7.507321835000084],[8.886433601000078,7.50123357800004],[8.885002136000082,7.525573254000051],[8.894308090000038,7.618277073000058],[8.908625603000075,7.680199146000064],[8.925806046000048,7.713486671000055]]]}},{"type":"Feature","properties":{"CNTRY_NAME":"Nigeria","CNTRY_CODE":"NGA","ADM1_NAME":"Benue","ADM1_CODE":"NGA007","ADM2_NAME":"Gboko","ADM2_CODE":"NGA007005","HRname":"Gboko","HRpcode":"NG007005","HRparent":"NG007","Shape_Leng":1.79918077245,"Shape_Area":0.150354141411,"ADM2_New":"Gboko","id":"NG-BE-GBOKO","name":"Gboko","parentId":"NG-BE","stateName":"Benue","regionId":"NG-NC","fillColor":"#9bb898"},"geometry":{"type":"Polygon","coordinates":[[[8.753458977000037,7.611533165000083],[8.76581096600006,7.602169991000039],[8.768316269000081,7.5942955020000795],[8.77332782700006,7.541679859000055],[8.807688713000061,7.499444008000069],[8.814489365000043,7.497296333000065],[8.833817482000086,7.5066027640000925],[8.886433601000078,7.50123357800004],[8.892541885000071,7.507321835000084],[8.946092606000093,7.5140805240000645],[8.995484352000062,7.506281853000075],[9.049555779000059,7.478206635000049],[9.098427773000083,7.445452213000067],[9.110905647000038,7.429854870000042],[9.138980865000065,7.3695449830000825],[9.153017998000053,7.364865303000045],[9.175894737000078,7.3690247540000655],[9.18317318000004,7.365385532000062],[9.163416862000076,7.333670616000063],[9.134820938000075,7.308195114000057],[9.125462532000086,7.2873983380000595],[9.099467278000077,7.251524448000055],[9.084909439000057,7.239046574000042],[9.060994148000077,7.196413994000068],[9.042462349000061,7.1800179480000565],[9.01550102200008,7.220849514000065],[8.978067398000064,7.265562057000068],[8.948952675000044,7.27959966700007],[8.920357704000082,7.28063964800009],[8.903200150000089,7.274920464000047],[8.839771271000075,7.219289780000054],[8.801816940000037,7.193814278000048],[8.769582748000062,7.15274095500007],[8.75034618400008,7.144942284000081],[8.750041962000068,7.139162064000061],[8.723645210000086,7.150486946000058],[8.712459564000085,7.16027402900005],[8.670514107000088,7.199422836000053],[8.641852379000056,7.235774994000053],[8.62717151600009,7.274224758000059],[8.610393524000074,7.343433857000093],[8.610043526000084,7.395165920000068],[8.613539696000089,7.40075874300004],[8.61011123700007,7.429647923000061],[8.626934052000081,7.469377995000059],[8.661474228000088,7.530226231000086],[8.753458977000037,7.611533165000083]]]}},{"type":"Feature","properties":{"CNTRY_NAME":"Nigeria","CNTRY_CODE":"NGA","ADM1_NAME":"Benue","ADM1_CODE":"NGA007","ADM2_NAME":"Guma","ADM2_CODE":"NGA007006","HRname":"Guma","HRpcode":"NG007006","HRparent":"NG007","Shape_Leng":2.49566843526,"Shape_Area":0.236432015363,"ADM2_New":"Guma","id":"NG-BE-GUMA","name":"Guma","parentId":"NG-BE","stateName":"Benue","regionId":"NG-NC","fillColor":"#6ba3be"},"geometry":{"type":"Polygon","coordinates":[[[8.512680054000043,8.15777683300007],[8.524424553000074,8.15726566300009],[8.588001251000037,8.128858566000076],[8.78053665200008,8.07520198800006],[8.910846710000044,8.056263924000064],[9.025375366000048,8.062576294000053],[9.057020187000091,8.07764148700005],[9.062466621000056,8.074473381000075],[9.11465454100005,8.008017540000083],[9.132690430000082,7.991333961000066],[9.183191299000043,7.89574289300009],[9.174623489000055,7.887176037000074],[9.080836296000086,7.875001431000044],[9.058742523000092,7.856063843000072],[9.023120880000079,7.802857399000061],[9.020415306000075,7.748749256000053],[9.040480614000046,7.677506924000056],[9.04408836400006,7.613478661000045],[9.040029526000069,7.591835499000069],[9.017935753000074,7.578759670000068],[9.00531101200005,7.582366943000068],[8.995390892000046,7.59499216100005],[8.96202373500006,7.686524868000049],[8.925806046000048,7.713486671000055],[8.790150642000071,7.735320091000062],[8.779769897000051,7.733888626000066],[8.750778198000091,7.713486671000055],[8.745409012000039,7.6948742870000615],[8.736103058000083,7.693442345000051],[8.717132568000068,7.702032566000071],[8.683486938000044,7.707043648000081],[8.660539627000048,7.703127861000041],[8.665520668000056,7.764322281000091],[8.647377968000058,7.8099102970000445],[8.606906891000051,7.85317277900009],[8.55806255300007,7.87922334700005],[8.515265465000084,7.88666629800008],[8.474328995000064,7.882014275000074],[8.428275108000037,7.856429100000071],[8.404662132000055,7.8367605210000875],[8.405386925000073,7.861023426000088],[8.363452911000081,7.946243763000041],[8.360296249000044,7.960672855000041],[8.363452911000081,8.016584396000042],[8.371117592000076,8.04634380300007],[8.39050674400005,8.077907562000064],[8.426578522000057,8.112175941000089],[8.46625804900009,8.139229774000057],[8.503683090000038,8.158167839000043],[8.512680054000043,8.15777683300007]]]}},{"type":"Feature","properties":{"CNTRY_NAME":"Nigeria","CNTRY_CODE":"NGA","ADM1_NAME":"Benue","ADM1_CODE":"NGA007","ADM2_NAME":"Gwer East","ADM2_CODE":"NGA007007","HRname":"Gwer East","HRpcode":"NG007007","HRparent":"NG007","Shape_Leng":2.08970660631,"Shape_Area":0.188017999323,"ADM2_New":"Gwer East","id":"NG-BE-GWER-EAST","name":"Gwer East","parentId":"NG-BE","stateName":"Benue","regionId":"NG-NC","fillColor":"#89a96d"},"geometry":{"type":"Polygon","coordinates":[[[8.660539627000048,7.703127861000041],[8.683486938000044,7.707043648000081],[8.74445438400005,7.692774296000039],[8.743977547000043,7.661228657000038],[8.753458977000037,7.611533165000083],[8.661474228000088,7.530226231000086],[8.626934052000081,7.469377995000059],[8.61011123700007,7.429647923000061],[8.610827446000087,7.420341492000091],[8.525102615000037,7.326563835000059],[8.487520218000043,7.275021553000045],[8.466581345000066,7.102499485000067],[8.438525200000072,7.046871185000043],[8.347797394000054,7.103756905000068],[8.31290912600008,7.116316795000046],[8.283601761000057,7.134924412000089],[8.27104187000009,7.153996944000085],[8.249177933000055,7.20981931700004],[8.172887802000048,7.293087959000047],[8.158466339000086,7.332628727000042],[8.126601219000065,7.392637730000047],[8.225220680000064,7.4642767910000885],[8.253829956000061,7.524285793000047],[8.327795029000072,7.609879971000055],[8.33663368200007,7.6363954540000805],[8.387338638000074,7.676867008000045],[8.40408515900009,7.6461644170000795],[8.437113762000081,7.612671375000048],[8.462233543000082,7.600111008000056],[8.500379562000091,7.589877129000058],[8.537593842000092,7.587551117000089],[8.573413849000076,7.597784996000087],[8.619932175000088,7.633604527000045],[8.656216621000056,7.6875662800000555],[8.660539627000048,7.703127861000041]]]}},{"type":"Feature","properties":{"CNTRY_NAME":"Nigeria","CNTRY_CODE":"NGA","ADM1_NAME":"Benue","ADM1_CODE":"NGA007","ADM2_NAME":"Gwer West","ADM2_CODE":"NGA007008","HRname":"Gwer West","HRpcode":"NG007008","HRparent":"NG007","Shape_Leng":1.2249443387,"Shape_Area":0.0897052059315,"ADM2_New":"Gwer West","id":"NG-BE-GWER-WEST","name":"Gwer West","parentId":"NG-BE","stateName":"Benue","regionId":"NG-NC","fillColor":"#b5c99a"},"geometry":{"type":"Polygon","coordinates":[[[8.180357933000039,7.852580547000059],[8.372159004000082,7.770002365000039],[8.372918129000084,7.71640777600004],[8.387338638000074,7.676867008000045],[8.33663368200007,7.6363954540000805],[8.327795029000072,7.609879971000055],[8.253829956000061,7.524285793000047],[8.225220680000064,7.4642767910000885],[8.126601219000065,7.392637730000047],[8.082874298000092,7.561035633000074],[8.07961750000004,7.648955822000062],[8.076594353000075,7.673610687000064],[8.065429687000062,7.701056480000091],[8.063687325000046,7.730945587000065],[8.117995262000079,7.8127017020000835],[8.137533188000077,7.828052521000075],[8.163583755000047,7.835960865000061],[8.180357933000039,7.852580547000059]]]}},{"type":"Feature","properties":{"CNTRY_NAME":"Nigeria","CNTRY_CODE":"NGA","ADM1_NAME":"Benue","ADM1_CODE":"NGA007","ADM2_NAME":"Katsina-Ala","ADM2_CODE":"NGA007009","HRname":"Katsina-Ala","HRpcode":"NG007009","HRparent":"NG007","Shape_Leng":2.09503558048,"Shape_Area":0.196743626831,"ADM2_New":"Katsina-Ala","id":"NG-BE-KATSINA-ALA","name":"Katsina-Ala","parentId":"NG-BE","stateName":"Benue","regionId":"NG-NC","fillColor":"#d4a574"},"geometry":{"type":"Polygon","coordinates":[[[9.816366196000047,7.597847462000061],[9.84576129900006,7.574437618000047],[9.87081050900008,7.540160179000054],[9.884653091000075,7.507860184000037],[9.888607979000085,7.461717606000093],[9.882676125000046,7.414256096000088],[9.840817451000078,7.27978277200009],[9.828292847000057,7.257370949000062],[9.769625664000046,7.208591461000083],[9.696456909000062,7.171017647000042],[9.652950287000067,7.157834053000045],[9.610103607000042,7.137399673000061],[9.558028221000086,7.093234062000079],[9.515840530000048,7.034566879000067],[9.499361038000075,7.030611992000047],[9.447285652000062,7.092575073000091],[9.369042397000044,7.121026516000086],[9.279193878000058,7.197385311000062],[9.27062511400004,7.213864803000092],[9.273261070000046,7.223752499000057],[9.302925110000047,7.236277103000077],[9.307538986000054,7.246823788000086],[9.28512668600007,7.28835248900009],[9.279193878000058,7.327903271000082],[9.283808708000038,7.342405319000079],[9.308856964000086,7.379319668000051],[9.311440468000058,7.441246986000067],[9.364228249000064,7.468309402000045],[9.416963577000047,7.525658131000057],[9.45283222200004,7.5574679370000695],[9.46837902100009,7.550047874000086],[9.48156356800007,7.536204815000076],[9.542207718000043,7.443919659000073],[9.56396102900004,7.399095058000057],[9.575826645000063,7.383274555000071],[9.594942093000043,7.374046326000041],[9.682614326000078,7.441941738000082],[9.720187187000079,7.488084793000041],[9.735348701000078,7.517747879000069],[9.796652794000067,7.590917110000078],[9.816366196000047,7.597847462000061]]]}},{"type":"Feature","properties":{"CNTRY_NAME":"Nigeria","CNTRY_CODE":"NGA","ADM1_NAME":"Benue","ADM1_CODE":"NGA007","ADM2_NAME":"Konshisha","ADM2_CODE":"NGA007010","HRname":"Konshisha","HRpcode":"NG007010","HRparent":"NG007","Shape_Leng":1.82292788804,"Shape_Area":0.1370395992,"ADM2_New":"Konshisha","id":"NG-BE-KONSHISHA","name":"Konshisha","parentId":"NG-BE","stateName":"Benue","regionId":"NG-NC","fillColor":"#5a9e6f"},"geometry":{"type":"Polygon","coordinates":[[[8.610827446000087,7.420341492000091],[8.610393524000074,7.343433857000093],[8.62717151600009,7.274224758000059],[8.641852379000056,7.235774994000053],[8.670514107000088,7.199422836000053],[8.712459564000085,7.16027402900005],[8.723645210000086,7.150486946000058],[8.750041962000068,7.139162064000061],[8.79634952500004,7.085472584000058],[8.877443314000061,7.034439564000081],[8.926379204000057,6.968026638000083],[8.952244759000052,6.904409885000064],[8.942457199000046,6.868057728000053],[8.939709663000087,6.813222408000058],[8.848406792000048,6.865565777000086],[8.759608269000069,6.891436100000078],[8.70374202700009,6.896412849000058],[8.664740562000077,6.867979050000088],[8.60895538300008,6.859628677000046],[8.606143951000092,6.866375446000063],[8.598508835000075,6.867358685000056],[8.594314575000055,6.896719933000043],[8.601305008000054,6.902312756000072],[8.599207878000072,6.913497925000058],[8.571944237000082,6.915595531000065],[8.561457634000078,6.923984528000062],[8.539087296000048,6.9428596500000594],[8.491549492000047,7.000184536000063],[8.438525200000072,7.046871185000043],[8.466581345000066,7.102499485000067],[8.487520218000043,7.275021553000045],[8.525102615000037,7.326563835000059],[8.610827446000087,7.420341492000091]]]}},{"type":"Feature","properties":{"CNTRY_NAME":"Nigeria","CNTRY_CODE":"NGA","ADM1_NAME":"Benue","ADM1_CODE":"NGA007","ADM2_NAME":"Logo","ADM2_CODE":"NGA007012","HRname":"Logo","HRpcode":"NG007012","HRparent":"NG007","Shape_Leng":1.60655794824,"Shape_Area":0.115406426513,"ADM2_New":"Logo","id":"NG-BE-LOGO","name":"Logo","parentId":"NG-BE","stateName":"Benue","regionId":"NG-NC","fillColor":"#84b882"},"geometry":{"type":"Polygon","coordinates":[[[9.172170639000058,7.886631012000066],[9.16251850100008,7.869092464000062],[9.149993896000069,7.859863758000074],[9.124285698000051,7.82690477400007],[9.11571693400009,7.808447361000049],[9.120330811000088,7.793286324000064],[9.130218506000062,7.788012981000065],[9.190204620000088,7.810424805000082],[9.225141525000083,7.81833505600008],[9.27260208100006,7.822949409000046],[9.31478977200004,7.8348150250000685],[9.378071785000088,7.843384266000044],[9.370161057000075,7.680565834000049],[9.389936447000082,7.631127357000082],[9.418281555000078,7.585643768000068],[9.45283222200004,7.5574679370000695],[9.416963577000047,7.525658131000057],[9.364228249000064,7.468309402000045],[9.313471794000066,7.442601204000084],[9.265351295000073,7.483470440000076],[9.233710289000044,7.49467659000004],[9.208002090000093,7.499290943000062],[9.181634903000088,7.496654034000073],[9.165155411000057,7.501927376000083],[9.132855415000051,7.553343773000051],[9.091986656000074,7.592235565000067],[9.071551323000051,7.602123260000042],[9.043637276000084,7.601304531000039],[9.040480614000046,7.677506924000056],[9.020415306000075,7.748749256000053],[9.023120880000079,7.802857399000061],[9.058742523000092,7.856063843000072],[9.080836296000086,7.875001431000044],[9.172170639000058,7.886631012000066]]]}},{"type":"Feature","properties":{"CNTRY_NAME":"Nigeria","CNTRY_CODE":"NGA","ADM1_NAME":"Benue","ADM1_CODE":"NGA007","ADM2_NAME":"Makurdi","ADM2_CODE":"NGA007013","HRname":"Makurdi","HRpcode":"NG007013","HRparent":"NG007","Shape_Leng":0.972843699074,"Shape_Area":0.067260494907,"ADM2_New":"Makurdi","id":"NG-BE-MAKURDI","name":"Makurdi","parentId":"NG-BE","stateName":"Benue","regionId":"NG-NC","fillColor":"#c9b896"},"geometry":{"type":"Polygon","coordinates":[[[8.372159004000082,7.770002365000039],[8.41199398000009,7.768508911000083],[8.392920494000066,7.820144653000057],[8.396642685000074,7.829448223000043],[8.428275108000037,7.856429100000071],[8.474328995000064,7.882014275000074],[8.538059235000048,7.884805679000067],[8.585973740000043,7.867593765000038],[8.606906891000051,7.85317277900009],[8.647377968000058,7.8099102970000445],[8.665520668000056,7.764322281000091],[8.663194656000087,7.71268653900006],[8.656216621000056,7.6875662800000555],[8.636678696000047,7.65546846400008],[8.597138405000067,7.614066601000047],[8.573413849000076,7.597784996000087],[8.537593842000092,7.587551117000089],[8.500379562000091,7.589877129000058],[8.462233543000082,7.600111008000056],[8.437113762000081,7.612671375000048],[8.40408515900009,7.6461644170000795],[8.389199257000087,7.668958664000058],[8.372918129000084,7.71640777600004],[8.372159004000082,7.770002365000039]]]}},{"type":"Feature","properties":{"CNTRY_NAME":"Nigeria","CNTRY_CODE":"NGA","ADM1_NAME":"Benue","ADM1_CODE":"NGA007","ADM2_NAME":"Obi","ADM2_CODE":"NGA007014","HRname":"Obi","HRpcode":"NG007014","HRparent":"NG007","Shape_Leng":0.821738512882,"Shape_Area":0.0346025552799,"ADM2_New":"Obi","id":"NG-BE-OBI","name":"Obi","parentId":"NG-BE","stateName":"Benue","regionId":"NG-NC","fillColor":"#7eb09a"},"geometry":{"type":"Polygon","coordinates":[[[8.27476310700007,7.146553993000055],[8.29848766300006,7.123759747000065],[8.347797394000054,7.103756905000068],[8.410386086000074,7.064200878000065],[8.405481339000062,7.0149059300000545],[8.366405487000065,6.951640606000069],[8.343610764000061,6.940941334000058],[8.314769745000092,6.9390807150000455],[8.285927773000083,6.943732738000051],[8.254760742000087,6.958153248000087],[8.188239098000054,6.969782829000053],[8.123578072000043,6.987925053000083],[8.104989052000064,6.988600254000062],[8.100317955000037,7.002811432000044],[8.102643967000063,7.017231941000091],[8.143580437000082,7.021883965000086],[8.208706856000049,7.048864841000068],[8.222197533000042,7.06747198100004],[8.245456696000076,7.118642807000072],[8.27476310700007,7.146553993000055]]]}},{"type":"Feature","properties":{"CNTRY_NAME":"Nigeria","CNTRY_CODE":"NGA","ADM1_NAME":"Benue","ADM1_CODE":"NGA007","ADM2_NAME":"Ogbadibo","ADM2_CODE":"NGA007015","HRname":"Ogbadibo","HRpcode":"NG007015","HRparent":"NG007","Shape_Leng":1.00015615311,"Shape_Area":0.0489463832447,"ADM2_New":"Ogbadibo","id":"NG-BE-OGBADIBO","name":"Ogbadibo","parentId":"NG-BE","stateName":"Benue","regionId":"NG-NC","fillColor":"#a4c4a0"},"geometry":{"type":"Polygon","coordinates":[[[7.5305137630000445,7.032278061000056],[7.543581963000065,7.040121078000084],[7.580685616000039,7.027197361000049],[7.593192577000082,7.018025875000092],[7.607784271000071,7.017608643000074],[7.611119270000074,7.027197361000049],[7.599446297000043,7.079309940000087],[7.60194778400006,7.090566158000058],[7.6373839380000845,7.132672787000047],[7.656978130000084,7.146430492000093],[7.703746796000075,7.164890289000084],[7.760732174000054,7.118642807000072],[7.778874397000038,7.073054314000046],[7.778409004000082,7.041421890000038],[7.770501137000053,7.026070595000078],[7.744450569000037,7.0009503360000735],[7.746776581000063,6.993972778000057],[7.779804707000039,6.970713139000054],[7.790038586000037,6.954432011000051],[7.772826672000065,6.912099838000074],[7.7760343550000925,6.875824928000043],[7.75017738300005,6.878362179000078],[7.73442220700008,6.863394737000078],[7.6922798160000525,6.851824284000088],[7.674552917000085,6.855517387000077],[7.6580100060000404,6.868121147000068],[7.635952950000046,6.903570175000084],[7.620197773000086,6.919325352000044],[7.577659130000086,6.932717323000077],[7.571357250000062,6.939806938000061],[7.5305137630000445,7.032278061000056]]]}},{"type":"Feature","properties":{"CNTRY_NAME":"Nigeria","CNTRY_CODE":"NGA","ADM1_NAME":"Benue","ADM1_CODE":"NGA007","ADM2_NAME":"Ohimini","ADM2_CODE":"NGA007016","HRname":"Ohimini","HRpcode":"NG007016","HRparent":"NG007","Shape_Leng":0.915826124982,"Shape_Area":0.0517762575494,"ADM2_New":"Ohimini","id":"NG-BE-OHIMINI","name":"Ohimini","parentId":"NG-BE","stateName":"Benue","regionId":"NG-NC","fillColor":"#96b57c"},"geometry":{"type":"Polygon","coordinates":[[[7.818734646000053,7.286925316000065],[7.861772537000093,7.384463310000058],[7.899357796000061,7.380542755000079],[7.9212217330000385,7.367517471000042],[7.961227417000089,7.372169495000037],[7.986347675000047,7.361005306000038],[8.017515182000068,7.303787231000058],[8.038448334000066,7.287970543000085],[8.04682159400005,7.282853603000092],[8.101248741000063,7.2763409610000735],[8.110552788000064,7.246103764000054],[8.111948013000074,7.212145329000066],[8.099853516000053,7.187955379000073],[8.082176208000078,7.169813156000089],[8.02077102700008,7.141901970000049],[7.983906746000059,7.115039349000085],[7.908196449000059,7.165161610000041],[7.793865204000042,7.225825310000062],[7.818734646000053,7.286925316000065]]]}},{"type":"Feature","properties":{"CNTRY_NAME":"Nigeria","CNTRY_CODE":"NGA","ADM1_NAME":"Benue","ADM1_CODE":"NGA007","ADM2_NAME":"Oju","ADM2_CODE":"NGA007017","HRname":"Oju","HRpcode":"NG007017","HRparent":"NG007","Shape_Leng":1.63195103122,"Shape_Area":0.104988045826,"ADM2_New":"Oju","id":"NG-BE-OJU","name":"Oju","parentId":"NG-BE","stateName":"Benue","regionId":"NG-NC","fillColor":"#7cb87c"},"geometry":{"type":"Polygon","coordinates":[[[8.410386086000074,7.064200878000065],[8.438525200000072,7.046871185000043],[8.491549492000047,7.000184536000063],[8.539087296000048,6.9428596500000594],[8.571944237000082,6.915595531000065],[8.599207878000072,6.913497925000058],[8.601305008000054,6.902312756000072],[8.594314575000055,6.896719933000043],[8.600605965000057,6.875747681000064],[8.598508835000075,6.867358685000056],[8.606143951000092,6.866375446000063],[8.60895538300008,6.859628677000046],[8.60076046000006,6.855791092000061],[8.601857185000085,6.850042820000056],[8.637044907000075,6.825689793000038],[8.641556740000055,6.818769932000066],[8.640314102000048,6.805000782000093],[8.620740891000082,6.781025887000055],[8.578411102000075,6.765244007000092],[8.54413414000004,6.758592129000078],[8.508768082000074,6.758834839000087],[8.46874523200006,6.746480942000062],[8.450499535000063,6.74775505100007],[8.435746193000057,6.758190155000079],[8.419765472000051,6.757152081000072],[8.393416405000039,6.742407799000091],[8.374897957000087,6.706943989000081],[8.361105919000067,6.693262100000084],[8.32106590300009,6.678613186000064],[8.294514656000047,6.67870903000005],[8.278820992000078,6.697955132000061],[8.285632133000092,6.71021556900007],[8.28018379200006,6.715210438000042],[8.273825645000045,6.7129402160000495],[8.268831253000087,6.727925301000084],[8.251575470000091,6.735644817000093],[8.26610660600005,6.74154806100006],[8.24067688000008,6.7924060820000705],[8.225453377000065,6.806037426000046],[8.162188530000037,6.824179649000087],[8.132881165000072,6.858603477000088],[8.119624138000063,6.896283627000059],[8.112180710000075,6.95489692700005],[8.10217952700009,6.988855839000053],[8.123578072000043,6.987925053000083],[8.188239098000054,6.969782829000053],[8.254760742000087,6.958153248000087],[8.285927773000083,6.943732738000051],[8.314769745000092,6.9390807150000455],[8.343610764000061,6.940941334000058],[8.366405487000065,6.951640606000069],[8.401759148000053,7.006998062000093],[8.410386086000074,7.064200878000065]]]}},{"type":"Feature","properties":{"CNTRY_NAME":"Nigeria","CNTRY_CODE":"NGA","ADM1_NAME":"Benue","ADM1_CODE":"NGA007","ADM2_NAME":"Okpokwu","ADM2_CODE":"NGA007018","HRname":"Okpokwu","HRpcode":"NG007018","HRparent":"NG007","Shape_Leng":1.24756073465,"Shape_Area":0.0598638738468,"ADM2_New":"Okpokwu","id":"NG-BE-OKPOKWU","name":"Okpokwu","parentId":"NG-BE","stateName":"Benue","regionId":"NG-NC","fillColor":"#8fbc8f"},"geometry":{"type":"Polygon","coordinates":[[[7.703746796000075,7.164890289000084],[7.723265171000037,7.167275429000085],[7.772042274000057,7.193956852000042],[7.793865204000042,7.225825310000062],[7.908196449000059,7.165161610000041],[7.997512341000061,7.10468721400008],[8.039844513000048,7.049329758000056],[8.049489975000085,7.029321671000048],[7.998442650000072,7.029326916000059],[7.966344833000051,7.0223488810000845],[7.934711933000074,7.008393288000093],[7.907265663000089,6.980017185000065],[7.895636082000067,6.943267345000038],[7.927268982000044,6.89023590100004],[7.927268982000044,6.872559071000069],[7.8825969700000655,6.858291626000039],[7.863614082000083,6.879937649000055],[7.8344669340000905,6.880725384000073],[7.800593853000066,6.8728480340000715],[7.7760343550000925,6.875824928000043],[7.772826672000065,6.912099838000074],[7.790038586000037,6.954432011000051],[7.779804707000039,6.970713139000054],[7.746776581000063,6.993972778000057],[7.744450569000037,7.0009503360000735],[7.770501137000053,7.026070595000078],[7.778409004000082,7.041421890000038],[7.778874397000038,7.073054314000046],[7.760732174000054,7.118642807000072],[7.703746796000075,7.164890289000084]]]}},{"type":"Feature","properties":{"CNTRY_NAME":"Nigeria","CNTRY_CODE":"NGA","ADM1_NAME":"Benue","ADM1_CODE":"NGA007","ADM2_NAME":"Oturkpo","ADM2_CODE":"NGA007019","HRname":"Oturkpo","HRpcode":"NG007019","HRparent":"NG007","Shape_Leng":1.8343174854,"Shape_Area":0.104004523049,"ADM2_New":"Oturkpo","id":"NG-BE-OTURKPO","name":"Oturkpo","parentId":"NG-BE","stateName":"Benue","regionId":"NG-NC","fillColor":"#a8c686"},"geometry":{"type":"Polygon","coordinates":[[[7.860450745000037,7.413370609000083],[7.8700509070000635,7.423340321000069],[7.903544426000053,7.504747868000038],[7.917500019000045,7.521029472000066],[8.047752380000077,7.626626968000039],[8.079909325000074,7.644670486000052],[8.082874298000092,7.561035633000074],[8.093573570000046,7.510330200000055],[8.111715317000062,7.45776414900007],[8.122879982000086,7.398685455000077],[8.158466339000086,7.332628727000042],[8.172887802000048,7.293087959000047],[8.249177933000055,7.20981931700004],[8.27476310700007,7.146553993000055],[8.245456696000076,7.118642807000072],[8.222197533000042,7.06747198100004],[8.208706856000049,7.048864841000068],[8.192425728000046,7.039095879000058],[8.135207176000051,7.01955795300006],[8.082176208000078,7.012579918000085],[8.055194855000082,7.022814274000041],[8.011933327000065,7.087009907000038],[7.983906746000059,7.115039349000085],[8.02077102700008,7.141901970000049],[8.082176208000078,7.169813156000089],[8.099853516000053,7.187955379000073],[8.111948013000074,7.212145329000066],[8.106830597000055,7.265641689000063],[8.101248741000063,7.2763409610000735],[8.089618683000083,7.280062675000067],[8.078454971000042,7.277271271000075],[8.04682159400005,7.282853603000092],[8.017515182000068,7.303787231000058],[7.986347675000047,7.361005306000038],[7.975648403000093,7.367982864000055],[7.951923847000046,7.373099804000049],[7.9212217330000385,7.367517471000042],[7.899357796000061,7.380542755000079],[7.861772537000093,7.384463310000058],[7.866261005000069,7.404073715000038],[7.860450745000037,7.413370609000083]]]}},{"type":"Feature","properties":{"CNTRY_NAME":"Nigeria","CNTRY_CODE":"NGA","ADM1_NAME":"Benue","ADM1_CODE":"NGA007","ADM2_NAME":"Tarka","ADM2_CODE":"NGA007020","HRname":"Tarka","HRpcode":"NG007020","HRparent":"NG007","Shape_Leng":0.721901517266,"Shape_Area":0.0304079572998,"ADM2_New":"Tarka","id":"NG-BE-TARKA","name":"Tarka","parentId":"NG-BE","stateName":"Benue","regionId":"NG-NC","fillColor":"#c2b280"},"geometry":{"type":"Polygon","coordinates":[[[8.74445438400005,7.692774296000039],[8.750778198000091,7.713486671000055],[8.779769897000051,7.733888626000066],[8.790150642000071,7.735320091000062],[8.925806046000048,7.713486671000055],[8.908625603000075,7.680199146000064],[8.894308090000038,7.618277073000058],[8.885002136000082,7.525573254000051],[8.886433601000078,7.50123357800004],[8.833817482000086,7.5066027640000925],[8.814489365000043,7.497296333000065],[8.788360596000075,7.51984596300008],[8.76974868800005,7.551343918000043],[8.76581096600006,7.602169991000039],[8.753458977000037,7.611533165000083],[8.743977547000043,7.661228657000038],[8.74445438400005,7.692774296000039]]]}},{"type":"Feature","properties":{"CNTRY_NAME":"Nigeria","CNTRY_CODE":"NGA","ADM1_NAME":"Benue","ADM1_CODE":"NGA007","ADM2_NAME":"Ukum","ADM2_CODE":"NGA007021","HRname":"Ukum","HRpcode":"NG007021","HRparent":"NG007","Shape_Leng":1.41781266281,"Shape_Area":0.124111735043,"ADM2_New":"Ukum","id":"NG-BE-UKUM","name":"Ukum","parentId":"NG-BE","stateName":"Benue","regionId":"NG-NC","fillColor":"#9bb898"},"geometry":{"type":"Polygon","coordinates":[[[9.378071785000088,7.843384266000044],[9.499361038000075,7.842724800000042],[9.561324120000052,7.838769913000078],[9.601534843000081,7.829541206000044],[9.643062592000092,7.7998781200000735],[9.701729774000057,7.7102293970000915],[9.74721336400006,7.654858112000056],[9.816366196000047,7.597847462000061],[9.796652794000067,7.590917110000078],[9.735348701000078,7.517747879000069],[9.720187187000079,7.488084793000041],[9.682614326000078,7.441941738000082],[9.594942093000043,7.374046326000041],[9.575826645000063,7.383274555000071],[9.56396102900004,7.399095058000057],[9.542207718000043,7.443919659000073],[9.48156356800007,7.536204815000076],[9.418281555000078,7.585643768000068],[9.377411842000072,7.65683555600009],[9.370161057000075,7.680565834000049],[9.369502068000088,7.710888386000079],[9.378071785000088,7.843384266000044]]]}},{"type":"Feature","properties":{"CNTRY_NAME":"Nigeria","CNTRY_CODE":"NGA","ADM1_NAME":"Benue","ADM1_CODE":"NGA007","ADM2_NAME":"Ushongo","ADM2_CODE":"NGA007022","HRname":"Ushongo","HRpcode":"NG007022","HRparent":"NG007","Shape_Leng":1.71233654525,"Shape_Area":0.100562125147,"ADM2_New":"Ushongo","id":"NG-BE-USHONGO","name":"Ushongo","parentId":"NG-BE","stateName":"Benue","regionId":"NG-NC","fillColor":"#6ba3be"},"geometry":{"type":"Polygon","coordinates":[[[8.750041962000068,7.139162064000061],[8.75034618400008,7.144942284000081],[8.769582748000062,7.15274095500007],[8.801816940000037,7.193814278000048],[8.839771271000075,7.219289780000054],[8.903200150000089,7.274920464000047],[8.920357704000082,7.28063964800009],[8.948952675000044,7.27959966700007],[8.978067398000064,7.265562057000068],[9.01550102200008,7.220849514000065],[9.049295425000082,7.166778564000083],[9.103366852000079,7.118426800000066],[9.140800476000038,7.108548641000084],[9.213587761000042,7.11270761500009],[9.25154209100009,7.127265453000064],[9.26350021400009,7.14338254900008],[9.304720879000058,7.177811146000067],[9.369042397000044,7.121026516000086],[9.422602654000059,7.1011443140000665],[9.415574074000062,7.097630501000083],[9.389578819000064,7.060716629000069],[9.289235115000054,6.961933136000084],[9.26687908200006,6.945295811000051],[9.251801491000037,6.9369773860000805],[9.231525421000072,6.933338165000066],[9.178618431000075,6.9302186970000434],[9.177714348000052,6.976490498000089],[9.163156509000089,7.006645679000087],[9.145479202000047,7.022243023000044],[9.086729050000088,7.036280632000057],[8.962989807000042,7.032641411000043],[8.928675652000038,7.036280632000057],[8.881218910000086,7.0287756920000675],[8.79634952500004,7.085472584000058],[8.750041962000068,7.139162064000061]]]}},{"type":"Feature","properties":{"CNTRY_NAME":"Nigeria","CNTRY_CODE":"NGA","ADM1_NAME":"Benue","ADM1_CODE":"NGA007","ADM2_NAME":"Vandeikya","ADM2_CODE":"NGA007023","HRname":"Vandeikya","HRpcode":"NG007023","HRparent":"NG007","Shape_Leng":1.21270754969,"Shape_Area":0.0762213668815,"ADM2_New":"Vandeikya","id":"NG-BE-VANDEIKYA","name":"Vandeikya","parentId":"NG-BE","stateName":"Benue","regionId":"NG-NC","fillColor":"#89a96d"},"geometry":{"type":"Polygon","coordinates":[[[8.881218910000086,7.0287756920000675],[8.928675652000038,7.036280632000057],[8.962989807000042,7.032641411000043],[9.086729050000088,7.036280632000057],[9.145479202000047,7.022243023000044],[9.163156509000089,7.006645679000087],[9.177714348000052,6.976490498000089],[9.178753853000046,6.927098751000074],[9.148078918000067,6.82363653200008],[9.130922318000046,6.716534138000043],[9.129057884000076,6.675518036000085],[9.117329597000037,6.6673879620000776],[9.070367813000075,6.642453194000041],[9.047559738000075,6.643758774000048],[9.027075768000088,6.65078783000007],[8.99201583900009,6.692360878000045],[8.969207764000089,6.693666935000067],[8.994800568000073,6.760079861000065],[8.974477768000042,6.788922787000047],[8.939709663000087,6.813222408000058],[8.942457199000046,6.868057728000053],[8.952244759000052,6.904409885000064],[8.926379204000057,6.968026638000083],[8.881218910000086,7.0287756920000675]]]}},{"type":"Feature","properties":{"CNTRY_NAME":"Nigeria","CNTRY_CODE":"NGA","ADM1_NAME":"Benue","ADM1_CODE":"NGA007","ADM2_NAME":"Kwande","ADM2_CODE":"NGA007011","HRname":"Kwande","HRpcode":"NG007011","HRparent":"NG007","Shape_Leng":2.58602432592,"Shape_Area":0.236033342813,"ADM2_New":"Kwande","id":"NG-BE-KWANDE","name":"Kwande","parentId":"NG-BE","stateName":"Benue","regionId":"NG-NC","fillColor":"#b5c99a"},"geometry":{"type":"Polygon","coordinates":[[[9.737985611000056,7.078073025000037],[9.699752808000085,7.011495590000038],[9.645699501000081,6.8948202130000595],[9.641414642000086,6.866475582000078],[9.648666382000044,6.799238682000066],[9.646029472000066,6.738594055000078],[9.622298241000067,6.664106369000081],[9.602211714000077,6.530534372000091],[9.596704496000086,6.529687240000044],[9.584448336000037,6.5021405780000805],[9.58532858600006,6.475221652000073],[9.529311798000037,6.445756722000056],[9.466416418000051,6.455956818000061],[9.474327087000063,6.499602795000044],[9.471092224000074,6.524884224000061],[9.449518204000071,6.538808823000068],[9.402062416000092,6.601133823000055],[9.361248016000047,6.635858059000043],[9.300264359000039,6.720088959000066],[9.255754471000046,6.718100071000038],[9.129057884000076,6.675518036000085],[9.130922318000046,6.716534138000043],[9.148078918000067,6.82363653200008],[9.178618431000075,6.9302186970000434],[9.231525421000072,6.933338165000066],[9.251801491000037,6.9369773860000805],[9.26687908200006,6.945295811000051],[9.289235115000054,6.961933136000084],[9.389578819000064,7.060716629000069],[9.415574074000062,7.097630501000083],[9.422602654000059,7.1011443140000665],[9.447285652000062,7.092575073000091],[9.499361038000075,7.030611992000047],[9.515840530000048,7.034566879000067],[9.558028221000086,7.093234062000079],[9.610103607000042,7.137399673000061],[9.652950287000067,7.157834053000045],[9.696456909000062,7.171017647000042],[9.769625664000046,7.208591461000083],[9.824958801000037,7.254598141000088],[9.83521461500004,7.217160702000058],[9.834555626000054,7.199362755000038],[9.824008942000091,7.172336102000088],[9.737985611000056,7.078073025000037]]]}}]}