{"type":"FeatureCollection","features":[{"type":"Feature","properties":{"CNTRY_NAME":"Nigeria","CNTRY_CODE":"NGA","ADM1_NAME":"Bauchi","ADM1_CODE":"NGA005","ADM2_NAME":"Alkaleri","ADM2_CODE":"NGA005001","HRname":"Alkaleri","HRpcode":"NG005001","HRparent":"NG005","Shape_Leng":3.50170372782,"Shape_Area":0.487547570445,"ADM2_New":"Alkaleri","id":"NG-BA-ALKALERI","name":"Alkaleri","parentId":"NG-BA","stateName":"Bauchi","regionId":"NG-NE","fillColor":"#6BA368"},"geometry":{"type":"Polygon","coordinates":[[[10.281361580000066,10.314407349000078],[10.331903458000056,10.318374634000065],[10.374053955000079,10.306319237000082],[10.39376068100006,10.281876564000072],[10.42407131200008,10.260754585000086],[10.439092636000055,10.237523079000084],[10.485600471000055,10.19315528900006],[10.51720714600009,10.183536530000083],[10.534845352000048,10.185618401000056],[10.59333801300005,10.164139748000082],[10.660318375000088,10.16789913200006],[10.700388908000093,10.181216240000083],[10.731113434000065,10.19925975800004],[10.758170128000074,10.203525543000069],[10.815695763000065,10.201644897000051],[10.830290794000064,10.196922302000075],[10.819883347000086,10.181147575000068],[10.818917274000057,10.144064903000071],[10.806177139000056,10.11528396600005],[10.790633202000038,10.109703064000087],[10.749928474000058,10.114559174000078],[10.70067215000006,10.112256050000042],[10.684513092000088,10.080558777000078],[10.71421623200007,10.051123619000066],[10.788445473000081,10.00612545000007],[10.824990273000083,9.969960213000093],[10.857723236000083,9.95571994800008],[10.87517833700008,9.940522194000039],[10.928464890000043,9.909826279000072],[10.950119972000039,9.80540084800009],[10.951502800000071,9.683623314000045],[10.974893570000063,9.59289073900004],[10.945556641000053,9.593882561000044],[10.888006210000071,9.61551475500005],[10.838215828000045,9.618465424000078],[10.809247017000075,9.615433693000057],[10.770366669000055,9.605032921000088],[10.731177330000037,9.565208435000045],[10.684326172000056,9.542339325000057],[10.672446251000054,9.540075302000048],[10.589106560000062,9.564007759000049],[10.512009621000061,9.511150360000045],[10.488900185000091,9.552595139000061],[10.382749557000068,9.598074913000062],[10.35301017800009,9.616060257000072],[10.326860428000089,9.639995575000057],[10.313220024000088,9.643250465000051],[10.281479836000074,9.663076401000069],[10.258130074000064,9.667831421000074],[10.223879814000043,9.65858936300009],[10.195039749000046,9.657308578000084],[10.179920197000058,9.650845528000048],[10.162529945000074,9.652004242000089],[10.145009995000066,9.697558403000073],[10.130390167000087,9.72200489000005],[10.060044289000075,9.758606911000072],[9.96574783300008,9.773833275000072],[9.930717468000068,9.806177139000056],[9.928490639000074,9.817726135000044],[9.94533157300009,9.855531693000046],[9.988232613000037,10.025494576000085],[10.017904282000075,10.05507278400006],[10.034404755000082,10.060624123000082],[10.09430313100006,10.061017036000067],[10.143572807000055,10.055784225000082],[10.193919182000059,10.04132175400008],[10.240852356000062,10.037270546000059],[10.26089954400004,10.045081139000047],[10.270427704000042,10.05763244600007],[10.261301041000081,10.08309459700007],[10.260321617000045,10.101539612000067],[10.27657318100006,10.194651604000057],[10.278015137000068,10.219979286000068],[10.271274567000091,10.248866081000074],[10.281361580000066,10.314407349000078]]]}},{"type":"Feature","properties":{"CNTRY_NAME":"Nigeria","CNTRY_CODE":"NGA","ADM1_NAME":"Bauchi","ADM1_CODE":"NGA005","ADM2_NAME":"Bauchi","ADM2_CODE":"NGA005002","HRname":"Bauchi","HRpcode":"NG005002","HRparent":"NG005","Shape_Leng":2.59275268166,"Shape_Area":0.304267956277,"ADM2_New":"Bauchi","id":"NG-BA-BAUCHI","name":"Bauchi","parentId":"NG-BA","stateName":"Bauchi","regionId":"NG-NE","fillColor":"#C4A574"},"geometry":{"type":"Polygon","coordinates":[[[9.620804787000054,10.568313599000078],[9.66406631500007,10.577989578000086],[9.78469657900007,10.546507835000057],[9.825453758000037,10.513732910000044],[9.872477531000072,10.407146454000042],[9.903974533000053,10.387162209000053],[9.982977867000045,10.417266846000075],[10.02905368800009,10.443180084000062],[10.057332039000073,10.452038765000054],[10.146793365000065,10.471641541000054],[10.189066887000081,10.471106529000053],[10.225382805000038,10.484766960000059],[10.261516571000072,10.43677806900007],[10.281435013000078,10.32131862600005],[10.271274567000091,10.248866081000074],[10.278015137000068,10.219979286000068],[10.27657318100006,10.194651604000057],[10.260321617000045,10.101539612000067],[10.261301041000081,10.08309459700007],[10.270427704000042,10.05763244600007],[10.26089954400004,10.045081139000047],[10.240852356000062,10.037270546000059],[10.193919182000059,10.04132175400008],[10.143572807000055,10.055784225000082],[10.09430313100006,10.061017036000067],[10.034404755000082,10.060624123000082],[10.017904282000075,10.05507278400006],[9.988232613000037,10.025494576000085],[9.94533157300009,9.855531693000046],[9.928490639000074,9.817726135000044],[9.913225174000047,9.817919731000075],[9.90155601500004,9.824980736000043],[9.849506378000058,9.900524139000083],[9.786743164000086,9.962380409000048],[9.70983982100006,10.01980590800008],[9.633179665000057,10.100270271000056],[9.632225037000069,10.121020317000045],[9.654925346000084,10.157597542000076],[9.658898354000087,10.200175285000057],[9.653331757000046,10.229047775000083],[9.637146950000044,10.25344657900007],[9.643140793000043,10.264890671000046],[9.650831223000068,10.325853348000066],[9.641492844000084,10.442331314000057],[9.630395889000056,10.503532410000048],[9.626296043000082,10.560035706000065],[9.620804787000054,10.568313599000078]]]}},{"type":"Feature","properties":{"CNTRY_NAME":"Nigeria","CNTRY_CODE":"NGA","ADM1_NAME":"Bauchi","ADM1_CODE":"NGA005","ADM2_NAME":"Bogoro","ADM2_CODE":"NGA005003","HRname":"Bogoro","HRpcode":"NG005003","HRparent":"NG005","Shape_Leng":1.17614411806,"Shape_Area":0.0736707430405,"ADM2_New":"Bogoro","id":"NG-BA-BOGORO","name":"Bogoro","parentId":"NG-BA","stateName":"Bauchi","regionId":"NG-NE","fillColor":"#5B8FA8"},"geometry":{"type":"Polygon","coordinates":[[[9.781454086000053,9.555940628000087],[9.777699471000062,9.551204681000058],[9.74694347400009,9.542259216000048],[9.74175930000007,9.534790993000058],[9.68689823200009,9.520846367000047],[9.660066605000054,9.51772499100008],[9.645879745000059,9.524072647000082],[9.56428146400009,9.50574970200006],[9.55082225800004,9.50515174900005],[9.531059265000067,9.515857697000058],[9.516530037000052,9.538378716000068],[9.508749962000081,9.539963722000039],[9.491889954000044,9.52956295000007],[9.477397919000055,9.509613991000037],[9.462371826000037,9.501225471000055],[9.423914909000075,9.49951744100008],[9.404241562000038,9.508296013000063],[9.397403717000088,9.531158447000053],[9.397990227000037,9.538001060000056],[9.409534454000038,9.528220177000037],[9.41701316800004,9.537342072000058],[9.450792313000079,9.622167587000092],[9.504729271000087,9.725170135000042],[9.522525787000063,9.742225647000055],[9.539037704000066,9.748929024000063],[9.601187706000076,9.740077019000069],[9.649392128000045,9.74522686000006],[9.66513443000008,9.751378059000047],[9.757118225000056,9.715059280000048],[9.797005653000042,9.711097717000087],[9.815537453000047,9.686669350000045],[9.817593575000046,9.658993721000058],[9.781672478000075,9.593780518000074],[9.781454086000053,9.555940628000087]]]}},{"type":"Feature","properties":{"CNTRY_NAME":"Nigeria","CNTRY_CODE":"NGA","ADM1_NAME":"Bauchi","ADM1_CODE":"NGA005","ADM2_NAME":"Damban","ADM2_CODE":"NGA005004","HRname":"Damban","HRpcode":"NG005004","HRparent":"NG005","Shape_Leng":1.24493649352,"Shape_Area":0.089218404973,"ADM2_New":"Damban","id":"NG-BA-DAMBAN","name":"Damban","parentId":"NG-BA","stateName":"Bauchi","regionId":"NG-NE","fillColor":"#A8BF7A"},"geometry":{"type":"Polygon","coordinates":[[[10.593805313000075,11.691569328000071],[10.687640190000081,11.752806664000047],[10.713534355000093,11.758238792000043],[10.735978127000067,11.770627975000082],[10.82438755000004,11.80176544200009],[10.850415230000067,11.819868088000078],[10.856300354000041,11.816109657000084],[10.864179611000054,11.778949738000051],[10.894399643000042,11.732390404000057],[10.912329674000091,11.670450211000059],[10.920479774000057,11.66219043700005],[10.925109863000046,11.647549629000082],[10.932499886000073,11.56649017300009],[10.927740097000083,11.52560043300008],[10.935589790000051,11.474559784000064],[10.929817200000059,11.443285942000045],[10.910688400000083,11.411270142000092],[10.89309215500009,11.39554595900006],[10.885895729000083,11.39891147600008],[10.829970360000061,11.441095352000048],[10.818471909000039,11.464282036000043],[10.798594475000073,11.472599030000083],[10.735021591000077,11.47064113600004],[10.717925072000071,11.507031441000038],[10.721691132000046,11.530024529000059],[10.661938667000072,11.543455124000047],[10.628239632000088,11.577292442000044],[10.608569145000047,11.605191231000049],[10.589179993000073,11.659584045000088],[10.588273048000076,11.684941292000076],[10.593805313000075,11.691569328000071]]]}},{"type":"Feature","properties":{"CNTRY_NAME":"Nigeria","CNTRY_CODE":"NGA","ADM1_NAME":"Bauchi","ADM1_CODE":"NGA005","ADM2_NAME":"Darazo","ADM2_CODE":"NGA005005","HRname":"Darazo","HRpcode":"NG005005","HRparent":"NG005","Shape_Leng":2.88409487895,"Shape_Area":0.249318288807,"ADM2_New":"Darazo","id":"NG-BA-DARAZO","name":"Darazo","parentId":"NG-BA","stateName":"Bauchi","regionId":"NG-NE","fillColor":"#B8956B"},"geometry":{"type":"Polygon","coordinates":[[[10.735021591000077,11.47064113600004],[10.798594475000073,11.472599030000083],[10.818471909000039,11.464282036000043],[10.829970360000061,11.441095352000048],[10.89309215500009,11.39554595900006],[10.850379944000053,11.364520073000051],[10.85037040700007,11.357580185000074],[10.858510017000071,11.349309921000042],[10.973469734000048,11.293649673000061],[11.002829552000037,11.29699039500008],[11.022173882000061,11.292346001000055],[11.023275375000082,11.285419464000086],[11.000440598000068,11.23616981500004],[10.93631362900004,11.169010162000063],[10.904365540000072,11.146373749000077],[10.874583244000064,11.106428146000042],[10.863735199000075,11.080067635000091],[10.85190773000005,11.072153091000075],[10.840165138000089,11.072301865000043],[10.793634415000042,11.114366531000087],[10.779591560000085,11.11915302300008],[10.76195335400007,11.11707210500009],[10.720526695000046,11.08649158500009],[10.670490265000069,11.019152641000062],[10.648155212000063,11.017131805000076],[10.618556023000053,10.994465828000045],[10.602950096000086,10.962405205000039],[10.615489006000075,10.926531792000048],[10.638669014000072,10.89743614200006],[10.645520210000086,10.87891674000008],[10.642976761000057,10.860515594000049],[10.629999161000057,10.854919434000067],[10.61776447300008,10.858255386000053],[10.599773407000043,10.884104729000057],[10.589278221000086,10.891150475000074],[10.579859734000081,10.888965607000046],[10.550655365000068,10.792561531000047],[10.526629448000051,10.763833046000059],[10.503576279000072,10.782789230000049],[10.441573143000085,10.80546379100008],[10.421891212000048,10.832210541000052],[10.423272133000069,10.851778984000077],[10.52439022100009,10.863170624000077],[10.546895981000091,10.881318092000072],[10.54466915100005,10.89286708800006],[10.531764984000063,10.894183159000079],[10.465800285000057,10.87543392200007],[10.43760681200007,10.874638557000083],[10.410659790000068,10.88074111900005],[10.365071297000043,10.90090370200005],[10.327727318000086,10.923266411000043],[10.28463363600008,10.957222939000076],[10.264915466000048,10.980514526000093],[10.24647998800009,11.014157295000075],[10.232912064000061,11.063869476000093],[10.22860527000006,11.100790024000048],[10.242569923000076,11.093890190000081],[10.260129929000072,11.094109535000086],[10.272820473000081,11.112680435000073],[10.310040474000061,11.136159897000084],[10.331159592000063,11.131810188000088],[10.346444130000066,11.16284561200007],[10.364620209000066,11.179420471000071],[10.366720200000088,11.202480316000049],[10.358460426000079,11.208129883000083],[10.379036903000042,11.222155571000087],[10.431925774000092,11.226093292000087],[10.499271393000072,11.264410019000081],[10.55346965800004,11.281004906000078],[10.57520198800006,11.337181091000048],[10.58065414400005,11.40854072600007],[10.58429813400005,11.420015335000073],[10.596138000000053,11.429081917000076],[10.674958229000083,11.441907883000056],[10.703323364000084,11.45882892600008],[10.735021591000077,11.47064113600004]]]}},{"type":"Feature","properties":{"CNTRY_NAME":"Nigeria","CNTRY_CODE":"NGA","ADM1_NAME":"Bauchi","ADM1_CODE":"NGA005","ADM2_NAME":"Dass","ADM2_CODE":"NGA005006","HRname":"Dass","HRpcode":"NG005006","HRparent":"NG005","Shape_Leng":0.879270410533,"Shape_Area":0.0441350415967,"ADM2_New":"Dass","id":"NG-BA-DASS","name":"Dass","parentId":"NG-BA","stateName":"Bauchi","regionId":"NG-NE","fillColor":"#6AADA3"},"geometry":{"type":"Polygon","coordinates":[[[9.399427414000058,9.921204567000075],[9.393129349000048,9.944326401000069],[9.359550476000038,9.989683151000065],[9.359818459000053,10.015025139000045],[9.382774353000059,10.075794220000091],[9.395946503000062,10.09982109100008],[9.413767815000085,10.119180679000067],[9.429141998000091,10.129353523000077],[9.49646186800004,10.15130233800005],[9.516048431000058,10.129405022000071],[9.587189674000058,10.082420349000074],[9.58224964100009,10.059441566000089],[9.565834045000088,10.061953545000051],[9.576086044000078,10.031869888000074],[9.566582680000067,10.02162170400004],[9.562913895000065,10.007843018000074],[9.616843224000093,9.999094963000061],[9.623779297000056,9.988638878000074],[9.613983154000039,9.950744629000042],[9.582964897000068,9.90556812300008],[9.530259132000083,9.918395042000043],[9.482079506000048,9.915549278000071],[9.399427414000058,9.921204567000075]]]}},{"type":"Feature","properties":{"CNTRY_NAME":"Nigeria","CNTRY_CODE":"NGA","ADM1_NAME":"Bauchi","ADM1_CODE":"NGA005","ADM2_NAME":"Gamawa","ADM2_CODE":"NGA005007","HRname":"Gamawa","HRpcode":"NG005007","HRparent":"NG005","Shape_Leng":2.22299681486,"Shape_Area":0.242715080586,"ADM2_New":"Gamawa","id":"NG-BA-GAMAWA","name":"Gamawa","parentId":"NG-BA","stateName":"Bauchi","regionId":"NG-NE","fillColor":"#8FAF6E"},"geometry":{"type":"Polygon","coordinates":[[[10.408700943000042,11.917632103000074],[10.395303726000066,11.983469963000061],[10.39334487900004,12.020360947000086],[10.379546165000079,12.04818630200009],[10.377429008000092,12.070101738000062],[10.377599716000077,12.086229324000044],[10.40274620100007,12.13199329400004],[10.405349731000058,12.156153679000056],[10.399709702000052,12.178114891000064],[10.385813713000061,12.196723938000048],[10.371796608000068,12.203815460000044],[10.347161293000056,12.206430435000073],[10.327127457000074,12.19977188100006],[10.313437462000081,12.23796367600005],[10.413364410000042,12.358817101000056],[10.480539322000084,12.381007195000052],[10.517232895000063,12.408192635000091],[10.527789116000065,12.40690612800006],[10.53473663300008,12.39760208100006],[10.540389061000042,12.376792908000084],[10.569684029000086,12.370660782000073],[10.639232635000042,12.395125389000043],[10.693077087000063,12.378314018000083],[10.726176262000081,12.380184174000078],[10.734119415000066,12.26143455500005],[10.741760254000042,12.21660995500008],[10.785360336000053,12.075289726000051],[10.782019615000081,11.973979950000057],[10.79380989100008,11.94544982900004],[10.812789917000089,11.916910172000087],[10.816240311000058,11.895520210000086],[10.807009697000069,11.85649967200004],[10.82600021400009,11.827960014000041],[10.850415230000067,11.819868088000078],[10.82438755000004,11.80176544200009],[10.735978127000067,11.770627975000082],[10.713534355000093,11.758238792000043],[10.687640190000081,11.752806664000047],[10.593805313000075,11.691569328000071],[10.554220200000088,11.685373306000088],[10.532031059000076,11.697175026000082],[10.477450371000089,11.75547027600004],[10.453229904000068,11.79725170100005],[10.434539795000092,11.806705475000058],[10.412618637000037,11.843849182000042],[10.41507720900006,11.854187012000068],[10.468356133000043,11.894987106000087],[10.47080135300007,11.90417194400004],[10.463853836000055,11.913476944000081],[10.408700943000042,11.917632103000074]]]}},{"type":"Feature","properties":{"CNTRY_NAME":"Nigeria","CNTRY_CODE":"NGA","ADM1_NAME":"Bauchi","ADM1_CODE":"NGA005","ADM2_NAME":"Ganjuwa","ADM2_CODE":"NGA005008","HRname":"Ganjuwa","HRpcode":"NG005008","HRparent":"NG005","Shape_Leng":3.32700010084,"Shape_Area":0.418068427247,"ADM2_New":"Ganjuwa","id":"NG-BA-GANJUWA","name":"Ganjuwa","parentId":"NG-BA","stateName":"Bauchi","regionId":"NG-NE","fillColor":"#D4C4A0"},"geometry":{"type":"Polygon","coordinates":[[[9.618585587000041,11.070709229000045],[9.767718315000081,11.051332474000048],[9.817097664000073,11.056465149000076],[9.854224205000037,11.054659843000081],[9.858112335000044,11.019009590000053],[9.86581897700006,10.999396324000088],[9.950030327000093,10.963700294000091],[9.966458321000061,10.960450172000037],[10.002690315000052,10.966640472000051],[10.020660400000054,10.98245716100007],[10.049023628000043,10.989604950000057],[10.076219559000037,10.989410400000054],[10.10087966900005,10.98279953000008],[10.119919777000064,10.954239845000075],[10.134039879000056,10.94750022900007],[10.172739983000042,10.942210197000065],[10.186759949000077,10.944689751000055],[10.192560196000045,10.950510025000085],[10.19474983200007,10.96436023700005],[10.154669762000083,10.990360260000045],[10.142729759000076,11.012089729000081],[10.144442558000037,11.02697181700006],[10.17486000100007,11.074649811000086],[10.198887825000043,11.100675583000054],[10.228905678000046,11.103699684000048],[10.232912064000061,11.063869476000093],[10.24647998800009,11.014157295000075],[10.264915466000048,10.980514526000093],[10.28463363600008,10.957222939000076],[10.327727318000086,10.923266411000043],[10.365071297000043,10.90090370200005],[10.410659790000068,10.88074111900005],[10.43760681200007,10.874638557000083],[10.465800285000057,10.87543392200007],[10.531764984000063,10.894183159000079],[10.54466915100005,10.89286708800006],[10.546895981000091,10.881318092000072],[10.52439022100009,10.863170624000077],[10.423272133000069,10.851778984000077],[10.421891212000048,10.832210541000052],[10.441573143000085,10.80546379100008],[10.503576279000072,10.782789230000049],[10.526629448000051,10.763833046000059],[10.473125458000084,10.679488182000057],[10.476351738000062,10.672318459000053],[10.467058182000073,10.66113185900008],[10.449311256000044,10.648683548000065],[10.425741196000047,10.640917778000073],[10.356314659000077,10.627973557000075],[10.31149864200006,10.610108376000085],[10.26751613600004,10.559973717000048],[10.237465858000064,10.494687080000062],[10.22088146200008,10.481071472000053],[10.177298546000088,10.468951225000069],[10.146793365000065,10.471641541000054],[10.057332039000073,10.452038765000054],[10.02905368800009,10.443180084000062],[9.982977867000045,10.417266846000075],[9.903974533000053,10.387162209000053],[9.872477531000072,10.407146454000042],[9.83237743400008,10.502124786000081],[9.80802249900006,10.531234741000048],[9.78469657900007,10.546507835000057],[9.672273636000057,10.57673358900007],[9.648788452000076,10.577031136000073],[9.620804787000054,10.568313599000078],[9.590538979000087,10.621548653000048],[9.572469711000053,10.689749718000087],[9.569360733000053,10.728960037000093],[9.578506470000093,10.816400528000088],[9.591691017000073,10.841580391000036],[9.595518112000093,10.870333672000072],[9.625750542000048,10.952899933000083],[9.629808426000068,11.003539085000057],[9.621845245000088,11.027833939000061],[9.618585587000041,11.070709229000045]]]}},{"type":"Feature","properties":{"CNTRY_NAME":"Nigeria","CNTRY_CODE":"NGA","ADM1_NAME":"Bauchi","ADM1_CODE":"NGA005","ADM2_NAME":"Giade","ADM2_CODE":"NGA005009","HRname":"Giade","HRpcode":"NG005009","HRparent":"NG005","Shape_Leng":1.23378066129,"Shape_Area":0.0552979952932,"ADM2_New":"Giade","id":"NG-BA-GIADE","name":"Giade","parentId":"NG-BA","stateName":"Bauchi","regionId":"NG-NE","fillColor":"#688EB5"},"geometry":{"type":"Polygon","coordinates":[[[10.183135033000042,11.613655090000066],[10.200018883000041,11.61843299900005],[10.239894867000089,11.613319397000055],[10.323326111000085,11.618022919000055],[10.333821297000043,11.610977173000038],[10.336954117000062,11.574070930000062],[10.280274391000091,11.544836044000078],[10.277730942000062,11.526434898000048],[10.291725159000066,11.517040253000062],[10.303223610000089,11.493853569000066],[10.297096252000074,11.469738007000046],[10.300205231000064,11.430527687000051],[10.291535378000049,11.388010979000057],[10.283121109000092,11.369684219000078],[10.256934166000065,11.336606026000084],[10.24964523300008,11.313656807000086],[10.238118172000043,11.223046303000046],[10.21306037900007,11.227100372000052],[10.189689636000082,11.222209930000076],[10.175620079000055,11.224349976000042],[10.150890350000054,11.237859726000067],[10.127429962000065,11.241029739000055],[10.09564971900005,11.256770134000078],[10.060413361000087,11.261534691000065],[10.116658211000072,11.398291588000063],[10.159381866000047,11.440377235000085],[10.186487198000066,11.449250221000057],[10.208992004000038,11.467397690000041],[10.221014977000038,11.493742943000086],[10.179034233000039,11.521924973000068],[10.18169879900006,11.551845551000042],[10.17501926400007,11.58649158500009],[10.177574158000084,11.60604476900005],[10.183135033000042,11.613655090000066]]]}},{"type":"Feature","properties":{"CNTRY_NAME":"Nigeria","CNTRY_CODE":"NGA","ADM1_NAME":"Bauchi","ADM1_CODE":"NGA005","ADM2_NAME":"Itas/Gadau","ADM2_CODE":"NGA005010","HRname":"Itas/Gadau","HRpcode":"NG005010","HRparent":"NG005","Shape_Leng":2.09309450506,"Shape_Area":0.11599856246,"ADM2_New":"Itas/Gadau","id":"NG-BA-ITAS-GADAU","name":"Itas/Gadau","parentId":"NG-BA","stateName":"Bauchi","regionId":"NG-NE","fillColor":"#7CB087"},"geometry":{"type":"Polygon","coordinates":[[[9.906777382000087,11.95685005200005],[9.947647095000093,11.96770000500004],[9.969927788000064,11.96452045400008],[9.97686862900008,11.97266006500007],[10.07143020600006,12.000289917000089],[10.097060204000059,12.012109756000086],[10.099229813000079,12.028260231000047],[10.12147998800009,12.028530121000074],[10.130740166000066,12.038999557000068],[10.154140472000051,12.040439606000064],[10.172739983000042,12.053330421000055],[10.17440414400005,12.06258964500006],[10.19488620800007,12.021723747000067],[10.194436073000077,11.979103088000045],[10.202509880000036,11.965175629000044],[10.22119998900007,11.955722809000065],[10.26458454100009,11.949412346000088],[10.292646408000053,11.937536240000043],[10.345438004000073,11.932258606000062],[10.415734291000092,11.916391373000067],[10.463853836000055,11.913476944000081],[10.47080135300007,11.90417194400004],[10.468356133000043,11.894987106000087],[10.41507720900006,11.854187012000068],[10.414154053000061,11.841013908000036],[10.378115654000055,11.801660538000078],[10.33236885100007,11.806848526000067],[10.28679180100005,11.828163147000055],[10.271527290000051,11.828356743000086],[10.237425804000054,11.824180603000059],[10.180793762000064,11.799552917000085],[10.140954971000042,11.808121681000046],[10.10121345500005,11.825906754000073],[10.032054901000038,11.838303566000093],[9.977747917000045,11.811342239000055],[9.971803665000039,11.804505348000077],[9.938839912000049,11.796858788000065],[9.886047363000046,11.802135468000074],[9.800315857000044,11.802070618000073],[9.77434921300005,11.78972625700004],[9.753005028000075,11.770410538000078],[9.735123634000047,11.745966911000039],[9.744635582000058,11.741941452000049],[9.712410927000064,11.733429909000051],[9.66093158700005,11.729350090000082],[9.64567470600008,11.732620239000084],[9.635052681000047,11.740550041000063],[9.626674652000077,11.75771999400007],[9.633457184000065,11.78083038300008],[9.656727791000037,11.794930458000067],[9.663655281000047,11.804220200000088],[9.664632797000081,11.822660446000043],[9.67374420200008,11.846949577000089],[9.67351341200009,11.868820190000065],[9.683844566000062,11.888520241000037],[9.690844536000043,11.890910149000092],[9.72026062000009,11.87744998900007],[9.751714706000087,11.892800331000046],[9.766260147000082,11.892313957000056],[9.811292648000062,11.90618038200006],[9.851919174000045,11.940059662000067],[9.906777382000087,11.95685005200005]]]}},{"type":"Feature","properties":{"CNTRY_NAME":"Nigeria","CNTRY_CODE":"NGA","ADM1_NAME":"Bauchi","ADM1_CODE":"NGA005","ADM2_NAME":"Jama'are","ADM2_CODE":"NGA005011","HRname":"Jama'are","HRpcode":"NG005011","HRparent":"NG005","Shape_Leng":0.991096438593,"Shape_Area":0.0408525486252,"ADM2_New":"Jama'are","id":"NG-BA-JAMAARE","name":"Jama'are","parentId":"NG-BA","stateName":"Bauchi","regionId":"NG-NE","fillColor":"#C9B896"},"geometry":{"type":"Polygon","coordinates":[[[9.744635582000058,11.741941452000049],[9.735123634000047,11.745966911000039],[9.753005028000075,11.770410538000078],[9.77434921300005,11.78972625700004],[9.800315857000044,11.802070618000073],[9.886047363000046,11.802135468000074],[9.938839912000049,11.796858788000065],[9.965240479000045,11.802613258000065],[10.003203392000046,11.775304794000078],[10.055911064000043,11.761964798000065],[10.069916725000041,11.753722191000065],[10.08612442000009,11.731627464000042],[10.087041855000052,11.711684227000092],[10.056232452000074,11.681315422000068],[10.011331558000052,11.655386925000073],[9.97980976100007,11.673067093000043],[9.945756912000093,11.673499107000055],[9.93512725800008,11.667873383000085],[9.924327850000054,11.646120071000041],[9.894643784000039,11.615390778000062],[9.88743972800006,11.60050487500007],[9.835602760000086,11.58503341700009],[9.81931209600009,11.58963966400006],[9.815727234000065,11.59650993300005],[9.82820606200005,11.63465023000009],[9.82086563100006,11.664500237000084],[9.82035636900008,11.712849617000074],[9.814283371000045,11.733510017000071],[9.80244159700004,11.746029854000085],[9.783647537000093,11.751560211000083],[9.744635582000058,11.741941452000049]]]}},{"type":"Feature","properties":{"CNTRY_NAME":"Nigeria","CNTRY_CODE":"NGA","ADM1_NAME":"Bauchi","ADM1_CODE":"NGA005","ADM2_NAME":"Katagum","ADM2_CODE":"NGA005012","HRname":"Katagum","HRpcode":"NG005012","HRparent":"NG005","Shape_Leng":1.76992366542,"Shape_Area":0.119030863703,"ADM2_New":"Katagum","id":"NG-BA-KATAGUM","name":"Katagum","parentId":"NG-BA","stateName":"Bauchi","regionId":"NG-NE","fillColor":"#5E9E78"},"geometry":{"type":"Polygon","coordinates":[[[9.965240479000045,11.802613258000065],[10.032054901000038,11.838303566000093],[10.10121345500005,11.825906754000073],[10.140954971000042,11.808121681000046],[10.180793762000064,11.799552917000085],[10.237425804000054,11.824180603000059],[10.271527290000051,11.828356743000086],[10.28679180100005,11.828163147000055],[10.33236885100007,11.806848526000067],[10.369883537000078,11.800612450000074],[10.378115654000055,11.801660538000078],[10.414154053000061,11.841013908000036],[10.434539795000092,11.806705475000058],[10.453229904000068,11.79725170100005],[10.467016220000062,11.768275261000042],[10.532031059000076,11.697175026000082],[10.554220200000088,11.685373306000088],[10.593805313000075,11.691569328000071],[10.588273048000076,11.684941292000076],[10.59365654000004,11.638790131000064],[10.608569145000047,11.605191231000049],[10.636668205000092,11.56826686900007],[10.616229057000055,11.552099228000088],[10.55367755900005,11.52293777500006],[10.530132294000055,11.517476082000087],[10.424304008000092,11.504991531000087],[10.364454269000078,11.509206772000084],[10.35042476700005,11.515144348000092],[10.31909465800004,11.56245613100009],[10.336954117000062,11.574070930000062],[10.333821297000043,11.610977173000038],[10.323326111000085,11.618022919000055],[10.239894867000089,11.613319397000055],[10.200018883000041,11.61843299900005],[10.183135033000042,11.613655090000066],[10.177683830000092,11.616412163000064],[10.138015747000054,11.641109467000092],[10.128767967000044,11.65505027800009],[10.099607468000045,11.673852921000048],[10.095165253000062,11.698102951000067],[10.087041855000052,11.711684227000092],[10.08612442000009,11.731627464000042],[10.069916725000041,11.753722191000065],[10.055911064000043,11.761964798000065],[10.003203392000046,11.775304794000078],[9.965240479000045,11.802613258000065]]]}},{"type":"Feature","properties":{"CNTRY_NAME":"Nigeria","CNTRY_CODE":"NGA","ADM1_NAME":"Bauchi","ADM1_CODE":"NGA005","ADM2_NAME":"Kirfi","ADM2_CODE":"NGA005013","HRname":"Kirfi","HRpcode":"NG005013","HRparent":"NG005","Shape_Leng":1.84611181974,"Shape_Area":0.195613093733,"ADM2_New":"Kirfi","id":"NG-BA-KIRFI","name":"Kirfi","parentId":"NG-BA","stateName":"Bauchi","regionId":"NG-NE","fillColor":"#94B86A"},"geometry":{"type":"Polygon","coordinates":[[[10.225382805000038,10.484766960000059],[10.237465858000064,10.494687080000062],[10.26751613600004,10.559973717000048],[10.31149864200006,10.610108376000085],[10.356314659000077,10.627973557000075],[10.449311256000044,10.648683548000065],[10.476351738000062,10.672318459000053],[10.47886180900008,10.666742325000087],[10.516180992000045,10.65016937300004],[10.525551796000059,10.639653206000048],[10.545124054000041,10.602539062000062],[10.558775902000093,10.560891151000078],[10.577321053000048,10.53761482200008],[10.616939545000037,10.508310318000042],[10.704874992000043,10.494524002000048],[10.765764236000052,10.477622986000085],[10.805457115000081,10.455230713000049],[10.819402695000065,10.441228867000063],[10.833250046000046,10.418011665000051],[10.835403442000086,10.399551392000092],[10.833607674000064,10.34081840500005],[10.826063156000089,10.293679237000049],[10.845745087000068,10.266931534000037],[10.857159615000057,10.235681534000037],[10.830290794000064,10.196922302000075],[10.772273064000046,10.204499245000079],[10.731113434000065,10.19925975800004],[10.700388908000093,10.181216240000083],[10.646190643000068,10.164622307000059],[10.59333801300005,10.164139748000082],[10.534845352000048,10.185618401000056],[10.496107101000064,10.187261581000087],[10.450714111000082,10.22585487400005],[10.42407131200008,10.260754585000086],[10.39376068100006,10.281876564000072],[10.374053955000079,10.306319237000082],[10.331903458000056,10.318374634000065],[10.281361580000066,10.314407349000078],[10.271634102000064,10.39402294200005],[10.261516571000072,10.43677806900007],[10.225382805000038,10.484766960000059]]]}},{"type":"Feature","properties":{"CNTRY_NAME":"Nigeria","CNTRY_CODE":"NGA","ADM1_NAME":"Bauchi","ADM1_CODE":"NGA005","ADM2_NAME":"Misau","ADM2_CODE":"NGA005014","HRname":"Misau","HRpcode":"NG005014","HRparent":"NG005","Shape_Leng":1.55309888204,"Shape_Area":0.10153045809,"ADM2_New":"Misau","id":"NG-BA-MISAU","name":"Misau","parentId":"NG-BA","stateName":"Bauchi","regionId":"NG-NE","fillColor":"#C2A882"},"geometry":{"type":"Polygon","coordinates":[[[10.31909465800004,11.56245613100009],[10.35042476700005,11.515144348000092],[10.364454269000078,11.509206772000084],[10.424304008000092,11.504991531000087],[10.55367755900005,11.52293777500006],[10.616229057000055,11.552099228000088],[10.636668205000092,11.56826686900007],[10.661938667000072,11.543455124000047],[10.721691132000046,11.530024529000059],[10.717925072000071,11.507031441000038],[10.735021591000077,11.47064113600004],[10.703323364000084,11.45882892600008],[10.674958229000083,11.441907883000056],[10.596138000000053,11.429081917000076],[10.58429813400005,11.420015335000073],[10.57520198800006,11.337181091000048],[10.55346965800004,11.281004906000078],[10.499271393000072,11.264410019000081],[10.431925774000092,11.226093292000087],[10.379036903000042,11.222155571000087],[10.358460426000079,11.208129883000083],[10.29485988600004,11.20599842100006],[10.261089325000057,11.213522911000041],[10.238151550000055,11.22624492600005],[10.24964523300008,11.313656807000086],[10.256934166000065,11.336606026000084],[10.283121109000092,11.369684219000078],[10.291535378000049,11.388010979000057],[10.300205231000064,11.430527687000051],[10.297096252000074,11.469738007000046],[10.303223610000089,11.493853569000066],[10.291725159000066,11.517040253000062],[10.277730942000062,11.526434898000048],[10.280274391000091,11.544836044000078],[10.292114258000083,11.553902626000081],[10.31909465800004,11.56245613100009]]]}},{"type":"Feature","properties":{"CNTRY_NAME":"Nigeria","CNTRY_CODE":"NGA","ADM1_NAME":"Bauchi","ADM1_CODE":"NGA005","ADM2_NAME":"Ningi","ADM2_CODE":"NGA005015","HRname":"Ningi","HRpcode":"NG005015","HRparent":"NG005","Shape_Leng":2.61543525508,"Shape_Area":0.382795583683,"ADM2_New":"Ningi","id":"NG-BA-NINGI","name":"Ningi","parentId":"NG-BA","stateName":"Bauchi","regionId":"NG-NE","fillColor":"#72A898"},"geometry":{"type":"Polygon","coordinates":[[[9.14290046700006,11.331979752000052],[9.14820766400004,11.327614784000048],[9.161173820000045,11.33205890700009],[9.224947929000052,11.365813255000091],[9.27903556800004,11.372039795000092],[9.313064575000055,11.369304657000043],[9.415868759000091,11.316479683000068],[9.446573257000068,11.30792045600009],[9.475652695000065,11.310299873000076],[9.499984741000048,11.334770203000062],[9.528023720000078,11.340869904000044],[9.546780586000068,11.338789940000083],[9.570354462000068,11.324110031000089],[9.576427460000048,11.303460121000057],[9.575534821000076,11.276960373000065],[9.582262993000086,11.259651184000063],[9.62497806500005,11.252455711000039],[9.59759426100004,11.177910805000067],[9.59733867600005,11.153720856000064],[9.619897842000057,11.065876961000072],[9.629601479000087,10.983956337000052],[9.62209415400008,10.940273285000046],[9.593780518000074,10.861484528000062],[9.517713547000085,10.84251785300006],[9.470500946000072,10.820074081000087],[9.428130150000072,10.811394691000089],[9.355254173000048,10.805405617000076],[9.267210960000057,10.808824539000057],[9.227043152000078,10.786293030000081],[9.192843437000079,10.772901535000074],[9.15635681200007,10.765299797000068],[9.10359001200004,10.77288055400004],[9.044853210000042,10.771321297000043],[8.987777710000046,10.815823555000065],[8.934042931000079,10.84300231900005],[8.89771461500004,10.850374222000085],[8.869483948000038,10.846123695000074],[8.821035385000073,10.817935944000055],[8.792169571000045,10.791371346000062],[8.78564453100006,10.797200203000045],[8.769371033000084,10.82929992700008],[8.764616966000062,10.865280151000093],[8.77262783100008,10.902839661000087],[8.785742760000062,10.927740097000083],[8.789707184000065,10.947680473000048],[8.780174255000077,10.987000465000051],[8.780117035000046,11.021960258000092],[8.792744637000055,11.06083011600009],[8.805900574000077,11.08456993100009],[8.82749080700006,11.100429535000046],[8.874505043000056,11.089139938000073],[8.896217346000071,11.10151004800008],[8.947367668000084,11.171939850000058],[8.982683182000073,11.195240021000075],[9.015304565000065,11.228940010000088],[9.032995224000047,11.256320000000073],[9.076297760000045,11.284540176000064],[9.097049713000047,11.291049957000041],[9.13336658500009,11.319040298000061],[9.14290046700006,11.331979752000052]]]}},{"type":"Feature","properties":{"CNTRY_NAME":"Nigeria","CNTRY_CODE":"NGA","ADM1_NAME":"Bauchi","ADM1_CODE":"NGA005","ADM2_NAME":"Shira","ADM2_CODE":"NGA005016","HRname":"Shira","HRpcode":"NG005016","HRparent":"NG005","Shape_Leng":1.54408650267,"Shape_Area":0.109424676523,"ADM2_New":"Shira","id":"NG-BA-SHIRA","name":"Shira","parentId":"NG-BA","stateName":"Bauchi","regionId":"NG-NE","fillColor":"#D4896A"},"geometry":{"type":"Polygon","coordinates":[[[10.087041855000052,11.711684227000092],[10.095165253000062,11.698102951000067],[10.099607468000045,11.673852921000048],[10.128767967000044,11.65505027800009],[10.150835037000093,11.631729126000039],[10.183135033000042,11.613655090000066],[10.177574158000084,11.60604476900005],[10.17501926400007,11.58649158500009],[10.18169879900006,11.551845551000042],[10.179034233000039,11.521924973000068],[10.221014977000038,11.493742943000086],[10.208992004000038,11.467397690000041],[10.186487198000066,11.449250221000057],[10.159381866000047,11.440377235000085],[10.116658211000072,11.398291588000063],[10.060413361000087,11.261534691000065],[10.03703975700006,11.262969971000075],[10.00092029600006,11.246410370000092],[9.99029254900006,11.25434017200007],[9.953306198000064,11.319529533000036],[9.920232773000066,11.346759796000072],[9.896819115000085,11.348797798000078],[9.879059792000078,11.364689827000063],[9.879503250000084,11.43377971600006],[9.883894920000046,11.46146011400009],[9.869602203000056,11.484319687000038],[9.848381996000057,11.497879982000086],[9.819328308000081,11.461479187000066],[9.797230721000062,11.462719917000072],[9.786523819000081,11.47871017500006],[9.777780533000055,11.530420303000085],[9.81837177300008,11.567749977000062],[9.81931209600009,11.58963966400006],[9.84265995000004,11.586095810000074],[9.88743972800006,11.60050487500007],[9.894643784000039,11.615390778000062],[9.924327850000054,11.646120071000041],[9.93512725800008,11.667873383000085],[9.945756912000093,11.673499107000055],[9.97980976100007,11.673067093000043],[10.011331558000052,11.655386925000073],[10.056232452000074,11.681315422000068],[10.087041855000052,11.711684227000092]]]}},{"type":"Feature","properties":{"CNTRY_NAME":"Nigeria","CNTRY_CODE":"NGA","ADM1_NAME":"Bauchi","ADM1_CODE":"NGA005","ADM2_NAME":"Tafawa-Balewa","ADM2_CODE":"NGA005017","HRname":"Tafawa-Balewa","HRpcode":"NG005017","HRparent":"NG005","Shape_Leng":3.27233323071,"Shape_Area":0.207295102235,"ADM2_New":"Tafawa-Balewa","id":"NG-BA-TAFAWA-BALEWA","name":"Tafawa-Balewa","parentId":"NG-BA","stateName":"Bauchi","regionId":"NG-NE","fillColor":"#9B8B72"},"geometry":{"type":"Polygon","coordinates":[[[9.49646186800004,10.15130233800005],[9.538772583000082,10.168287277000047],[9.605850220000093,10.181262016000062],[9.603648186000044,10.195115089000069],[9.580492020000065,10.226514816000076],[9.598288536000041,10.24357032800009],[9.637146950000044,10.25344657900007],[9.653331757000046,10.229047775000083],[9.658606529000053,10.172529221000048],[9.64532375300007,10.138135910000074],[9.632225037000069,10.121020317000045],[9.633179665000057,10.100270271000056],[9.723796844000049,10.006956100000082],[9.786743164000086,9.962380409000048],[9.82277965500009,9.927361488000088],[9.857628822000038,9.891204834000064],[9.90155601500004,9.824980736000043],[9.913225174000047,9.817919731000075],[9.928490639000074,9.817726135000044],[9.930717468000068,9.806177139000056],[9.96574783300008,9.773833275000072],[9.962291718000074,9.726954460000059],[9.99165630300007,9.645744324000077],[9.980644226000038,9.623262405000048],[9.962291718000074,9.61270999900006],[9.942104340000071,9.609039307000046],[9.906775475000074,9.611791611000058],[9.853553772000055,9.606744766000077],[9.816847801000051,9.593439102000048],[9.781454086000053,9.555940628000087],[9.781672478000075,9.593780518000074],[9.817593575000046,9.658993721000058],[9.815537453000047,9.686669350000045],[9.797005653000042,9.711097717000087],[9.757118225000056,9.715059280000048],[9.667054176000079,9.74961090100004],[9.601187706000076,9.740077019000069],[9.539037704000066,9.748929024000063],[9.522525787000063,9.742225647000055],[9.504729271000087,9.725170135000042],[9.450792313000079,9.622167587000092],[9.426638603000072,9.559109688000092],[9.409534454000038,9.528220177000037],[9.388731956000072,9.552008629000056],[9.369821548000061,9.559732437000036],[9.356342316000053,9.572319984000046],[9.335479736000082,9.578601837000065],[9.334165573000064,9.587930679000067],[9.32371902500006,9.599584579000066],[9.32014846800007,9.618462563000037],[9.297289848000048,9.624849319000077],[9.284580231000064,9.636112213000047],[9.294490814000085,9.673307419000082],[9.273303032000058,9.714838028000088],[9.261855125000068,9.71239852900004],[9.235825539000075,9.691938400000083],[9.20251464800009,9.703972816000089],[9.194288254000071,9.71518993400008],[9.152183533000084,9.744761467000046],[9.155795097000066,9.755951881000044],[9.212410927000064,9.781632423000076],[9.253554344000065,9.808555603000059],[9.267690659000039,9.836210251000068],[9.286266327000078,9.833930016000068],[9.328673363000064,9.846065521000071],[9.375922203000073,9.871964455000068],[9.393803596000055,9.89708328200004],[9.40103244800008,9.91427230800008],[9.399427414000058,9.921204567000075],[9.482079506000048,9.915549278000071],[9.530259132000083,9.918395042000043],[9.582964897000068,9.90556812300008],[9.613983154000039,9.950744629000042],[9.623779297000056,9.988638878000074],[9.616843224000093,9.999094963000061],[9.60632419600006,10.00383663200006],[9.562913895000065,10.007843018000074],[9.566582680000067,10.02162170400004],[9.576086044000078,10.031869888000074],[9.565834045000088,10.061953545000051],[9.58224964100009,10.059441566000089],[9.587189674000058,10.082420349000074],[9.516048431000058,10.129405022000071],[9.49646186800004,10.15130233800005]]]}},{"type":"Feature","properties":{"CNTRY_NAME":"Nigeria","CNTRY_CODE":"NGA","ADM1_NAME":"Bauchi","ADM1_CODE":"NGA005","ADM2_NAME":"Toro","ADM2_CODE":"NGA005018","HRname":"Toro","HRpcode":"NG005018","HRparent":"NG005","Shape_Leng":3.75777023612,"Shape_Area":0.572592533155,"ADM2_New":"Toro","id":"NG-BA-TORO","name":"Toro","parentId":"NG-BA","stateName":"Bauchi","regionId":"NG-NE","fillColor":"#A3C986"},"geometry":{"type":"Polygon","coordinates":[[[8.792169571000045,10.791371346000062],[8.821035385000073,10.817935944000055],[8.849412918000041,10.836009979000039],[8.877740860000074,10.849475861000087],[8.89771461500004,10.850374222000085],[8.934042931000079,10.84300231900005],[8.987777710000046,10.815823555000065],[9.044853210000042,10.771321297000043],[9.10359001200004,10.77288055400004],[9.15635681200007,10.765299797000068],[9.192843437000079,10.772901535000074],[9.227043152000078,10.786293030000081],[9.267210960000057,10.808824539000057],[9.355254173000048,10.805405617000076],[9.428130150000072,10.811394691000089],[9.470500946000072,10.820074081000087],[9.517713547000085,10.84251785300006],[9.593780518000074,10.861484528000062],[9.591691017000073,10.841580391000036],[9.574800491000076,10.799167633000081],[9.570255280000083,10.702450752000061],[9.590538979000087,10.621548653000048],[9.626296043000082,10.560035706000065],[9.648872375000053,10.362744331000044],[9.650661469000056,10.309726715000068],[9.643140793000043,10.264890671000046],[9.63358879100008,10.25003528600007],[9.598288536000041,10.24357032800009],[9.580492020000065,10.226514816000076],[9.603648186000044,10.195115089000069],[9.605850220000093,10.181262016000062],[9.538772583000082,10.168287277000047],[9.429141998000091,10.129353523000077],[9.395946503000062,10.09982109100008],[9.359818459000053,10.015025139000045],[9.359550476000038,9.989683151000065],[9.393129349000048,9.944326401000069],[9.40103244800008,9.91427230800008],[9.375922203000073,9.871964455000068],[9.328673363000064,9.846065521000071],[9.286266327000078,9.833930016000068],[9.267690659000039,9.836210251000068],[9.277712822000069,9.869473457000083],[9.286881447000042,9.879532814000072],[9.291314125000042,9.908687592000092],[9.27965068800006,9.95257091500008],[9.267312050000044,9.96939754500005],[9.25547027600004,10.017129898000064],[9.247065544000066,10.03221035000007],[9.217511177000063,10.046339989000046],[9.13666534400005,10.042090416000065],[9.058896065000056,10.01805973100005],[9.020439148000037,10.016349792000085],[8.997632980000049,10.009550095000066],[8.978225708000082,10.012550354000041],[8.95654010800007,10.023170471000071],[8.97816658000005,10.180500031000065],[8.973875999000086,10.189959526000052],[8.930326462000039,10.215049744000055],[8.935611725000058,10.267410278000057],[8.95386028300004,10.289460182000084],[8.954892159000053,10.308810234000077],[8.93571567500004,10.348500252000065],[8.898693085000048,10.35821437800007],[8.870192528000075,10.357634544000064],[8.828425407000054,10.37938022600008],[8.796814919000042,10.416778564000083],[8.739860535000048,10.42889404300007],[8.72906971000009,10.450925827000049],[8.735888481000075,10.465648651000038],[8.762154579000082,10.49144840200006],[8.77940368700007,10.562673569000083],[8.80020141600005,10.580889702000093],[8.822385788000076,10.613080025000045],[8.854420662000052,10.696880341000053],[8.85127830500005,10.720089912000049],[8.837984085000073,10.733639717000074],[8.821589470000049,10.769240379000053],[8.792169571000045,10.791371346000062]]]}},{"type":"Feature","properties":{"CNTRY_NAME":"Nigeria","CNTRY_CODE":"NGA","ADM1_NAME":"Bauchi","ADM1_CODE":"NGA005","ADM2_NAME":"Warji","ADM2_CODE":"NGA005019","HRname":"Warji","HRpcode":"NG005019","HRparent":"NG005","Shape_Leng":0.903360087868,"Shape_Area":0.0517599533811,"ADM2_New":"Warji","id":"NG-BA-WARJI","name":"Warji","parentId":"NG-BA","stateName":"Bauchi","regionId":"NG-NE","fillColor":"#8AAB76"},"geometry":{"type":"Polygon","coordinates":[[[9.62497806500005,11.252455711000039],[9.677638054000056,11.255169868000053],[9.72204589800009,11.263892174000091],[9.746643066000047,11.26290988900007],[9.801440239000044,11.285449982000046],[9.82253933000004,11.283399582000072],[9.865719795000075,11.18605995200005],[9.892939568000088,11.158749580000062],[9.858203888000048,11.121489525000072],[9.853726387000052,11.10186004600007],[9.854199409000046,11.056960106000076],[9.767718315000081,11.051332474000048],[9.683246613000051,11.059313774000088],[9.62112140700009,11.070469856000045],[9.59733867600005,11.153720856000064],[9.59759426100004,11.177910805000067],[9.62497806500005,11.252455711000039]]]}},{"type":"Feature","properties":{"CNTRY_NAME":"Nigeria","CNTRY_CODE":"NGA","ADM1_NAME":"Bauchi","ADM1_CODE":"NGA005","ADM2_NAME":"Zaki","ADM2_CODE":"NGA005020","HRname":"Zaki","HRpcode":"NG005020","HRparent":"NG005","Shape_Leng":2.26472874488,"Shape_Area":0.122591587591,"ADM2_New":"Zaki","id":"NG-BA-ZAKI","name":"Zaki","parentId":"NG-BA","stateName":"Bauchi","regionId":"NG-NE","fillColor":"#BFA882"},"geometry":{"type":"Polygon","coordinates":[[[10.348699570000065,12.46765995000004],[10.379010201000085,12.473261833000038],[10.42477989200006,12.470879555000067],[10.434530258000052,12.434149742000045],[10.439290047000043,12.427300453000043],[10.451029778000077,12.423990250000088],[10.491849899000044,12.439450264000072],[10.526539803000048,12.481320381000046],[10.577839851000078,12.502670288000047],[10.597049713000047,12.520150185000091],[10.61046981800007,12.521450043000073],[10.633199692000062,12.514300346000084],[10.64772987400005,12.49458026900004],[10.724386215000038,12.451649666000037],[10.726176262000081,12.380184174000078],[10.693077087000063,12.378314018000083],[10.639232635000042,12.395125389000043],[10.569684029000086,12.370660782000073],[10.540389061000042,12.376792908000084],[10.53473663300008,12.39760208100006],[10.527789116000065,12.40690612800006],[10.517232895000063,12.408192635000091],[10.480539322000084,12.381007195000052],[10.413364410000042,12.358817101000056],[10.313437462000081,12.23796367600005],[10.327127457000074,12.19977188100006],[10.347161293000056,12.206430435000073],[10.371796608000068,12.203815460000044],[10.385813713000061,12.196723938000048],[10.399709702000052,12.178114891000064],[10.405349731000058,12.156153679000056],[10.40274620100007,12.13199329400004],[10.377599716000077,12.086229324000044],[10.377429008000092,12.070101738000062],[10.379546165000079,12.04818630200009],[10.39334487900004,12.020360947000086],[10.395303726000066,11.983469963000061],[10.408700943000042,11.917632103000074],[10.345438004000073,11.932258606000062],[10.292646408000053,11.937536240000043],[10.26458454100009,11.949412346000088],[10.22119998900007,11.955722809000065],[10.202509880000036,11.965175629000044],[10.194436073000077,11.979103088000045],[10.19488620800007,12.021723747000067],[10.17440414400005,12.06258964500006],[10.174850464000087,12.075229645000093],[10.16160965000006,12.10960960400007],[10.165849686000058,12.15110969500006],[10.195400238000047,12.236669540000037],[10.241379738000091,12.317830086000072],[10.24415016200004,12.388099670000088],[10.256699562000051,12.419340134000038],[10.285659790000068,12.44962978400008],[10.348699570000065,12.46765995000004]]]}}]}