{"type":"FeatureCollection","features":[{"type":"Feature","properties":{"CNTRY_NAME":"Nigeria","CNTRY_CODE":"NGA","ADM1_NAME":"Cross River","ADM1_CODE":"NGA009","ADM2_NAME":"Abi","ADM2_CODE":"NGA009001","HRname":"Abi","HRpcode":"NG009001","HRparent":"NG009","Shape_Leng":0.720069990915,"Shape_Area":0.023021652967,"ADM2_New":"Abi","id":"NG-CR-ABI","name":"Abi","parentId":"NG-CR","stateName":"Cross River","regionId":"NG-SS","fillColor":"#6BA368"},"geometry":{"type":"Polygon","coordinates":[[[7.979247093000083,5.970290184000078],[7.986176968000052,5.9817228320000595],[8.060527802000081,6.0076179500000535],[8.088920593000068,5.9902009960000555],[8.113847733000057,5.938149929000076],[8.076771736000069,5.890398979000054],[8.075255394000067,5.839892864000092],[8.049611092000077,5.799735069000064],[8.037985802000037,5.806495190000078],[8.018568993000088,5.808703899000079],[7.986780167000063,5.770627022000042],[7.974238873000047,5.767120838000039],[7.9336357120000685,5.81987237900006],[7.93854045900008,5.834443569000086],[7.962603092000052,5.845448971000053],[7.974354744000038,5.876226425000084],[7.988903999000058,5.883873940000058],[7.994126797000092,5.897304535000046],[8.00613308000004,5.9035148620000655],[7.982346058000076,5.926640987000042],[7.982413769000061,5.935824871000079],[7.989309788000071,5.942666054000085],[7.979247093000083,5.970290184000078]]]}},{"type":"Feature","properties":{"CNTRY_NAME":"Nigeria","CNTRY_CODE":"NGA","ADM1_NAME":"Cross River","ADM1_CODE":"NGA009","ADM2_NAME":"Bekwara","ADM2_CODE":"NGA009005","HRname":"Bekwara","HRpcode":"NG009005","HRparent":"NG009","Shape_Leng":0.668562205904,"Shape_Area":0.0250107393951,"ADM2_New":"Bekwara","id":"NG-CR-BEKWARA","name":"Bekwara","parentId":"NG-CR","stateName":"Cross River","regionId":"NG-SS","fillColor":"#A8BF7A"},"geometry":{"type":"Polygon","coordinates":[[[8.92942619300004,6.820408821000058],[8.976742744000092,6.786611080000057],[8.991445541000076,6.769289017000062],[8.993591309000067,6.75090408300008],[8.968091965000042,6.697119236000049],[8.972613335000062,6.6913471220000815],[8.98973465000006,6.692377090000093],[8.987384796000072,6.683207989000039],[8.97120857200008,6.655766010000093],[8.972255707000045,6.643128872000091],[8.965343475000054,6.633992195000076],[8.884044647000053,6.594367981000062],[8.853233337000063,6.593431950000081],[8.84304237400005,6.603836060000049],[8.838768959000049,6.642899990000046],[8.816453934000037,6.710792065000078],[8.868039131000046,6.743731976000049],[8.92942619300004,6.820408821000058]]]}},{"type":"Feature","properties":{"CNTRY_NAME":"Nigeria","CNTRY_CODE":"NGA","ADM1_NAME":"Cross River","ADM1_CODE":"NGA009","ADM2_NAME":"Biase","ADM2_CODE":"NGA009006","HRname":"Biase","HRpcode":"NG009006","HRparent":"NG009","Shape_Leng":1.50624538483,"Shape_Area":0.107003843435,"ADM2_New":"Biase","id":"NG-CR-BIASE","name":"Biase","parentId":"NG-CR","stateName":"Cross River","regionId":"NG-SS","fillColor":"#B8956B"},"geometry":{"type":"Polygon","coordinates":[[[7.970076084000084,5.768326759000047],[7.986780167000063,5.770627022000042],[8.018568993000088,5.808703899000079],[8.048280716000079,5.801945210000042],[8.065582275000054,5.762944221000055],[8.091994286000045,5.7285819050000555],[8.119496346000062,5.70571994800008],[8.13103675800005,5.678186893000088],[8.157053947000065,5.6623201370000515],[8.166691780000065,5.619730949000086],[8.185119629000042,5.584184170000071],[8.194397926000079,5.552042007000068],[8.255450249000091,5.431632996000076],[8.26011085500005,5.410964966000051],[8.256749153000044,5.397157192000066],[8.218094826000083,5.362495899000066],[8.195416451000085,5.329059124000082],[8.187520027000062,5.308332920000055],[8.173879623000062,5.295626163000065],[8.154509544000064,5.287490845000093],[8.107737541000063,5.28037977200006],[8.04714870500004,5.29964113200009],[8.027690887000063,5.311046124000086],[8.02636528000005,5.351270199000055],[8.038743973000066,5.390407085000049],[8.042233467000074,5.423669815000039],[8.028280258000052,5.435822010000038],[8.015227318000086,5.462827682000068],[8.013426781000078,5.483082294000042],[8.019959450000044,5.504114151000067],[8.006177902000047,5.522440910000057],[7.914861202000054,5.520872116000078],[7.9079427720000695,5.535781860000043],[7.904579163000051,5.568675518000077],[7.917696953000075,5.64962005600006],[7.890100002000054,5.684799671000064],[7.886644840000088,5.700051785000085],[7.9082450870000685,5.719692230000078],[7.917224884000063,5.7530660630000625],[7.927452087000063,5.763457775000063],[7.949093819000041,5.773901939000041],[7.970076084000084,5.768326759000047]]]}},{"type":"Feature","properties":{"CNTRY_NAME":"Nigeria","CNTRY_CODE":"NGA","ADM1_NAME":"Cross River","ADM1_CODE":"NGA009","ADM2_NAME":"Calabar-Municipal","ADM2_CODE":"NGA009009","HRname":"Calabar-Municipal","HRpcode":"NG009009","HRparent":"NG009","Shape_Leng":0.520628987359,"Shape_Area":0.0115510838658,"ADM2_New":"Calabar-Municipal","id":"NG-CR-CALABAR-MUNICIPAL","name":"Calabar-Municipal","parentId":"NG-CR","stateName":"Cross River","regionId":"NG-SS","fillColor":"#D4C4A0"},"geometry":{"type":"Polygon","coordinates":[[[8.305556297000066,4.9583020210000655],[8.313494682000055,4.969831944000077],[8.301974297000072,4.992767811000078],[8.312116623000065,5.021550179000087],[8.333774567000091,5.028545856000051],[8.339449883000043,5.035469055000078],[8.334732056000064,5.068779945000074],[8.33810901600009,5.079141140000047],[8.34493255600006,5.08491897600004],[8.372297287000038,5.091940880000038],[8.406554222000068,5.08979988100009],[8.410041809000063,5.076023102000079],[8.387372971000048,5.040287018000072],[8.382944107000071,5.010381222000092],[8.400124550000044,4.99781703900004],[8.420687675000067,4.994462967000061],[8.425300598000092,4.984138966000046],[8.403679848000081,4.9690971370000625],[8.398103714000058,4.940336227000046],[8.391270638000037,4.936855793000063],[8.363837242000045,4.944777012000088],[8.355756760000077,4.939916134000043],[8.327297211000086,4.946907043000067],[8.305556297000066,4.9583020210000655]]]}},{"type":"Feature","properties":{"CNTRY_NAME":"Nigeria","CNTRY_CODE":"NGA","ADM1_NAME":"Cross River","ADM1_CODE":"NGA009","ADM2_NAME":"Ikom","ADM2_CODE":"NGA009011","HRname":"Ikom","HRpcode":"NG009011","HRparent":"NG009","Shape_Leng":2.08475137608,"Shape_Area":0.160293195776,"ADM2_New":"Ikom","id":"NG-CR-IKOM","name":"Ikom","parentId":"NG-CR","stateName":"Cross River","regionId":"NG-SS","fillColor":"#7CB087"},"geometry":{"type":"Polygon","coordinates":[[[8.503385544000082,6.362776756000073],[8.530937195000092,6.363735199000075],[8.577575684000067,6.34504413600007],[8.609510422000085,6.343676090000088],[8.676939011000059,6.3592848780000395],[8.703297615000054,6.375176907000082],[8.712542534000079,6.3911871910000855],[8.738366127000063,6.334752083000069],[8.756175995000092,6.274928093000085],[8.752447128000085,6.2336220740000385],[8.73245716100007,6.153391838000061],[8.793823242000087,6.120821953000075],[8.815355301000068,6.101156235000076],[8.836767197000086,6.065417767000042],[8.857259750000082,6.059535980000078],[8.844667435000076,6.053882122000061],[8.81125927000005,6.010484219000091],[8.799663544000055,5.985305786000083],[8.778992653000046,5.967079163000051],[8.768606186000056,5.9510769840000535],[8.742188454000086,5.927147865000052],[8.718128204000038,5.913537025000039],[8.712329865000072,5.900948048000089],[8.708668709000051,5.868825912000091],[8.702905655000052,5.860828876000085],[8.686856270000078,5.850605965000057],[8.657160759000078,5.846219063000092],[8.639971733000039,5.8360037800000555],[8.623769760000073,5.805117130000042],[8.612954140000056,5.7313838010000495],[8.53483867600005,5.745562077000045],[8.500587463000045,5.746553898000059],[8.48093414300007,5.761620998000069],[8.48567676500005,5.799179077000076],[8.46552562700009,5.8509831430000645],[8.464673996000045,5.8900241850000725],[8.466998100000069,5.895749092000074],[8.502517700000055,5.916170120000061],[8.502576828000088,5.924205780000079],[8.48455333700008,5.955328941000062],[8.540838242000063,6.006606102000092],[8.543205261000082,6.0180711750000455],[8.523955345000047,6.037721157000078],[8.485175133000041,6.062889576000089],[8.47364044200009,6.0941967960000625],[8.45824623100009,6.100171089000071],[8.453751564000072,6.109386921000066],[8.465950966000037,6.128799915000059],[8.466500282000084,6.138137341000061],[8.45826149000004,6.147474289000058],[8.445079803000056,6.148572922000085],[8.447277069000052,6.177134037000087],[8.434094429000083,6.205695152000089],[8.428052902000047,6.204047203000073],[8.426404953000088,6.209539890000087],[8.430250168000043,6.223820210000042],[8.446727753000062,6.233706951000045],[8.442882538000049,6.2479877470000815],[8.47721290600009,6.254736423000054],[8.478045464000047,6.259317398000064],[8.463379860000089,6.263165951000076],[8.459300995000092,6.269182682000064],[8.473114967000072,6.284353256000088],[8.486949921000075,6.287192345000051],[8.484247208000056,6.291087627000081],[8.493017197000086,6.300247192000086],[8.493750572000067,6.3200306890000775],[8.510602951000067,6.322228432000088],[8.49887943300007,6.335783958000093],[8.499950409000064,6.3404273990000775],[8.514633179000043,6.346408367000038],[8.514633179000043,6.3522701260000645],[8.50657272300009,6.353735447000076],[8.503385544000082,6.362776756000073]]]}},{"type":"Feature","properties":{"CNTRY_NAME":"Nigeria","CNTRY_CODE":"NGA","ADM1_NAME":"Cross River","ADM1_CODE":"NGA009","ADM2_NAME":"Obubra","ADM2_CODE":"NGA009013","HRname":"Obubra","HRpcode":"NG009013","HRparent":"NG009","Shape_Leng":1.75909469556,"Shape_Area":0.0910869208622,"ADM2_New":"Obubra","id":"NG-CR-OBUBRA","name":"Obubra","parentId":"NG-CR","stateName":"Cross River","regionId":"NG-SS","fillColor":"#5E9E78"},"geometry":{"type":"Polygon","coordinates":[[[8.41090011600005,6.28211641300004],[8.431113243000084,6.287498951000089],[8.473114967000072,6.284353256000088],[8.459300995000092,6.269182682000064],[8.463379860000089,6.263165951000076],[8.478045464000047,6.259317398000064],[8.47721290600009,6.254736423000054],[8.442882538000049,6.2479877470000815],[8.446727753000062,6.233706951000045],[8.430250168000043,6.223820210000042],[8.426404953000088,6.209539890000087],[8.428052902000047,6.204047203000073],[8.434094429000083,6.205695152000089],[8.447277069000052,6.177134037000087],[8.445079803000056,6.148572922000085],[8.45826149000004,6.147474289000058],[8.466500282000084,6.138137341000061],[8.465950966000037,6.128799915000059],[8.453751564000072,6.109386921000066],[8.45824623100009,6.100171089000071],[8.47364044200009,6.0941967960000625],[8.485175133000041,6.062889576000089],[8.53756046300009,6.026145935000045],[8.543162346000088,6.012331009000093],[8.48455333700008,5.955328941000062],[8.502576828000088,5.924205780000079],[8.502517700000055,5.916170120000061],[8.466998100000069,5.895749092000074],[8.464673996000045,5.8900241850000725],[8.46552562700009,5.8509831430000645],[8.48567676500005,5.799179077000076],[8.48093414300007,5.761620998000069],[8.43411636400009,5.803719044000047],[8.41361141200008,5.794428825000068],[8.338214874000073,5.742806911000059],[8.271666527000093,5.863799095000047],[8.267137527000045,5.868422985000052],[8.25341415400004,5.8639249800000925],[8.244304657000043,5.866282940000076],[8.230716705000077,5.880154133000076],[8.228546143000074,5.895093918000043],[8.241230965000057,5.913376808000066],[8.24014186900007,5.920272827000076],[8.229958534000048,5.931824207000091],[8.187875748000067,5.949336052000092],[8.172950745000037,5.97377061800006],[8.214842796000084,6.012228012000037],[8.244793892000075,6.017953873000067],[8.252722740000081,6.012228012000037],[8.258448601000055,5.998132706000092],[8.263733864000073,5.996811390000062],[8.28223323800006,6.004739761000053],[8.288840294000067,6.0457034110000905],[8.298229218000074,6.067536831000041],[8.302002907000087,6.108136177000063],[8.33126926400007,6.135334015000069],[8.339442253000072,6.153043747000083],[8.362339020000093,6.176262379000093],[8.371229172000085,6.196636677000072],[8.40074539200009,6.216616631000079],[8.405285835000086,6.237050533000058],[8.418000221000057,6.261117458000058],[8.41090011600005,6.28211641300004]]]}},{"type":"Feature","properties":{"CNTRY_NAME":"Nigeria","CNTRY_CODE":"NGA","ADM1_NAME":"Cross River","ADM1_CODE":"NGA009","ADM2_NAME":"Obudu","ADM2_CODE":"NGA009014","HRname":"Obudu","HRpcode":"NG009014","HRparent":"NG009","Shape_Leng":0.969816159093,"Shape_Area":0.0370794174121,"ADM2_New":"Obudu","id":"NG-CR-OBUDU","name":"Obudu","parentId":"NG-CR","stateName":"Cross River","regionId":"NG-SS","fillColor":"#94B86A"},"geometry":{"type":"Polygon","coordinates":[[[9.129057884000076,6.675518036000085],[9.175674438000044,6.6887998580000385],[9.182306290000042,6.66005182300006],[9.179862976000038,6.638255119000064],[9.174081802000046,6.627962112000091],[9.126873016000047,6.569734097000037],[9.108372688000088,6.536565781000093],[9.11939811700006,6.484826088000091],[9.141900063000037,6.4421911240000895],[9.08245658900006,6.426527023000062],[9.037981033000051,6.429129124000042],[8.991445541000076,6.461596012000086],[8.961817741000061,6.466392994000046],[8.940209389000074,6.475727081000059],[8.932879448000051,6.487834930000076],[8.966789246000076,6.5214681630000655],[8.994561195000074,6.574089050000055],[8.997098923000067,6.6085147860000575],[8.991513252000061,6.624627113000088],[8.974504471000046,6.638521194000077],[8.971147537000093,6.647728920000077],[8.97120857200008,6.655766010000093],[8.99201583900009,6.692360878000045],[9.027075768000088,6.65078783000007],[9.047559738000075,6.643758774000048],[9.070367813000075,6.642453194000041],[9.129057884000076,6.675518036000085]]]}},{"type":"Feature","properties":{"CNTRY_NAME":"Nigeria","CNTRY_CODE":"NGA","ADM1_NAME":"Cross River","ADM1_CODE":"NGA009","ADM2_NAME":"Ogoja","ADM2_CODE":"NGA009016","HRname":"Ogoja","HRpcode":"NG009016","HRparent":"NG009","Shape_Leng":1.69280867252,"Shape_Area":0.0795475337072,"ADM2_New":"Ogoja","id":"NG-CR-OGOJA","name":"Ogoja","parentId":"NG-CR","stateName":"Cross River","regionId":"NG-SS","fillColor":"#72A898"},"geometry":{"type":"Polygon","coordinates":[[[8.815331459000049,6.71309614200004],[8.838768959000049,6.642899990000046],[8.84304237400005,6.603836060000049],[8.853233337000063,6.593431950000081],[8.893197060000091,6.597749233000059],[8.950443268000072,6.6249098780000395],[8.972255707000045,6.643128872000091],[8.991513252000061,6.624627113000088],[8.99817085300009,6.599322796000081],[8.994561195000074,6.574089050000055],[8.97832584400004,6.538609982000082],[8.950673103000042,6.5020608900000525],[8.932879448000051,6.487834930000076],[8.888982773000066,6.4910049440000535],[8.854850769000052,6.503869057000088],[8.82912254300004,6.572933197000054],[8.814325333000056,6.577627182000072],[8.77977657300005,6.534235954000053],[8.765524864000042,6.458559990000083],[8.75515461000009,6.444853783000042],[8.733368874000064,6.430078983000044],[8.711342812000055,6.383158207000065],[8.695269585000062,6.369492054000091],[8.662074089000043,6.354794979000076],[8.596952438000073,6.342614174000062],[8.573020935000045,6.346222878000049],[8.542328835000092,6.361360073000071],[8.505830765000042,6.3627600670000675],[8.495724678000045,6.384643078000067],[8.493604660000074,6.406472206000046],[8.469927788000064,6.444521904000055],[8.490591049000045,6.461600780000083],[8.529294014000072,6.449853897000082],[8.545309067000062,6.45548391300008],[8.54313755000004,6.470424175000062],[8.521742821000089,6.508459091000077],[8.527565956000046,6.524491787000045],[8.535586357000057,6.529029846000071],[8.585757256000079,6.525239944000077],[8.601763725000069,6.52972221400006],[8.627015114000073,6.550213814000074],[8.663828850000073,6.591291904000059],[8.691319466000039,6.606028080000044],[8.715438843000072,6.627676010000073],[8.745313644000078,6.656173229000046],[8.766053200000044,6.683585167000047],[8.807276726000055,6.703967094000063],[8.815331459000049,6.71309614200004]]]}},{"type":"Feature","properties":{"CNTRY_NAME":"Nigeria","CNTRY_CODE":"NGA","ADM1_NAME":"Cross River","ADM1_CODE":"NGA009","ADM2_NAME":"Yakurr","ADM2_CODE":"NGA009017","HRname":"Yakurr","HRpcode":"NG009017","HRparent":"NG009","Shape_Leng":0.942814372286,"Shape_Area":0.054703189415,"ADM2_New":"Yakurr","id":"NG-CR-YAKURR","name":"Yakurr","parentId":"NG-CR","stateName":"Cross River","regionId":"NG-SS","fillColor":"#D4896A"},"geometry":{"type":"Polygon","coordinates":[[[8.113847733000057,5.938149929000076],[8.153177261000053,5.967300415000068],[8.172950745000037,5.97377061800006],[8.192413330000079,5.945859909000092],[8.229958534000048,5.931824207000091],[8.241256714000087,5.916821003000052],[8.228546143000074,5.895093918000043],[8.230716705000077,5.880154133000076],[8.244304657000043,5.866282940000076],[8.25341415400004,5.8639249800000925],[8.267137527000045,5.868422985000052],[8.271666527000093,5.863799095000047],[8.338214874000073,5.742806911000059],[8.28276062000009,5.700725079000051],[8.226977348000048,5.667133808000074],[8.16764545400008,5.661115170000073],[8.13791847200008,5.671322823000082],[8.119496346000062,5.70571994800008],[8.091994286000045,5.7285819050000555],[8.065582275000054,5.762944221000055],[8.049611092000077,5.799735069000064],[8.075255394000067,5.839892864000092],[8.076771736000069,5.890398979000054],[8.113847733000057,5.938149929000076]]]}},{"type":"Feature","properties":{"CNTRY_NAME":"Nigeria","CNTRY_CODE":"NGA","ADM1_NAME":"Cross River","ADM1_CODE":"NGA009","ADM2_NAME":"Yala","ADM2_CODE":"NGA009018","HRname":"Yala","HRpcode":"NG009018","HRparent":"NG009","Shape_Leng":2.42400496498,"Shape_Area":0.142296289039,"ADM2_New":"Yala","id":"NG-CR-YALA","name":"Yala","parentId":"NG-CR","stateName":"Cross River","regionId":"NG-SS","fillColor":"#9B8B72"},"geometry":{"type":"Polygon","coordinates":[[[8.60895538300008,6.859628677000046],[8.654446602000064,6.864604950000057],[8.66932010700009,6.87024402600008],[8.70374202700009,6.896412849000058],[8.720853806000093,6.896295071000054],[8.776695251000092,6.8878741260000425],[8.839305878000062,6.869072914000071],[8.92942619300004,6.820408821000058],[8.868039131000046,6.743731976000049],[8.815331459000049,6.71309614200004],[8.807276726000055,6.703967094000063],[8.766053200000044,6.683585167000047],[8.745313644000078,6.656173229000046],[8.715438843000072,6.627676010000073],[8.691319466000039,6.606028080000044],[8.663828850000073,6.591291904000059],[8.608642578000058,6.534266949000084],[8.585757256000079,6.525239944000077],[8.535586357000057,6.529029846000071],[8.527565956000046,6.524491787000045],[8.521742821000089,6.508459091000077],[8.54313755000004,6.470424175000062],[8.545309067000062,6.45548391300008],[8.529294014000072,6.449853897000082],[8.490591049000045,6.461600780000083],[8.469927788000064,6.444521904000055],[8.493604660000074,6.406472206000046],[8.504374504000054,6.356300354000041],[8.512068748000047,6.353735447000076],[8.514633179000043,6.346408367000038],[8.497990608000066,6.3378529550000735],[8.510602951000067,6.322228432000088],[8.493750572000067,6.3200306890000775],[8.493017197000086,6.300247192000086],[8.483611107000058,6.28500652300005],[8.431113243000084,6.287498951000089],[8.41090011600005,6.28211641300004],[8.394387245000075,6.296990871000048],[8.391663551000079,6.306527138000092],[8.399155617000076,6.35375261300004],[8.407329559000061,6.374640942000042],[8.445018768000068,6.385539055000038],[8.447743416000037,6.39189624800008],[8.444110870000088,6.402340412000058],[8.45364666000006,6.405973434000089],[8.456825256000059,6.428223610000089],[8.43230438200004,6.433218956000076],[8.43185043300008,6.439576149000061],[8.438661575000083,6.446841717000041],[8.423676491000037,6.466367722000086],[8.422768593000058,6.477719784000044],[8.40869140600006,6.477719784000044],[8.40596675900008,6.484985352000081],[8.412323952000065,6.500424385000088],[8.42049789400005,6.5054197310000745],[8.419136047000052,6.514501572000086],[8.390981674000045,6.523128986000074],[8.400063515000056,6.536297798000078],[8.391436577000093,6.550374985000076],[8.375088692000077,6.545834064000076],[8.371456146000071,6.548104286000068],[8.37418079400004,6.563543320000065],[8.358741760000044,6.563997746000041],[8.351929665000057,6.5744419100000755],[8.340123177000066,6.575349808000055],[8.330133438000075,6.591697216000057],[8.324751854000056,6.5894994740000925],[8.32195949600009,6.603049755000086],[8.31424045600005,6.607136250000053],[8.324230194000052,6.621213436000062],[8.322414398000092,6.634381771000051],[8.309245110000063,6.639377117000038],[8.304704666000077,6.650729179000052],[8.306520462000037,6.660719395000058],[8.294514656000047,6.67870903000005],[8.32106590300009,6.678613186000064],[8.361105919000067,6.693262100000084],[8.374897957000087,6.706943989000081],[8.393416405000039,6.742407799000091],[8.419765472000051,6.757152081000072],[8.435746193000057,6.758190155000079],[8.450499535000063,6.74775505100007],[8.46874523200006,6.746480942000062],[8.508768082000074,6.758834839000087],[8.54413414000004,6.758592129000078],[8.578411102000075,6.765244007000092],[8.620740891000082,6.781025887000055],[8.636840820000089,6.798137188000055],[8.641556740000055,6.818769932000066],[8.601857185000085,6.850042820000056],[8.60895538300008,6.859628677000046]]]}},{"type":"Feature","properties":{"CNTRY_NAME":"Nigeria","CNTRY_CODE":"NGA","ADM1_NAME":"Cross River","ADM1_CODE":"NGA009","ADM2_NAME":"Obanliku","ADM2_CODE":"NGA009012","HRname":"Obanliku","HRpcode":"NG009012","HRparent":"NG009","Shape_Leng":1.42421435191,"Shape_Area":0.0852462590903,"ADM2_New":"Obanliku","id":"NG-CR-OBANLIKU","name":"Obanliku","parentId":"NG-CR","stateName":"Cross River","regionId":"NG-SS","fillColor":"#C9B896"},"geometry":{"type":"Polygon","coordinates":[[[9.300264359000039,6.720088959000066],[9.361248016000047,6.635858059000043],[9.402062416000092,6.601133823000055],[9.438195229000087,6.550367832000063],[9.471092224000074,6.524884224000061],[9.474411964000069,6.511083126000074],[9.46565868500005,6.455076759000065],[9.457685894000065,6.4326051970000435],[9.45776427700008,6.41321860700009],[9.451281171000062,6.386753332000069],[9.445104747000073,6.382163371000047],[9.44590654500007,6.368711738000059],[9.432943713000043,6.315780481000047],[9.347522662000074,6.353660828000045],[9.343453686000089,6.3505520770000885],[9.34372738400009,6.330351281000048],[9.334582794000085,6.320400537000069],[9.338501722000046,6.313935710000067],[9.334133972000075,6.291918851000048],[9.32355189000009,6.278611717000047],[9.30183029200009,6.315946102000055],[9.300280571000087,6.414693832000069],[9.27551460300009,6.459640980000074],[9.245988846000046,6.478212833000043],[9.211806297000066,6.484189034000053],[9.16476726500008,6.448922157000084],[9.141900063000037,6.4421911240000895],[9.11939811700006,6.484826088000091],[9.108287811000082,6.525085926000088],[9.108372688000088,6.536565781000093],[9.126873016000047,6.569734097000037],[9.179862976000038,6.638255119000064],[9.181292534000079,6.677280903000053],[9.175674438000044,6.6887998580000385],[9.255754471000046,6.718100071000038],[9.300264359000039,6.720088959000066]]]}},{"type":"Feature","properties":{"CNTRY_NAME":"Nigeria","CNTRY_CODE":"NGA","ADM1_NAME":"Cross River","ADM1_CODE":"NGA009","ADM2_NAME":"Boki","ADM2_CODE":"NGA009007","HRname":"Boki","HRpcode":"NG009007","HRparent":"NG009","Shape_Leng":2.04069511469,"Shape_Area":0.222573562365,"ADM2_New":"Boki","id":"NG-CR-BOKI","name":"Boki","parentId":"NG-CR","stateName":"Cross River","regionId":"NG-SS","fillColor":"#6AADA3"},"geometry":{"type":"Polygon","coordinates":[[[8.932879448000051,6.487834930000076],[8.940209389000074,6.475727081000059],[8.961817741000061,6.466392994000046],[8.991445541000076,6.461596012000086],[9.037981033000051,6.429129124000042],[9.063062668000043,6.426660061000064],[9.098445892000086,6.428712845000064],[9.160186768000074,6.446657181000091],[9.211806297000066,6.484189034000053],[9.239160538000078,6.48055601100009],[9.263040543000045,6.470058918000063],[9.28680324600009,6.443489075000059],[9.300280571000087,6.414693832000069],[9.30183029200009,6.315946102000055],[9.323233604000052,6.279058933000044],[9.308909825000057,6.264790700000049],[9.26475251700009,6.184536589000061],[9.169592280000074,6.129846917000066],[9.15441377600007,6.093796470000086],[8.989403035000066,5.953102020000074],[8.979831696000076,5.972583771000075],[8.948126793000085,6.004950047000079],[8.87888431500005,6.052497864000088],[8.836767197000086,6.065417767000042],[8.805164337000065,6.111558914000057],[8.739259720000064,6.147604942000044],[8.731358528000044,6.159140110000067],[8.744172096000057,6.194643021000047],[8.757214546000057,6.261143208000078],[8.756175995000092,6.274928093000085],[8.738366127000063,6.334752083000069],[8.712542534000079,6.3911871910000855],[8.733368874000064,6.430078983000044],[8.75515461000009,6.444853783000042],[8.765524864000042,6.458559990000083],[8.773723602000075,6.487205982000091],[8.776268959000049,6.522778988000084],[8.785566330000051,6.545678139000074],[8.814325333000056,6.577627182000072],[8.823443413000064,6.576416016000053],[8.834741592000057,6.561412811000082],[8.843604088000063,6.525760174000084],[8.854850769000052,6.503869057000088],[8.888982773000066,6.4910049440000535],[8.932879448000051,6.487834930000076]]]}},{"type":"Feature","properties":{"CNTRY_NAME":"Nigeria","CNTRY_CODE":"NGA","ADM1_NAME":"Cross River","ADM1_CODE":"NGA009","ADM2_NAME":"Etung","ADM2_CODE":"NGA009010","HRname":"Etung","HRpcode":"NG009010","HRparent":"NG009","Shape_Leng":1.29749226822,"Shape_Area":0.0692744282399,"ADM2_New":"Etung","id":"NG-CR-ETUNG","name":"Etung","parentId":"NG-CR","stateName":"Cross River","regionId":"NG-SS","fillColor":"#688EB5"},"geometry":{"type":"Polygon","coordinates":[[[8.989403035000066,5.953102020000074],[8.940801800000088,5.911662754000076],[8.92562762600005,5.903816671000072],[8.913310290000084,5.903568213000085],[8.914051285000085,5.890889241000082],[8.903562094000051,5.862026556000046],[8.883511485000042,5.859309321000069],[8.859375065000052,5.844601968000063],[8.85740807500008,5.830442334000054],[8.842088339000043,5.826738125000077],[8.850616728000091,5.804145020000078],[8.865208304000078,5.798128451000082],[8.87381180300008,5.803568846000076],[8.883713129000057,5.795580681000047],[8.883884211000066,5.775960577000092],[8.882381897000073,5.769350496000072],[8.873694243000045,5.768637457000068],[8.868224848000068,5.758888896000087],[8.86906211300004,5.75052228800007],[8.875118009000062,5.751946002000068],[8.87486866800009,5.746172852000086],[8.868273113000043,5.730609110000046],[8.864680354000086,5.734540672000037],[8.861300395000058,5.72182231700009],[8.85361658100004,5.718222681000043],[8.85541515300008,5.707471788000078],[8.842011329000059,5.698892286000046],[8.835076450000088,5.706587801000069],[8.834836126000084,5.692788979000056],[8.77477932000005,5.698390007000057],[8.612954140000056,5.7313838010000495],[8.623769760000073,5.805117130000042],[8.639971733000039,5.8360037800000555],[8.657160759000078,5.846219063000092],[8.686856270000078,5.850605965000057],[8.702905655000052,5.860828876000085],[8.708668709000051,5.868825912000091],[8.71467113500006,5.9089679720000845],[8.754813194000064,5.937395096000046],[8.799663544000055,5.985305786000083],[8.81125927000005,6.010484219000091],[8.844667435000076,6.053882122000061],[8.857259750000082,6.059535980000078],[8.900466919000053,6.039721012000086],[8.969657898000037,5.985282898000094],[8.989403035000066,5.953102020000074]]]}},{"type":"Feature","properties":{"CNTRY_NAME":"Nigeria","CNTRY_CODE":"NGA","ADM1_NAME":"Cross River","ADM1_CODE":"NGA009","ADM2_NAME":"Akamkpa","ADM2_CODE":"NGA009002","HRname":"Akamkpa","HRpcode":"NG009002","HRparent":"NG009","Shape_Leng":2.76935744053,"Shape_Area":0.413824538916,"ADM2_New":"Akamkpa","id":"NG-CR-AKAMKPA","name":"Akamkpa","parentId":"NG-CR","stateName":"Cross River","regionId":"NG-SS","fillColor":"#C4A574"},"geometry":{"type":"Polygon","coordinates":[[[8.48093414300007,5.761620998000069],[8.49143409700008,5.751109123000049],[8.510871887000064,5.744301796000059],[8.53483867600005,5.745562077000045],[8.77477932000005,5.698390007000057],[8.834836126000084,5.692788979000056],[8.839392961000044,5.679470480000077],[8.854340757000045,5.670893633000048],[8.891128166000044,5.628097376000085],[8.90020869500006,5.625849282000047],[8.914172069000074,5.592362552000054],[8.914844475000052,5.568283604000044],[8.919431089000057,5.569433151000055],[8.921581866000054,5.563976159000049],[8.913316657000053,5.560719781000046],[8.893448678000084,5.517345490000082],[8.873722180000073,5.49618268100005],[8.866465619000053,5.4739689840000665],[8.842489508000085,5.454671180000048],[8.843303330000083,5.447969460000081],[8.833706651000057,5.430063152000059],[8.83992584400005,5.394353064000086],[8.83192004500006,5.325943152000093],[8.815634758000044,5.2832733650000705],[8.812954456000057,5.237139324000054],[8.821154955000054,5.184737346000077],[8.78237163700004,5.11281701300004],[8.749397116000068,5.102141664000044],[8.742135161000078,5.08501287100006],[8.727602095000066,5.075241177000066],[8.719805162000057,5.055239669000059],[8.723819525000067,5.045080732000088],[8.70847040600006,5.021234194000044],[8.69701619500006,5.015807573000075],[8.694191667000041,5.007584393000059],[8.683812903000046,4.99996795900006],[8.693874625000092,4.996454206000067],[8.69238185900008,4.993413925000084],[8.57598304700008,4.98483181000006],[8.558833122000067,4.990499973000055],[8.534908295000093,4.9800457950000805],[8.517780304000041,4.981116772000064],[8.50061035200008,4.991382122000061],[8.489127159000077,5.006271839000078],[8.46604919400005,5.060188770000082],[8.43743801100004,5.076148987000067],[8.430532455000048,5.088760853000053],[8.428158760000088,5.108290195000052],[8.40073585500005,5.113912106000043],[8.38813209500006,5.1241979600000604],[8.377758980000067,5.1459889410000415],[8.357110977000048,5.167734146000043],[8.29988288900006,5.200804234000088],[8.270171165000079,5.207562923000069],[8.174083710000048,5.250800133000041],[8.159202576000041,5.259926796000059],[8.139691353000046,5.282824993000077],[8.139670372000069,5.287423134000051],[8.154509544000064,5.287490845000093],[8.173879623000062,5.295626163000065],[8.187520027000062,5.308332920000055],[8.195416451000085,5.329059124000082],[8.218094826000083,5.362495899000066],[8.256749153000044,5.397157192000066],[8.26011085500005,5.410964966000051],[8.255450249000091,5.431632996000076],[8.21399307300004,5.5107531550000886],[8.194397926000079,5.552042007000068],[8.185119629000042,5.584184170000071],[8.170158386000082,5.610550880000062],[8.156266212000048,5.653016090000051],[8.157053947000065,5.6623201370000515],[8.212148666000076,5.664766788000065],[8.24292278300004,5.675253868000084],[8.431833267000059,5.80370903000005],[8.444417000000044,5.798018932000048],[8.48093414300007,5.761620998000069]]]}},{"type":"Feature","properties":{"CNTRY_NAME":"Nigeria","CNTRY_CODE":"NGA","ADM1_NAME":"Cross River","ADM1_CODE":"NGA009","ADM2_NAME":"Odukpani","ADM2_CODE":"NGA009015","HRname":"Odukpani","HRpcode":"NG009015","HRparent":"NG009","Shape_Leng":2.34907713559,"Shape_Area":0.110465691545,"ADM2_New":"Odukpani","id":"NG-CR-ODUKPANI","name":"Odukpani","parentId":"NG-CR","stateName":"Cross River","regionId":"NG-SS","fillColor":"#C2A882"},"geometry":{"type":"Polygon","coordinates":[[[8.139670372000069,5.287423134000051],[8.144293785000059,5.274800777000053],[8.174083710000048,5.250800133000041],[8.270171165000079,5.207562923000069],[8.29988288900006,5.200804234000088],[8.357110977000048,5.167734146000043],[8.377758980000067,5.1459889410000415],[8.38813209500006,5.1241979600000604],[8.407589912000049,5.112792969000054],[8.400835991000065,5.092072964000067],[8.372297287000038,5.091940880000038],[8.34493255600006,5.08491897600004],[8.33810901600009,5.079141140000047],[8.334732056000064,5.068779945000074],[8.339449883000043,5.035469055000078],[8.333774567000091,5.028545856000051],[8.312116623000065,5.021550179000087],[8.303105354000081,4.9950709340000685],[8.30315208400009,4.9847269060000485],[8.313494682000055,4.969831944000077],[8.311237335000044,4.964075089000062],[8.262763023000048,4.904217243000062],[8.259518623000076,4.883510113000057],[8.272073529000068,4.846117220000053],[8.262868576000074,4.83815698300009],[8.230303764000041,4.860188484000048],[8.207357407000075,4.908302307000042],[8.171456337000052,4.93346977200008],[8.149250031000065,4.939391613000055],[8.128153801000053,4.968999863000079],[8.122232437000093,4.99416732800006],[8.10002613100005,5.033398628000043],[8.09928607900008,5.107050419000075],[8.064866066000093,5.145171165000079],[8.065328598000065,5.198836803000063],[8.034794807000083,5.243249893000041],[8.016752243000042,5.246951103000072],[7.992694855000082,5.206701756000086],[7.976094246000059,5.208294392000084],[7.966410160000066,5.231453896000062],[7.940071106000062,5.2497229580000635],[7.9296970370000395,5.285070896000093],[7.912880898000083,5.303979874000049],[7.892114162000041,5.316510201000085],[7.862884998000084,5.315118790000042],[7.842617035000046,5.33515596400008],[7.84198617900006,5.340921879000064],[7.848832130000062,5.344439983000086],[7.89939022100009,5.334459782000067],[7.9033169750000525,5.3431491850000725],[7.880370140000082,5.366795540000055],[7.9726982120000685,5.354471207000074],[7.982965946000093,5.355668068000057],[7.987501144000078,5.362585068000044],[7.956337929000085,5.437153816000091],[7.934503078000091,5.469237804000045],[7.914861202000054,5.520872116000078],[7.973062992000052,5.524588108000046],[8.010754585000086,5.520163059000083],[8.019959450000044,5.504114151000067],[8.013426781000078,5.483082294000042],[8.015227318000086,5.462827682000068],[8.028280258000052,5.435822010000038],[8.042233467000074,5.423669815000039],[8.038743973000066,5.390407085000049],[8.02636528000005,5.351270199000055],[8.025391579000086,5.314484119000042],[8.035712242000045,5.304185867000058],[8.107737541000063,5.28037977200006],[8.139670372000069,5.287423134000051]]]}},{"type":"Feature","properties":{"CNTRY_NAME":"Nigeria","CNTRY_CODE":"NGA","ADM1_NAME":"Cross River","ADM1_CODE":"NGA009","ADM2_NAME":"Calabar South","ADM2_CODE":"NGA009008","HRname":"Calabar South","HRpcode":"NG009008","HRparent":"NG009","Shape_Leng":0.660108193489,"Shape_Area":0.0143811443652,"ADM2_New":"Calabar South","id":"NG-CR-CALABAR-SOUTH","name":"Calabar South","parentId":"NG-CR","stateName":"Cross River","regionId":"NG-SS","fillColor":"#8FAF6E"},"geometry":{"type":"MultiPolygon","coordinates":[[[[8.305131913000082,4.796167851000064],[8.295488357000067,4.797267914000088],[8.283942223000054,4.810780049000073],[8.279273987000067,4.825246811000056],[8.283135414000071,4.832397938000042],[8.296721458000093,4.823728085000084],[8.306665421000048,4.809517861000074],[8.308994294000058,4.80331897700006],[8.305131913000082,4.796167851000064]]],[[[8.381374359000063,4.86287784600006],[8.38487243700007,4.857153893000088],[8.395684242000073,4.857471943000064],[8.40268039700004,4.849204063000059],[8.411498764000044,4.819928388000051],[8.400288198000055,4.784349091000081],[8.393744469000069,4.788571834000038],[8.375901222000039,4.778359890000047],[8.333291053000039,4.808044910000092],[8.338225364000039,4.829235077000078],[8.324010848000057,4.826859951000074],[8.300243378000062,4.85111999500009],[8.272073529000068,4.846117220000053],[8.259518623000076,4.883510113000057],[8.262763023000048,4.904217243000062],[8.305556297000066,4.9583020210000655],[8.327297211000086,4.946907043000067],[8.355756760000077,4.939916134000043],[8.347031593000054,4.894677639000065],[8.350528717000088,4.887045383000043],[8.381374359000063,4.86287784600006]]]]}},{"type":"Feature","properties":{"CNTRY_NAME":"Nigeria","CNTRY_CODE":"NGA","ADM1_NAME":"Cross River","ADM1_CODE":"NGA009","ADM2_NAME":"Akpabuyo","ADM2_CODE":"NGA009003","HRname":"Akpabuyo","HRpcode":"NG009003","HRparent":"NG009","Shape_Leng":1.59608659708,"Shape_Area":0.0656626621024,"ADM2_New":"Akpabuyo","id":"NG-CR-AKPABUYO","name":"Akpabuyo","parentId":"NG-CR","stateName":"Cross River","regionId":"NG-SS","fillColor":"#5B8FA8"},"geometry":{"type":"Polygon","coordinates":[[[8.493724823000093,4.9993958470000734],[8.523498535000044,4.978844166000044],[8.558833122000067,4.990499973000055],[8.57598304700008,4.98483181000006],[8.69238185900008,4.993413925000084],[8.697960471000044,4.98651086600006],[8.68131592900005,4.981117507000079],[8.68035307100007,4.973361921000048],[8.666790154000068,4.963194571000088],[8.66919340000004,4.953717305000055],[8.658852380000042,4.944484910000085],[8.65174180200006,4.946422298000073],[8.648478106000084,4.93581802500006],[8.652104729000087,4.916275954000071],[8.641217062000067,4.9088878540000564],[8.622795845000041,4.907640202000039],[8.60608772900008,4.887233212000069],[8.604269185000078,4.868755044000068],[8.62640370400004,4.845937953000089],[8.63041249400004,4.827590998000062],[8.592949245000057,4.803758420000065],[8.576611074000084,4.802850297000077],[8.565898336000089,4.817522091000058],[8.553808722000042,4.8141800380000745],[8.53866501300007,4.792152825000073],[8.52673360500006,4.752381468000067],[8.532496453000078,4.713124752000056],[8.51946163200006,4.705008984000074],[8.508895874000075,4.707026958000085],[8.509645462000037,4.695528984000077],[8.489021302000083,4.690596104000065],[8.459830284000077,4.700801849000072],[8.466358185000047,4.724759102000064],[8.474833488000058,4.727332115000081],[8.478456498000071,4.736550808000061],[8.461598397000046,4.757170201000065],[8.450921058000063,4.736874103000048],[8.441510201000085,4.737745762000088],[8.42917347000008,4.727561950000052],[8.415169716000037,4.729102135000062],[8.411464691000049,4.735523701000091],[8.404831886000068,4.731580258000065],[8.397237777000043,4.735682010000062],[8.387969971000075,4.75265789000008],[8.402788163000082,4.770676136000077],[8.39793205300009,4.777781964000042],[8.411166248000086,4.816555718000075],[8.408162510000068,4.839255212000069],[8.395684242000073,4.857471943000064],[8.38487243700007,4.857153893000088],[8.350528717000088,4.887045383000043],[8.346395493000045,4.899129391000088],[8.355756760000077,4.939916134000043],[8.363837242000045,4.944777012000088],[8.395831108000039,4.938026905000072],[8.403679848000081,4.9690971370000625],[8.425300598000092,4.984138966000046],[8.420687675000067,4.994462967000061],[8.400124550000044,4.99781703900004],[8.382944107000071,5.010381222000092],[8.387372971000048,5.040287018000072],[8.411161423000067,5.080626011000049],[8.400835991000065,5.092072964000067],[8.407589912000049,5.112792969000054],[8.428158760000088,5.108290195000052],[8.430532455000048,5.088760853000053],[8.43743801100004,5.076148987000067],[8.46604919400005,5.060188770000082],[8.493724823000093,4.9993958470000734]]]}}]}