{"type":"FeatureCollection","features":[{"type":"Feature","properties":{"CNTRY_NAME":"Nigeria","CNTRY_CODE":"NGA","ADM1_NAME":"Delta","ADM1_CODE":"NGA010","ADM2_NAME":"Aniocha North","ADM2_CODE":"NGA010001","HRname":"Aniocha North","HRpcode":"NG010001","HRparent":"NG010","Shape_Leng":0.845757116923,"Shape_Area":0.0331826981131,"ADM2_New":"Aniocha North","id":"NG-DE-ANIOCHA-NORTH","name":"Aniocha North","parentId":"NG-DE","stateName":"Delta","regionId":"NG-SS","fillColor":"#6BA368"},"geometry":{"type":"Polygon","coordinates":[[[6.362289429000043,6.384438992000071],[6.391427040000053,6.388796806000073],[6.423731804000056,6.402275085000042],[6.4488677980000375,6.428103924000084],[6.502198219000093,6.463956833000054],[6.523318768000081,6.487541199000077],[6.575504780000074,6.495079994000093],[6.570803165000086,6.481864929000039],[6.570931911000059,6.452740192000078],[6.579260826000052,6.414668083000038],[6.56604290000007,6.327871799000093],[6.5667657850000865,6.318170071000054],[6.581527233000088,6.291166782000062],[6.55667591100007,6.293119907000062],[6.534181118000049,6.305416107000042],[6.517187119000084,6.303886890000058],[6.447338104000039,6.259616852000079],[6.41950988800005,6.24759578700008],[6.375341892000051,6.239600182000061],[6.373191833000078,6.264547825000079],[6.389379978000079,6.294501781000065],[6.391353130000084,6.309774876000063],[6.362289429000043,6.384438992000071]]]}},{"type":"Feature","properties":{"CNTRY_NAME":"Nigeria","CNTRY_CODE":"NGA","ADM1_NAME":"Delta","ADM1_CODE":"NGA010","ADM2_NAME":"Aniocha South","ADM2_CODE":"NGA010002","HRname":"Aniocha South","HRpcode":"NG010002","HRparent":"NG010","Shape_Leng":1.20011990093,"Shape_Area":0.0708623089019,"ADM2_New":"Aniocha South","id":"NG-DE-ANIOCHA-SOUTH","name":"Aniocha South","parentId":"NG-DE","stateName":"Delta","regionId":"NG-SS","fillColor":"#C4A574"},"geometry":{"type":"Polygon","coordinates":[[[6.375341892000051,6.239600182000061],[6.41950988800005,6.24759578700008],[6.462944984000046,6.267374992000043],[6.507008076000091,6.298947811000062],[6.534181118000049,6.305416107000042],[6.55667591100007,6.293119907000062],[6.581527233000088,6.291166782000062],[6.594122887000083,6.2830300330000455],[6.634452820000092,6.236208916000066],[6.625040054000067,6.211857796000061],[6.610161781000045,6.193010807000064],[6.606887817000086,6.1645507810000595],[6.61040687600007,6.1375341420000495],[6.619986057000062,6.124437809000085],[6.641133785000079,6.109356880000064],[6.646623135000084,6.0983071330000485],[6.629046917000039,6.0745830540000725],[6.593660831000079,6.079835892000062],[6.5725960730000565,6.076192856000091],[6.564509869000062,6.059483051000086],[6.5728077890000804,6.028345108000053],[6.56682920500009,5.9963951110000835],[6.527388096000038,5.996067047000054],[6.488647938000042,5.990890026000045],[6.479153156000052,5.985262871000089],[6.411818981000067,5.987476826000091],[6.393972874000042,6.024775982000051],[6.383068085000048,6.0302329060000375],[6.36080884900008,5.989132881000046],[6.345836163000058,5.991782188000059],[6.319196224000052,6.018606186000056],[6.335867882000059,6.092947006000088],[6.34801101700009,6.115240097000083],[6.343751907000069,6.155426979000083],[6.353943825000044,6.157590866000078],[6.376980782000089,6.176506996000057],[6.389819145000047,6.195337772000073],[6.375341892000051,6.239600182000061]]]}},{"type":"Feature","properties":{"CNTRY_NAME":"Nigeria","CNTRY_CODE":"NGA","ADM1_NAME":"Delta","ADM1_CODE":"NGA010","ADM2_NAME":"Bomadi","ADM2_CODE":"NGA010003","HRname":"Bomadi","HRpcode":"NG010003","HRparent":"NG010","Shape_Leng":1.00459017718,"Shape_Area":0.0104988366464,"ADM2_New":"Bomadi","id":"NG-DE-BOMADI","name":"Bomadi","parentId":"NG-DE","stateName":"Delta","regionId":"NG-SS","fillColor":"#5B8FA8"},"geometry":{"type":"MultiPolygon","coordinates":[[[[5.809190750000084,5.336875439000039],[5.802742004000038,5.318052769000076],[5.825238228000046,5.305757999000093],[5.8083009720000405,5.291053772000055],[5.78133726100009,5.291304111000045],[5.7444925310000485,5.270288467000057],[5.741071224000052,5.273865223000087],[5.746222019000072,5.285490036000056],[5.776953220000053,5.315022469000041],[5.809190750000084,5.336875439000039]]],[[[5.877017498000043,5.189892292000081],[5.896440983000048,5.197474003000082],[5.905970097000079,5.195473194000044],[5.935315132000085,5.1721382140000856],[5.954277992000073,5.189632893000066],[5.965157986000065,5.189723969000056],[5.973460197000065,5.157893181000077],[5.984343529000057,5.15944528600005],[5.98690414400005,5.15437221500008],[5.980889320000074,5.130557537000072],[5.960538864000057,5.1572184560000665],[5.933200836000083,5.1646952630000555],[5.927826405000076,5.160723209000082],[5.926891804000093,5.139927864000072],[5.917545319000055,5.13408613200005],[5.914507866000065,5.108150005000084],[5.885300636000068,5.0999722480000855],[5.877397060000078,5.1273002620000625],[5.877017498000043,5.189892292000081]]],[[[5.823122025000089,5.286935329000073],[5.846553326000048,5.297545433000039],[5.849763870000061,5.284266949000084],[5.823122025000089,5.286935329000073]]],[[[5.849632263000046,5.264167309000072],[5.8473420140000485,5.2282710080000925],[5.831093788000089,5.211493015000087],[5.794352531000072,5.207054138000046],[5.793591499000058,5.186122417000092],[5.786741257000074,5.185741901000085],[5.767887115000065,5.203339100000051],[5.767160892000049,5.2137351040000794],[5.781363964000093,5.231190205000075],[5.849632263000046,5.264167309000072]]]]}},{"type":"Feature","properties":{"CNTRY_NAME":"Nigeria","CNTRY_CODE":"NGA","ADM1_NAME":"Delta","ADM1_CODE":"NGA010","ADM2_NAME":"Ethiope East","ADM2_CODE":"NGA010005","HRname":"Ethiope East","HRpcode":"NG010005","HRparent":"NG010","Shape_Leng":1.01385087217,"Shape_Area":0.0310040298673,"ADM2_New":"Ethiope East","id":"NG-DE-ETHIOPE-EAST","name":"Ethiope East","parentId":"NG-DE","stateName":"Delta","regionId":"NG-SS","fillColor":"#B8956B"},"geometry":{"type":"MultiPolygon","coordinates":[[[[6.048964024000043,5.7687850000000935],[6.073625565000043,5.786473274000059],[6.093735218000063,5.794122219000087],[6.1208791730000485,5.839725018000081],[6.144177914000068,5.766802788000064],[6.1626548770000795,5.740603924000084],[6.146348000000046,5.737695217000066],[6.078306198000064,5.746143818000064],[6.051740170000073,5.75632476800007],[6.048964024000043,5.7687850000000935]]],[[[5.906148911000059,5.770370007000054],[5.924606800000049,5.748332024000092],[5.981730938000055,5.748114109000085],[5.991903782000065,5.75443983100007],[6.039714336000088,5.700560093000092],[6.041172028000062,5.685502052000061],[6.054209232000062,5.6592578890000595],[6.058454037000047,5.621844769000063],[6.028649807000079,5.595244884000067],[5.991306782000038,5.581758022000088],[5.979833126000074,5.562244892000081],[5.971007824000083,5.558703899000079],[5.937603951000085,5.577149868000049],[5.908166885000071,5.612124920000042],[5.918334007000055,5.62900114100006],[5.899827003000041,5.662134171000048],[5.878664017000062,5.680682182000055],[5.850031853000075,5.696393967000063],[5.868165970000064,5.747861862000093],[5.887896061000049,5.753002644000048],[5.890539169000078,5.763305187000071],[5.906148911000059,5.770370007000054]]]]}},{"type":"Feature","properties":{"CNTRY_NAME":"Nigeria","CNTRY_CODE":"NGA","ADM1_NAME":"Delta","ADM1_CODE":"NGA010","ADM2_NAME":"Ethiope West","ADM2_CODE":"NGA010006","HRname":"Ethiope West","HRpcode":"NG010006","HRparent":"NG010","Shape_Leng":1.12414193718,"Shape_Area":0.0437356854575,"ADM2_New":"Ethiope West","id":"NG-DE-ETHIOPE-WEST","name":"Ethiope West","parentId":"NG-DE","stateName":"Delta","regionId":"NG-SS","fillColor":"#6AADA3"},"geometry":{"type":"Polygon","coordinates":[[[5.76417732200008,5.997814178000056],[5.79505682000007,5.979569912000045],[5.8120388980000826,5.98387193700006],[5.835303783000086,5.951471806000086],[5.833310127000061,5.941052914000068],[5.9213171010000565,5.877292156000067],[5.906504154000061,5.843882084000086],[5.9024009700000875,5.8110599520000505],[5.894185164000078,5.7985917590000895],[5.872178078000047,5.782295227000077],[5.867395401000067,5.7808885570000825],[5.862190723000083,5.788765907000084],[5.8498125080000705,5.787359238000079],[5.843623161000039,5.791719913000065],[5.840950489000079,5.782857895000063],[5.828290462000041,5.782717228000081],[5.82843112900008,5.7732925420000925],[5.822663784000042,5.771745205000059],[5.812664032000043,5.782110691000071],[5.812536240000043,5.788906574000066],[5.801282883000056,5.7876405720000434],[5.792006969000056,5.811782360000052],[5.785604954000064,5.810282230000041],[5.768381119000082,5.834632874000079],[5.778664112000058,5.8421239850000575],[5.774423122000087,5.8545703890000595],[5.765964508000081,5.8600077630000555],[5.753881454000066,5.858195305000038],[5.74240255400008,5.869674683000085],[5.724881649000054,5.8654451370000515],[5.718697071000065,5.870058060000076],[5.727298260000055,5.904111862000093],[5.711096764000047,5.89704084400006],[5.681134224000061,5.906499863000079],[5.640299320000054,5.951236248000043],[5.62217426300009,5.940965652000045],[5.612507820000076,5.917403221000086],[5.601522923000061,5.916934013000059],[5.583109856000078,5.928568840000082],[5.563938141000051,5.958230019000041],[5.572011948000068,5.977714062000075],[5.571273804000043,5.9908838270000615],[5.583425999000042,6.011096001000055],[5.605134010000086,6.023066044000075],[5.657452106000051,6.033209801000055],[5.6676073070000825,6.049861431000068],[5.76417732200008,5.997814178000056]]]}},{"type":"Feature","properties":{"CNTRY_NAME":"Nigeria","CNTRY_CODE":"NGA","ADM1_NAME":"Delta","ADM1_CODE":"NGA010","ADM2_NAME":"Ika North East","ADM2_CODE":"NGA010007","HRname":"Ika North East","HRpcode":"NG010007","HRparent":"NG010","Shape_Leng":0.963828815491,"Shape_Area":0.0377880052299,"ADM2_New":"Ika North East","id":"NG-DE-IKA-NORTH-EAST","name":"Ika North East","parentId":"NG-DE","stateName":"Delta","regionId":"NG-SS","fillColor":"#8FAF6E"},"geometry":{"type":"Polygon","coordinates":[[[6.290318012000057,6.361868382000068],[6.362289429000043,6.384438992000071],[6.391353130000084,6.309774876000063],[6.389379978000079,6.294501781000065],[6.371198177000053,6.254128933000061],[6.389819145000047,6.195337772000073],[6.376980782000089,6.176506996000057],[6.353943825000044,6.157590866000078],[6.343751907000069,6.155426979000083],[6.347280979000061,6.126328945000068],[6.290907860000061,6.110603809000054],[6.2549519540000915,6.090887070000065],[6.220139980000056,6.120417118000091],[6.201663017000044,6.146615982000071],[6.1927218440000615,6.169425964000084],[6.162112236000041,6.171251774000041],[6.153229237000062,6.180885792000083],[6.176898003000076,6.210903168000073],[6.1917290690000755,6.24015283600005],[6.208725929000082,6.24098777800009],[6.241989136000086,6.254440784000053],[6.250969887000053,6.22261476500006],[6.267220020000082,6.238699913000062],[6.2814149860000725,6.258235931000058],[6.284070015000054,6.272820950000039],[6.280618191000087,6.284582138000076],[6.246644020000076,6.312650204000079],[6.28165578800008,6.357406139000091],[6.290318012000057,6.361868382000068]]]}},{"type":"Feature","properties":{"CNTRY_NAME":"Nigeria","CNTRY_CODE":"NGA","ADM1_NAME":"Delta","ADM1_CODE":"NGA010","ADM2_NAME":"Ika South","ADM2_CODE":"NGA010008","HRname":"Ika South","HRpcode":"NG010008","HRparent":"NG010","Shape_Leng":1.31215009449,"Shape_Area":0.0355549154711,"ADM2_New":"Ika South","id":"NG-DE-IKA-SOUTH","name":"Ika South","parentId":"NG-DE","stateName":"Delta","regionId":"NG-SS","fillColor":"#D4C4A0"},"geometry":{"type":"Polygon","coordinates":[[[6.246644020000076,6.312650204000079],[6.280618191000087,6.284582138000076],[6.284070015000054,6.272820950000039],[6.2814149860000725,6.258235931000058],[6.250969887000053,6.22261476500006],[6.241989136000086,6.254440784000053],[6.208725929000082,6.24098777800009],[6.1917290690000755,6.24015283600005],[6.176898003000076,6.210903168000073],[6.153229237000062,6.180885792000083],[6.162112236000041,6.171251774000041],[6.1927218440000615,6.169425964000084],[6.201663017000044,6.146615982000071],[6.220139980000056,6.120417118000091],[6.2549519540000915,6.090887070000065],[6.290907860000061,6.110603809000054],[6.347280979000061,6.126328945000068],[6.34801101700009,6.115240097000083],[6.335867882000059,6.092947006000088],[6.319196224000052,6.018606186000056],[6.309711933000074,6.010204792000081],[6.299509048000061,6.010814190000076],[6.293352127000048,6.0190839770000935],[6.256639957000061,6.0166978840000525],[6.201412201000039,6.049526215000071],[6.169303894000052,6.082546234000063],[6.134387016000062,6.135653019000074],[6.115742207000039,6.199992180000038],[6.112161160000085,6.2408781050000925],[6.084858894000092,6.263535023000088],[6.076632023000059,6.278722763000076],[6.086105824000072,6.289205074000051],[6.08801698700006,6.31834697700009],[6.113042831000087,6.349068165000062],[6.1266131400000745,6.356115818000092],[6.180490017000068,6.3211970330000895],[6.197598934000041,6.282746315000054],[6.2126379010000505,6.279160976000071],[6.246644020000076,6.312650204000079]]]}},{"type":"Feature","properties":{"CNTRY_NAME":"Nigeria","CNTRY_CODE":"NGA","ADM1_NAME":"Delta","ADM1_CODE":"NGA010","ADM2_NAME":"Isoko North","ADM2_CODE":"NGA010009","HRname":"Isoko North","HRpcode":"NG010009","HRparent":"NG010","Shape_Leng":1.46143248686,"Shape_Area":0.0389269789832,"ADM2_New":"Isoko North","id":"NG-DE-ISOKO-NORTH","name":"Isoko North","parentId":"NG-DE","stateName":"Delta","regionId":"NG-SS","fillColor":"#688EB5"},"geometry":{"type":"MultiPolygon","coordinates":[[[[6.30251312300004,5.412678242000084],[6.2872185710000394,5.41732692700009],[6.262509823000073,5.439612865000072],[6.25278568300007,5.451038361000087],[6.255704403000038,5.460059643000079],[6.270828724000069,5.46709108400006],[6.297166824000044,5.456537724000043],[6.313513756000077,5.435905457000047],[6.311115265000069,5.422112465000055],[6.30251312300004,5.412678242000084]]],[[[6.2114629750000745,5.621732235000081],[6.236637115000065,5.619166851000045],[6.277421951000065,5.62297391900006],[6.325638771000058,5.637938023000061],[6.327727795000044,5.626860142000055],[6.335233212000048,5.6213750840000785],[6.3557949070000745,5.58479118300005],[6.374354839000091,5.539869785000064],[6.383315086000039,5.512897968000061],[6.385983467000074,5.462580204000062],[6.445107460000088,5.461096287000089],[6.455717564000054,5.451395988000058],[6.452686310000047,5.437451363000093],[6.44541072800007,5.43078231800007],[6.431972980000069,5.428005219000056],[6.4102058410000495,5.4292111400000636],[6.373417854000081,5.444160938000039],[6.366652012000088,5.4364771840000685],[6.344104290000075,5.450263500000062],[6.318593502000056,5.493387222000081],[6.330191135000064,5.5311799050000445],[6.2859010700000795,5.550922871000068],[6.275774002000048,5.534194946000071],[6.245964050000055,5.508981228000039],[6.236443996000048,5.508902073000058],[6.193443775000048,5.544604778000064],[6.179975033000062,5.514674187000082],[6.142755032000082,5.473447800000088],[6.125895977000084,5.441408157000069],[6.08797693300005,5.404337883000039],[6.061984062000079,5.438796043000082],[6.05647897700004,5.453312874000062],[6.057713985000078,5.481756210000071],[6.0725359920000415,5.513085842000066],[6.086754799000062,5.527073860000087],[6.111188889000061,5.537680149000039],[6.116582870000059,5.548127174000058],[6.1123838420000425,5.575138092000088],[6.115060806000088,5.58486795400006],[6.123867989000075,5.59256982800008],[6.1633019450000575,5.594285011000068],[6.2114629750000745,5.621732235000081]]]]}},{"type":"Feature","properties":{"CNTRY_NAME":"Nigeria","CNTRY_CODE":"NGA","ADM1_NAME":"Delta","ADM1_CODE":"NGA010","ADM2_NAME":"Isoko South","ADM2_CODE":"NGA010010","HRname":"Isoko South","HRpcode":"NG010010","HRparent":"NG010","Shape_Leng":1.23203786052,"Shape_Area":0.0573800140304,"ADM2_New":"Isoko South","id":"NG-DE-ISOKO-SOUTH","name":"Isoko South","parentId":"NG-DE","stateName":"Delta","regionId":"NG-SS","fillColor":"#7CB087"},"geometry":{"type":"Polygon","coordinates":[[[6.08797693300005,5.404337883000039],[6.125895977000084,5.441408157000069],[6.142755032000082,5.473447800000088],[6.179975033000062,5.514674187000082],[6.193443775000048,5.544604778000064],[6.236443996000048,5.508902073000058],[6.245964050000055,5.508981228000039],[6.26493692400004,5.524395943000059],[6.2859010700000795,5.550922871000068],[6.330191135000064,5.5311799050000445],[6.318593502000056,5.493387222000081],[6.321759701000076,5.482913494000059],[6.3582954410000525,5.433955669000056],[6.337967396000067,5.4018383030000905],[6.328320503000043,5.376487255000086],[6.338832378000063,5.3199110030000725],[6.325403214000062,5.306539536000059],[6.300047874000086,5.299026489000084],[6.283542156000067,5.274990559000059],[6.292275429000085,5.245395184000074],[6.290450096000086,5.234077454000044],[6.259417534000079,5.227870941000049],[6.23353290600005,5.238167763000092],[6.2200083730000415,5.23868370100007],[6.218515873000058,5.2503104210000515],[6.20735693000006,5.252053738000086],[6.196980000000053,5.246605873000078],[6.187352180000062,5.230408192000084],[6.151268005000077,5.2398161890000665],[6.117763996000065,5.281146049000085],[6.094473839000045,5.319094181000082],[6.096314907000078,5.364184856000065],[6.08797693300005,5.404337883000039]],[[6.30251312300004,5.412678242000084],[6.3140931130000695,5.430338860000063],[6.307430744000044,5.445807934000072],[6.279164791000085,5.465433598000061],[6.266848564000043,5.4669585230000735],[6.257562160000077,5.461784363000049],[6.25278568300007,5.451038361000087],[6.262509823000073,5.439612865000072],[6.2872185710000394,5.41732692700009],[6.30251312300004,5.412678242000084]]]}},{"type":"Feature","properties":{"CNTRY_NAME":"Nigeria","CNTRY_CODE":"NGA","ADM1_NAME":"Delta","ADM1_CODE":"NGA010","ADM2_NAME":"Ndokwa East","ADM2_CODE":"NGA010011","HRname":"Ndokwa East","HRpcode":"NG010011","HRparent":"NG010","Shape_Leng":2.26721343296,"Shape_Area":0.131942601956,"ADM2_New":"Ndokwa East","id":"NG-DE-NDOKWA-EAST","name":"Ndokwa East","parentId":"NG-DE","stateName":"Delta","regionId":"NG-SS","fillColor":"#C9B896"},"geometry":{"type":"Polygon","coordinates":[[[6.56682920500009,5.9963951110000835],[6.607642174000091,5.993960857000047],[6.6171498300000735,5.996813774000088],[6.632717133000085,6.013586998000051],[6.658599854000045,6.004094124000062],[6.699407101000077,6.0030460360000575],[6.719857216000094,5.992121220000058],[6.703824997000083,5.926799774000074],[6.660915852000073,5.856529236000085],[6.650763512000083,5.817113400000039],[6.6548681260000535,5.771530151000093],[6.633620262000079,5.730035782000073],[6.618292809000081,5.7169060710000394],[6.614049435000084,5.690699577000089],[6.606566906000069,5.6800088880000885],[6.606450081000048,5.670234203000064],[6.6213459970000486,5.64256477400005],[6.603773594000074,5.614925861000074],[6.601007938000066,5.596949577000089],[6.584760189000065,5.561688423000078],[6.568858147000071,5.553391457000089],[6.542584896000051,5.549243450000063],[6.530831337000052,5.531958580000094],[6.537696838000045,5.478425026000082],[6.534836769000037,5.45897436100006],[6.5245304110000575,5.438663960000042],[6.508820534000051,5.425673962000076],[6.4831252100000825,5.420644283000058],[6.476556778000088,5.404050827000049],[6.485476971000082,5.379205227000057],[6.495871067000053,5.369657516000075],[6.5025858880000555,5.338941097000088],[6.490166664000071,5.324021339000069],[6.473052979000045,5.321882248000065],[6.450234890000047,5.327586651000047],[6.434547424000073,5.323307991000092],[6.425990582000054,5.311185837000039],[6.408876896000038,5.304768562000049],[6.338832378000063,5.3199110030000725],[6.328320503000043,5.376487255000086],[6.337967396000067,5.4018383030000905],[6.3582954410000525,5.433955669000056],[6.347042084000066,5.448467255000082],[6.366652012000088,5.4364771840000685],[6.373417854000081,5.444160938000039],[6.4102058410000495,5.4292111400000636],[6.431972980000069,5.428005219000056],[6.44541072800007,5.43078231800007],[6.452686310000047,5.437451363000093],[6.455717564000054,5.451395988000058],[6.445107460000088,5.461096287000089],[6.388769627000045,5.461784363000049],[6.384204388000057,5.4655303960000765],[6.383315086000039,5.512897968000061],[6.374354839000091,5.539869785000064],[6.3557949070000745,5.58479118300005],[6.335233212000048,5.6213750840000785],[6.327727795000044,5.626860142000055],[6.325638771000058,5.637938023000061],[6.353500843000063,5.642331123000076],[6.391480923000074,5.665532112000051],[6.426571369000044,5.670458794000069],[6.434673786000076,5.6839623450000545],[6.4704585080000925,5.691389561000051],[6.475184917000092,5.702867508000054],[6.473159313000053,5.714345932000072],[6.449527740000065,5.727174282000078],[6.43874216100005,5.742901802000063],[6.436487198000066,5.791427135000049],[6.443194866000056,5.812286854000092],[6.472947121000061,5.850676060000069],[6.477623940000058,5.869439125000042],[6.449660778000066,5.8879299160000755],[6.4428057670000385,5.900355816000058],[6.479153156000052,5.985262871000089],[6.488647938000042,5.990890026000045],[6.527388096000038,5.996067047000054],[6.56682920500009,5.9963951110000835]]]}},{"type":"Feature","properties":{"CNTRY_NAME":"Nigeria","CNTRY_CODE":"NGA","ADM1_NAME":"Delta","ADM1_CODE":"NGA010","ADM2_NAME":"Ndokwa West","ADM2_CODE":"NGA010012","HRname":"Ndokwa West","HRpcode":"NG010012","HRparent":"NG010","Shape_Leng":1.58546003693,"Shape_Area":0.0665713817386,"ADM2_New":"Ndokwa West","id":"NG-DE-NDOKWA-WEST","name":"Ndokwa West","parentId":"NG-DE","stateName":"Delta","regionId":"NG-SS","fillColor":"#5E9E78"},"geometry":{"type":"Polygon","coordinates":[[[6.256639957000061,6.0166978840000525],[6.293352127000048,6.0190839770000935],[6.299509048000061,6.010814190000076],[6.309711933000074,6.010204792000081],[6.319196224000052,6.018606186000056],[6.345836163000058,5.991782188000059],[6.36080884900008,5.989132881000046],[6.383068085000048,6.0302329060000375],[6.393972874000042,6.024775982000051],[6.411818981000067,5.987476826000091],[6.479153156000052,5.985262871000089],[6.4428057670000385,5.900355816000058],[6.449660778000066,5.8879299160000755],[6.471470833000069,5.877016068000046],[6.477623940000058,5.869439125000042],[6.476984978000075,5.86041784300005],[6.461472988000082,5.831162930000062],[6.443194866000056,5.812286854000092],[6.436487198000066,5.791427135000049],[6.43874216100005,5.742901802000063],[6.449527740000065,5.727174282000078],[6.473159313000053,5.714345932000072],[6.475184917000092,5.702867508000054],[6.4704585080000925,5.691389561000051],[6.434673786000076,5.6839623450000545],[6.426571369000044,5.670458794000069],[6.391480923000074,5.665532112000051],[6.353500843000063,5.642331123000076],[6.277421951000065,5.62297391900006],[6.220993042000089,5.619729996000046],[6.2114629750000745,5.621732235000081],[6.184795856000051,5.654797077000069],[6.166832447000047,5.726475716000039],[6.193523407000043,5.743476391000058],[6.199358463000067,5.754385948000049],[6.198636055000065,5.785615444000086],[6.222826481000084,5.771667480000076],[6.265634060000082,5.777236462000076],[6.294125080000072,5.768005848000087],[6.327428341000086,5.787054062000038],[6.3746275900000455,5.801497936000089],[6.377026081000054,5.815291405000039],[6.361889362000056,5.859463215000062],[6.328780651000045,5.913917065000078],[6.297913074000064,5.942641258000037],[6.271000862000051,5.9601430890000415],[6.243769646000089,5.9673848150000595],[6.256639957000061,6.0166978840000525]]]}},{"type":"Feature","properties":{"CNTRY_NAME":"Nigeria","CNTRY_CODE":"NGA","ADM1_NAME":"Delta","ADM1_CODE":"NGA010","ADM2_NAME":"Okpe","ADM2_CODE":"NGA010013","HRname":"Okpe","HRpcode":"NG010013","HRparent":"NG010","Shape_Leng":1.06362958586,"Shape_Area":0.0362725608918,"ADM2_New":"Okpe","id":"NG-DE-OKPE","name":"Okpe","parentId":"NG-DE","stateName":"Delta","regionId":"NG-SS","fillColor":"#94B86A"},"geometry":{"type":"Polygon","coordinates":[[[5.894185066000091,5.798591614000088],[5.902640820000045,5.794611931000077],[5.906148911000059,5.770370007000054],[5.890539169000078,5.763305187000071],[5.887896061000049,5.753002644000048],[5.868165970000064,5.747861862000093],[5.850031853000075,5.696393967000063],[5.878664017000062,5.680682182000055],[5.899827003000041,5.662134171000048],[5.918334007000055,5.62900114100006],[5.905779839000047,5.608413696000071],[5.8904104230000485,5.609597683000061],[5.87545442600009,5.59759187700007],[5.853016376000085,5.595533848000059],[5.8460674290000725,5.587218761000088],[5.823450565000087,5.587461948000055],[5.777363777000062,5.624300003000087],[5.758331776000091,5.6179723740000895],[5.70593118700009,5.581848621000063],[5.655903816000091,5.614335060000087],[5.680222034000053,5.651290894000056],[5.696485996000092,5.647008896000045],[5.6924161910000635,5.6617951390000485],[5.648705006000057,5.704426765000051],[5.7166271210000446,5.723022938000042],[5.732871056000079,5.740495205000059],[5.779450893000046,5.817859173000045],[5.79579687100005,5.804942131000075],[5.797203541000044,5.790735245000064],[5.812536240000043,5.788906574000066],[5.813661575000083,5.778919220000091],[5.822663784000042,5.771745205000059],[5.82843112900008,5.7732925420000925],[5.8267431260000535,5.780466557000068],[5.830822468000065,5.783842564000054],[5.839262486000052,5.781451225000069],[5.841794491000087,5.790875912000047],[5.862190723000083,5.788765907000084],[5.867395401000067,5.7808885570000825],[5.894185066000091,5.798591614000088]]]}},{"type":"Feature","properties":{"CNTRY_NAME":"Nigeria","CNTRY_CODE":"NGA","ADM1_NAME":"Delta","ADM1_CODE":"NGA010","ADM2_NAME":"Oshimili North","ADM2_CODE":"NGA010014","HRname":"Oshimili North","HRpcode":"NG010014","HRparent":"NG010","Shape_Leng":1.02763712313,"Shape_Area":0.0416225752514,"ADM2_New":"Oshimili North","id":"NG-DE-OSHIMILI-NORTH","name":"Oshimili North","parentId":"NG-DE","stateName":"Delta","regionId":"NG-SS","fillColor":"#C2A882"},"geometry":{"type":"Polygon","coordinates":[[[6.575504780000074,6.495079994000093],[6.608807087000059,6.499517918000038],[6.632654190000039,6.489315033000082],[6.646256924000056,6.488733768000088],[6.668920994000075,6.5012340550000545],[6.673863888000085,6.468333244000064],[6.6817650790000584,6.455741882000041],[6.699773788000073,6.3816900250000685],[6.712820053000087,6.35336589800005],[6.725022316000093,6.265763283000069],[6.7058148380000375,6.2618021970000655],[6.68743801100004,6.188879967000048],[6.7140192990000855,6.156132221000064],[6.699920654000039,6.119133949000059],[6.688491821000071,6.108403206000048],[6.656263351000064,6.106657505000044],[6.645172596000066,6.101227283000071],[6.61040687600007,6.1375341420000495],[6.606887817000086,6.1645507810000595],[6.610161781000045,6.193010807000064],[6.625040054000067,6.211857796000061],[6.634452820000092,6.236208916000066],[6.594122887000083,6.2830300330000455],[6.581527233000088,6.291166782000062],[6.5667657850000865,6.318170071000054],[6.579260826000052,6.414668083000038],[6.570931911000059,6.452740192000078],[6.570803165000086,6.481864929000039],[6.575504780000074,6.495079994000093]]]}},{"type":"Feature","properties":{"CNTRY_NAME":"Nigeria","CNTRY_CODE":"NGA","ADM1_NAME":"Delta","ADM1_CODE":"NGA010","ADM2_NAME":"Oshimili South","ADM2_CODE":"NGA010015","HRname":"Oshimili South","HRpcode":"NG010015","HRparent":"NG010","Shape_Leng":0.893076338114,"Shape_Area":0.0218529415309,"ADM2_New":"Oshimili South","id":"NG-DE-OSHIMILI-SOUTH","name":"Oshimili South","parentId":"NG-DE","stateName":"Delta","regionId":"NG-SS","fillColor":"#72A898"},"geometry":{"type":"Polygon","coordinates":[[[6.725022316000093,6.265763283000069],[6.742698193000081,6.209370136000075],[6.7673010830000635,6.181836128000043],[6.769402027000069,6.167984009000065],[6.755330086000072,6.120709896000051],[6.722111225000049,6.097548008000047],[6.709276199000044,6.078023911000059],[6.725058079000064,6.04625606500008],[6.726493835000042,6.028930187000071],[6.719857216000094,5.992121220000058],[6.699407101000077,6.0030460360000575],[6.658599854000045,6.004094124000062],[6.632717133000085,6.013586998000051],[6.6171498300000735,5.996813774000088],[6.607642174000091,5.993960857000047],[6.56682920500009,5.9963951110000835],[6.5728077890000804,6.028345108000053],[6.564509869000062,6.059483051000086],[6.5725960730000565,6.076192856000091],[6.593660831000079,6.079835892000062],[6.629046917000039,6.0745830540000725],[6.645172596000066,6.101227283000071],[6.653450966000094,6.106053829000075],[6.688491821000071,6.108403206000048],[6.699920654000039,6.119133949000059],[6.7140192990000855,6.156132221000064],[6.68743801100004,6.188879967000048],[6.7058148380000375,6.2618021970000655],[6.725022316000093,6.265763283000069]]]}},{"type":"Feature","properties":{"CNTRY_NAME":"Nigeria","CNTRY_CODE":"NGA","ADM1_NAME":"Delta","ADM1_CODE":"NGA010","ADM2_NAME":"Patani","ADM2_CODE":"NGA010016","HRname":"Patani","HRpcode":"NG010016","HRparent":"NG010","Shape_Leng":0.73015437855,"Shape_Area":0.0176818163586,"ADM2_New":"Patani","id":"NG-DE-PATANI","name":"Patani","parentId":"NG-DE","stateName":"Delta","regionId":"NG-SS","fillColor":"#D4896A"},"geometry":{"type":"Polygon","coordinates":[[[6.2200083730000415,5.23868370100007],[6.23353290600005,5.238167763000092],[6.213285446000043,5.238669395000045],[6.1957840920000535,5.223075867000091],[6.200734138000087,5.16954994200006],[6.190907001000085,5.158570766000082],[6.165906429000074,5.161139965000075],[6.143735886000059,5.134776115000079],[6.129725933000088,5.129266739000059],[6.097852707000072,5.149941444000092],[6.0857925420000925,5.150802612000064],[6.069569588000093,5.141344070000059],[6.06226778000007,5.103009701000076],[6.044443130000047,5.095670700000085],[6.027214527000069,5.095670700000085],[6.004523277000089,5.103686810000056],[5.980889320000074,5.130557537000072],[5.986678600000062,5.143977165000081],[5.988394260000064,5.184133530000054],[5.993701458000089,5.186770916000057],[6.154729843000041,5.225975990000052],[6.16148710300007,5.235740185000054],[6.187352180000062,5.230408192000084],[6.203145981000091,5.251494408000042],[6.218515873000058,5.2503104210000515],[6.2200083730000415,5.23868370100007]]]}},{"type":"Feature","properties":{"CNTRY_NAME":"Nigeria","CNTRY_CODE":"NGA","ADM1_NAME":"Delta","ADM1_CODE":"NGA010","ADM2_NAME":"Sapele","ADM2_CODE":"NGA010017","HRname":"Sapele","HRpcode":"NG010017","HRparent":"NG010","Shape_Leng":0.961400190923,"Shape_Area":0.0366920471864,"ADM2_New":"Sapele","id":"NG-DE-SAPELE","name":"Sapele","parentId":"NG-DE","stateName":"Delta","regionId":"NG-SS","fillColor":"#9B8B72"},"geometry":{"type":"Polygon","coordinates":[[[5.552169800000058,5.851336002000039],[5.564401150000037,5.853518009000084],[5.565721989000053,5.862544060000062],[5.556167126000048,5.870092869000075],[5.565653801000053,5.877799988000049],[5.562211037000054,5.887479782000071],[5.556734085000073,5.895755768000072],[5.538354874000049,5.899764061000042],[5.515114784000048,5.926617146000069],[5.517111778000071,5.936341763000087],[5.541590214000053,5.937239170000055],[5.563938141000051,5.958230019000041],[5.583109856000078,5.928568840000082],[5.601522923000061,5.916934013000059],[5.612507820000076,5.917403221000086],[5.62217426300009,5.940965652000045],[5.640299320000054,5.951236248000043],[5.681134224000061,5.906499863000079],[5.711096764000047,5.89704084400006],[5.727298260000055,5.904111862000093],[5.718697071000065,5.870058060000076],[5.724881649000054,5.8654451370000515],[5.74240255400008,5.869674683000085],[5.753881454000066,5.858195305000038],[5.765964508000081,5.8600077630000555],[5.774423122000087,5.8545703890000595],[5.778664112000058,5.8421239850000575],[5.768381119000082,5.834632874000079],[5.779450893000046,5.817859173000045],[5.732871056000079,5.740495205000059],[5.7166271210000446,5.723022938000042],[5.648705006000057,5.704426765000051],[5.63984584800005,5.708515167000087],[5.613196850000065,5.737419128000056],[5.609756947000051,5.746406078000064],[5.617126942000084,5.77143192300008],[5.61436414700006,5.781117916000085],[5.599063873000091,5.7767443660000595],[5.575521946000038,5.789524555000071],[5.559161663000054,5.826144695000039],[5.546598434000089,5.837281704000077],[5.552169800000058,5.851336002000039]]]}},{"type":"Feature","properties":{"CNTRY_NAME":"Nigeria","CNTRY_CODE":"NGA","ADM1_NAME":"Delta","ADM1_CODE":"NGA010","ADM2_NAME":"Udu","ADM2_CODE":"NGA010018","HRname":"Udu","HRpcode":"NG010018","HRparent":"NG010","Shape_Leng":0.518684454888,"Shape_Area":0.0106528256798,"ADM2_New":"Udu","id":"NG-DE-UDU","name":"Udu","parentId":"NG-DE","stateName":"Delta","regionId":"NG-SS","fillColor":"#A3C986"},"geometry":{"type":"Polygon","coordinates":[[[5.779304504000038,5.52021646500009],[5.805532455000048,5.503429413000049],[5.807810783000093,5.511678696000047],[5.785989285000085,5.538033485000085],[5.785470486000065,5.54637193700006],[5.793921947000058,5.548875809000037],[5.814690590000055,5.5385046010000565],[5.83522748900009,5.542902470000058],[5.850102901000071,5.526492119000068],[5.867250919000071,5.493347168000071],[5.890418053000076,5.483138084000075],[5.890500069000041,5.464415073000055],[5.88175487500007,5.442843914000093],[5.865530014000058,5.421210766000058],[5.841104031000043,5.408524990000046],[5.814552784000057,5.415238857000077],[5.788486958000078,5.442311764000067],[5.788516045000051,5.459404945000074],[5.782364845000075,5.466289043000074],[5.75852823300005,5.474411964000069],[5.755723000000046,5.493805885000086],[5.77614402800009,5.489120960000093],[5.784968853000066,5.492661953000038],[5.779304504000038,5.52021646500009]]]}},{"type":"Feature","properties":{"CNTRY_NAME":"Nigeria","CNTRY_CODE":"NGA","ADM1_NAME":"Delta","ADM1_CODE":"NGA010","ADM2_NAME":"Ughelli North","ADM2_CODE":"NGA010019","HRname":"Ughelli North","HRpcode":"NG010019","HRparent":"NG010","Shape_Leng":1.98830799438,"Shape_Area":0.0666883785881,"ADM2_New":"Ughelli North","id":"NG-DE-UGHELLI-NORTH","name":"Ughelli North","parentId":"NG-DE","stateName":"Delta","regionId":"NG-SS","fillColor":"#8AAB76"},"geometry":{"type":"Polygon","coordinates":[[[5.991903782000065,5.75443983100007],[6.015662193000082,5.764347076000092],[6.048964024000043,5.7687850000000935],[6.051740170000073,5.75632476800007],[6.078306198000064,5.746143818000064],[6.146348000000046,5.737695217000066],[6.1626548770000795,5.740603924000084],[6.173686028000077,5.706716061000066],[6.179989815000056,5.665159225000082],[6.190961838000078,5.644445896000093],[6.2114629750000745,5.621732235000081],[6.1633019450000575,5.594285011000068],[6.136096001000055,5.5954461100000685],[6.115060806000088,5.58486795400006],[6.1123838420000425,5.575138092000088],[6.116582870000059,5.548127174000058],[6.102376938000077,5.531364918000065],[6.077941895000038,5.520759106000071],[6.057713985000078,5.481756210000071],[6.055731773000048,5.468564034000053],[6.061984062000079,5.438796043000082],[6.08797693300005,5.404337883000039],[6.096314907000078,5.364184856000065],[6.094473839000045,5.319094181000082],[6.144433975000084,5.24738693200004],[6.16148710300007,5.235740185000054],[6.154729843000041,5.225975990000052],[6.071164131000046,5.20794296300005],[6.043224335000048,5.212107658000093],[6.013021946000038,5.233940601000086],[6.006835937000062,5.2459487920000925],[6.004652500000077,5.267054081000083],[6.028476238000053,5.326867104000087],[6.018772125000055,5.368393898000079],[6.004386902000078,5.391852856000071],[5.994163036000089,5.397315979000041],[5.981091976000073,5.431188107000082],[5.999262810000062,5.474335194000048],[5.970862865000072,5.4836502080000855],[5.984207153000057,5.495707989000039],[5.978050232000044,5.503977776000056],[5.908686161000048,5.504094124000062],[5.906599998000047,5.514479160000064],[5.9330511090000755,5.5384159090000935],[5.883985043000052,5.553819180000062],[5.850398064000046,5.556378365000057],[5.853280067000071,5.5754146580000565],[5.8460674290000725,5.587218761000088],[5.853016376000085,5.595533848000059],[5.87545442600009,5.59759187700007],[5.8904104230000485,5.609597683000061],[5.905779839000047,5.608413696000071],[5.908166885000071,5.612124920000042],[5.937603951000085,5.577149868000049],[5.971007824000083,5.558703899000079],[5.979833126000074,5.562244892000081],[5.991306782000038,5.581758022000088],[6.028649807000079,5.595244884000067],[6.058454037000047,5.621844769000063],[6.05766391800006,5.646803856000076],[6.041172028000062,5.685502052000061],[6.039714336000088,5.700560093000092],[5.991903782000065,5.75443983100007]]]}},{"type":"Feature","properties":{"CNTRY_NAME":"Nigeria","CNTRY_CODE":"NGA","ADM1_NAME":"Delta","ADM1_CODE":"NGA010","ADM2_NAME":"Ughelli South","ADM2_CODE":"NGA010020","HRname":"Ughelli South","HRpcode":"NG010020","HRparent":"NG010","Shape_Leng":2.20221434985,"Shape_Area":0.06401304892,"ADM2_New":"Ughelli South","id":"NG-DE-UGHELLI-SOUTH","name":"Ughelli South","parentId":"NG-DE","stateName":"Delta","regionId":"NG-SS","fillColor":"#BFA882"},"geometry":{"type":"Polygon","coordinates":[[[5.819704533000049,5.539459229000045],[5.83888483000004,5.563209534000066],[5.840270996000072,5.558976650000091],[5.864266872000087,5.5529618260000575],[5.883985043000052,5.553819180000062],[5.917338848000043,5.5464692120000905],[5.9330511090000755,5.5384159090000935],[5.906599998000047,5.514479160000064],[5.908686161000048,5.504094124000062],[5.978050232000044,5.503977776000056],[5.984207153000057,5.495707989000039],[5.970862865000072,5.4836502080000855],[5.999262810000062,5.474335194000048],[5.981091976000073,5.431188107000082],[5.994163036000089,5.397315979000041],[6.004386902000078,5.391852856000071],[6.018772125000055,5.368393898000079],[6.028476238000053,5.326867104000087],[6.004652500000077,5.267054081000083],[6.006835937000062,5.2459487920000925],[6.013021946000038,5.233940601000086],[6.043224335000048,5.212107658000093],[6.071164131000046,5.20794296300005],[6.029661655000041,5.192989826000087],[5.989916325000081,5.185959816000093],[5.984343529000057,5.15944528600005],[5.973460197000065,5.157893181000077],[5.965157986000065,5.189723969000056],[5.954277992000073,5.189632893000066],[5.935315132000085,5.1721382140000856],[5.905970097000079,5.195473194000044],[5.896440983000048,5.197474003000082],[5.837276459000066,5.174850941000045],[5.822664261000057,5.193920612000056],[5.804585457000087,5.195158958000093],[5.797555923000061,5.1894521710000845],[5.792830467000044,5.2036290170000825],[5.794352531000072,5.207054138000046],[5.831093788000089,5.211493015000087],[5.8473420140000485,5.2282710080000925],[5.853080273000046,5.275839329000064],[5.846553326000048,5.297545433000039],[5.74837255500006,5.255601883000054],[5.738567352000075,5.255221367000047],[5.738762856000051,5.264230251000072],[5.749477863000038,5.27429056200009],[5.78133726100009,5.291304111000045],[5.8083009720000405,5.291053772000055],[5.825238228000046,5.305757999000093],[5.802742004000038,5.318052769000076],[5.813351154000088,5.339459419000093],[5.884943962000079,5.3367681500000685],[5.913880825000092,5.340888977000077],[5.913852692000091,5.3790712360000725],[5.895699024000066,5.36529016500009],[5.85013198900009,5.366298199000084],[5.820942879000086,5.354266167000048],[5.801221848000068,5.354102135000062],[5.792416096000068,5.346399784000084],[5.778139114000055,5.345588207000048],[5.762532234000048,5.337830067000084],[5.748987198000066,5.325233936000075],[5.73126697500004,5.33410215400005],[5.726304054000082,5.37982988400006],[5.7105774880000695,5.400083065000047],[5.713149071000089,5.406214714000043],[5.754006863000086,5.420282841000073],[5.788486958000078,5.442311764000067],[5.814552784000057,5.415238857000077],[5.841104031000043,5.408524990000046],[5.865530014000058,5.421210766000058],[5.88175487500007,5.442843914000093],[5.890500069000041,5.464415073000055],[5.890418053000076,5.483138084000075],[5.867250919000071,5.493347168000071],[5.850102901000071,5.526492119000068],[5.835762024000076,5.540242195000076],[5.819704533000049,5.539459229000045]]]}},{"type":"Feature","properties":{"CNTRY_NAME":"Nigeria","CNTRY_CODE":"NGA","ADM1_NAME":"Delta","ADM1_CODE":"NGA010","ADM2_NAME":"Ukwuani","ADM2_CODE":"NGA010021","HRname":"Ukwuani","HRpcode":"NG010021","HRparent":"NG010","Shape_Leng":0.800695959859,"Shape_Area":0.0333740430293,"ADM2_New":"Ukwuani","id":"NG-DE-UKWUANI","name":"Ukwuani","parentId":"NG-DE","stateName":"Delta","regionId":"NG-SS","fillColor":"#6BA368"},"geometry":{"type":"Polygon","coordinates":[[[6.1208791730000485,5.839725018000081],[6.151937008000061,5.857713223000076],[6.201406002000056,5.896959782000067],[6.217640877000065,5.916512012000055],[6.243769646000089,5.9673848150000595],[6.271000862000051,5.9601430890000415],[6.297913074000064,5.942641258000037],[6.328780651000045,5.913917065000078],[6.361889362000056,5.859463215000062],[6.377026081000054,5.815291405000039],[6.3746275900000455,5.801497936000089],[6.327428341000086,5.787054062000038],[6.296907425000086,5.767223358000081],[6.265634060000082,5.777236462000076],[6.222826481000084,5.771667480000076],[6.198636055000065,5.785615444000086],[6.199358463000067,5.754385948000049],[6.190650940000069,5.740100861000087],[6.168686867000076,5.727625370000055],[6.144177914000068,5.766802788000064],[6.1208791730000485,5.839725018000081]]]}},{"type":"Feature","properties":{"CNTRY_NAME":"Nigeria","CNTRY_CODE":"NGA","ADM1_NAME":"Delta","ADM1_CODE":"NGA010","ADM2_NAME":"Uvwie","ADM2_CODE":"NGA010022","HRname":"Uvwie","HRpcode":"NG010022","HRparent":"NG010","Shape_Leng":0.471210345147,"Shape_Area":0.00775337723208,"ADM2_New":"Uvwie","id":"NG-DE-UVWIE","name":"Uvwie","parentId":"NG-DE","stateName":"Delta","regionId":"NG-SS","fillColor":"#C4A574"},"geometry":{"type":"Polygon","coordinates":[[[5.70593118700009,5.581848621000063],[5.758331776000091,5.6179723740000895],[5.777363777000062,5.624300003000087],[5.818600178000054,5.589697361000049],[5.8460674290000725,5.587218761000088],[5.85262584700007,5.577516079000077],[5.853084564000085,5.566405773000042],[5.850398064000046,5.556378365000057],[5.83577585200004,5.561336517000086],[5.834464550000064,5.55305767100009],[5.819704533000049,5.539459229000045],[5.8077278140000885,5.5401139260000605],[5.793921947000058,5.548875809000037],[5.785470486000065,5.54637193700006],[5.784635544000082,5.54015731800007],[5.809149265000087,5.508862019000048],[5.802051067000093,5.504234314000087],[5.779304504000038,5.52021646500009],[5.7520518300000845,5.554801941000051],[5.70593118700009,5.581848621000063]]]}},{"type":"Feature","properties":{"CNTRY_NAME":"Nigeria","CNTRY_CODE":"NGA","ADM1_NAME":"Delta","ADM1_CODE":"NGA010","ADM2_NAME":"Warri South","ADM2_CODE":"NGA010024","HRname":"Warri South","HRpcode":"NG010024","HRparent":"NG010","Shape_Leng":1.40351041715,"Shape_Area":0.051591651059,"ADM2_New":"Warri South","id":"NG-DE-WARRI-SOUTH","name":"Warri South","parentId":"NG-DE","stateName":"Delta","regionId":"NG-SS","fillColor":"#A8BF7A"},"geometry":{"type":"Polygon","coordinates":[[[5.5477194790000794,5.842662811000082],[5.54951334000009,5.830330849000063],[5.559161663000054,5.826144695000039],[5.577988148000088,5.785937309000076],[5.5961489680000795,5.777193069000077],[5.61436414700006,5.781117916000085],[5.617126942000084,5.77143192300008],[5.609756947000051,5.746406078000064],[5.613196850000065,5.737419128000056],[5.6924161910000635,5.6617951390000485],[5.696485996000092,5.647008896000045],[5.680222034000053,5.651290894000056],[5.655903816000091,5.614335060000087],[5.7520518300000845,5.554801941000051],[5.778037071000085,5.52242517500008],[5.784968853000066,5.492661953000038],[5.77614402800009,5.489120960000093],[5.755723000000046,5.493805885000086],[5.731266022000057,5.488055229000054],[5.702110767000079,5.468395233000081],[5.659852982000075,5.490233898000042],[5.623140812000088,5.487847805000058],[5.614327908000064,5.481534004000082],[5.5911960600000725,5.484115124000084],[5.573564053000041,5.472873211000092],[5.563335896000069,5.479029179000065],[5.563923836000072,5.4998378750000825],[5.581536770000071,5.51524210000008],[5.567848206000065,5.535237789000064],[5.550103188000094,5.549654007000072],[5.54253721200007,5.569007874000079],[5.4974718090000465,5.610241890000054],[5.491244793000078,5.63446188000006],[5.520405769000092,5.652735233000044],[5.5324501990000385,5.697217941000076],[5.50705289800004,5.75040483500004],[5.509050846000093,5.7601299290000725],[5.520597935000069,5.763000011000088],[5.540368080000064,5.752068996000048],[5.549190044000056,5.756303787000093],[5.5375561710000625,5.772850990000052],[5.52529716500004,5.776908875000061],[5.521176815000047,5.785890102000053],[5.5252208710000446,5.794246197000064],[5.485727787000087,5.805706024000074],[5.485682011000051,5.816108227000086],[5.500523090000058,5.843276978000063],[5.50111103100005,5.864087105000067],[5.514682770000093,5.870440960000053],[5.520888805000084,5.851075172000037],[5.543312073000038,5.855422020000049],[5.552169800000058,5.851336002000039],[5.5477194790000794,5.842662811000082]]]}},{"type":"Feature","properties":{"CNTRY_NAME":"Nigeria","CNTRY_CODE":"NGA","ADM1_NAME":"Delta","ADM1_CODE":"NGA010","ADM2_NAME":"Burutu","ADM2_CODE":"NGA010004","HRname":"Burutu","HRpcode":"NG010004","HRparent":"NG010","Shape_Leng":2.74087228837,"Shape_Area":0.156646993796,"ADM2_New":"Burutu","id":"NG-DE-BURUTU","name":"Burutu","parentId":"NG-DE","stateName":"Delta","regionId":"NG-SS","fillColor":"#A8BF7A"},"geometry":{"type":"Polygon","coordinates":[[[5.7105774880000695,5.400083065000047],[5.726304054000082,5.37982988400006],[5.73126697500004,5.33410215400005],[5.748987198000066,5.325233936000075],[5.762532234000048,5.337830067000084],[5.778139114000055,5.345588207000048],[5.792416096000068,5.346399784000084],[5.801221848000068,5.354102135000062],[5.820942879000086,5.354266167000048],[5.85013198900009,5.366298199000084],[5.895699024000066,5.36529016500009],[5.91164636600007,5.379584312000077],[5.914051056000062,5.375901222000039],[5.913880825000092,5.340888977000077],[5.884943962000079,5.3367681500000685],[5.814880848000087,5.341039181000042],[5.776953220000053,5.315022469000041],[5.746222019000072,5.285490036000056],[5.737288952000085,5.260809898000048],[5.74837255500006,5.255601883000054],[5.8169269560000885,5.286701679000089],[5.849763870000061,5.284266949000084],[5.853080273000046,5.275839329000064],[5.849632263000046,5.264167309000072],[5.781363964000093,5.231190205000075],[5.767160892000049,5.2137351040000794],[5.767887115000065,5.203339100000051],[5.784961224000085,5.186837196000056],[5.793591499000058,5.186122417000092],[5.802856922000046,5.193862438000053],[5.822664261000057,5.193920612000056],[5.837276459000066,5.174850941000045],[5.877017498000043,5.189892292000081],[5.8798737530000835,5.175841331000072],[5.875911236000093,5.145131588000083],[5.881239414000049,5.110143185000084],[5.8677387240000485,5.068109512000092],[5.857383251000044,5.077362537000056],[5.848323822000054,5.0665497780000806],[5.840871334000042,5.067572594000069],[5.84057903300004,5.080577374000086],[5.835319042000037,5.082476616000065],[5.822606564000068,5.075755119000064],[5.809017181000058,5.086421967000092],[5.791336536000074,5.085837364000042],[5.779018879000091,5.05801391600005],[5.764239788000054,5.064246178000076],[5.751953602000071,5.05374050100005],[5.736462116000041,5.056589603000077],[5.730586052000092,5.054452896000043],[5.719368458000076,5.030948639000087],[5.71028709400008,5.0238261220000595],[5.666662216000077,5.028277874000082],[5.663635254000042,5.015100956000083],[5.647893429000078,5.011776447000045],[5.63293886200006,5.018383980000067],[5.619723320000048,5.034729481000056],[5.590857983000092,5.043424129000073],[5.58459806400009,5.055248260000042],[5.550863743000093,5.055596352000066],[5.524085045000049,5.068811893000088],[5.511565208000093,5.088287354000045],[5.502870560000076,5.092460632000041],[5.4705085750000535,5.093212605000076],[5.469812393000041,5.123188496000068],[5.436465263000059,5.141396523000083],[5.3931293490000485,5.134601116000056],[5.37332391700005,5.136266232000082],[5.3521032330000935,5.170878887000072],[5.356808185000091,5.186949730000038],[5.355471135000073,5.209993840000038],[5.322958947000075,5.354897022000046],[5.324370861000091,5.363636971000062],[5.330357075000052,5.367294789000084],[5.376717091000046,5.356749058000048],[5.389844894000078,5.3654408460000695],[5.38742017800007,5.391228199000068],[5.364913941000054,5.392931938000061],[5.280046939000044,5.426646233000042],[5.24312830000008,5.4445137980000595],[5.230130514000052,5.456836746000079],[5.2752957340000535,5.459639549000087],[5.324187279000057,5.45495414700008],[5.396937370000046,5.415019035000057],[5.5085492130000375,5.411999226000091],[5.548069954000084,5.394297123000058],[5.595732212000087,5.380824089000043],[5.671839237000086,5.393939972000055],[5.688078880000091,5.412106037000058],[5.699615002000087,5.4177498820000665],[5.707799911000052,5.412270069000044],[5.7105774880000695,5.400083065000047]]]}},{"type":"Feature","properties":{"CNTRY_NAME":"Nigeria","CNTRY_CODE":"NGA","ADM1_NAME":"Delta","ADM1_CODE":"NGA010","ADM2_NAME":"Warri South West","ADM2_CODE":"NGA010025","HRname":"Warri South West","HRpcode":"NG010025","HRparent":"NG010","Shape_Leng":2.23297974288,"Shape_Area":0.141961285166,"ADM2_New":"Warri South West","id":"NG-DE-WARRI-SOUTH-WEST","name":"Warri South West","parentId":"NG-DE","stateName":"Delta","regionId":"NG-SS","fillColor":"#B8956B"},"geometry":{"type":"Polygon","coordinates":[[[5.493133068000077,5.829592228000081],[5.485682011000051,5.816108227000086],[5.485727787000087,5.805706024000074],[5.5252208710000446,5.794246197000064],[5.521176815000047,5.785890102000053],[5.52529716500004,5.776908875000061],[5.5375561710000625,5.772850990000052],[5.549190044000056,5.756303787000093],[5.540368080000064,5.752068996000048],[5.520597935000069,5.763000011000088],[5.509050846000093,5.7601299290000725],[5.50705289800004,5.75040483500004],[5.5324501990000385,5.697217941000076],[5.520405769000092,5.652735233000044],[5.491244793000078,5.63446188000006],[5.4974718090000465,5.610241890000054],[5.54253721200007,5.569007874000079],[5.550103188000094,5.549654007000072],[5.567848206000065,5.535237789000064],[5.581536770000071,5.51524210000008],[5.563923836000072,5.4998378750000825],[5.563335896000069,5.479029179000065],[5.573564053000041,5.472873211000092],[5.5911960600000725,5.484115124000084],[5.614327908000064,5.481534004000082],[5.623140812000088,5.487847805000058],[5.659852982000075,5.490233898000042],[5.702110767000079,5.468395233000081],[5.731266022000057,5.488055229000054],[5.755723000000046,5.493805885000086],[5.75852823300005,5.474411964000069],[5.782364845000075,5.466289043000074],[5.788516045000051,5.459404945000074],[5.788486958000078,5.442311764000067],[5.772325039000066,5.430143833000045],[5.7291975020000905,5.409780979000061],[5.715527058000077,5.40760135700009],[5.7105774880000695,5.400083065000047],[5.707799911000052,5.412270069000044],[5.699615002000087,5.4177498820000665],[5.688078880000091,5.412106037000058],[5.671839237000086,5.393939972000055],[5.595732212000087,5.380824089000043],[5.548069954000084,5.394297123000058],[5.5085492130000375,5.411999226000091],[5.396937370000046,5.415019035000057],[5.324187279000057,5.45495414700008],[5.2752957340000535,5.459639549000087],[5.230341434000081,5.456867695000085],[5.183156013000087,5.50320386900006],[5.176628113000049,5.539821148000044],[5.180200100000093,5.553433895000069],[5.173783302000061,5.578263760000084],[5.133497238000075,5.620532036000043],[5.0868855070000905,5.6895303540000555],[5.242799282000078,5.695664883000063],[5.249303818000044,5.710299492000047],[5.270772457000078,5.718245029000059],[5.304591179000056,5.707047462000048],[5.325730801000077,5.71517801300007],[5.328982830000086,5.731439114000068],[5.343617916000085,5.742821693000053],[5.33643436400007,5.7648048400000675],[5.335487366000052,5.789978981000047],[5.356626987000084,5.804613590000088],[5.36807107900006,5.803605080000068],[5.3710560800000735,5.8137526510000725],[5.382644653000057,5.8241271970000525],[5.391351223000072,5.82688522300009],[5.413540363000038,5.822500706000085],[5.416422367000052,5.833451271000058],[5.424181938000061,5.82748222400005],[5.455222130000038,5.829272747000061],[5.461191654000061,5.819125175000067],[5.47858476600004,5.830631256000061],[5.493133068000077,5.829592228000081]]]}},{"type":"Feature","properties":{"CNTRY_NAME":"Nigeria","CNTRY_CODE":"NGA","ADM1_NAME":"Delta","ADM1_CODE":"NGA010","ADM2_NAME":"Warri North","ADM2_CODE":"NGA010023","HRname":"Warri North","HRpcode":"NG010023","HRparent":"NG010","Shape_Leng":2.40981452042,"Shape_Area":0.153875991212,"ADM2_New":"Warri North","id":"NG-DE-WARRI-NORTH","name":"Warri North","parentId":"NG-DE","stateName":"Delta","regionId":"NG-SS","fillColor":"#5B8FA8"},"geometry":{"type":"Polygon","coordinates":[[[5.270169735000081,6.05429601700007],[5.2477955820000375,5.986599922000039],[5.253449440000054,5.957025528000088],[5.268236637000086,5.939194202000067],[5.269696712000041,5.9189114570000925],[5.275195122000071,5.909184456000048],[5.304334641000082,5.919622421000042],[5.315147877000072,5.9346609120000835],[5.358699322000064,5.969638348000046],[5.336518764000061,5.984425545000079],[5.326950550000049,5.982685566000043],[5.3230361940000535,6.0053014760000565],[5.327385426000092,6.018349171000068],[5.3343439100000865,6.021393299000067],[5.342172623000067,6.016174316000047],[5.388225079000051,6.017794132000063],[5.39971113200005,6.021856785000068],[5.411170006000077,6.020219803000089],[5.415844440000058,6.010351658000047],[5.425902843000074,6.005814552000061],[5.431468487000075,6.013017178000041],[5.4275398250000535,6.0306963920000385],[5.442483902000049,6.040644169000075],[5.452094555000087,6.03429794300007],[5.4561910630000625,6.022396564000076],[5.465517998000053,6.027750015000038],[5.489745140000082,6.0300416950000795],[5.494328499000062,6.041828156000065],[5.51298999800008,6.03528022800009],[5.51888322800005,6.027422428000079],[5.51528215400009,6.021856785000068],[5.519210815000065,6.016291142000057],[5.532633781000072,6.011707783000077],[5.536596775000078,5.989902020000045],[5.546327591000079,5.985361576000059],[5.571273804000043,5.9908838270000615],[5.569334984000079,5.967982769000059],[5.5578517910000755,5.9505510330000675],[5.541590214000053,5.937239170000055],[5.517111778000071,5.936341763000087],[5.515114784000048,5.926617146000069],[5.538354874000049,5.899764061000042],[5.556734085000073,5.895755768000072],[5.565653801000053,5.877799988000049],[5.556167126000048,5.870092869000075],[5.565721989000053,5.862544060000062],[5.564401150000037,5.853518009000084],[5.5337910650000595,5.855342865000068],[5.520888805000084,5.851075172000037],[5.514682770000093,5.870440960000053],[5.50111103100005,5.864087105000067],[5.500523090000058,5.843276978000063],[5.493133068000077,5.829592228000081],[5.47858476600004,5.830631256000061],[5.461191654000061,5.819125175000067],[5.455222130000038,5.829272747000061],[5.424181938000061,5.82748222400005],[5.416422367000052,5.833451271000058],[5.413540363000038,5.822500706000085],[5.391351223000072,5.82688522300009],[5.382644653000057,5.8241271970000525],[5.3710560800000735,5.8137526510000725],[5.36807107900006,5.803605080000068],[5.356626987000084,5.804613590000088],[5.335487366000052,5.789978981000047],[5.33643436400007,5.7648048400000675],[5.343617916000085,5.742821693000053],[5.328982830000086,5.731439114000068],[5.325730801000077,5.71517801300007],[5.304591179000056,5.707047462000048],[5.270772457000078,5.718245029000059],[5.249303818000044,5.710299492000047],[5.242799282000078,5.695664883000063],[5.0868855070000905,5.6895303540000555],[5.074297905000037,5.708889961000068],[5.074906349000059,5.750308037000082],[5.036396026000091,5.778294087000063],[4.972363982000047,5.894415779000042],[4.983859062000079,5.898479939000083],[5.012680054000043,5.942235470000071],[5.087879181000062,6.1013021470000695],[5.126955986000041,6.1639466290000655],[5.135050774000092,6.169816971000046],[5.133102417000089,6.164677620000077],[5.141374588000076,6.155823231000056],[5.145542145000093,6.141641617000062],[5.157862186000045,6.146707058000061],[5.1614561080000385,6.142713547000085],[5.168694496000057,6.163574696000069],[5.181912422000039,6.156877518000044],[5.1801500320000855,6.14965152700006],[5.184027195000056,6.147360325000079],[5.193720818000088,6.151766300000077],[5.2033882140000856,6.145109653000077],[5.209378719000085,6.15349578900009],[5.2225570680000715,6.14870357500007],[5.217365742000084,6.136323452000056],[5.233738899000059,6.11236238500004],[5.232940197000062,6.065638542000045],[5.2389307020000615,6.062443733000066],[5.256502151000063,6.065238953000062],[5.270169735000081,6.05429601700007]]]}}]}