{"type":"FeatureCollection","features":[{"type":"Feature","properties":{"CNTRY_NAME":"Nigeria","CNTRY_CODE":"NGA","ADM1_NAME":"Ekiti","ADM1_CODE":"NGA013","ADM2_NAME":"Ado Ekiti","ADM2_CODE":"NGA013001","HRname":"Ado Ekiti","HRpcode":"NG013001","HRparent":"NG013","Shape_Leng":0.741087595492,"Shape_Area":0.0239818340794,"ADM2_New":"Ado Ekiti","id":"NG-EK-ADO-EKITI","name":"Ado Ekiti","parentId":"NG-EK","stateName":"Ekiti","regionId":"NG-SW","fillColor":"#6BA368"},"geometry":{"type":"Polygon","coordinates":[[[5.106438637000053,7.622524738000038],[5.134070396000084,7.623434544000077],[5.145360470000071,7.6298322680000865],[5.181112289000055,7.63622999200004],[5.19315528900006,7.652412415000072],[5.207455635000088,7.66106796300005],[5.240197182000088,7.671228886000051],[5.365892887000086,7.671605110000087],[5.378312111000071,7.665960312000038],[5.361006260000067,7.624787807000075],[5.364833832000045,7.619220257000052],[5.3933672900000715,7.608085155000083],[5.399282932000062,7.596602440000083],[5.363790035000079,7.550323009000067],[5.361834049000038,7.537303448000046],[5.27053499200008,7.545103073000064],[5.242349625000088,7.554498196000054],[5.169624329000044,7.606693268000072],[5.121604919000049,7.604257584000038],[5.113949776000084,7.60843324700005],[5.106438637000053,7.622524738000038]]]}},{"type":"Feature","properties":{"CNTRY_NAME":"Nigeria","CNTRY_CODE":"NGA","ADM1_NAME":"Ekiti","ADM1_CODE":"NGA013","ADM2_NAME":"Efon-Alayee","ADM2_CODE":"NGA013003","HRname":"Efon-Alayee","HRpcode":"NG013003","HRparent":"NG013","Shape_Leng":0.588706079356,"Shape_Area":0.0189563970226,"ADM2_New":"Efon","id":"NG-EK-EFON-ALAYEE","name":"Efon-Alayee","parentId":"NG-EK","stateName":"Ekiti","regionId":"NG-SW","fillColor":"#C4A574"},"geometry":{"type":"Polygon","coordinates":[[[4.893228531000091,7.730335236000087],[4.915257454000084,7.791219711000053],[4.922193527000047,7.793161869000073],[4.948160648000055,7.799559593000083],[4.968106747000093,7.795043468000074],[4.975633144000085,7.791279793000058],[4.99821329100007,7.757786274000068],[4.981278419000091,7.653541088000054],[4.972622395000087,7.626068592000081],[4.924828053000056,7.5944566730000815],[4.90638732900004,7.562844276000078],[4.883054733000051,7.611391544000071],[4.868001461000063,7.616283894000048],[4.863861561000078,7.622681618000058],[4.8879470830000855,7.691927433000046],[4.893228531000091,7.730335236000087]]]}},{"type":"Feature","properties":{"CNTRY_NAME":"Nigeria","CNTRY_CODE":"NGA","ADM1_NAME":"Ekiti","ADM1_CODE":"NGA013","ADM2_NAME":"Ekiti East","ADM2_CODE":"NGA013004","HRname":"Ekiti East","HRpcode":"NG013004","HRparent":"NG013","Shape_Leng":0.697612849862,"Shape_Area":0.0262315395642,"ADM2_New":"Ekiti East","id":"NG-EK-EKITI-EAST","name":"Ekiti East","parentId":"NG-EK","stateName":"Ekiti","regionId":"NG-SW","fillColor":"#5B8FA8"},"geometry":{"type":"Polygon","coordinates":[[[5.658533185000067,7.8277698860000555],[5.728981495000085,7.82834863700009],[5.755774975000065,7.795639515000062],[5.767953873000067,7.787636280000072],[5.791615486000069,7.782068729000059],[5.767605782000089,7.73718118700009],[5.716454983000062,7.700992584000062],[5.699404240000092,7.682898045000059],[5.6886172290000445,7.632442951000087],[5.680962086000079,7.623744011000042],[5.655056477000073,7.62872266800008],[5.642978668000069,7.612056732000042],[5.6169362070000375,7.635226727000088],[5.588402748000078,7.6717634200000475],[5.554645393000044,7.691915713000071],[5.57982181400007,7.727766501000076],[5.616752189000067,7.755262109000057],[5.658533185000067,7.8277698860000555]]]}},{"type":"Feature","properties":{"CNTRY_NAME":"Nigeria","CNTRY_CODE":"NGA","ADM1_NAME":"Ekiti","ADM1_CODE":"NGA013","ADM2_NAME":"Ekiti South West","ADM2_CODE":"NGA013005","HRname":"Ekiti South West","HRpcode":"NG013005","HRparent":"NG013","Shape_Leng":0.825087300793,"Shape_Area":0.0282338403208,"ADM2_New":"Ekiti South West","id":"NG-EK-EKITI-SOUTH-WEST","name":"Ekiti South West","parentId":"NG-EK","stateName":"Ekiti","regionId":"NG-SW","fillColor":"#A8BF7A"},"geometry":{"type":"Polygon","coordinates":[[[5.099828243000047,7.639666557000055],[5.113949776000084,7.60843324700005],[5.121604919000049,7.604257584000038],[5.169624329000044,7.606693268000072],[5.18788528400006,7.596259117000045],[5.184935093000092,7.5840754510000465],[5.16418027900005,7.544652462000045],[5.136755943000082,7.509610176000081],[5.085564137000063,7.4593329430000495],[5.048568249000084,7.4573326110000835],[5.019958973000087,7.433166504000042],[5.006159306000086,7.413699627000085],[4.987108707000061,7.419235229000037],[4.984821320000037,7.426478386000042],[4.947844028000077,7.454688072000067],[4.920206070000063,7.51720619200006],[4.90638732900004,7.562844276000078],[4.997837067000091,7.540640831000076],[5.0347180370000615,7.547414780000054],[5.061437607000073,7.582413673000076],[5.074985981000054,7.610639095000067],[5.099828243000047,7.639666557000055]]]}},{"type":"Feature","properties":{"CNTRY_NAME":"Nigeria","CNTRY_CODE":"NGA","ADM1_NAME":"Ekiti","ADM1_CODE":"NGA013","ADM2_NAME":"Ekiti West","ADM2_CODE":"NGA013006","HRname":"Ekiti West","HRpcode":"NG013006","HRparent":"NG013","Shape_Leng":1.03688692796,"Shape_Area":0.0298920524511,"ADM2_New":"Ekiti West","id":"NG-EK-EKITI-WEST","name":"Ekiti West","parentId":"NG-EK","stateName":"Ekiti","regionId":"NG-SW","fillColor":"#B8956B"},"geometry":{"type":"Polygon","coordinates":[[[4.911100864000048,7.850109577000069],[4.923782825000046,7.863490582000054],[4.927299976000086,7.880373955000039],[4.941370010000071,7.897609234000072],[4.973751545000084,7.864289284000051],[4.97902011900004,7.822892189000072],[4.996707916000048,7.792032719000076],[5.052029133000076,7.734829903000048],[5.103587151000056,7.70547533000007],[5.113748550000082,7.693432808000068],[5.101705551000066,7.6430039410000745],[5.074985981000054,7.610639095000067],[5.061437607000073,7.582413673000076],[5.0347180370000615,7.547414780000054],[4.997837067000091,7.540640831000076],[4.90638732900004,7.562844276000078],[4.924828053000056,7.5944566730000815],[4.972622395000087,7.626068592000081],[4.99821329100007,7.747624874000053],[4.992568493000078,7.769452572000091],[4.975633144000085,7.791279793000058],[4.948160648000055,7.799559593000083],[4.915257454000084,7.791219711000053],[4.915795803000037,7.822114468000052],[4.908579350000082,7.829799175000062],[4.911100864000048,7.850109577000069]]]}},{"type":"Feature","properties":{"CNTRY_NAME":"Nigeria","CNTRY_CODE":"NGA","ADM1_NAME":"Ekiti","ADM1_CODE":"NGA013","ADM2_NAME":"Emure","ADM2_CODE":"NGA013007","HRname":"Emure","HRpcode":"NG013007","HRparent":"NG013","Shape_Leng":0.681082730439,"Shape_Area":0.0245920307405,"ADM2_New":"Emure","id":"NG-EK-EMURE","name":"Emure","parentId":"NG-EK","stateName":"Ekiti","regionId":"NG-SW","fillColor":"#6AADA3"},"geometry":{"type":"Polygon","coordinates":[[[5.552736282000069,7.554846287000089],[5.571874619000084,7.556238174000043],[5.589620590000038,7.5346641540000405],[5.612900257000092,7.518630981000058],[5.610309124000082,7.484452248000082],[5.599372864000088,7.450227261000066],[5.521214485000087,7.332527637000055],[5.504433632000087,7.316193104000092],[5.481499672000041,7.304606438000064],[5.454043865000074,7.300614357000086],[5.449389935000056,7.331103325000072],[5.458089352000059,7.369031906000089],[5.440690994000079,7.42609834700005],[5.442430496000043,7.454631805000076],[5.452173710000068,7.467506409000066],[5.499497414000075,7.490472317000069],[5.528726578000089,7.511350632000074],[5.552736282000069,7.554846287000089]]]}},{"type":"Feature","properties":{"CNTRY_NAME":"Nigeria","CNTRY_CODE":"NGA","ADM1_NAME":"Ekiti","ADM1_CODE":"NGA013","ADM2_NAME":"Gboyin","ADM2_CODE":"NGA013002","HRname":"Gboyin","HRpcode":"NG013002","HRparent":"NG013","Shape_Leng":0.904668805856,"Shape_Area":0.0319943490909,"ADM2_New":"Aiyekire (Gbonyin)","id":"NG-EK-GBOYIN","name":"Gboyin","parentId":"NG-EK","stateName":"Ekiti","regionId":"NG-SW","fillColor":"#8FAF6E"},"geometry":{"type":"Polygon","coordinates":[[[5.378312111000071,7.665960312000038],[5.3959999080000784,7.680637360000048],[5.416892529000052,7.71651363400008],[5.423292637000088,7.710735798000087],[5.439647198000046,7.66828346300008],[5.458089352000059,7.657148838000069],[5.49914932300004,7.659236431000068],[5.554128647000084,7.692150593000065],[5.570656776000078,7.684986115000072],[5.588402748000078,7.6717634200000475],[5.6169362070000375,7.635226727000088],[5.642978668000069,7.612056732000042],[5.620030403000044,7.5703787800000555],[5.612900257000092,7.518630981000058],[5.589620590000038,7.5346641540000405],[5.571874619000084,7.556238174000043],[5.381884575000072,7.535707951000063],[5.361834049000038,7.537303448000046],[5.363790035000079,7.550323009000067],[5.399282932000062,7.596602440000083],[5.3933672900000715,7.608085155000083],[5.364833832000045,7.619220257000052],[5.361006260000067,7.624787807000075],[5.378312111000071,7.665960312000038]]]}},{"type":"Feature","properties":{"CNTRY_NAME":"Nigeria","CNTRY_CODE":"NGA","ADM1_NAME":"Ekiti","ADM1_CODE":"NGA013","ADM2_NAME":"Idosi-Osi","ADM2_CODE":"NGA013008","HRname":"Idosi-Osi","HRpcode":"NG013008","HRparent":"NG013","Shape_Leng":0.602452642016,"Shape_Area":0.0189343649301,"ADM2_New":"Ido-Osi","id":"NG-EK-IDOSI-OSI","name":"Idosi-Osi","parentId":"NG-EK","stateName":"Ekiti","regionId":"NG-SW","fillColor":"#D4C4A0"},"geometry":{"type":"Polygon","coordinates":[[[5.094156265000038,7.922412395000038],[5.111114025000063,7.943319321000047],[5.129554272000064,7.952351570000076],[5.16470670700005,7.938229561000071],[5.179230690000054,7.92149210000008],[5.197670937000055,7.912459850000062],[5.258539200000087,7.904277802000081],[5.2544975280000585,7.8349347110000735],[5.2656531330000576,7.789870262000079],[5.259766579000086,7.783753395000076],[5.236433506000083,7.779989719000071],[5.176596165000092,7.77810812000007],[5.14159727100008,7.770957947000056],[5.138210297000057,7.860525608000046],[5.119017124000038,7.892890453000064],[5.094156265000038,7.922412395000038]]]}},{"type":"Feature","properties":{"CNTRY_NAME":"Nigeria","CNTRY_CODE":"NGA","ADM1_NAME":"Ekiti","ADM1_CODE":"NGA013","ADM2_NAME":"Ijero","ADM2_CODE":"NGA013009","HRname":"Ijero","HRpcode":"NG013009","HRparent":"NG013","Shape_Leng":0.74130133096,"Shape_Area":0.0319446964351,"ADM2_New":"Ijero","id":"NG-EK-IJERO","name":"Ijero","parentId":"NG-EK","stateName":"Ekiti","regionId":"NG-SW","fillColor":"#688EB5"},"geometry":{"type":"Polygon","coordinates":[[[5.033235073000071,7.982283592000044],[5.0685882570000445,7.9531040190000795],[5.119017124000038,7.892890453000064],[5.138210297000057,7.860525608000046],[5.13933897000004,7.772087097000053],[5.113748550000082,7.693432808000068],[5.103587151000056,7.70547533000007],[5.052029133000076,7.734829903000048],[4.996707916000048,7.792032719000076],[4.97902011900004,7.822892189000072],[4.973751545000084,7.864289284000051],[4.941370010000071,7.897609234000072],[4.99053955100004,7.931201458000089],[5.001213551000092,7.94606828700006],[5.016461849000052,7.955217361000052],[5.033235073000071,7.982283592000044]]]}},{"type":"Feature","properties":{"CNTRY_NAME":"Nigeria","CNTRY_CODE":"NGA","ADM1_NAME":"Ekiti","ADM1_CODE":"NGA013","ADM2_NAME":"Ikere","ADM2_CODE":"NGA013010","HRname":"Ikere","HRpcode":"NG013010","HRparent":"NG013","Shape_Leng":0.657912863165,"Shape_Area":0.0214587628406,"ADM2_New":"Ikere","id":"NG-EK-IKERE","name":"Ikere","parentId":"NG-EK","stateName":"Ekiti","regionId":"NG-SW","fillColor":"#7CB087"},"geometry":{"type":"Polygon","coordinates":[[[5.18788528400006,7.596259117000045],[5.242349625000088,7.554498196000054],[5.27053499200008,7.545103073000064],[5.313019276000091,7.5430307390000735],[5.296425343000067,7.500164509000058],[5.297339439000041,7.4846239090000495],[5.308309078000093,7.472435474000065],[5.300995827000065,7.457504749000066],[5.306253910000066,7.440543652000088],[5.294395447000056,7.436533928000074],[5.2202310560000456,7.434276104000048],[5.126518726000086,7.445760727000049],[5.084746361000043,7.456950665000079],[5.136755943000082,7.509610176000081],[5.16418027900005,7.544652462000045],[5.18788528400006,7.596259117000045]]]}},{"type":"Feature","properties":{"CNTRY_NAME":"Nigeria","CNTRY_CODE":"NGA","ADM1_NAME":"Ekiti","ADM1_CODE":"NGA013","ADM2_NAME":"Ikole","ADM2_CODE":"NGA013011","HRname":"Ikole","HRpcode":"NG013011","HRparent":"NG013","Shape_Leng":1.59662659468,"Shape_Area":0.087753608086,"ADM2_New":"Ikole","id":"NG-EK-IKOLE","name":"Ikole","parentId":"NG-EK","stateName":"Ekiti","regionId":"NG-SW","fillColor":"#C9B896"},"geometry":{"type":"Polygon","coordinates":[[[5.359210014000041,8.03610801700006],[5.358742714000073,8.073907852000048],[5.364011288000086,8.090466499000058],[5.371161938000057,8.09648799900009],[5.398257732000047,8.103638649000061],[5.51393795000007,8.111246109000092],[5.50593471500008,8.018686295000066],[5.516025543000069,8.02216625200009],[5.576571941000054,8.071229935000076],[5.656256676000055,8.074708939000061],[5.659736156000065,8.069837570000061],[5.639902115000041,8.053831100000082],[5.650689125000042,8.023557663000076],[5.662519932000066,8.015206337000052],[5.6680874820000895,8.002331734000052],[5.650732994000066,7.990740776000052],[5.645469666000054,7.963011742000049],[5.627027035000083,7.957096100000058],[5.609628677000046,7.9661436080000385],[5.598841667000045,7.9584879880000585],[5.614152431000093,7.865581036000037],[5.623199463000049,7.842963219000069],[5.630506992000051,7.834959984000079],[5.6426858900000525,7.8286962510000535],[5.656604290000075,7.82834863700009],[5.656917341000053,7.824540257000081],[5.6129782820000855,7.751218637000079],[5.581169638000063,7.730192584000065],[5.555021854000074,7.692453515000068],[5.49914932300004,7.659236431000068],[5.4786190990000705,7.655756950000068],[5.447302341000068,7.662020206000079],[5.439647198000046,7.66828346300008],[5.423292637000088,7.710735798000087],[5.409373760000051,7.719782829000053],[5.3874263760000645,7.723801136000077],[5.396673203000091,7.749360085000092],[5.396673203000091,7.784504414000082],[5.4147334100000535,7.8381705280000915],[5.417899132000059,7.879847527000038],[5.426598072000047,7.914992332000054],[5.435993195000037,7.932390690000091],[5.436341286000072,7.951180935000082],[5.450955868000051,7.979714394000041],[5.359210014000041,8.03610801700006]]]}},{"type":"Feature","properties":{"CNTRY_NAME":"Nigeria","CNTRY_CODE":"NGA","ADM1_NAME":"Ekiti","ADM1_CODE":"NGA013","ADM2_NAME":"Ilemeji","ADM2_CODE":"NGA013012","HRname":"Ilemeji","HRpcode":"NG013012","HRparent":"NG013","Shape_Leng":0.372476410681,"Shape_Area":0.00776394911809,"ADM2_New":"Ilejemeji","id":"NG-EK-ILEMEJI","name":"Ilemeji","parentId":"NG-EK","stateName":"Ekiti","regionId":"NG-SW","fillColor":"#5E9E78"},"geometry":{"type":"Polygon","coordinates":[[[5.244451523000066,8.020535469000038],[5.282862186000045,8.008471489000044],[5.273314476000053,7.954233170000066],[5.2608952520000685,7.926760674000093],[5.258637428000043,7.906438828000091],[5.207079411000052,7.909449100000074],[5.179230690000054,7.92149210000008],[5.16470670700005,7.938229561000071],[5.180736065000076,7.956114769000067],[5.221004009000069,7.97944784200007],[5.244451523000066,8.020535469000038]]]}},{"type":"Feature","properties":{"CNTRY_NAME":"Nigeria","CNTRY_CODE":"NGA","ADM1_NAME":"Ekiti","ADM1_CODE":"NGA013","ADM2_NAME":"Irepodun/Ifelodun","ADM2_CODE":"NGA013013","HRname":"Irepodun/Ifelodun","HRpcode":"NG013013","HRparent":"NG013","Shape_Leng":0.815013317191,"Shape_Area":0.0291194709808,"ADM2_New":"Irepodun/Ifelodun","id":"NG-EK-IREPODUN-IFELODUN","name":"Irepodun/Ifelodun","parentId":"NG-EK","stateName":"Ekiti","regionId":"NG-SW","fillColor":"#94B86A"},"geometry":{"type":"Polygon","coordinates":[[[5.13933897000004,7.772087097000053],[5.236433506000083,7.779989719000071],[5.259766579000086,7.783753395000076],[5.263906002000056,7.788269520000085],[5.320732594000049,7.745367050000084],[5.372667313000079,7.724668503000089],[5.416892529000052,7.71651363400008],[5.3959999080000784,7.680637360000048],[5.378312111000071,7.665960312000038],[5.3546028140000885,7.672358036000048],[5.240197182000088,7.671228886000051],[5.207455635000088,7.66106796300005],[5.19315528900006,7.652412415000072],[5.181112289000055,7.63622999200004],[5.145360470000071,7.6298322680000865],[5.134070396000084,7.623434544000077],[5.106438637000053,7.622524738000038],[5.099828243000047,7.639666557000055],[5.109232426000062,7.682518959000049],[5.13933897000004,7.772087097000053]]]}},{"type":"Feature","properties":{"CNTRY_NAME":"Nigeria","CNTRY_CODE":"NGA","ADM1_NAME":"Ekiti","ADM1_CODE":"NGA013","ADM2_NAME":"Ise/Orun","ADM2_CODE":"NGA013014","HRname":"Ise/Orun","HRpcode":"NG013014","HRparent":"NG013","Shape_Leng":0.939328710505,"Shape_Area":0.0352987304669,"ADM2_New":"Ise/Orun","id":"NG-EK-ISE-ORUN","name":"Ise/Orun","parentId":"NG-EK","stateName":"Ekiti","regionId":"NG-SW","fillColor":"#C2A882"},"geometry":{"type":"Polygon","coordinates":[[[5.313019276000091,7.5430307390000735],[5.381884575000072,7.535707951000063],[5.552736282000069,7.554846287000089],[5.528726578000089,7.511350632000074],[5.499497414000075,7.490472317000069],[5.452173710000068,7.467506409000066],[5.442430496000043,7.454631805000076],[5.440690994000079,7.42609834700005],[5.458089352000059,7.369031906000089],[5.449389935000056,7.331103325000072],[5.454043865000074,7.300614357000086],[5.388226032000091,7.2831869130000655],[5.358230114000094,7.295613289000073],[5.346626282000045,7.3814215660000855],[5.320331097000064,7.4412946700000475],[5.308277607000093,7.441227913000091],[5.300995827000065,7.457504749000066],[5.308309078000093,7.472435474000065],[5.297339439000041,7.4846239090000495],[5.296425343000067,7.500164509000058],[5.313019276000091,7.5430307390000735]]]}},{"type":"Feature","properties":{"CNTRY_NAME":"Nigeria","CNTRY_CODE":"NGA","ADM1_NAME":"Ekiti","ADM1_CODE":"NGA013","ADM2_NAME":"Moba","ADM2_CODE":"NGA013015","HRname":"Moba","HRpcode":"NG013015","HRparent":"NG013","Shape_Leng":0.583456274521,"Shape_Area":0.0163134392048,"ADM2_New":"Moba","id":"NG-EK-MOBA","name":"Moba","parentId":"NG-EK","stateName":"Ekiti","regionId":"NG-SW","fillColor":"#72A898"},"geometry":{"type":"Polygon","coordinates":[[[5.057632923000085,8.03946495100007],[5.075738430000058,8.024984360000076],[5.084393978000094,8.024231911000072],[5.117887974000041,8.062618256000064],[5.142349720000084,8.061864853000088],[5.181865215000073,8.03627395600006],[5.195789337000065,8.018210411000041],[5.244451523000066,8.020535469000038],[5.221004009000069,7.97944784200007],[5.180736065000076,7.956114769000067],[5.16470670700005,7.938229561000071],[5.129554272000064,7.952351570000076],[5.111114025000063,7.943319321000047],[5.094156265000038,7.922412395000038],[5.0685882570000445,7.9531040190000795],[5.033235073000071,7.982283592000044],[5.035522461000085,8.005156517000046],[5.053058147000058,8.023454666000077],[5.057632923000085,8.03946495100007]]]}},{"type":"Feature","properties":{"CNTRY_NAME":"Nigeria","CNTRY_CODE":"NGA","ADM1_NAME":"Ekiti","ADM1_CODE":"NGA013","ADM2_NAME":"Oye","ADM2_CODE":"NGA013016","HRname":"Oye","HRpcode":"NG013016","HRparent":"NG013","Shape_Leng":0.832779759055,"Shape_Area":0.0414740835263,"ADM2_New":"Oye","id":"NG-EK-OYE","name":"Oye","parentId":"NG-EK","stateName":"Ekiti","regionId":"NG-SW","fillColor":"#D4896A"},"geometry":{"type":"Polygon","coordinates":[[[5.282862186000045,8.008471489000044],[5.33239936800004,8.009554863000062],[5.357989788000054,8.034016609000048],[5.450955868000051,7.979714394000041],[5.436341286000072,7.951180935000082],[5.435993195000037,7.932390690000091],[5.426598072000047,7.914992332000054],[5.417899132000059,7.879847527000038],[5.4147334100000535,7.8381705280000915],[5.396673203000091,7.784504414000082],[5.396673203000091,7.749360085000092],[5.3874263760000645,7.723801136000077],[5.372667313000079,7.724668503000089],[5.320732594000049,7.745367050000084],[5.281593800000053,7.771334171000092],[5.2656531330000576,7.789870262000079],[5.2544975280000585,7.8349347110000735],[5.258637428000043,7.916599751000092],[5.273314476000053,7.954233170000066],[5.282862186000045,8.008471489000044]]]}}]}