{"type":"FeatureCollection","features":[{"type":"Feature","properties":{"CNTRY_NAME":"Nigeria","CNTRY_CODE":"NGA","ADM1_NAME":"Enugu","ADM1_CODE":"NGA014","ADM2_NAME":"Aninri","ADM2_CODE":"NGA014001","HRname":"Aninri","HRpcode":"NG014001","HRparent":"NG014","Shape_Leng":0.798125615036,"Shape_Area":0.0297081527089,"ADM2_New":"Aninri","id":"NG-EN-ANINRI","name":"Aninri","parentId":"NG-EN","stateName":"Enugu","regionId":"NG-SE","fillColor":"#6BA368"},"geometry":{"type":"Polygon","coordinates":[[[7.531876087000057,6.209060192000038],[7.54479789700008,6.186883450000039],[7.549162865000085,6.168985367000062],[7.57142686800006,6.155452728000057],[7.584959507000065,6.152833462000046],[7.6220655440000655,6.157198906000076],[7.6303596500000594,6.152396679000049],[7.654369831000054,6.0987019540000915],[7.661354542000083,6.069453716000055],[7.668315411000037,6.060618877000081],[7.663979530000063,6.049056530000087],[7.6757860180000534,6.010004520000052],[7.711205006000057,5.970952511000064],[7.714838028000088,5.94597721100007],[7.704847813000072,5.92917585400005],[7.691889286000048,5.9246401790000505],[7.664433479000081,5.930084229000045],[7.573160648000055,5.969135761000075],[7.520060062000084,6.020018578000077],[7.532356262000064,6.049373150000065],[7.5319194790000665,6.066398144000061],[7.522315979000041,6.121402264000039],[7.5100927350000575,6.149777412000049],[7.523625374000062,6.174223900000072],[7.531876087000057,6.209060192000038]]]}},{"type":"Feature","properties":{"CNTRY_NAME":"Nigeria","CNTRY_CODE":"NGA","ADM1_NAME":"Enugu","ADM1_CODE":"NGA014","ADM2_NAME":"Awgu","ADM2_CODE":"NGA014002","HRname":"Awgu","HRpcode":"NG014002","HRparent":"NG014","Shape_Leng":0.841524929852,"Shape_Area":0.0364618547142,"ADM2_New":"Awgu","id":"NG-EN-AWGU","name":"Awgu","parentId":"NG-EN","stateName":"Enugu","regionId":"NG-SE","fillColor":"#C4A574"},"geometry":{"type":"Polygon","coordinates":[[[7.443956375000084,6.338799953000091],[7.503108025000074,6.237958908000053],[7.531876087000057,6.209060192000038],[7.523625374000062,6.174223900000072],[7.5100927350000575,6.149777412000049],[7.527990818000092,6.098265648000051],[7.532356262000064,6.049373150000065],[7.520060062000084,6.020018578000077],[7.415839672000061,6.006217957000047],[7.404417992000049,6.012404442000047],[7.386810303000061,6.036674976000086],[7.392226219000065,6.057230473000061],[7.3861145970000734,6.095209599000043],[7.393972397000084,6.137554169000055],[7.374764442000071,6.181208611000045],[7.37104129800008,6.204072952000047],[7.381094456000085,6.217004776000067],[7.3911347390000515,6.246689796000055],[7.418637276000084,6.282049656000083],[7.42649459800009,6.309988499000042],[7.443956375000084,6.338799953000091]]]}},{"type":"Feature","properties":{"CNTRY_NAME":"Nigeria","CNTRY_CODE":"NGA","ADM1_NAME":"Enugu","ADM1_CODE":"NGA014","ADM2_NAME":"Enugu East","ADM2_CODE":"NGA014003","HRname":"Enugu East","HRpcode":"NG014003","HRparent":"NG014","Shape_Leng":0.708640907269,"Shape_Area":0.0313448876312,"ADM2_New":"Enugu East","id":"NG-EN-ENUGU-EAST","name":"Enugu East","parentId":"NG-EN","stateName":"Enugu","regionId":"NG-SE","fillColor":"#5B8FA8"},"geometry":{"type":"Polygon","coordinates":[[[7.459235668000076,6.616877079000062],[7.482808590000047,6.626044750000062],[7.540868759000091,6.628664017000062],[7.557457447000047,6.650054455000088],[7.572299957000041,6.653983593000078],[7.600238323000042,6.643506527000056],[7.627304077000076,6.618186951000041],[7.653496742000073,6.601598263000085],[7.649131298000043,6.582390308000072],[7.650004387000081,6.541791916000079],[7.656552315000056,6.50381279000004],[7.651750565000043,6.486351490000061],[7.632105827000089,6.457102776000056],[7.630680084000062,6.448190689000057],[7.596309662000067,6.465833664000058],[7.495468616000039,6.465833664000058],[7.472768307000081,6.485041618000082],[7.4601354600000604,6.480928421000044],[7.4631643300000405,6.564492226000084],[7.459235668000076,6.616877079000062]]]}},{"type":"Feature","properties":{"CNTRY_NAME":"Nigeria","CNTRY_CODE":"NGA","ADM1_NAME":"Enugu","ADM1_CODE":"NGA014","ADM2_NAME":"Enugu North","ADM2_CODE":"NGA014004","HRname":"Enugu North","HRpcode":"NG014004","HRparent":"NG014","Shape_Leng":0.459304620879,"Shape_Area":0.00869632742203,"ADM2_New":"Enugu North","id":"NG-EN-ENUGU-NORTH","name":"Enugu North","parentId":"NG-EN","stateName":"Enugu","regionId":"NG-SE","fillColor":"#A8BF7A"},"geometry":{"type":"Polygon","coordinates":[[[7.4601354600000604,6.480928421000044],[7.472768307000081,6.485041618000082],[7.495468616000039,6.465833664000058],[7.596309662000067,6.465833664000058],[7.630680084000062,6.448190689000057],[7.619009972000072,6.419996738000066],[7.581467152000073,6.396860123000067],[7.543488026000091,6.423925877000045],[7.532137871000089,6.427418232000093],[7.452397823000069,6.423397064000085],[7.447448730000076,6.450554848000081],[7.4601354600000604,6.480928421000044]]]}},{"type":"Feature","properties":{"CNTRY_NAME":"Nigeria","CNTRY_CODE":"NGA","ADM1_NAME":"Enugu","ADM1_CODE":"NGA014","ADM2_NAME":"Enugu South","ADM2_CODE":"NGA014005","HRname":"Enugu South","HRpcode":"NG014005","HRparent":"NG014","Shape_Leng":0.320613747544,"Shape_Area":0.00551265247551,"ADM2_New":"Enugu South","id":"NG-EN-ENUGU-SOUTH","name":"Enugu South","parentId":"NG-EN","stateName":"Enugu","regionId":"NG-SE","fillColor":"#B8956B"},"geometry":{"type":"Polygon","coordinates":[[[7.440865517000077,6.410357475000069],[7.452397823000069,6.423397064000085],[7.532137871000089,6.427418232000093],[7.543488026000091,6.423925877000045],[7.581467152000073,6.396860123000067],[7.559203625000066,6.37634277300009],[7.5456709860000615,6.370231152000088],[7.475387573000091,6.379835129000071],[7.465347290000068,6.384200573000044],[7.440865517000077,6.410357475000069]]]}},{"type":"Feature","properties":{"CNTRY_NAME":"Nigeria","CNTRY_CODE":"NGA","ADM1_NAME":"Enugu","ADM1_CODE":"NGA014","ADM2_NAME":"Ezeagu","ADM2_CODE":"NGA014006","HRname":"Ezeagu","HRpcode":"NG014006","HRparent":"NG014","Shape_Leng":1.00428453574,"Shape_Area":0.0517331395767,"ADM2_New":"Ezeagu","id":"NG-EN-EZEAGU","name":"Ezeagu","parentId":"NG-EN","stateName":"Enugu","regionId":"NG-SE","fillColor":"#6AADA3"},"geometry":{"type":"Polygon","coordinates":[[[7.049659252000083,6.4743566510000505],[7.082063198000071,6.476747513000078],[7.106945992000078,6.489843845000053],[7.150443554000049,6.560241222000059],[7.165006161000065,6.5304422380000915],[7.179848671000059,6.5286960600000725],[7.212589264000087,6.509488106000049],[7.24882221200005,6.504249573000038],[7.316486359000066,6.465833664000058],[7.380658150000045,6.411702633000061],[7.389388561000089,6.383327484000063],[7.387206078000077,6.36673879600005],[7.378911972000083,6.3523330690000535],[7.3662519450000445,6.34272909200007],[7.336130619000073,6.333561897000038],[7.301643848000083,6.314790249000055],[7.245460987000058,6.275623322000058],[7.184432507000054,6.2837958340000455],[7.160283089000075,6.303468704000068],[7.135833740000066,6.3727283480000665],[7.096612930000049,6.422408104000056],[7.088768959000049,6.430252075000055],[7.029937744000051,6.442890167000087],[7.036256313000081,6.4738307000000646],[7.049659252000083,6.4743566510000505]]]}},{"type":"Feature","properties":{"CNTRY_NAME":"Nigeria","CNTRY_CODE":"NGA","ADM1_NAME":"Enugu","ADM1_CODE":"NGA014","ADM2_NAME":"Igbo-Etiti","ADM2_CODE":"NGA014007","HRname":"Igbo-Etiti","HRpcode":"NG014007","HRparent":"NG014","Shape_Leng":0.686244339484,"Shape_Area":0.0266151183176,"ADM2_New":"Igbo-Etiti","id":"NG-EN-IGBO-ETITI","name":"Igbo-Etiti","parentId":"NG-EN","stateName":"Enugu","regionId":"NG-SE","fillColor":"#8FAF6E"},"geometry":{"type":"Polygon","coordinates":[[[7.332398891000082,6.724825859000077],[7.348353863000057,6.721210957000039],[7.442646980000063,6.766611099000045],[7.464622021000082,6.772019863000082],[7.477570057000037,6.75351476700007],[7.498960972000077,6.74914932300004],[7.508128166000063,6.740855217000046],[7.511620522000044,6.722957134000069],[7.530828476000067,6.685851097000068],[7.532137871000089,6.662277699000072],[7.543806553000081,6.631067276000067],[7.482808590000047,6.626044750000062],[7.471895218000043,6.619496346000062],[7.42867755900005,6.611202240000068],[7.393317699000079,6.615131378000058],[7.376292706000072,6.630846500000075],[7.339186668000082,6.642633438000075],[7.312994003000085,6.660094738000055],[7.285315990000072,6.66936159100004],[7.281126499000038,6.701129913000045],[7.317359447000058,6.723393440000052],[7.332398891000082,6.724825859000077]]]}},{"type":"Feature","properties":{"CNTRY_NAME":"Nigeria","CNTRY_CODE":"NGA","ADM1_NAME":"Enugu","ADM1_CODE":"NGA014","ADM2_NAME":"Igbo-Eze North","ADM2_CODE":"NGA014008","HRname":"Igbo-Eze North","HRpcode":"NG014008","HRparent":"NG014","Shape_Leng":0.599521663531,"Shape_Area":0.0240029876572,"ADM2_New":"Igbo-Eze North","id":"NG-EN-IGBO-EZE-NORTH","name":"Igbo-Eze North","parentId":"NG-EN","stateName":"Enugu","regionId":"NG-SE","fillColor":"#D4C4A0"},"geometry":{"type":"Polygon","coordinates":[[[7.366837025000052,7.03986597100004],[7.384659290000059,7.051668167000059],[7.389385700000048,7.065060139000082],[7.3878102300000705,7.083178520000047],[7.397263527000064,7.090268135000088],[7.429561138000054,7.090268135000088],[7.4555573460000915,7.103660107000053],[7.469736576000059,7.099720955000066],[7.491006374000051,7.073725224000043],[7.502034664000064,7.068998814000054],[7.5305137630000445,7.032278061000056],[7.5588793750000605,6.971568108000042],[7.490959167000085,6.909144402000038],[7.484118462000083,6.916345119000084],[7.4557433130000845,6.927258492000078],[7.418200493000086,6.93075084700007],[7.398992538000073,6.943410397000093],[7.373236656000074,7.009765148000042],[7.366837025000052,7.03986597100004]]]}},{"type":"Feature","properties":{"CNTRY_NAME":"Nigeria","CNTRY_CODE":"NGA","ADM1_NAME":"Enugu","ADM1_CODE":"NGA014","ADM2_NAME":"Igbo-Eze South","ADM2_CODE":"NGA014009","HRname":"Igbo-Eze South","HRpcode":"NG014009","HRparent":"NG014","Shape_Leng":0.575854199444,"Shape_Area":0.0129125371206,"ADM2_New":"Igbo-Eze South","id":"NG-EN-IGBO-EZE-SOUTH","name":"Igbo-Eze South","parentId":"NG-EN","stateName":"Enugu","regionId":"NG-SE","fillColor":"#688EB5"},"geometry":{"type":"Polygon","coordinates":[[[7.310143948000075,7.003999710000073],[7.327153206000048,7.024096489000044],[7.366837025000052,7.03986597100004],[7.388515472000051,6.96698379500009],[7.406414032000043,6.935116291000043],[7.4557433130000845,6.927258492000078],[7.484118462000083,6.916345119000084],[7.490959167000085,6.909144402000038],[7.453174114000092,6.865784645000076],[7.435225487000082,6.886660099000039],[7.408160210000062,6.899756432000061],[7.327836514000069,6.911979675000055],[7.312994003000085,6.92376613600004],[7.302953720000062,6.948648930000047],[7.3151764870000875,6.986191750000046],[7.310143948000075,7.003999710000073]]]}},{"type":"Feature","properties":{"CNTRY_NAME":"Nigeria","CNTRY_CODE":"NGA","ADM1_NAME":"Enugu","ADM1_CODE":"NGA014","ADM2_NAME":"Isi-Uzo","ADM2_CODE":"NGA014010","HRname":"Isi-Uzo","HRpcode":"NG014010","HRparent":"NG014","Shape_Leng":1.24697197387,"Shape_Area":0.0717662448623,"ADM2_New":"Isi-Uzo","id":"NG-EN-ISI-UZO","name":"Isi-Uzo","parentId":"NG-EN","stateName":"Enugu","regionId":"NG-SE","fillColor":"#7CB087"},"geometry":{"type":"Polygon","coordinates":[[[7.7760343550000925,6.875824928000043],[7.800593853000066,6.8728480340000715],[7.8344669340000905,6.880725384000073],[7.863614082000083,6.879937649000055],[7.8880343440000615,6.853941917000043],[7.886458874000084,6.794072628000038],[7.890003681000053,6.785407066000062],[7.900244713000063,6.786194801000079],[7.903395653000075,6.7814683910000895],[7.855342388000054,6.742868423000061],[7.804926395000052,6.640460491000056],[7.807140827000069,6.633817196000052],[7.705756187000077,6.63619852100004],[7.698944569000048,6.630749226000091],[7.703923702000054,6.607056141000044],[7.653496742000073,6.601598263000085],[7.584959507000065,6.651364326000078],[7.572299957000041,6.653983593000078],[7.557457447000047,6.650054455000088],[7.5456709860000615,6.632592678000037],[7.532137871000089,6.662277699000072],[7.530828476000067,6.685851097000068],[7.511620522000044,6.722957134000069],[7.508128166000063,6.740855217000046],[7.498960972000077,6.74914932300004],[7.477570057000037,6.75351476700007],[7.464622021000082,6.772019863000082],[7.573609352000062,6.786255360000041],[7.5883221630000435,6.809612751000088],[7.601548195000078,6.815504074000046],[7.654806137000037,6.815504074000046],[7.66921186400009,6.82117891300004],[7.691039085000057,6.849117756000055],[7.72024250000004,6.862607002000061],[7.73442220700008,6.863394737000078],[7.75017738300005,6.878362179000078],[7.7760343550000925,6.875824928000043]]]}},{"type":"Feature","properties":{"CNTRY_NAME":"Nigeria","CNTRY_CODE":"NGA","ADM1_NAME":"Enugu","ADM1_CODE":"NGA014","ADM2_NAME":"Nkanu East","ADM2_CODE":"NGA014011","HRname":"Nkanu East","HRpcode":"NG014011","HRparent":"NG014","Shape_Leng":1.38036734434,"Shape_Area":0.064966047984,"ADM2_New":"Nkanu East","id":"NG-EN-NKANU-EAST","name":"Nkanu East","parentId":"NG-EN","stateName":"Enugu","regionId":"NG-SE","fillColor":"#C9B896"},"geometry":{"type":"Polygon","coordinates":[[[7.653496742000073,6.601598263000085],[7.703923702000054,6.607056141000044],[7.730731010000056,6.559910774000059],[7.746851444000072,6.472724915000072],[7.751392365000072,6.385539055000038],[7.70802640900007,6.298353195000061],[7.708934784000064,6.277919292000092],[7.733001709000064,6.226606369000081],[7.737088203000042,6.202993870000057],[7.7389049530000875,6.172115326000039],[7.7261900900000455,6.114899635000086],[7.713799477000066,6.083923340000069],[7.668315411000037,6.060618877000081],[7.661354542000083,6.069453716000055],[7.654369831000054,6.0987019540000915],[7.6303596500000594,6.152396679000049],[7.6220655440000655,6.157198906000076],[7.584959507000065,6.152833462000046],[7.57142686800006,6.155452728000057],[7.549162865000085,6.168985367000062],[7.54479789700008,6.186883450000039],[7.531876087000057,6.209060192000038],[7.5124006270000905,6.231348038000078],[7.533447742000078,6.2440705300000445],[7.553965092000055,6.241888046000042],[7.5674977300000705,6.2458167080000635],[7.5836501120000435,6.269826412000043],[7.5906343460000585,6.295145988000058],[7.5880150790000584,6.317409515000065],[7.601984501000061,6.359754086000066],[7.581467152000073,6.396860123000067],[7.619009972000072,6.419996738000066],[7.632105827000089,6.457102776000056],[7.651750565000043,6.486351490000061],[7.657425404000037,6.512980461000041],[7.650004387000081,6.541791916000079],[7.649131298000043,6.582390308000072],[7.653496742000073,6.601598263000085]]]}},{"type":"Feature","properties":{"CNTRY_NAME":"Nigeria","CNTRY_CODE":"NGA","ADM1_NAME":"Enugu","ADM1_CODE":"NGA014","ADM2_NAME":"Nkanu West","ADM2_CODE":"NGA014012","HRname":"Nkanu West","HRpcode":"NG014012","HRparent":"NG014","Shape_Leng":0.594883411569,"Shape_Area":0.0183739217159,"ADM2_New":"Nkanu West","id":"NG-EN-NKANU-WEST","name":"Nkanu West","parentId":"NG-EN","stateName":"Enugu","regionId":"NG-SE","fillColor":"#5E9E78"},"geometry":{"type":"Polygon","coordinates":[[[7.440865517000077,6.410357475000069],[7.465347290000068,6.384200573000044],[7.475387573000091,6.379835129000071],[7.5456709860000615,6.370231152000088],[7.559203625000066,6.37634277300009],[7.581467152000073,6.396860123000067],[7.601984501000061,6.359754086000066],[7.601984501000061,6.3523330690000535],[7.5880150790000584,6.317409515000065],[7.5906343460000585,6.295145988000058],[7.5836501120000435,6.269826412000043],[7.5674977300000705,6.2458167080000635],[7.553965092000055,6.241888046000042],[7.533447742000078,6.2440705300000445],[7.5124006270000905,6.231348038000078],[7.503108025000074,6.237958908000053],[7.435225487000082,6.3527693750000935],[7.432606220000082,6.380271435000054],[7.440865517000077,6.410357475000069]]]}},{"type":"Feature","properties":{"CNTRY_NAME":"Nigeria","CNTRY_CODE":"NGA","ADM1_NAME":"Enugu","ADM1_CODE":"NGA014","ADM2_NAME":"Nsukka","ADM2_CODE":"NGA014013","HRname":"Nsukka","HRpcode":"NG014013","HRparent":"NG014","Shape_Leng":1.08795530299,"Shape_Area":0.0396118960059,"ADM2_New":"Nsukka","id":"NG-EN-NSUKKA","name":"Nsukka","parentId":"NG-EN","stateName":"Enugu","regionId":"NG-SE","fillColor":"#94B86A"},"geometry":{"type":"Polygon","coordinates":[[[7.209887981000065,6.902819157000067],[7.234985828000049,6.9106602670000825],[7.242863655000065,6.927990437000062],[7.238136768000061,6.957925320000072],[7.241288185000087,6.971317291000048],[7.310143948000075,7.003999710000073],[7.3151764870000875,6.986191750000046],[7.302953720000062,6.948648930000047],[7.312994003000085,6.92376613600004],[7.327836514000069,6.911979675000055],[7.408160210000062,6.899756432000061],[7.435225487000082,6.886660099000039],[7.453174114000092,6.865784645000076],[7.460981846000038,6.8456254010000634],[7.474077702000045,6.837330818000055],[7.519914627000048,6.83340215700008],[7.585832596000046,6.810701847000075],[7.585832596000046,6.805463314000065],[7.573609352000062,6.786255360000041],[7.478006840000091,6.776651859000083],[7.442646980000063,6.766611099000045],[7.348353863000057,6.721210957000039],[7.332398891000082,6.724825859000077],[7.319978714000058,6.745656967000059],[7.298151493000091,6.7661747930000615],[7.295095921000041,6.778397560000087],[7.299897671000053,6.825544357000069],[7.29029369400007,6.849990845000093],[7.241837502000067,6.883167744000048],[7.21695470800006,6.893208504000086],[7.209887981000065,6.902819157000067]]]}},{"type":"Feature","properties":{"CNTRY_NAME":"Nigeria","CNTRY_CODE":"NGA","ADM1_NAME":"Enugu","ADM1_CODE":"NGA014","ADM2_NAME":"Oji-River","ADM2_CODE":"NGA014014","HRname":"Oji-River","HRpcode":"NG014014","HRparent":"NG014","Shape_Leng":0.891411539254,"Shape_Area":0.0329417048333,"ADM2_New":"Oji-River","id":"NG-EN-OJI-RIVER","name":"Oji-River","parentId":"NG-EN","stateName":"Enugu","regionId":"NG-SE","fillColor":"#C2A882"},"geometry":{"type":"Polygon","coordinates":[[[7.160283089000075,6.303468704000068],[7.184432507000054,6.2837958340000455],[7.2420558930000425,6.277684212000054],[7.278288841000062,6.25760316800006],[7.30841016800008,6.230101109000088],[7.31757783900008,6.19910669300009],[7.322379589000093,6.196051121000039],[7.349881649000054,6.209147453000071],[7.37104129800008,6.204072952000047],[7.374764442000071,6.181208611000045],[7.393972397000084,6.137554169000055],[7.3861145970000734,6.095209599000043],[7.392226219000065,6.057230473000061],[7.384793282000089,6.0373167990000525],[7.3018684390000885,6.045017242000085],[7.268748760000051,6.060705185000074],[7.254803181000057,6.104719639000052],[7.239712715000053,6.114240170000073],[7.229471684000089,6.127632141000049],[7.221594334000088,6.157567024000059],[7.223957539000082,6.191440105000083],[7.204263687000093,6.208770752000078],[7.199536800000089,6.234766960000059],[7.189296246000083,6.239493370000048],[7.1569981580000785,6.230040073000055],[7.150997639000082,6.232611656000074],[7.142588615000079,6.289057255000046],[7.160283089000075,6.303468704000068]]]}},{"type":"Feature","properties":{"CNTRY_NAME":"Nigeria","CNTRY_CODE":"NGA","ADM1_NAME":"Enugu","ADM1_CODE":"NGA014","ADM2_NAME":"Udenu","ADM2_CODE":"NGA014015","HRname":"Udenu","HRpcode":"NG014015","HRparent":"NG014","Shape_Leng":0.620826236576,"Shape_Area":0.0203114842218,"ADM2_New":"Udenu","id":"NG-EN-UDENU","name":"Udenu","parentId":"NG-EN","stateName":"Enugu","regionId":"NG-SE","fillColor":"#72A898"},"geometry":{"type":"Polygon","coordinates":[[[7.490959167000085,6.909144402000038],[7.5588793750000605,6.971568108000042],[7.564267159000053,6.952411175000066],[7.577659130000086,6.932717323000077],[7.620197773000086,6.919325352000044],[7.635952950000046,6.903570175000084],[7.6580100060000404,6.868121147000068],[7.674552917000085,6.855517387000077],[7.6922798160000525,6.851824284000088],[7.66921186400009,6.82117891300004],[7.654806137000037,6.815504074000046],[7.601548195000078,6.815504074000046],[7.585832596000046,6.810701847000075],[7.519914627000048,6.83340215700008],[7.474077702000045,6.837330818000055],[7.460981846000038,6.8456254010000634],[7.453174114000092,6.865784645000076],[7.490959167000085,6.909144402000038]]]}},{"type":"Feature","properties":{"CNTRY_NAME":"Nigeria","CNTRY_CODE":"NGA","ADM1_NAME":"Enugu","ADM1_CODE":"NGA014","ADM2_NAME":"Udi","ADM2_CODE":"NGA014016","HRname":"Udi","HRpcode":"NG014016","HRparent":"NG014","Shape_Leng":1.52570343699,"Shape_Area":0.0733450711236,"ADM2_New":"Udi","id":"NG-EN-UDI","name":"Udi","parentId":"NG-EN","stateName":"Enugu","regionId":"NG-SE","fillColor":"#D4896A"},"geometry":{"type":"Polygon","coordinates":[[[7.285315990000072,6.66936159100004],[7.312994003000085,6.660094738000055],[7.339186668000082,6.642633438000075],[7.376292706000072,6.630846500000075],[7.393317699000079,6.615131378000058],[7.42867755900005,6.611202240000068],[7.459235668000076,6.616877079000062],[7.4605450630000405,6.612075329000049],[7.4601354600000604,6.480928421000044],[7.447448730000076,6.450554848000081],[7.452397823000069,6.423397064000085],[7.436971664000055,6.406464100000051],[7.432606220000082,6.380271435000054],[7.431733131000044,6.362810135000075],[7.443956375000084,6.338799953000091],[7.42649459800009,6.309988499000042],[7.418637276000084,6.282049656000083],[7.3911347390000515,6.246689796000055],[7.376292706000072,6.20827436400009],[7.37104129800008,6.204072952000047],[7.349881649000054,6.209147453000071],[7.322379589000093,6.196051121000039],[7.31757783900008,6.19910669300009],[7.30841016800008,6.230101109000088],[7.278288841000062,6.25760316800006],[7.245460987000058,6.275623322000058],[7.301643848000083,6.314790249000055],[7.336130619000073,6.333561897000038],[7.357521057000042,6.337490559000059],[7.378911972000083,6.3523330690000535],[7.387206078000077,6.36673879600005],[7.389388561000089,6.383327484000063],[7.380658150000045,6.411702633000061],[7.316486359000066,6.465833664000058],[7.288111210000068,6.48416853000009],[7.239218235000067,6.50817823400007],[7.212589264000087,6.509488106000049],[7.179848671000059,6.5286960600000725],[7.165006161000065,6.5304422380000915],[7.150443554000049,6.560241222000059],[7.155402184000081,6.603344440000058],[7.185523510000053,6.637394905000065],[7.196000576000074,6.662714005000055],[7.211279869000066,6.675374031000047],[7.244020462000037,6.677993298000047],[7.285315990000072,6.66936159100004]]]}},{"type":"Feature","properties":{"CNTRY_NAME":"Nigeria","CNTRY_CODE":"NGA","ADM1_NAME":"Enugu","ADM1_CODE":"NGA014","ADM2_NAME":"Uzo-Uwani","ADM2_CODE":"NGA014017","HRname":"Uzo-Uwani","HRpcode":"NG014017","HRparent":"NG014","Shape_Leng":1.641152751,"Shape_Area":0.0699130986157,"ADM2_New":"Uzo-Uwani","id":"NG-EN-UZO-UWANI","name":"Uzo-Uwani","parentId":"NG-EN","stateName":"Enugu","regionId":"NG-SE","fillColor":"#9B8B72"},"geometry":{"type":"Polygon","coordinates":[[[6.960817337000037,6.840898991000074],[6.978178024000044,6.8500027660000455],[6.986843109000063,6.844488621000039],[6.989994526000089,6.823219299000073],[6.985267639000085,6.798799038000084],[6.9860553740000455,6.788558006000073],[6.990782261000049,6.785407066000062],[7.020716667000045,6.789345741000091],[7.041985989000068,6.783043861000067],[7.055377960000044,6.786194801000079],[7.06010437000009,6.794860363000055],[7.0813736920000565,6.800374508000061],[7.119973660000085,6.848427296000068],[7.146757603000083,6.864182472000039],[7.156210423000061,6.883088589000067],[7.1703901290000545,6.883876324000084],[7.175904274000061,6.896480560000043],[7.187720776000049,6.901206970000089],[7.209887981000065,6.902819157000067],[7.21695470800006,6.893208504000086],[7.241837502000067,6.883167744000048],[7.29029369400007,6.849990845000093],[7.299897671000053,6.825544357000069],[7.295095921000041,6.778397560000087],[7.298151493000091,6.7661747930000615],[7.319978714000058,6.745656967000059],[7.332398891000082,6.724825859000077],[7.317359447000058,6.723393440000052],[7.281126499000038,6.701129913000045],[7.285315990000072,6.66936159100004],[7.244020462000037,6.677993298000047],[7.221320152000089,6.677120209000066],[7.211279869000066,6.675374031000047],[7.196000576000074,6.662714005000055],[7.185523510000053,6.637394905000065],[7.155402184000081,6.603344440000058],[7.14929056200009,6.554015160000063],[7.106945992000078,6.489843845000053],[7.082063198000071,6.476747513000078],[7.049659252000083,6.4743566510000505],[7.046279430000084,6.512179852000088],[7.05543136600005,6.545300007000037],[7.06327533700005,6.554887295000071],[7.084193230000039,6.562295437000046],[7.109468460000073,6.5932364460000485],[7.132565498000076,6.652067661000046],[7.129078865000054,6.659475803000078],[7.1016244890000735,6.67560005200005],[7.070247650000056,6.685623169000053],[7.05063772200009,6.6825723650000555],[7.016646385000058,6.706104755000069],[6.990934849000041,6.71307754500009],[6.956507683000041,6.71002721800005],[6.931667805000075,6.698696613000038],[6.932072639000069,6.76769352000008],[6.949030876000052,6.788558006000073],[6.952182293000078,6.827945709000062],[6.960817337000037,6.840898991000074]]]}}]}