{"type":"FeatureCollection","features":[{"type":"Feature","properties":{"CNTRY_NAME":"Nigeria","CNTRY_CODE":"NGA","ADM1_NAME":"Edo","ADM1_CODE":"NGA012","ADM2_NAME":"Akoko-Edo","ADM2_CODE":"NGA012001","HRname":"Akoko-Edo","HRpcode":"NG012001","HRparent":"NG012","Shape_Leng":2.03466201821,"Shape_Area":0.112152681305,"ADM2_New":"Akoko-Edo","id":"NG-ED-AKOKO-EDO","name":"Akoko-Edo","parentId":"NG-ED","stateName":"Edo","regionId":"NG-SS","fillColor":"#6BA368"},"geometry":{"type":"Polygon","coordinates":[[[6.098731041000065,7.588197231000038],[6.118761063000079,7.5914168360000644],[6.133570671000086,7.5520768170000565],[6.16417789500008,7.550241947000075],[6.1669840810000665,7.544972897000093],[6.150588989000084,7.518876076000083],[6.110102177000044,7.494141102000071],[6.1124119760000895,7.448655128000041],[6.159472942000093,7.447688103000075],[6.170909882000046,7.444097042000067],[6.17992210400007,7.430033207000065],[6.186272144000043,7.432896137000057],[6.186916828000051,7.438720226000044],[6.218708992000074,7.456531048000045],[6.226923943000088,7.471036911000056],[6.267814159000068,7.48177909900005],[6.27659606900005,7.495697021000069],[6.290988922000054,7.4990768430000685],[6.298429012000042,7.497266769000078],[6.358232975000078,7.412255764000065],[6.378143787000056,7.397521019000067],[6.422245026000041,7.416828156000065],[6.432164192000073,7.402327061000051],[6.381350040000086,7.373322010000038],[6.368719101000067,7.3528790470000445],[6.340692997000076,7.32582283000005],[6.295241833000091,7.360496998000087],[6.276193142000068,7.362164021000069],[6.268043995000085,7.358391762000053],[6.270891190000043,7.31869602200004],[6.260334015000069,7.2160549160000755],[6.211626053000089,7.134301186000073],[6.198979855000061,7.118476868000073],[6.184488773000055,7.1127967830000784],[6.180317879000086,7.112758160000055],[6.164381027000047,7.162490845000093],[6.152536869000073,7.179931164000038],[6.1007761960000835,7.202536106000082],[6.075263023000048,7.241093159000059],[6.066176891000055,7.246550083000045],[6.040811062000046,7.238918781000052],[6.024481773000048,7.240612030000079],[6.0127320290000625,7.228491783000038],[6.005465984000068,7.23211813000006],[5.987348080000061,7.226404190000039],[5.967329979000056,7.247460842000066],[5.931923866000091,7.260058880000088],[5.909392834000073,7.277768135000088],[5.923961163000058,7.2962799070000415],[5.916209221000088,7.31851720800006],[5.91930818600008,7.337144852000051],[5.978566170000079,7.347735882000052],[5.986694813000042,7.355247974000065],[5.987339973000076,7.3610720630000515],[5.974884987000053,7.375164032000043],[5.978558064000083,7.393786907000049],[5.968483925000044,7.414854050000088],[5.9872598650000555,7.447926998000071],[5.984490871000048,7.45611000100007],[5.966173172000083,7.460340023000072],[5.948134899000081,7.487301826000078],[5.95421886400004,7.515233040000055],[5.967428207000069,7.5157070160000785],[5.975643158000082,7.530212879000089],[5.994548798000039,7.527143955000042],[6.012996197000064,7.533405781000056],[6.023499012000059,7.547309875000053],[6.028888226000049,7.565337181000075],[6.048503876000041,7.580123901000093],[6.098731041000065,7.588197231000038]]]}},{"type":"Feature","properties":{"CNTRY_NAME":"Nigeria","CNTRY_CODE":"NGA","ADM1_NAME":"Edo","ADM1_CODE":"NGA012","ADM2_NAME":"Egor","ADM2_CODE":"NGA012002","HRname":"Egor","HRpcode":"NG012002","HRparent":"NG012","Shape_Leng":0.418786389874,"Shape_Area":0.00757581704512,"ADM2_New":"Egor","id":"NG-ED-EGOR","name":"Egor","parentId":"NG-ED","stateName":"Edo","regionId":"NG-SS","fillColor":"#C4A574"},"geometry":{"type":"Polygon","coordinates":[[[5.641833782000049,6.414109230000065],[5.644565105000083,6.3705019950000406],[5.637354851000055,6.356576920000066],[5.600187778000077,6.3525300030000835],[5.592954159000044,6.345994949000044],[5.586665154000059,6.327459812000086],[5.569474220000075,6.31528806700004],[5.551420212000039,6.289250851000077],[5.528788090000091,6.277204037000047],[5.525872231000051,6.338892937000082],[5.55750703800004,6.371525764000069],[5.56831789000006,6.393798828000058],[5.580080032000069,6.402224064000052],[5.641833782000049,6.414109230000065]]]}},{"type":"Feature","properties":{"CNTRY_NAME":"Nigeria","CNTRY_CODE":"NGA","ADM1_NAME":"Edo","ADM1_CODE":"NGA012","ADM2_NAME":"Esan North East","ADM2_CODE":"NGA012004","HRname":"Esan North East","HRpcode":"NG012004","HRparent":"NG012","Shape_Leng":0.966113384577,"Shape_Area":0.0276557534174,"ADM2_New":"Esan North East","id":"NG-ED-ESAN-NORTH-EAST","name":"Esan North East","parentId":"NG-ED","stateName":"Edo","regionId":"NG-SS","fillColor":"#A8BF7A"},"geometry":{"type":"Polygon","coordinates":[[[6.3792691230000855,6.813684940000087],[6.398548126000037,6.8118209840000645],[6.406685829000082,6.819289207000054],[6.483428955000079,6.925326824000081],[6.521652222000057,6.882270813000048],[6.528081894000081,6.856465816000082],[6.522715092000055,6.8333210950000876],[6.5308699610000644,6.793375969000067],[6.431306839000058,6.77610397300009],[6.428662777000056,6.75205993700007],[6.4351129530000435,6.719789028000093],[6.429689884000084,6.714194775000067],[6.397047997000072,6.712962151000056],[6.373497963000091,6.7044248580000385],[6.33733987800008,6.66805505800005],[6.339166164000062,6.66437721300008],[6.3282899860000725,6.662425995000092],[6.31013584100009,6.667798042000072],[6.2847580910000715,6.6638622280000845],[6.264313221000066,6.648426056000062],[6.250240803000054,6.682011127000067],[6.249279022000053,6.69955301300007],[6.245625019000045,6.707832813000039],[6.241090775000089,6.707789898000044],[6.240085125000064,6.739190102000066],[6.285375118000047,6.755322933000059],[6.347035885000082,6.755907059000037],[6.37512397800009,6.763563156000089],[6.380487919000075,6.78763198900009],[6.3792691230000855,6.813684940000087]]]}},{"type":"Feature","properties":{"CNTRY_NAME":"Nigeria","CNTRY_CODE":"NGA","ADM1_NAME":"Edo","ADM1_CODE":"NGA012","ADM2_NAME":"Esan Central","ADM2_CODE":"NGA012003","HRname":"Esan Central","HRpcode":"NG012003","HRparent":"NG012","Shape_Leng":0.956019419197,"Shape_Area":0.0206320262647,"ADM2_New":"Esan Central","id":"NG-ED-ESAN-CENTRAL","name":"Esan Central","parentId":"NG-ED","stateName":"Edo","regionId":"NG-SS","fillColor":"#5B8FA8"},"geometry":{"type":"Polygon","coordinates":[[[6.250658035000072,6.836287022000079],[6.266205788000093,6.7948641780000685],[6.2716550830000415,6.792143822000071],[6.303277969000078,6.8284721370000625],[6.376776218000089,6.814386845000058],[6.380487919000075,6.78763198900009],[6.377822876000039,6.770054817000073],[6.37512397800009,6.763563156000089],[6.357912064000061,6.757856846000038],[6.296249866000039,6.757273197000075],[6.240085125000064,6.739190102000066],[6.241090775000089,6.707789898000044],[6.245625019000045,6.707832813000039],[6.249279022000053,6.69955301300007],[6.249326229000076,6.684772968000061],[6.264313221000066,6.648426056000062],[6.224123001000066,6.625411987000064],[6.207902908000051,6.592926979000083],[6.1943278310000665,6.584484100000054],[6.169873238000093,6.575015068000084],[6.146290779000083,6.576639175000082],[6.1362957950000805,6.583011150000061],[6.135371208000038,6.588543892000075],[6.1643362050000405,6.60544681500005],[6.191454887000077,6.632493019000037],[6.194146156000045,6.641757011000038],[6.1722269060000485,6.690509796000072],[6.170341015000076,6.71358680700007],[6.210124969000049,6.749990940000089],[6.215525150000076,6.762976170000059],[6.209095001000037,6.788781166000092],[6.237123013000087,6.814911842000072],[6.250658035000072,6.836287022000079]]]}},{"type":"Feature","properties":{"CNTRY_NAME":"Nigeria","CNTRY_CODE":"NGA","ADM1_NAME":"Edo","ADM1_CODE":"NGA012","ADM2_NAME":"Esan South East","ADM2_CODE":"NGA012005","HRname":"Esan South East","HRpcode":"NG012005","HRparent":"NG012","Shape_Leng":1.50240354714,"Shape_Area":0.106744866824,"ADM2_New":"Esan South East","id":"NG-ED-ESAN-SOUTH-EAST","name":"Esan South East","parentId":"NG-ED","stateName":"Edo","regionId":"NG-SS","fillColor":"#B8956B"},"geometry":{"type":"Polygon","coordinates":[[[6.5308699610000644,6.793375969000067],[6.581793785000059,6.7904620170000385],[6.623610020000058,6.7935981750000565],[6.631689072000086,6.769058228000063],[6.617936134000047,6.7048792840000715],[6.628021717000081,6.674623489000055],[6.652776241000083,6.634282112000051],[6.660110950000046,6.608610630000044],[6.668920994000075,6.5012340550000545],[6.646256924000056,6.488733768000088],[6.632654190000039,6.489315033000082],[6.608807087000059,6.499517918000038],[6.52618885000004,6.488078117000043],[6.492447853000044,6.456245899000066],[6.445375919000071,6.425244808000059],[6.423731804000056,6.402275085000042],[6.391427040000053,6.388796806000073],[6.357560158000069,6.3842935560000456],[6.281616211000085,6.360329151000087],[6.306408882000085,6.413721085000077],[6.280960083000082,6.431954861000065],[6.297132969000074,6.479221821000067],[6.27802801100006,6.498439789000088],[6.261614799000085,6.526922226000067],[6.278789043000074,6.544637203000093],[6.295929909000051,6.5725131030000625],[6.324923992000038,6.580177784000057],[6.334867001000077,6.590434074000086],[6.350166798000089,6.626605988000051],[6.33733987800008,6.66805505800005],[6.373497963000091,6.7044248580000385],[6.397047997000072,6.712962151000056],[6.429689884000084,6.714194775000067],[6.4351129530000435,6.719789028000093],[6.428662777000056,6.75205993700007],[6.431306839000058,6.77610397300009],[6.5308699610000644,6.793375969000067]]]}},{"type":"Feature","properties":{"CNTRY_NAME":"Nigeria","CNTRY_CODE":"NGA","ADM1_NAME":"Edo","ADM1_CODE":"NGA012","ADM2_NAME":"Esan West","ADM2_CODE":"NGA012006","HRname":"Esan West","HRpcode":"NG012006","HRparent":"NG012","Shape_Leng":1.1966927657,"Shape_Area":0.0410181406616,"ADM2_New":"Esan West","id":"NG-ED-ESAN-WEST","name":"Esan West","parentId":"NG-ED","stateName":"Edo","regionId":"NG-SS","fillColor":"#6AADA3"},"geometry":{"type":"Polygon","coordinates":[[[6.167360783000049,6.823766232000082],[6.185403824000048,6.824584007000055],[6.23522806200009,6.840760231000047],[6.24793481800009,6.837184906000061],[6.237123013000087,6.814911842000072],[6.209095001000037,6.788781166000092],[6.215525150000076,6.762976170000059],[6.210124969000049,6.749990940000089],[6.170341015000076,6.71358680700007],[6.1722269060000485,6.690509796000072],[6.193212986000049,6.650062084000069],[6.191454887000077,6.632493019000037],[6.1643362050000405,6.60544681500005],[6.135371208000038,6.588543892000075],[6.139935017000084,6.579349995000086],[6.160809040000061,6.574005127000078],[6.182557106000047,6.57882976500008],[6.207902908000051,6.592926979000083],[6.2162790300000665,6.525568962000079],[6.207293034000088,6.499618053000063],[6.190985203000082,6.494844913000065],[6.162866116000089,6.497350216000086],[6.103988171000083,6.47646904000004],[6.072926044000042,6.54915380500006],[6.072848797000063,6.57317209200005],[6.087204933000066,6.621345043000076],[6.087020874000075,6.679542065000078],[6.070615768000039,6.705252171000041],[6.013270855000087,6.773068905000059],[6.024158001000046,6.771325111000067],[6.050435066000091,6.77803993200007],[6.113788128000067,6.817440033000082],[6.141874790000088,6.825096130000077],[6.167360783000049,6.823766232000082]]]}},{"type":"Feature","properties":{"CNTRY_NAME":"Nigeria","CNTRY_CODE":"NGA","ADM1_NAME":"Edo","ADM1_CODE":"NGA012","ADM2_NAME":"Etsako Central","ADM2_CODE":"NGA012007","HRname":"Etsako Central","HRpcode":"NG012007","HRparent":"NG012","Shape_Leng":1.24354132787,"Shape_Area":0.0539820510809,"ADM2_New":"Etsako Central","id":"NG-ED-ETSAKO-CENTRAL","name":"Etsako Central","parentId":"NG-ED","stateName":"Edo","regionId":"NG-SS","fillColor":"#8FAF6E"},"geometry":{"type":"Polygon","coordinates":[[[6.414650917000074,7.1667079930000455],[6.5053830150000636,7.150938988000064],[6.535466194000037,7.101339817000053],[6.53646993600006,7.070864201000063],[6.527536869000073,7.028285980000078],[6.532100201000048,7.01909112900006],[6.556632996000076,7.003619194000066],[6.591129780000074,6.9919362070000375],[6.655547142000046,6.981461048000085],[6.679260254000042,6.972002506000081],[6.672980309000081,6.935661316000051],[6.6526556020000385,6.907848358000081],[6.646236897000051,6.885384560000091],[6.6107902530000615,6.822104931000069],[6.623661041000048,6.79599618900005],[6.6162519450000445,6.790788174000056],[6.5308699610000644,6.793375969000067],[6.522715092000055,6.8333210950000876],[6.528081894000081,6.856465816000082],[6.521652222000057,6.882270813000048],[6.488883972000053,6.920760155000039],[6.485221863000049,6.931810856000084],[6.454318047000072,6.954613209000058],[6.424394131000042,6.954329014000052],[6.392704964000075,6.938324928000043],[6.378200054000047,6.937263966000046],[6.3718261720000555,6.94551801700004],[6.367191792000085,6.976881981000076],[6.394308090000038,7.004852772000049],[6.401508808000074,7.021549225000058],[6.3941969870000435,7.0399560930000575],[6.372381210000071,7.05637693400007],[6.407658100000049,7.084424973000068],[6.420300007000037,7.101172924000082],[6.422014236000052,7.1325979230000485],[6.414650917000074,7.1667079930000455]]]}},{"type":"Feature","properties":{"CNTRY_NAME":"Nigeria","CNTRY_CODE":"NGA","ADM1_NAME":"Edo","ADM1_CODE":"NGA012","ADM2_NAME":"Etsako East","ADM2_CODE":"NGA012008","HRname":"Etsako East","HRpcode":"NG012008","HRparent":"NG012","Shape_Leng":1.61188408336,"Shape_Area":0.0926920906072,"ADM2_New":"Etsako East","id":"NG-ED-ETSAKO-EAST","name":"Etsako East","parentId":"NG-ED","stateName":"Edo","regionId":"NG-SS","fillColor":"#D4C4A0"},"geometry":{"type":"Polygon","coordinates":[[[6.432164192000073,7.402327061000051],[6.422241211000085,7.388999939000087],[6.434144020000076,7.376661777000038],[6.435657978000052,7.359745026000041],[6.450531960000092,7.355543137000041],[6.466869831000054,7.365318775000048],[6.497326851000082,7.333010197000078],[6.499695778000046,7.29218721400008],[6.511441231000049,7.267024994000053],[6.544260025000085,7.27491903300006],[6.569521904000055,7.2752947810000705],[6.637670040000046,7.294764996000083],[6.669155121000074,7.240518093000048],[6.6933050160000676,7.216998100000069],[6.700792789000047,7.1784882550000475],[6.715768814000057,7.135699272000068],[6.715768814000057,7.120723248000047],[6.6772589680000465,7.03407573700008],[6.679260254000042,6.972002506000081],[6.655547142000046,6.981461048000085],[6.591129780000074,6.9919362070000375],[6.556632996000076,7.003619194000066],[6.532100201000048,7.01909112900006],[6.527536869000073,7.028285980000078],[6.53646993600006,7.070864201000063],[6.535466194000037,7.101339817000053],[6.5053830150000636,7.150938988000064],[6.440954208000051,7.165110111000047],[6.424636841000051,7.163107872000069],[6.358374119000075,7.183728218000056],[6.283073902000069,7.194099903000051],[6.2567329410000525,7.20770692800005],[6.267418861000067,7.2697019580000415],[6.270891190000043,7.31869602200004],[6.268043995000085,7.358391762000053],[6.276193142000068,7.362164021000069],[6.295241833000091,7.360496998000087],[6.340692997000076,7.32582283000005],[6.368719101000067,7.3528790470000445],[6.381350040000086,7.373322010000038],[6.432164192000073,7.402327061000051]]]}},{"type":"Feature","properties":{"CNTRY_NAME":"Nigeria","CNTRY_CODE":"NGA","ADM1_NAME":"Edo","ADM1_CODE":"NGA012","ADM2_NAME":"Etsako West","ADM2_CODE":"NGA012009","HRname":"Etsako West","HRpcode":"NG012009","HRparent":"NG012","Shape_Leng":1.44749354632,"Shape_Area":0.0773159663208,"ADM2_New":"Etsako West","id":"NG-ED-ETSAKO-WEST","name":"Etsako West","parentId":"NG-ED","stateName":"Edo","regionId":"NG-SS","fillColor":"#688EB5"},"geometry":{"type":"Polygon","coordinates":[[[6.2567329410000525,7.20770692800005],[6.283073902000069,7.194099903000051],[6.376522064000085,7.18020391500005],[6.414650917000074,7.1667079930000455],[6.422014236000052,7.1325979230000485],[6.420300007000037,7.101172924000082],[6.407658100000049,7.084424973000068],[6.372381210000071,7.05637693400007],[6.3941969870000435,7.0399560930000575],[6.401508808000074,7.021549225000058],[6.394308090000038,7.004852772000049],[6.367191792000085,6.976881981000076],[6.3681750300000886,6.95287323000008],[6.378200054000047,6.937263966000046],[6.392704964000075,6.938324928000043],[6.424394131000042,6.954329014000052],[6.44705390900009,6.957314968000048],[6.487954140000056,6.928142071000082],[6.487065792000067,6.922283173000039],[6.483428955000079,6.925326824000081],[6.464454174000082,6.903901100000041],[6.398548126000037,6.8118209840000645],[6.303277969000078,6.8284721370000625],[6.2716550830000415,6.792143822000071],[6.266205788000093,6.7948641780000685],[6.250658035000072,6.836287022000079],[6.241571903000079,6.841743946000065],[6.188120842000046,6.825532913000075],[6.167360783000049,6.823766232000082],[6.1789269450000575,6.865169048000041],[6.214962006000064,6.940337181000075],[6.219266891000075,7.012434006000092],[6.213683128000071,7.057645798000067],[6.180317879000086,7.112758160000055],[6.198979855000061,7.118476868000073],[6.2567329410000525,7.20770692800005]]]}},{"type":"Feature","properties":{"CNTRY_NAME":"Nigeria","CNTRY_CODE":"NGA","ADM1_NAME":"Edo","ADM1_CODE":"NGA012","ADM2_NAME":"Igueben","ADM2_CODE":"NGA012010","HRname":"Igueben","HRpcode":"NG012010","HRparent":"NG012","Shape_Leng":1.01655102546,"Shape_Area":0.0310405277017,"ADM2_New":"Igueben","id":"NG-ED-IGUEBEN","name":"Igueben","parentId":"NG-ED","stateName":"Edo","regionId":"NG-SS","fillColor":"#7CB087"},"geometry":{"type":"Polygon","coordinates":[[[6.264313221000066,6.648426056000062],[6.2847580910000715,6.6638622280000845],[6.31013584100009,6.667798042000072],[6.3282899860000725,6.662425995000092],[6.339166164000062,6.66437721300008],[6.350166798000089,6.626605988000051],[6.329445839000073,6.583916187000057],[6.295929909000051,6.5725131030000625],[6.278789043000074,6.544637203000093],[6.261614799000085,6.526922226000067],[6.27802801100006,6.498439789000088],[6.297132969000074,6.479221821000067],[6.280960083000082,6.431954861000065],[6.306408882000085,6.413721085000077],[6.281616211000085,6.360329151000087],[6.276096821000067,6.357798100000082],[6.224782944000083,6.417566776000058],[6.215703011000073,6.4211759570000595],[6.152238846000046,6.4168801310000845],[6.131688118000056,6.40448617900006],[6.12590408300008,6.428638935000038],[6.103988171000083,6.47646904000004],[6.162866116000089,6.497350216000086],[6.190985203000082,6.494844913000065],[6.210907936000069,6.5033469200000695],[6.2162790300000665,6.525568962000079],[6.207019806000062,6.585527897000077],[6.21058607100008,6.604960918000074],[6.224123001000066,6.625411987000064],[6.264313221000066,6.648426056000062]]]}},{"type":"Feature","properties":{"CNTRY_NAME":"Nigeria","CNTRY_CODE":"NGA","ADM1_NAME":"Edo","ADM1_CODE":"NGA012","ADM2_NAME":"Ikpoba-Okha","ADM2_CODE":"NGA012011","HRname":"Ikpoba-Okha","HRpcode":"NG012011","HRparent":"NG012","Shape_Leng":1.51844548678,"Shape_Area":0.0703217606943,"ADM2_New":"Ikpoba-Okha","id":"NG-ED-IKPOBA-OKHA","name":"Ikpoba-Okha","parentId":"NG-ED","stateName":"Edo","regionId":"NG-SS","fillColor":"#C9B896"},"geometry":{"type":"Polygon","coordinates":[[[5.641833782000049,6.414109230000065],[5.649118900000076,6.417589188000079],[5.686937809000085,6.407497883000076],[5.700992107000047,6.39145994200004],[5.720983982000064,6.329961777000051],[5.735251904000052,6.321319103000064],[5.763204098000074,6.315147877000072],[5.780138969000063,6.3045959470000525],[5.80672693300005,6.282730103000063],[5.827546120000079,6.252757072000065],[5.819116116000089,6.23173999800008],[5.7846751210000775,6.225871086000041],[5.768382072000065,6.216477871000052],[5.7557477950000475,6.196959019000076],[5.754048824000051,6.160914898000044],[5.727054119000059,6.095070839000073],[5.76417732200008,5.997814178000056],[5.668930054000043,6.052030087000048],[5.657452106000051,6.033209801000055],[5.593595028000038,6.018115997000052],[5.583425999000042,6.011096001000055],[5.571273804000043,5.9908838270000615],[5.546327591000079,5.985361576000059],[5.536596775000078,5.989902020000045],[5.5345983510000565,6.009743214000082],[5.519210815000065,6.016291142000057],[5.51528215400009,6.021856785000068],[5.51888322800005,6.027422428000079],[5.51298999800008,6.03528022800009],[5.494328499000062,6.041828156000065],[5.489745140000082,6.0300416950000795],[5.465517998000053,6.027750015000038],[5.4584631920000675,6.02304601700007],[5.443721294000056,6.043619156000091],[5.462244987000076,6.099954128000093],[5.511241913000049,6.091179848000081],[5.514861107000058,6.093986034000068],[5.570724010000049,6.2072172160000605],[5.583390236000071,6.216574192000053],[5.615109921000055,6.222416878000047],[5.627758980000067,6.237318039000058],[5.632225037000069,6.258606911000072],[5.627591133000067,6.289971828000091],[5.629313946000082,6.318625927000085],[5.637392998000053,6.344567776000076],[5.649134159000084,6.359459877000063],[5.644565105000083,6.3705019950000406],[5.641833782000049,6.414109230000065]]]}},{"type":"Feature","properties":{"CNTRY_NAME":"Nigeria","CNTRY_CODE":"NGA","ADM1_NAME":"Edo","ADM1_CODE":"NGA012","ADM2_NAME":"Oredo","ADM2_CODE":"NGA012012","HRname":"Oredo","HRpcode":"NG012012","HRparent":"NG012","Shape_Leng":0.748593905932,"Shape_Area":0.0203199490529,"ADM2_New":"Oredo","id":"NG-ED-OREDO","name":"Oredo","parentId":"NG-ED","stateName":"Edo","regionId":"NG-SS","fillColor":"#5E9E78"},"geometry":{"type":"Polygon","coordinates":[[[5.528788090000091,6.277204037000047],[5.551420212000039,6.289250851000077],[5.569474220000075,6.31528806700004],[5.586665154000059,6.327459812000086],[5.596570015000054,6.34972477000008],[5.605619907000062,6.3553528790000655],[5.637354851000055,6.356576920000066],[5.644565105000083,6.3705019950000406],[5.648239136000086,6.355757236000045],[5.637392998000053,6.344567776000076],[5.629313946000082,6.318625927000085],[5.627591133000067,6.289971828000091],[5.632225037000069,6.258606911000072],[5.621446133000063,6.226171970000053],[5.583390236000071,6.216574192000053],[5.570724010000049,6.2072172160000605],[5.514861107000058,6.093986034000068],[5.507615089000069,6.091145992000065],[5.497622013000068,6.096593857000073],[5.479492187000062,6.09457397500006],[5.462244987000076,6.099954128000093],[5.490911007000079,6.211080074000051],[5.528788090000091,6.277204037000047]]]}},{"type":"Feature","properties":{"CNTRY_NAME":"Nigeria","CNTRY_CODE":"NGA","ADM1_NAME":"Edo","ADM1_CODE":"NGA012","ADM2_NAME":"Orhionmwon","ADM2_CODE":"NGA012013","HRname":"Orhionmwon","HRpcode":"NG012013","HRparent":"NG012","Shape_Leng":2.38538746334,"Shape_Area":0.194288396834,"ADM2_New":"Orhionmwon","id":"NG-ED-ORHIONMWON","name":"Orhionmwon","parentId":"NG-ED","stateName":"Edo","regionId":"NG-SS","fillColor":"#94B86A"},"geometry":{"type":"Polygon","coordinates":[[[5.906504154000061,5.843882084000086],[5.9213171010000565,5.877292156000067],[5.833310127000061,5.941052914000068],[5.835303783000086,5.951471806000086],[5.8120388980000826,5.98387193700006],[5.79505682000007,5.979569912000045],[5.76417732200008,5.997814178000056],[5.727054119000059,6.095070839000073],[5.754048824000051,6.160914898000044],[5.753941059000056,6.195095062000064],[5.768382072000065,6.216477871000052],[5.7846751210000775,6.225871086000041],[5.816398144000061,6.2307901380000885],[5.823635101000093,6.236401081000054],[5.825405121000074,6.250275135000038],[5.832633018000081,6.2586569790000794],[5.8725547790000405,6.251645088000089],[5.950541973000043,6.251460075000068],[6.0092701910000415,6.319451809000043],[6.0337238310000885,6.328921795000042],[6.057298183000057,6.330069065000089],[6.076320171000077,6.336715221000077],[6.113392830000066,6.37032318100006],[6.136849880000057,6.408420086000092],[6.157677174000071,6.417854786000078],[6.215703011000073,6.4211759570000595],[6.224782944000083,6.417566776000058],[6.2693939210000735,6.361638069000037],[6.276096821000067,6.357798100000082],[6.290318012000057,6.361868382000068],[6.28165578800008,6.357406139000091],[6.25394392000004,6.319034100000067],[6.2126379010000505,6.279160976000071],[6.197598934000041,6.282746315000054],[6.180490017000068,6.3211970330000895],[6.1266131400000745,6.356115818000092],[6.113042831000087,6.349068165000062],[6.08801698700006,6.31834697700009],[6.086105824000072,6.289205074000051],[6.076632023000059,6.278722763000076],[6.084858894000092,6.263535023000088],[6.112161160000085,6.2408781050000925],[6.115742207000039,6.199992180000038],[6.134387016000062,6.135653019000074],[6.169303894000052,6.082546234000063],[6.201412201000039,6.049526215000071],[6.256639957000061,6.0166978840000525],[6.245960236000087,5.971532822000086],[6.229115009000054,5.9360260960000915],[6.201406002000056,5.896959782000067],[6.151937008000061,5.857713223000076],[6.1208791730000485,5.839725018000081],[6.093735218000063,5.794122219000087],[6.039780140000062,5.764610767000079],[6.015662193000082,5.764347076000092],[5.981730938000055,5.748114109000085],[5.924606800000049,5.748332024000092],[5.906148911000059,5.770370007000054],[5.902640820000045,5.794611931000077],[5.894185164000078,5.7985917590000895],[5.9024009700000875,5.8110599520000505],[5.906504154000061,5.843882084000086]]]}},{"type":"Feature","properties":{"CNTRY_NAME":"Nigeria","CNTRY_CODE":"NGA","ADM1_NAME":"Edo","ADM1_CODE":"NGA012","ADM2_NAME":"Ovia North East","ADM2_CODE":"NGA012014","HRname":"Ovia North East","HRpcode":"NG012014","HRparent":"NG012","Shape_Leng":3.23284497056,"Shape_Area":0.187698929782,"ADM2_New":"Ovia North East","id":"NG-ED-OVIA-NORTH-EAST","name":"Ovia North East","parentId":"NG-ED","stateName":"Edo","regionId":"NG-SS","fillColor":"#C2A882"},"geometry":{"type":"Polygon","coordinates":[[[5.45974874500007,6.885982990000059],[5.555240154000046,6.883038998000075],[5.570152283000084,6.869271278000042],[5.571213245000081,6.845269680000058],[5.549027443000057,6.83314323400009],[5.5435109140000804,6.8248023990000775],[5.543577671000094,6.812798977000057],[5.561419964000038,6.772269726000047],[5.561655998000049,6.729796410000063],[5.576634884000043,6.704025745000081],[5.582198143000085,6.704056263000041],[5.60523891400004,6.729115009000054],[5.6292533870000625,6.745868206000068],[5.640374660000077,6.746853352000073],[5.667370796000057,6.727612019000048],[5.702557564000074,6.736117363000062],[5.726479530000063,6.769490719000089],[5.772913933000041,6.788345814000081],[5.7973251340000616,6.8116722110000865],[5.869912148000083,6.798501968000039],[5.852783203000058,6.766931057000079],[5.8438410760000465,6.727124214000071],[5.813230038000086,6.6575498580000385],[5.798882008000078,6.606606007000039],[5.772706032000087,6.568481922000046],[5.760054111000045,6.554505825000092],[5.686773777000042,6.5002322200000435],[5.654238224000039,6.465744019000056],[5.638906956000085,6.438808918000063],[5.645318985000074,6.418547153000077],[5.641833782000049,6.414109230000065],[5.574645042000043,6.400324821000083],[5.55750703800004,6.371525764000069],[5.525872231000051,6.338892937000082],[5.529633999000055,6.29643487900006],[5.526996136000093,6.270544052000048],[5.490911007000079,6.211080074000051],[5.458668232000093,6.084216118000086],[5.442483902000049,6.040644169000075],[5.4275398250000535,6.0306963920000385],[5.431141376000085,6.008760929000061],[5.415374279000048,6.008137703000045],[5.411170006000077,6.020219803000089],[5.39971113200005,6.021856785000068],[5.388225079000051,6.017794132000063],[5.342172623000067,6.016174316000047],[5.3343439100000865,6.021393299000067],[5.327385426000092,6.018349171000068],[5.3230361940000535,6.0053014760000565],[5.326950550000049,5.982685566000043],[5.336518764000061,5.984425545000079],[5.358699322000064,5.969638348000046],[5.315147877000072,5.9346609120000835],[5.304334641000082,5.919622421000042],[5.275195122000071,5.909184456000048],[5.269696712000041,5.9189114570000925],[5.268236637000086,5.939194202000067],[5.253449440000054,5.957025528000088],[5.2477955820000375,5.986599922000039],[5.2682690620000585,6.052536011000086],[5.290505886000062,6.065355778000082],[5.2899346350000656,6.077730179000071],[5.273943424000038,6.080776215000071],[5.269134045000044,6.08703994800004],[5.271087646000069,6.098481178000043],[5.28289079700005,6.114282131000039],[5.282129288000078,6.139030933000072],[5.286888599000065,6.1447420120000515],[5.327629089000084,6.142647743000055],[5.351235390000056,6.163589001000048],[5.368654728000081,6.197713852000049],[5.3579459190000875,6.212943554000049],[5.351853371000061,6.2386898990000645],[5.374603748000084,6.2607755660000635],[5.389833927000041,6.267914295000082],[5.3993525510000495,6.281240463000074],[5.41577243800009,6.285048008000047],[5.434571743000049,6.277194977000079],[5.450039864000075,6.283144474000039],[5.4666976930000715,6.302657604000046],[5.4714570050000475,6.3224091530000806],[5.467649460000075,6.348823547000052],[5.44956398000005,6.353582859000085],[5.442543983000064,6.388564110000061],[5.435880661000056,6.391181946000074],[5.4351668360000644,6.3987970350000865],[5.440423965000093,6.403673172000083],[5.449389935000056,6.436090946000093],[5.4692630770000505,6.46029806100006],[5.466498852000086,6.474127769000063],[5.480886936000047,6.512138844000049],[5.489954948000047,6.512226105000082],[5.496246815000063,6.529837132000068],[5.4771461490000775,6.548131943000044],[5.467101097000068,6.57020807300006],[5.433486938000044,6.589289188000066],[5.409669876000066,6.664813995000088],[5.386900902000093,6.696006775000058],[5.381394863000082,6.7162790300000665],[5.394908905000079,6.744120121000037],[5.422928810000087,6.77302312900008],[5.443592072000058,6.834187984000039],[5.4544148450000876,6.852766991000067],[5.461596012000086,6.875928879000071],[5.45974874500007,6.885982990000059]]]}},{"type":"Feature","properties":{"CNTRY_NAME":"Nigeria","CNTRY_CODE":"NGA","ADM1_NAME":"Edo","ADM1_CODE":"NGA012","ADM2_NAME":"Ovia South West","ADM2_CODE":"NGA012015","HRname":"Ovia South West","HRpcode":"NG012015","HRparent":"NG012","Shape_Leng":2.65721483381,"Shape_Area":0.228587573442,"ADM2_New":"Ovia South West","id":"NG-ED-OVIA-SOUTH-WEST","name":"Ovia South West","parentId":"NG-ED","stateName":"Edo","regionId":"NG-SS","fillColor":"#72A898"},"geometry":{"type":"Polygon","coordinates":[[[5.122329712000067,6.69873857500005],[5.150810719000049,6.745987892000073],[5.197015762000092,6.773944855000082],[5.2088685040000655,6.810021400000039],[5.254822254000089,6.883221626000079],[5.27240800900006,6.88885879500009],[5.45974874500007,6.885982990000059],[5.461596012000086,6.875928879000071],[5.4544148450000876,6.852766991000067],[5.443592072000058,6.834187984000039],[5.422928810000087,6.77302312900008],[5.394908905000079,6.744120121000037],[5.381394863000082,6.7162790300000665],[5.386900902000093,6.696006775000058],[5.409669876000066,6.664813995000088],[5.433486938000044,6.589289188000066],[5.467101097000068,6.57020807300006],[5.4771461490000775,6.548131943000044],[5.496246815000063,6.529837132000068],[5.489954948000047,6.512226105000082],[5.480886936000047,6.512138844000049],[5.466498852000086,6.474127769000063],[5.4692630770000505,6.46029806100006],[5.449389935000056,6.436090946000093],[5.4346909520000395,6.394751549000091],[5.440402031000076,6.3895163540000794],[5.4507536890000665,6.355724812000062],[5.467649460000075,6.348823547000052],[5.4714570050000475,6.3224091530000806],[5.4666976930000715,6.302657604000046],[5.450039864000075,6.283144474000039],[5.434571743000049,6.277194977000079],[5.41577243800009,6.285048008000047],[5.401256561000082,6.282668591000061],[5.389833927000041,6.267914295000082],[5.374603748000084,6.2607755660000635],[5.352710724000076,6.241261959000042],[5.3500933650000775,6.234360695000078],[5.3579459190000875,6.212943554000049],[5.368416786000068,6.200093269000092],[5.367465019000065,6.191288471000064],[5.351235390000056,6.163589001000048],[5.327629089000084,6.142647743000055],[5.286888599000065,6.1447420120000515],[5.282129288000078,6.139030933000072],[5.28289079700005,6.114282131000039],[5.271087646000069,6.098481178000043],[5.269134045000044,6.08703994800004],[5.273943424000038,6.080776215000071],[5.2899346350000656,6.077730179000071],[5.290505886000062,6.065355778000082],[5.272039413000073,6.056027412000049],[5.256502151000063,6.065238953000062],[5.2389307020000615,6.062443733000066],[5.232940197000062,6.065638542000045],[5.233738899000059,6.11236238500004],[5.217365742000084,6.136323452000056],[5.2225570680000715,6.14870357500007],[5.209378719000085,6.15349578900009],[5.2033882140000856,6.145109653000077],[5.195835590000058,6.150885105000043],[5.184027195000056,6.147360325000079],[5.179445267000062,6.1589922900000715],[5.168694496000057,6.163574696000069],[5.1614561080000385,6.142713547000085],[5.157862186000045,6.146707058000061],[5.142962933000092,6.143306732000042],[5.143491745000063,6.151237965000064],[5.133102417000089,6.164677620000077],[5.137675762000072,6.1730918880000445],[5.132036209000091,6.1808462140000415],[5.135913372000061,6.186662197000089],[5.1286873820000665,6.18965864200004],[5.122467995000079,6.205872059000058],[5.117625237000084,6.206946373000051],[5.112825871000041,6.1954741480000735],[5.0998167990000525,6.202176094000038],[5.092422962000057,6.19828033400006],[5.086137772000086,6.2078418730000635],[5.087235928000041,6.214525700000081],[5.08180761300008,6.218033314000081],[5.075622559000067,6.213434219000078],[5.073347569000077,6.239534855000045],[5.063478470000064,6.248346806000086],[5.053448200000048,6.246833324000079],[5.041041851000045,6.274275303000081],[5.021533012000077,6.285357475000069],[5.013073444000042,6.2985754010000505],[5.021523476000084,6.318678856000076],[5.035301208000078,6.328475952000076],[5.027820587000065,6.345218182000053],[5.029245377000052,6.363563061000093],[5.04384994500009,6.366590977000044],[5.052824974000089,6.384150982000051],[5.0661134720000405,6.376564503000054],[5.075731277000045,6.377276897000058],[5.103693485000065,6.4022121430000425],[5.109570980000058,6.412541866000083],[5.103871822000087,6.4221596720000775],[5.107612133000089,6.433380604000092],[5.102981091000061,6.442285538000078],[5.153385162000063,6.498033047000092],[5.1501793860000475,6.508897305000062],[5.164249897000047,6.554492474000085],[5.15458345400009,6.5678000450000695],[5.140639782000051,6.574186325000085],[5.128054142000053,6.5881609920000415],[5.111583710000048,6.630350113000077],[5.114149570000052,6.669145584000091],[5.122329712000067,6.69873857500005]]]}},{"type":"Feature","properties":{"CNTRY_NAME":"Nigeria","CNTRY_CODE":"NGA","ADM1_NAME":"Edo","ADM1_CODE":"NGA012","ADM2_NAME":"Owan East","ADM2_CODE":"NGA012016","HRname":"Owan East","HRpcode":"NG012016","HRparent":"NG012","Shape_Leng":1.51984934662,"Shape_Area":0.101393246383,"ADM2_New":"Owan East","id":"NG-ED-OWAN-EAST","name":"Owan East","parentId":"NG-ED","stateName":"Edo","regionId":"NG-SS","fillColor":"#D4896A"},"geometry":{"type":"Polygon","coordinates":[[[5.909392834000073,7.277768135000088],[5.931923866000091,7.260058880000088],[5.967329979000056,7.247460842000066],[5.987348080000061,7.226404190000039],[6.005465984000068,7.23211813000006],[6.0127320290000625,7.228491783000038],[6.024481773000048,7.240612030000079],[6.040811062000046,7.238918781000052],[6.063457012000072,7.2465238570000565],[6.070720196000082,7.243821144000037],[6.1007761960000835,7.202536106000082],[6.148898125000073,7.183590889000072],[6.161640167000087,7.168931961000055],[6.18543720200006,7.099873066000043],[6.207296848000055,7.069594860000052],[6.219188213000052,7.037374973000055],[6.214962006000064,6.940337181000075],[6.1789269450000575,6.865169048000041],[6.167360783000049,6.823766232000082],[6.141874790000088,6.825096130000077],[6.113788128000067,6.817440033000082],[6.04603385900009,6.776315212000043],[6.044764996000083,6.850041866000083],[6.037498951000089,6.853669167000078],[6.019381046000092,6.84795379600007],[6.0056772230000774,6.88015699400006],[5.996489048000058,6.917944908000038],[5.9728178980000735,6.947281837000048],[5.969085217000043,6.98050403600007],[5.9925179480000565,7.025990963000083],[5.991581917000076,7.035220146000086],[5.981563091000055,7.048982143000046],[5.9415969850000465,7.069849968000085],[5.861740112000064,7.087570190000065],[5.843033791000039,7.109847069000068],[5.844311237000056,7.120328903000086],[5.862779140000043,7.128338814000074],[5.878821850000065,7.172510147000082],[5.893875122000054,7.182878971000093],[5.883665085000075,7.192872047000037],[5.884325027000045,7.199862003000078],[5.903481007000039,7.217193127000087],[5.89733982100006,7.23123312000007],[5.895890236000071,7.253396034000048],[5.909392834000073,7.277768135000088]]]}},{"type":"Feature","properties":{"CNTRY_NAME":"Nigeria","CNTRY_CODE":"NGA","ADM1_NAME":"Edo","ADM1_CODE":"NGA012","ADM2_NAME":"Owan West","ADM2_CODE":"NGA012017","HRname":"Owan West","HRpcode":"NG012017","HRparent":"NG012","Shape_Leng":1.14457838544,"Shape_Area":0.0597709773266,"ADM2_New":"Owan West","id":"NG-ED-OWAN-WEST","name":"Owan West","parentId":"NG-ED","stateName":"Edo","regionId":"NG-SS","fillColor":"#9B8B72"},"geometry":{"type":"Polygon","coordinates":[[[5.869912148000083,6.798501968000039],[5.7973251340000616,6.8116722110000865],[5.777440071000058,6.791160107000053],[5.751592636000055,6.7816400530000465],[5.770835400000067,6.79651403400004],[5.778134823000073,6.817791939000074],[5.769666672000085,6.8399057390000735],[5.785634518000052,6.869615078000038],[5.78790760000004,6.894484997000063],[5.799103260000038,6.9188051220000375],[5.78564214700009,6.968341351000049],[5.793781281000065,7.005321026000047],[5.792581081000037,7.0216550830000415],[5.804257870000072,7.048537254000053],[5.809593201000041,7.0512452130000725],[5.815583229000083,7.071598053000059],[5.821990013000061,7.079123020000054],[5.852578163000089,7.0939989090000495],[5.869006157000058,7.083943844000089],[5.906197071000065,7.080601215000058],[5.9415969850000465,7.069849968000085],[5.981563091000055,7.048982143000046],[5.991581917000076,7.035220146000086],[5.9925179480000565,7.025990963000083],[5.969085217000043,6.98050403600007],[5.9728178980000735,6.947281837000048],[5.996489048000058,6.917944908000038],[6.0056772230000774,6.88015699400006],[6.019381046000092,6.84795379600007],[6.037498951000089,6.853669167000078],[6.044764996000083,6.850041866000083],[6.04308414500008,6.808455944000059],[6.047706127000083,6.780786037000041],[6.04603385900009,6.776315212000043],[6.024158001000046,6.771325111000067],[5.950645924000071,6.790029049000054],[5.869912148000083,6.798501968000039]]]}},{"type":"Feature","properties":{"CNTRY_NAME":"Nigeria","CNTRY_CODE":"NGA","ADM1_NAME":"Edo","ADM1_CODE":"NGA012","ADM2_NAME":"Uhunmwonde","ADM2_CODE":"NGA012018","HRname":"Uhunmwonde","HRpcode":"NG012018","HRparent":"NG012","Shape_Leng":1.66734546766,"Shape_Area":0.165978035122,"ADM2_New":"Uhunmwonde","id":"NG-ED-UHUNMWONDE","name":"Uhunmwonde","parentId":"NG-ED","stateName":"Edo","regionId":"NG-SS","fillColor":"#A3C986"},"geometry":{"type":"Polygon","coordinates":[[[5.869912148000083,6.798501968000039],[5.950645924000071,6.790029049000054],[6.013270855000087,6.773068905000059],[6.079721928000083,6.69332885700004],[6.087938786000052,6.675855160000083],[6.088936806000049,6.647226810000063],[6.084537983000075,6.604691982000077],[6.072848797000063,6.57317209200005],[6.072926044000042,6.54915380500006],[6.092132092000043,6.4976038930000755],[6.12590408300008,6.428638935000038],[6.131688118000056,6.40448617900006],[6.113392830000066,6.37032318100006],[6.076320171000077,6.336715221000077],[6.057298183000057,6.330069065000089],[6.0337238310000885,6.328921795000042],[6.0092701910000415,6.319451809000043],[5.950541973000043,6.251460075000068],[5.8725547790000405,6.251645088000089],[5.839887142000066,6.258726120000063],[5.832633018000081,6.2586569790000794],[5.827546120000079,6.252757072000065],[5.80672693300005,6.282730103000063],[5.780138969000063,6.3045959470000525],[5.763204098000074,6.315147877000072],[5.729865074000088,6.32328891800006],[5.720983982000064,6.329961777000051],[5.700992107000047,6.39145994200004],[5.686937809000085,6.407497883000076],[5.645318985000074,6.418547153000077],[5.638930798000047,6.431418896000082],[5.644300938000072,6.453639984000063],[5.678637028000082,6.492764950000037],[5.726571083000067,6.532940865000057],[5.760054111000045,6.554505825000092],[5.7943749430000935,6.598248005000073],[5.813230038000086,6.6575498580000385],[5.8438410760000465,6.727124214000071],[5.852783203000058,6.766931057000079],[5.869912148000083,6.798501968000039]]]}}]}