{"type":"FeatureCollection","features":[{"type":"Feature","properties":{"CNTRY_NAME":"Nigeria","CNTRY_CODE":"NGA","ADM1_NAME":"Ebonyi","ADM1_CODE":"NGA011","ADM2_NAME":"Abakaliki","ADM2_CODE":"NGA011001","HRname":"Abakaliki","HRpcode":"NG011001","HRparent":"NG011","Shape_Leng":1.12426333276,"Shape_Area":0.0477553206528,"ADM2_New":"Abakaliki","id":"NG-EB-ABAKALIKI","name":"Abakaliki","parentId":"NG-EB","stateName":"Ebonyi","regionId":"NG-SE","fillColor":"#7cb87c"},"geometry":{"type":"Polygon","coordinates":[[[8.048796654000057,6.3195762630000445],[8.065170288000047,6.335588932000064],[8.074706078000077,6.336951256000077],[8.111488342000087,6.322874069000079],[8.133738518000087,6.322420120000061],[8.146906853000075,6.347395420000055],[8.170243263000089,6.352418423000074],[8.172790527000075,6.33195591000009],[8.183689117000085,6.31424665500009],[8.20048999800008,6.310159683000052],[8.288583755000047,6.328323364000084],[8.33036041300005,6.33195591000009],[8.36668777500006,6.327869415000066],[8.397912979000068,6.345054626000092],[8.391663551000079,6.306527138000092],[8.394387245000075,6.296990871000048],[8.416638374000058,6.2733783720000815],[8.418000221000057,6.261117458000058],[8.405285835000086,6.237050533000058],[8.40074539200009,6.216616631000079],[8.371229172000085,6.196636677000072],[8.363509178000072,6.178018570000063],[8.32990646400009,6.190279007000072],[8.324457169000084,6.218432903000064],[8.315829277000091,6.227060795000057],[8.29539585100008,6.223882198000069],[8.273598671000059,6.207534790000068],[8.228643417000058,6.198906898000075],[8.20048999800008,6.183467865000068],[8.16734123200007,6.178018570000063],[8.151902199000062,6.184830189000081],[8.105130196000061,6.170299053000065],[8.07289028200006,6.18301391600005],[8.042466164000075,6.188916683000059],[8.037470818000088,6.19799852400007],[8.03792476700005,6.2157082560000845],[8.058813095000062,6.264750481000078],[8.057905197000082,6.303802490000066],[8.048796654000057,6.3195762630000445]]]}},{"type":"Feature","properties":{"CNTRY_NAME":"Nigeria","CNTRY_CODE":"NGA","ADM1_NAME":"Ebonyi","ADM1_CODE":"NGA011","ADM2_NAME":"Afikpo North","ADM2_CODE":"NGA011002","HRname":"Afikpo North","HRpcode":"NG011002","HRparent":"NG011","Shape_Leng":0.695038308595,"Shape_Area":0.0196197882903,"ADM2_New":"Afikpo North","id":"NG-EB-AFIKPO-NORTH","name":"Afikpo North","parentId":"NG-EB","stateName":"Ebonyi","regionId":"NG-SE","fillColor":"#8fbc8f"},"geometry":{"type":"Polygon","coordinates":[[[7.925764084000093,5.973676682000075],[7.936435223000046,5.96504926700004],[7.965950966000037,5.977309704000049],[7.979247093000083,5.970290184000078],[7.989309788000071,5.942666054000085],[7.982413769000061,5.935824871000079],[7.982346058000076,5.926640987000042],[8.00613308000004,5.9035148620000655],[7.994126797000092,5.897304535000046],[7.9900341030000845,5.886404037000091],[7.970064163000075,5.8710036280000395],[7.959058762000041,5.841158390000089],[7.93854045900008,5.834443569000086],[7.933654785000044,5.8224978450000435],[7.970076084000084,5.768326759000047],[7.951372147000086,5.775062084000069],[7.921760082000048,5.7599840160000895],[7.916110039000046,5.747313976000044],[7.909643650000078,5.746630669000069],[7.8923883440000395,5.7670645710000485],[7.883760452000047,5.788406849000069],[7.883306026000071,5.80838728000009],[7.863326073000053,5.891940117000047],[7.862418175000073,5.926905155000043],[7.868016243000056,5.951814175000038],[7.879219532000093,5.960508347000086],[7.9200878140000555,5.962324619000071],[7.925764084000093,5.973676682000075]]]}},{"type":"Feature","properties":{"CNTRY_NAME":"Nigeria","CNTRY_CODE":"NGA","ADM1_NAME":"Ebonyi","ADM1_CODE":"NGA011","ADM2_NAME":"Afikpo South","ADM2_CODE":"NGA011003","HRname":"Afikpo South","HRpcode":"NG011003","HRparent":"NG011","Shape_Leng":0.856586892768,"Shape_Area":0.0308498308701,"ADM2_New":"Afikpo South","id":"NG-EB-AFIKPO-SOUTH","name":"Afikpo South","parentId":"NG-EB","stateName":"Ebonyi","regionId":"NG-SE","fillColor":"#a8c686"},"geometry":{"type":"Polygon","coordinates":[[[7.737846851000086,5.919380188000048],[7.78930902500008,5.955513000000053],[7.810651302000053,5.947339535000083],[7.8197331430000645,5.968681812000057],[7.868016243000056,5.951814175000038],[7.86196374900004,5.904654980000089],[7.883306026000071,5.80838728000009],[7.883760452000047,5.788406849000069],[7.8923883440000395,5.7670645710000485],[7.905556679000085,5.749354839000091],[7.915593147000038,5.744647503000067],[7.9082450870000685,5.719692230000078],[7.886644840000088,5.700051785000085],[7.890100002000054,5.684799671000064],[7.840573311000071,5.710688591000064],[7.803929806000042,5.744953156000065],[7.78632164000004,5.804915428000072],[7.7641925810000885,5.813957214000084],[7.683955193000088,5.822346210000092],[7.698944569000048,5.839265347000094],[7.710297108000077,5.8755927090000455],[7.737846851000086,5.919380188000048]]]}},{"type":"Feature","properties":{"CNTRY_NAME":"Nigeria","CNTRY_CODE":"NGA","ADM1_NAME":"Ebonyi","ADM1_CODE":"NGA011","ADM2_NAME":"Ebonyi","ADM2_CODE":"NGA011004","HRname":"Ebonyi","HRpcode":"NG011004","HRparent":"NG011","Shape_Leng":1.0810754,"Shape_Area":0.0362766563423,"ADM2_New":"Ebonyi","id":"NG-EB-EBONYI","name":"Ebonyi","parentId":"NG-EB","stateName":"Ebonyi","regionId":"NG-SE","fillColor":"#c2b280"},"geometry":{"type":"Polygon","coordinates":[[[8.079566002000092,6.713151932000073],[8.098546028000044,6.707036972000083],[8.10399532300005,6.712031841000055],[8.127608299000087,6.7115778920000935],[8.144409180000082,6.7252006530000585],[8.149063110000043,6.74708890900007],[8.172790527000075,6.6988630290000515],[8.174606323000091,6.556277752000085],[8.162345886000082,6.51904249200004],[8.161437988000046,6.458648205000088],[8.15689754500005,6.443208694000077],[8.169157982000058,6.403248787000052],[8.170973778000075,6.357385159000046],[8.146906853000075,6.347395420000055],[8.133738518000087,6.322420120000061],[8.126018524000074,6.320603848000076],[8.074706078000077,6.336951256000077],[8.065170288000047,6.335588932000064],[8.048796654000057,6.3195762630000445],[8.025726318000068,6.339536190000047],[8.027935028000059,6.355568886000071],[8.043828011000073,6.382814407000069],[8.04882335700006,6.420050144000072],[8.076068878000058,6.495429516000058],[8.098319054000058,6.5276699070000745],[8.103314400000045,6.545834064000076],[8.09786510500004,6.633019447000038],[8.086058617000049,6.666168213000049],[8.079566002000092,6.713151932000073]]]}},{"type":"Feature","properties":{"CNTRY_NAME":"Nigeria","CNTRY_CODE":"NGA","ADM1_NAME":"Ebonyi","ADM1_CODE":"NGA011","ADM2_NAME":"Ezza North","ADM2_CODE":"NGA011005","HRname":"Ezza North","HRpcode":"NG011005","HRparent":"NG011","Shape_Leng":0.676248235818,"Shape_Area":0.0248986047442,"ADM2_New":"Ezza North","id":"NG-EB-EZZA-NORTH","name":"Ezza North","parentId":"NG-EB","stateName":"Ebonyi","regionId":"NG-SE","fillColor":"#9bb898"},"geometry":{"type":"Polygon","coordinates":[[[7.933449745000075,6.361926079000057],[7.968902588000049,6.37509489100006],[7.998872757000072,6.368737698000075],[8.019761086000074,6.343762398000081],[8.048796654000057,6.3195762630000445],[8.057905197000082,6.303802490000066],[8.058813095000062,6.264750481000078],[8.03792476700005,6.21086454400006],[8.01204109200006,6.208897114000081],[7.982071400000052,6.188916683000059],[7.981163025000058,6.160308838000049],[7.964816093000081,6.145323753000071],[7.950284958000054,6.14714050300006],[7.946197987000062,6.167120457000067],[7.93166732800006,6.1639418600000795],[7.906692028000066,6.186646461000066],[7.8823161130000585,6.184412479000059],[7.887619972000039,6.207534790000068],[7.882905006000044,6.218648911000059],[7.907145977000084,6.242499828000064],[7.913957596000046,6.284276485000078],[7.923947334000047,6.304710388000046],[7.92440176000008,6.339675903000057],[7.933449745000075,6.361926079000057]]]}},{"type":"Feature","properties":{"CNTRY_NAME":"Nigeria","CNTRY_CODE":"NGA","ADM1_NAME":"Ebonyi","ADM1_CODE":"NGA011","ADM2_NAME":"Ezza South","ADM2_CODE":"NGA011006","HRname":"Ezza South","HRpcode":"NG011006","HRparent":"NG011","Shape_Leng":0.900615161093,"Shape_Area":0.0265071725893,"ADM2_New":"Ezza South","id":"NG-EB-EZZA-SOUTH","name":"Ezza South","parentId":"NG-EB","stateName":"Ebonyi","regionId":"NG-SE","fillColor":"#6ba3be"},"geometry":{"type":"Polygon","coordinates":[[[8.03792476700005,6.21086454400006],[8.037470818000088,6.19799852400007],[8.042466164000075,6.188916683000059],[8.07289028200006,6.18301391600005],[8.105130196000061,6.170299053000065],[8.15598869300004,6.183467865000068],[8.15598869300004,6.165304184000092],[8.14145755800007,6.131700993000038],[8.106039047000081,6.10627222100004],[8.053817749000075,6.10627222100004],[8.057451248000064,6.09446573300005],[8.074252129000058,6.0808429720000845],[8.06199169200005,6.0654034610000735],[8.020215034000046,6.049056530000087],[8.011845589000075,6.036974430000043],[7.992515564000087,6.060862541000063],[7.983433723000076,6.0654034610000735],[7.932121277000078,6.045877457000074],[7.921677113000044,6.043607235000081],[7.909870625000053,6.049056530000087],[7.903967381000086,6.07039880800005],[7.906692028000066,6.1344256400000745],[7.87899255800005,6.167574406000085],[7.8823161130000585,6.184412479000059],[7.906692028000066,6.186646461000066],[7.93166732800006,6.1639418600000795],[7.946197987000062,6.167120457000067],[7.950284958000054,6.14714050300006],[7.964816093000081,6.145323753000071],[7.981163025000058,6.160308838000049],[7.982071400000052,6.188916683000059],[8.01204109200006,6.208897114000081],[8.03792476700005,6.21086454400006]]]}},{"type":"Feature","properties":{"CNTRY_NAME":"Nigeria","CNTRY_CODE":"NGA","ADM1_NAME":"Ebonyi","ADM1_CODE":"NGA011","ADM2_NAME":"Ikwo","ADM2_CODE":"NGA011007","HRname":"Ikwo","HRpcode":"NG011007","HRparent":"NG011","Shape_Leng":1.0788934603,"Shape_Area":0.0471702737646,"ADM2_New":"Ikwo","id":"NG-EB-IKWO","name":"Ikwo","parentId":"NG-EB","stateName":"Ebonyi","regionId":"NG-SE","fillColor":"#89a96d"},"geometry":{"type":"Polygon","coordinates":[[[8.15598869300004,6.183467865000068],[8.16734123200007,6.178018570000063],[8.20048999800008,6.183467865000068],[8.228643417000058,6.198906898000075],[8.273598671000059,6.207534790000068],[8.29539585100008,6.223882198000069],[8.315829277000091,6.227060795000057],[8.324457169000084,6.218432903000064],[8.32990646400009,6.190279007000072],[8.362339020000093,6.176262379000093],[8.339442253000072,6.153043747000083],[8.33126926400007,6.135334015000069],[8.320824623000078,6.128976822000084],[8.314921379000054,6.116261959000042],[8.302002907000087,6.108136177000063],[8.298229218000074,6.067536831000041],[8.288840294000067,6.0457034110000905],[8.28223323800006,6.004739761000053],[8.263733864000073,5.996811390000062],[8.258448601000055,5.998132706000092],[8.252722740000081,6.012228012000037],[8.244793892000075,6.017953873000067],[8.214842796000084,6.012228012000037],[8.167712212000083,5.9695024490000606],[8.153177261000053,5.967300415000068],[8.113847733000057,5.938149929000076],[8.088920593000068,5.9902009960000555],[8.011845589000075,6.036974430000043],[8.020215034000046,6.049056530000087],[8.06199169200005,6.0654034610000735],[8.074252129000058,6.0808429720000845],[8.057451248000064,6.09446573300005],[8.053817749000075,6.10627222100004],[8.106039047000081,6.10627222100004],[8.14145755800007,6.131700993000038],[8.15598869300004,6.165304184000092],[8.15598869300004,6.183467865000068]]]}},{"type":"Feature","properties":{"CNTRY_NAME":"Nigeria","CNTRY_CODE":"NGA","ADM1_NAME":"Ebonyi","ADM1_CODE":"NGA011","ADM2_NAME":"Ishielu","ADM2_CODE":"NGA011008","HRname":"Ishielu","HRpcode":"NG011008","HRparent":"NG011","Shape_Leng":1.20559711357,"Shape_Area":0.0713410222008,"ADM2_New":"Ishielu","id":"NG-EB-ISHIELU","name":"Ishielu","parentId":"NG-EB","stateName":"Ebonyi","regionId":"NG-SE","fillColor":"#b5c99a"},"geometry":{"type":"Polygon","coordinates":[[[7.703923702000054,6.607056141000044],[7.698944569000048,6.630749226000091],[7.705756187000077,6.63619852100004],[7.802250862000051,6.632111549000058],[7.831766605000041,6.638468742000043],[7.8335828780000725,6.619396687000062],[7.846751690000076,6.604411602000084],[7.855833530000041,6.580799103000061],[7.887166023000077,6.552645206000079],[7.929416656000058,6.532986164000079],[7.923947334000047,6.491342545000066],[7.933483601000091,6.464551449000055],[7.938478470000064,6.430948257000068],[7.934391499000071,6.365559101000088],[7.92440176000008,6.339675903000057],[7.923947334000047,6.304710388000046],[7.913957596000046,6.284276485000078],[7.907145977000084,6.242499828000064],[7.882905006000044,6.218648911000059],[7.870818615000076,6.223882198000069],[7.841756821000047,6.224336147000088],[7.814056873000084,6.247494698000082],[7.7968015670000455,6.251127720000056],[7.759565830000042,6.25067329400008],[7.725004673000058,6.242600918000051],[7.7216491700000915,6.249311447000082],[7.708934784000064,6.277919292000092],[7.70802640900007,6.298353195000061],[7.751392365000072,6.385539055000038],[7.749121666000065,6.447295666000059],[7.730731010000056,6.559910774000059],[7.703923702000054,6.607056141000044]]]}},{"type":"Feature","properties":{"CNTRY_NAME":"Nigeria","CNTRY_CODE":"NGA","ADM1_NAME":"Ebonyi","ADM1_CODE":"NGA011","ADM2_NAME":"Ivo","ADM2_CODE":"NGA011009","HRname":"Ivo","HRpcode":"NG011009","HRparent":"NG011","Shape_Leng":0.631129907358,"Shape_Area":0.0199987254321,"ADM2_New":"Ivo","id":"NG-EB-IVO","name":"Ivo","parentId":"NG-EB","stateName":"Ebonyi","regionId":"NG-SE","fillColor":"#d4a574"},"geometry":{"type":"Polygon","coordinates":[[[7.547191620000092,5.994943142000068],[7.573160648000055,5.969135761000075],[7.664433479000081,5.930084229000045],[7.710751057000039,5.92191028600007],[7.720286846000079,5.9319005010000865],[7.73663425400008,5.92463493300005],[7.735725880000075,5.911466122000093],[7.710297108000077,5.8755927090000455],[7.698944569000048,5.839265347000094],[7.683955193000088,5.822346210000092],[7.617618084000071,5.827282429000093],[7.566697598000076,5.843938828000091],[7.551944733000084,5.843462944000066],[7.539571762000037,5.851077080000039],[7.539571762000037,5.907232285000077],[7.552896500000088,5.9538698200000795],[7.553372383000067,5.98147153900004],[7.547191620000092,5.994943142000068]]]}},{"type":"Feature","properties":{"CNTRY_NAME":"Nigeria","CNTRY_CODE":"NGA","ADM1_NAME":"Ebonyi","ADM1_CODE":"NGA011","ADM2_NAME":"Izzi","ADM2_CODE":"NGA011010","HRname":"Izzi","HRpcode":"NG011010","HRparent":"NG011","Shape_Leng":1.50689940077,"Shape_Area":0.0874222333521,"ADM2_New":"Izzi","id":"NG-EB-IZZI","name":"Izzi","parentId":"NG-EB","stateName":"Ebonyi","regionId":"NG-SE","fillColor":"#5a9e6f"},"geometry":{"type":"Polygon","coordinates":[[[8.149063110000043,6.74708890900007],[8.17301750200005,6.773334503000058],[8.22024345400007,6.7787833210000485],[8.229325294000091,6.800125599000069],[8.234319687000038,6.799217701000089],[8.26610660600005,6.74154806100006],[8.251575470000091,6.735644817000093],[8.268831253000087,6.727925301000084],[8.273825645000045,6.7129402160000495],[8.28018379200006,6.715210438000042],[8.285632133000092,6.71021556900007],[8.278820992000078,6.697955132000061],[8.301980019000041,6.6698012350000795],[8.309245110000063,6.639377117000038],[8.322414398000092,6.634381771000051],[8.324230194000052,6.621213436000062],[8.31424045600005,6.607136250000053],[8.32195949600009,6.603049755000086],[8.324751854000056,6.5894994740000925],[8.330133438000075,6.591697216000057],[8.340123177000066,6.575349808000055],[8.351929665000057,6.5744419100000755],[8.358741760000044,6.563997746000041],[8.37418079400004,6.563543320000065],[8.371456146000071,6.548104286000068],[8.375088692000077,6.545834064000076],[8.391436577000093,6.550374985000076],[8.400063515000056,6.536297798000078],[8.390981674000045,6.523128986000074],[8.419136047000052,6.514501572000086],[8.42049789400005,6.5054197310000745],[8.412323952000065,6.500424385000088],[8.40596675900008,6.484985352000081],[8.40869140600006,6.477719784000044],[8.422768593000058,6.477719784000044],[8.423676491000037,6.466367722000086],[8.438661575000083,6.446841717000041],[8.43185043300008,6.439576149000061],[8.43230438200004,6.433218956000076],[8.456825256000059,6.428223610000089],[8.455009460000042,6.410059929000056],[8.444110870000088,6.402340412000058],[8.447743416000037,6.39189624800008],[8.445018768000068,6.385539055000038],[8.407329559000061,6.374640942000042],[8.397912979000068,6.345054626000092],[8.375769615000081,6.331501961000072],[8.36668777500006,6.327869415000066],[8.33036041300005,6.33195591000009],[8.288583755000047,6.328323364000084],[8.20048999800008,6.310159683000052],[8.183689117000085,6.31424665500009],[8.172790527000075,6.33195591000009],[8.169157982000058,6.403248787000052],[8.15689754500005,6.443208694000077],[8.161437988000046,6.458648205000088],[8.162345886000082,6.51904249200004],[8.174606323000091,6.556277752000085],[8.173244476000093,6.692051888000037],[8.171882629000038,6.706128597000088],[8.149063110000043,6.74708890900007]]]}},{"type":"Feature","properties":{"CNTRY_NAME":"Nigeria","CNTRY_CODE":"NGA","ADM1_NAME":"Ebonyi","ADM1_CODE":"NGA011","ADM2_NAME":"Ohaozara","ADM2_CODE":"NGA011011","HRname":"Ohaozara","HRpcode":"NG011011","HRparent":"NG011","Shape_Leng":0.764733532568,"Shape_Area":0.0254647014355,"ADM2_New":"Ohaozara","id":"NG-EB-OHAOZARA","name":"Ohaozara","parentId":"NG-EB","stateName":"Ebonyi","regionId":"NG-SE","fillColor":"#84b882"},"geometry":{"type":"Polygon","coordinates":[[[7.668315411000037,6.060618877000081],[7.713799477000066,6.083923340000069],[7.761382103000074,6.07766437500004],[7.831766605000041,6.057229996000046],[7.877630234000037,6.033617020000065],[7.910778999000058,6.000922680000087],[7.925764084000093,5.973676682000075],[7.9200878140000555,5.962324619000071],[7.879219532000093,5.960508347000086],[7.868016243000056,5.951814175000038],[7.8197331430000645,5.968681812000057],[7.816100597000059,5.96504926700004],[7.8197331430000645,5.958237648000079],[7.810651302000053,5.947339535000083],[7.78930902500008,5.955513000000053],[7.737846851000086,5.919380188000048],[7.73663425400008,5.92463493300005],[7.720286846000079,5.9319005010000865],[7.710751057000039,5.92191028600007],[7.691889286000048,5.9246401790000505],[7.704847813000072,5.92917585400005],[7.714838028000088,5.94597721100007],[7.711205006000057,5.970952511000064],[7.6757860180000534,6.010004520000052],[7.663979530000063,6.049056530000087],[7.668315411000037,6.060618877000081]]]}},{"type":"Feature","properties":{"CNTRY_NAME":"Nigeria","CNTRY_CODE":"NGA","ADM1_NAME":"Ebonyi","ADM1_CODE":"NGA011","ADM2_NAME":"Ohaukwu","ADM2_CODE":"NGA011012","HRname":"Ohaukwu","HRpcode":"NG011012","HRparent":"NG011","Shape_Leng":0.975099195989,"Shape_Area":0.0422803564216,"ADM2_New":"Ohaukwu","id":"NG-EB-OHAUKWU","name":"Ohaukwu","parentId":"NG-EB","stateName":"Ebonyi","regionId":"NG-SE","fillColor":"#c9b896"},"geometry":{"type":"Polygon","coordinates":[[[7.929416656000058,6.532986164000079],[7.94937658300006,6.532210827000085],[7.962545395000063,6.544017315000076],[7.987066269000081,6.611223221000046],[7.985703945000068,6.669347286000061],[7.988428593000037,6.687964916000055],[8.000235558000043,6.712031841000055],[8.025210381000079,6.714302063000048],[8.050866127000063,6.7093071940000755],[8.079566002000092,6.713151932000073],[8.086058617000049,6.666168213000049],[8.09786510500004,6.633019447000038],[8.103314400000045,6.545834064000076],[8.098319054000058,6.5276699070000745],[8.076068878000058,6.495429516000058],[8.04882335700006,6.420050144000072],[8.043828011000073,6.382814407000069],[8.027935028000059,6.355568886000071],[8.025726318000068,6.339536190000047],[7.998872757000072,6.368737698000075],[7.98434209800007,6.373732567000047],[7.954825878000065,6.371916294000073],[7.940749168000082,6.361926079000057],[7.933449745000075,6.361926079000057],[7.938478470000064,6.430948257000068],[7.933483601000091,6.464551449000055],[7.923947334000047,6.491342545000066],[7.929416656000058,6.532986164000079]]]}},{"type":"Feature","properties":{"CNTRY_NAME":"Nigeria","CNTRY_CODE":"NGA","ADM1_NAME":"Ebonyi","ADM1_CODE":"NGA011","ADM2_NAME":"Onicha","ADM2_CODE":"NGA011013","HRname":"Onicha","HRpcode":"NG011013","HRparent":"NG011","Shape_Leng":1.09077707761,"Shape_Area":0.0389203614523,"ADM2_New":"Onicha","id":"NG-EB-ONICHA","name":"Onicha","parentId":"NG-EB","stateName":"Ebonyi","regionId":"NG-SE","fillColor":"#7eb09a"},"geometry":{"type":"Polygon","coordinates":[[[7.725004673000058,6.242600918000051],[7.759565830000042,6.25067329400008],[7.7968015670000455,6.251127720000056],[7.814056873000084,6.247494698000082],[7.841756821000047,6.224336147000088],[7.870818615000076,6.223882198000069],[7.882905006000044,6.218648911000059],[7.887619972000039,6.207534790000068],[7.87899255800005,6.167574406000085],[7.906692028000066,6.1344256400000745],[7.903967381000086,6.07039880800005],[7.909870625000053,6.049056530000087],[7.921677113000044,6.043607235000081],[7.932121277000078,6.045877457000074],[7.983433723000076,6.0654034610000735],[7.992515564000087,6.060862541000063],[8.009771347000083,6.038612366000052],[8.054822922000085,6.007657051000081],[7.986176968000052,5.9817228320000595],[7.979247093000083,5.970290184000078],[7.965950966000037,5.977309704000049],[7.936435223000046,5.96504926700004],[7.929623604000085,5.966865540000072],[7.910778999000058,6.000922680000087],[7.862190723000083,6.043607235000081],[7.801796436000075,6.067220211000063],[7.713799477000066,6.083923340000069],[7.7261900900000455,6.114899635000086],[7.7389049530000875,6.172115326000039],[7.733001709000064,6.226606369000081],[7.725004673000058,6.242600918000051]]]}}]}