{"type":"FeatureCollection","features":[{"type":"Feature","properties":{"CNTRY_NAME":"Nigeria","CNTRY_CODE":"NGA","ADM1_NAME":"Federal Capital Territory","ADM1_CODE":"NGA015","ADM2_NAME":"Abaji","ADM2_CODE":"NGA015001","HRname":"Abaji","HRpcode":"NG015001","HRparent":"NG015","Shape_Leng":2.60706737385,"Shape_Area":0.081531547357,"ADM2_New":"Abaji","id":"NG-FC-ABAJI","name":"Abaji","parentId":"NG-FC","stateName":"Federal Capital Territory","regionId":"NG-NC","fillColor":"#7cb87c"},"geometry":{"type":"Polygon","coordinates":[[[6.786707401000058,9.155335426000079],[6.788054466000062,9.270166397000082],[7.015266895000082,9.268970490000072],[7.030075073000091,9.257713318000071],[7.0254035000000385,9.247902870000075],[7.005655766000075,9.246301651000067],[6.99124574700005,9.23189067800007],[6.980037689000085,9.229756355000063],[6.979503632000046,9.223885536000068],[6.9747004510000465,9.224952698000038],[6.972031593000054,9.23295879400007],[6.968295574000081,9.23189067800007],[6.959756374000051,9.223885536000068],[6.966160774000059,9.216946602000064],[6.958155155000043,9.203070641000068],[6.949615479000045,9.205204964000075],[6.937340260000042,9.198801041000081],[6.912789345000078,9.195598602000075],[6.8925080300000445,9.205204964000075],[6.888772011000071,9.198266983000053],[6.889839172000052,9.18972778300008],[6.877563953000049,9.171581268000068],[6.877030373000082,9.13849067700005],[6.880766392000055,9.132619858000055],[6.890906811000093,9.133687019000092],[6.8925080300000445,9.128883362000067],[6.886103153000079,9.119811058000039],[6.888772011000071,9.097928047000039],[6.88663721100005,9.092057228000044],[6.881833553000092,9.092057228000044],[6.873827934000076,9.050961494000092],[6.866355896000073,9.041354179000052],[6.881833553000092,8.991718292000087],[6.8925080300000445,8.983179092000057],[6.898912430000053,8.968235016000051],[6.902114868000069,8.954892159000053],[6.897311211000044,8.944217682000044],[6.898378849000039,8.929807663000076],[6.883968353000057,8.914329529000042],[6.882901192000077,8.901520729000083],[6.888772011000071,8.89725112900004],[6.8722267150000675,8.872166634000052],[6.8722267150000675,8.84494686100004],[6.85514783900004,8.84494686100004],[6.851411819000077,8.835339546000057],[6.823391914000069,8.818794250000053],[6.815385818000038,8.79264259300004],[6.797239780000041,8.784103394000056],[6.795638561000089,8.777164459000062],[6.80097580000006,8.76915931700006],[6.814318657000058,8.76809120200005],[6.820189476000053,8.761153221000086],[6.814318657000058,8.753681183000083],[6.803644180000049,8.755282402000091],[6.7993745800000625,8.74620914500008],[6.792969704000086,8.744073868000044],[6.7945709230000375,8.739271164000058],[6.802576542000054,8.740872383000067],[6.81645345700008,8.733400345000064],[6.810582638000085,8.72592830700006],[6.810048580000057,8.715253830000051],[6.798840523000081,8.705646515000069],[6.801509380000084,8.698708534000048],[6.811649799000065,8.691769600000043],[6.823925495000083,8.697640419000038],[6.827127934000089,8.693370819000052],[6.822857857000088,8.684831619000079],[6.799908161000076,8.67308998100009],[6.807913780000092,8.657078743000056],[6.804177761000062,8.646404266000047],[6.812183857000093,8.646404266000047],[6.814852238000071,8.638932228000044],[6.803110600000082,8.63092613200007],[6.81645345700008,8.62131977100006],[6.813251019000063,8.61064529400005],[6.834866524000063,8.599970818000088],[6.832731724000041,8.582358360000057],[6.856215477000092,8.576487541000063],[6.881299973000068,8.586627960000044],[6.987509727000088,8.527385712000068],[6.9987177850000535,8.51564312000005],[7.004588604000048,8.492159843000081],[6.99124574700005,8.47454738600004],[6.991440773000079,8.459823608000079],[6.778522491000047,8.457550049000076],[6.786707401000058,9.155335426000079]]]}},{"type":"Feature","properties":{"CNTRY_NAME":"Nigeria","CNTRY_CODE":"NGA","ADM1_NAME":"Federal Capital Territory","ADM1_CODE":"NGA015","ADM2_NAME":"Bwari","ADM2_CODE":"NGA015003","HRname":"Bwari","HRpcode":"NG015003","HRparent":"NG015","Shape_Leng":1.23933215953,"Shape_Area":0.0752528348233,"ADM2_New":"Bwari","id":"NG-FC-BWARI","name":"Bwari","parentId":"NG-FC","stateName":"Federal Capital Territory","regionId":"NG-NC","fillColor":"#8fbc8f"},"geometry":{"type":"Polygon","coordinates":[[[7.388168335000046,9.349822998000093],[7.417672157000084,9.367031097000051],[7.476269245000083,9.370618820000061],[7.509752750000075,9.361051559000089],[7.589875221000057,9.431607246000056],[7.67238903000009,9.411277771000073],[7.7300548550000485,9.331963539000071],[7.667605877000085,9.303650856000047],[7.603319168000041,9.161440849000087],[7.4441041950000795,9.16784477200008],[7.383260250000092,9.165710449000073],[7.367782593000072,9.156637192000062],[7.332023621000076,9.159839630000079],[7.305337906000091,9.153434753000056],[7.24975681300009,9.155721664000055],[7.388168335000046,9.349822998000093]]]}},{"type":"Feature","properties":{"CNTRY_NAME":"Nigeria","CNTRY_CODE":"NGA","ADM1_NAME":"Federal Capital Territory","ADM1_CODE":"NGA015","ADM2_NAME":"Gwagwalada","ADM2_CODE":"NGA015004","HRname":"Gwagwalada","HRpcode":"NG015004","HRparent":"NG015","Shape_Leng":1.28972082713,"Shape_Area":0.0857935876489,"ADM2_New":"Gwagwalada","id":"NG-FC-GWAGWALADA","name":"Gwagwalada","parentId":"NG-FC","stateName":"Federal Capital Territory","regionId":"NG-NC","fillColor":"#a8c686"},"geometry":{"type":"Polygon","coordinates":[[[7.030075073000091,9.257713318000071],[7.219758034000051,9.113510132000044],[7.214072227000088,9.087787628000058],[7.191122532000065,9.048293114000046],[7.170841217000088,9.03334903700005],[7.140419483000073,8.991718292000087],[7.100924492000047,8.95595932000009],[7.097188473000074,8.945818901000052],[7.10145807300006,8.93834686300005],[7.113466740000092,8.933010101000093],[7.120918274000076,8.900915146000045],[6.884407520000082,8.908621788000062],[6.888772011000071,8.921801567000045],[6.898378849000039,8.929807663000076],[6.897311211000044,8.944217682000044],[6.902114868000069,8.954892159000053],[6.8925080300000445,8.983179092000057],[6.881833553000092,8.991718292000087],[6.866355896000073,9.041354179000052],[6.873827934000076,9.050961494000092],[6.881833553000092,9.092057228000044],[6.88663721100005,9.092057228000044],[6.888772011000071,9.097928047000039],[6.886103153000079,9.119811058000039],[6.8925080300000445,9.128883362000067],[6.890906811000093,9.133687019000092],[6.880766392000055,9.132619858000055],[6.877030373000082,9.13849067700005],[6.877563953000049,9.171581268000068],[6.889839172000052,9.18972778300008],[6.8925080300000445,9.205204964000075],[6.912789345000078,9.195598602000075],[6.937340260000042,9.198801041000081],[6.949615479000045,9.205204964000075],[6.958155155000043,9.203070641000068],[6.966160774000059,9.216946602000064],[6.959756374000051,9.223885536000068],[6.968295574000081,9.23189067800007],[6.972031593000054,9.23295879400007],[6.9747004510000465,9.224952698000038],[6.979503632000046,9.223885536000068],[6.980037689000085,9.229756355000063],[6.99124574700005,9.23189067800007],[7.005655766000075,9.246301651000067],[7.0254035000000385,9.247902870000075],[7.030075073000091,9.257713318000071]]]}},{"type":"Feature","properties":{"CNTRY_NAME":"Nigeria","CNTRY_CODE":"NGA","ADM1_NAME":"Federal Capital Territory","ADM1_CODE":"NGA015","ADM2_NAME":"Kuje","ADM2_CODE":"NGA015005","HRname":"Kuje","HRpcode":"NG015005","HRparent":"NG015","Shape_Leng":1.85773616241,"Shape_Area":0.135073391005,"ADM2_New":"Kuje","id":"NG-FC-KUJE","name":"Kuje","parentId":"NG-FC","stateName":"Federal Capital Territory","regionId":"NG-NC","fillColor":"#c2b280"},"geometry":{"type":"Polygon","coordinates":[[[7.120918274000076,8.900915146000045],[7.113466740000092,8.933010101000093],[7.21780824700005,8.888177872000085],[7.293595791000087,8.838541985000063],[7.331490040000062,8.82146358500006],[7.409412384000063,8.817727089000073],[7.479329109000048,8.806519508000065],[7.485200405000057,8.772360802000037],[7.499610424000082,8.760086060000049],[7.516155720000086,8.757416725000041],[7.523094177000075,8.747810364000088],[7.516155720000086,8.729663849000076],[7.481997967000041,8.678426743000045],[7.462784290000059,8.66348266600005],[7.43823289900007,8.654943466000077],[7.430760860000078,8.645870209000066],[7.42969369900004,8.63306140900005],[7.43449688000004,8.630393028000071],[7.475593090000075,8.632527351000078],[7.418127060000074,8.569902420000062],[7.342399597000053,8.51043891900008],[7.271183968000059,8.492465973000037],[7.116741180000076,8.466221809000047],[6.991440773000079,8.459823608000079],[6.99124574700005,8.47454738600004],[7.004588604000048,8.492159843000081],[6.9987177850000535,8.51564312000005],[6.98590850800008,8.531655312000055],[6.997116566000045,8.551402092000046],[7.023802280000041,8.582358360000057],[7.048886776000074,8.60157203700004],[7.1033258440000395,8.628257751000092],[7.112399101000051,8.644803047000039],[7.117202759000065,8.680562019000092],[7.10225868200007,8.708314896000047],[7.099589825000066,8.72646141100006],[7.105994701000043,8.754215240000065],[7.1284108160000415,8.77769851700009],[7.174843788000089,8.79264259300004],[7.1892542840000715,8.808653831000072],[7.191389084000093,8.82306385000004],[7.18711948400005,8.838007927000092],[7.150292873000069,8.866828918000067],[7.120918274000076,8.900915146000045]]]}},{"type":"Feature","properties":{"CNTRY_NAME":"Nigeria","CNTRY_CODE":"NGA","ADM1_NAME":"Federal Capital Territory","ADM1_CODE":"NGA015","ADM2_NAME":"Kwali","ADM2_CODE":"NGA015006","HRname":"Kwali","HRpcode":"NG015006","HRparent":"NG015","Shape_Leng":1.46974954623,"Shape_Area":0.099087319061,"ADM2_New":"Kwali","id":"NG-FC-KWALI","name":"Kwali","parentId":"NG-FC","stateName":"Federal Capital Territory","regionId":"NG-NC","fillColor":"#9bb898"},"geometry":{"type":"Polygon","coordinates":[[[6.884407520000082,8.908621788000062],[7.120918274000076,8.900915146000045],[7.150292873000069,8.866828918000067],[7.1780462270000385,8.848149300000046],[7.18711948400005,8.838007927000092],[7.191389084000093,8.82306385000004],[7.1892542840000715,8.808653831000072],[7.180181026000071,8.796912193000082],[7.1284108160000415,8.77769851700009],[7.105994701000043,8.754215240000065],[7.099589825000066,8.72646141100006],[7.10225868200007,8.708314896000047],[7.117202759000065,8.680562019000092],[7.117202759000065,8.665617943000086],[7.1033258440000395,8.628257751000092],[7.048886776000074,8.60157203700004],[7.023802280000041,8.582358360000057],[6.997116566000045,8.551402092000046],[6.98590850800008,8.531655312000055],[6.987509727000088,8.527385712000068],[6.881299973000068,8.586627960000044],[6.856215477000092,8.576487541000063],[6.832731724000041,8.582358360000057],[6.834866524000063,8.599970818000088],[6.813251019000063,8.61064529400005],[6.81645345700008,8.62131977100006],[6.803110600000082,8.63092613200007],[6.814852238000071,8.638932228000044],[6.812183857000093,8.646404266000047],[6.804177761000062,8.646404266000047],[6.807913780000092,8.657078743000056],[6.799908161000076,8.67308998100009],[6.822857857000088,8.684831619000079],[6.827127934000089,8.693370819000052],[6.823925495000083,8.697640419000038],[6.808447838000063,8.692837715000053],[6.798840523000081,8.705646515000069],[6.810048580000057,8.715253830000051],[6.810582638000085,8.72592830700006],[6.81645345700008,8.733400345000064],[6.802576542000054,8.740872383000067],[6.7945709230000375,8.739271164000058],[6.792969704000086,8.744073868000044],[6.7993745800000625,8.74620914500008],[6.803644180000049,8.755282402000091],[6.814318657000058,8.753681183000083],[6.820189476000053,8.761153221000086],[6.814318657000058,8.76809120200005],[6.80097580000006,8.76915931700006],[6.795638561000089,8.777164459000062],[6.797239780000041,8.784103394000056],[6.815385818000038,8.79264259300004],[6.823391914000069,8.818794250000053],[6.851411819000077,8.835339546000057],[6.85514783900004,8.84494686100004],[6.8722267150000675,8.84494686100004],[6.8722267150000675,8.872166634000052],[6.888772011000071,8.89725112900004],[6.882901192000077,8.901520729000083],[6.884407520000082,8.908621788000062]]]}},{"type":"Feature","properties":{"CNTRY_NAME":"Nigeria","CNTRY_CODE":"NGA","ADM1_NAME":"Federal Capital Territory","ADM1_CODE":"NGA015","ADM2_NAME":"Abuja Municipal","ADM2_CODE":"NGA015002","HRname":"Abuja Municipal","HRpcode":"NG015002","HRparent":"NG015","Shape_Leng":1.89952705152,"Shape_Area":0.14548879075,"ADM2_New":"Abuja Municipal","id":"NG-FC-ABUJA-MUNICIPAL","name":"Abuja Municipal","parentId":"NG-FC","stateName":"Federal Capital Territory","regionId":"NG-NC","fillColor":"#6ba3be"},"geometry":{"type":"Polygon","coordinates":[[[7.24975681300009,9.155721664000055],[7.305337906000091,9.153434753000056],[7.332023621000076,9.159839630000079],[7.367782593000072,9.156637192000062],[7.383260250000092,9.165710449000073],[7.4441041950000795,9.16784477200008],[7.603319168000041,9.161440849000087],[7.588679314000046,9.129055977000064],[7.594658852000066,8.856400490000055],[7.591669083000056,8.834875107000073],[7.496000767000055,8.654301643000053],[7.479258537000078,8.632776260000071],[7.43449688000004,8.630393028000071],[7.42969369900004,8.638398170000073],[7.430760860000078,8.645870209000066],[7.4435701370000515,8.658145905000083],[7.462784290000059,8.66348266600005],[7.481997967000041,8.678426743000045],[7.516155720000086,8.729663849000076],[7.523094177000075,8.747810364000088],[7.516155720000086,8.757416725000041],[7.499610424000082,8.760086060000049],[7.485200405000057,8.772360802000037],[7.479329109000048,8.806519508000065],[7.409412384000063,8.817727089000073],[7.331490040000062,8.82146358500006],[7.293595791000087,8.838541985000063],[7.21780824700005,8.888177872000085],[7.146823883000081,8.916464806000079],[7.10145807300006,8.93834686300005],[7.097188473000074,8.945818901000052],[7.100924492000047,8.95595932000009],[7.140419483000073,8.991718292000087],[7.170841217000088,9.03334903700005],[7.191122532000065,9.048293114000046],[7.214072227000088,9.087787628000058],[7.219758034000051,9.113510132000044],[7.24975681300009,9.155721664000055]]]}}]}