{"type":"FeatureCollection","features":[{"type":"Feature","properties":{"CNTRY_NAME":"Nigeria","CNTRY_CODE":"NGA","ADM1_NAME":"Gombe","ADM1_CODE":"NGA016","ADM2_NAME":"Akko","ADM2_CODE":"NGA016001","HRname":"Akko","HRpcode":"NG016001","HRparent":"NG016","Shape_Leng":2.75256557359,"Shape_Area":0.216377429351,"ADM2_New":"Akko","id":"NG-GO-AKKO","name":"Akko","parentId":"NG-GO","stateName":"Gombe","regionId":"NG-NE","fillColor":"#6BA368"},"geometry":{"type":"Polygon","coordinates":[[[10.835072517000071,10.395102501000054],[10.91051006300006,10.396705627000074],[10.956107140000086,10.379782677000037],[11.022908211000072,10.375184059000048],[11.02652454400004,10.368655205000039],[11.059812546000046,10.357827187000055],[11.099249840000084,10.358161926000037],[11.109843254000054,10.350867271000084],[11.126645088000089,10.323994637000055],[11.121247292000078,10.304729462000068],[11.125814438000077,10.28047180200008],[11.16554164900009,10.239050865000081],[11.172463417000074,10.240951538000047],[11.17854976700005,10.255013466000037],[11.20073700000006,10.27583026900004],[11.198706627000092,10.28970432300008],[11.180817604000083,10.313071251000054],[11.166032791000077,10.322783470000047],[11.186227798000061,10.331757545000073],[11.211039543000084,10.28244972200008],[11.209650993000082,10.265596390000042],[11.196595192000075,10.251952171000084],[11.19003772700006,10.232658386000082],[11.192610741000067,10.220537186000058],[11.209413528000084,10.193666458000052],[11.256460190000041,10.16285419500008],[11.32006931300009,10.088924408000082],[11.355532646000086,10.05726528200006],[11.411022186000082,10.038830757000085],[11.492720604000056,10.043046951000065],[11.512529373000064,10.038866043000041],[11.539426804000072,10.021604538000076],[11.52318573000008,9.972988129000044],[11.52329635600006,9.939928055000053],[11.48964595800004,9.940307617000087],[11.458132744000068,9.94943714100009],[11.38936805700007,9.992505074000064],[11.355161667000061,9.991711617000078],[11.291143417000058,9.96833801300005],[11.27351188700004,9.985177040000053],[11.255937576000065,9.993469238000046],[11.23736000100007,9.99419879900006],[11.224110603000042,9.98983097100006],[11.177235603000042,9.95684146900004],[11.119379997000067,9.94969844800005],[11.084824562000051,9.937875748000067],[11.057395935000045,9.890255928000045],[11.044015884000089,9.836581230000093],[11.013168335000046,9.813823700000057],[10.979039192000073,9.813121796000075],[10.950119972000039,9.80540084800009],[10.928464890000043,9.909826279000072],[10.87517833700008,9.940522194000039],[10.857723236000083,9.95571994800008],[10.824990273000083,9.969960213000093],[10.788445473000081,10.00612545000007],[10.71421623200007,10.051123619000066],[10.684513092000088,10.080558777000078],[10.70067215000006,10.112256050000042],[10.749928474000058,10.114559174000078],[10.796998024000061,10.110430717000042],[10.806177139000056,10.11528396600005],[10.815175056000044,10.128833771000075],[10.819883347000086,10.181147575000068],[10.839326859000039,10.215169907000075],[10.857159615000057,10.235681534000037],[10.845745087000068,10.266931534000037],[10.826063156000089,10.293679237000049],[10.833607674000064,10.34081840500005],[10.835072517000071,10.395102501000054]]]}},{"type":"Feature","properties":{"CNTRY_NAME":"Nigeria","CNTRY_CODE":"NGA","ADM1_NAME":"Gombe","ADM1_CODE":"NGA016","ADM2_NAME":"Balanga","ADM2_CODE":"NGA016002","HRname":"Balanga","HRpcode":"NG016002","HRparent":"NG016","Shape_Leng":1.7936029327,"Shape_Area":0.133719223034,"ADM2_New":"Balanga","id":"NG-GO-BALANGA","name":"Balanga","parentId":"NG-GO","stateName":"Gombe","regionId":"NG-NE","fillColor":"#C4A574"},"geometry":{"type":"Polygon","coordinates":[[[11.828603745000066,10.05387783100008],[11.843390465000084,10.04458999600007],[11.855346680000082,10.004907608000053],[11.850626945000045,9.985466957000085],[11.85498619100008,9.927104950000057],[11.836197853000044,9.868795395000063],[11.840700150000089,9.841324806000046],[11.85332584400004,9.818412781000063],[11.857860565000067,9.797807693000038],[11.85086345700006,9.786381721000055],[11.835753441000065,9.772686958000065],[11.803272247000052,9.756742477000046],[11.757968903000062,9.721377373000053],[11.746321678000072,9.705385208000052],[11.672015190000081,9.655212402000075],[11.654569626000068,9.636945724000043],[11.615117073000079,9.615296364000073],[11.562986374000047,9.605118752000067],[11.52732276900008,9.60823726700005],[11.484278679000056,9.604154587000039],[11.468048096000075,9.598470688000077],[11.452939034000053,9.584775925000088],[11.444465637000064,9.576152802000081],[11.441893578000077,9.56043148000009],[11.429598808000037,9.549625397000057],[11.405684471000086,9.54450988800005],[11.373851776000038,9.546802521000075],[11.380015373000049,9.579297066000038],[11.406463623000093,9.646036148000064],[11.436270714000045,9.690811157000041],[11.454642296000088,9.69993782000006],[11.488328934000037,9.69781875600006],[11.520082474000048,9.704936028000077],[11.548213005000036,9.718930244000092],[11.566921234000063,9.739665031000072],[11.578815460000044,9.808966637000083],[11.57799243900007,9.848390579000068],[11.574211121000076,9.862804413000049],[11.535896301000037,9.892077446000087],[11.523986816000047,9.906882286000041],[11.52318573000008,9.972988129000044],[11.539426804000072,10.021604538000076],[11.565434456000048,10.033132553000087],[11.588707924000062,10.057455063000077],[11.615074158000084,10.072567940000056],[11.669898033000038,10.08602047000005],[11.767431259000091,10.081903458000056],[11.782602310000073,10.077614784000048],[11.816169739000088,10.053451538000047],[11.828603745000066,10.05387783100008]]]}},{"type":"Feature","properties":{"CNTRY_NAME":"Nigeria","CNTRY_CODE":"NGA","ADM1_NAME":"Gombe","ADM1_CODE":"NGA016","ADM2_NAME":"Billiri","ADM2_CODE":"NGA016003","HRname":"Billiri","HRpcode":"NG016003","HRparent":"NG016","Shape_Leng":1.07959321621,"Shape_Area":0.0606227130208,"ADM2_New":"Billiri","id":"NG-GO-BILLIRI","name":"Billiri","parentId":"NG-GO","stateName":"Gombe","regionId":"NG-NE","fillColor":"#5B8FA8"},"geometry":{"type":"Polygon","coordinates":[[[11.291143417000058,9.96833801300005],[11.256881714000087,9.948247910000077],[11.24903106700009,9.935305595000045],[11.24417591100007,9.917791367000063],[11.239796638000087,9.82198238400008],[11.216391563000059,9.748353958000052],[11.198396683000055,9.721254349000048],[11.11399364500005,9.679853439000055],[11.08916091900005,9.674636841000051],[11.023332596000046,9.688190460000044],[10.95319175700007,9.71382522600004],[10.948938370000064,9.75084972400009],[10.950119972000039,9.80540084800009],[10.979039192000073,9.813121796000075],[11.013168335000046,9.813823700000057],[11.044015884000089,9.836581230000093],[11.057395935000045,9.890255928000045],[11.084824562000051,9.937875748000067],[11.119379997000067,9.94969844800005],[11.177235603000042,9.95684146900004],[11.224110603000042,9.98983097100006],[11.23736000100007,9.99419879900006],[11.255937576000065,9.993469238000046],[11.27351188700004,9.985177040000053],[11.291143417000058,9.96833801300005]]]}},{"type":"Feature","properties":{"CNTRY_NAME":"Nigeria","CNTRY_CODE":"NGA","ADM1_NAME":"Gombe","ADM1_CODE":"NGA016","ADM2_NAME":"Dukku","ADM2_CODE":"NGA016004","HRname":"Dukku","HRpcode":"NG016004","HRparent":"NG016","Shape_Leng":2.69808987239,"Shape_Area":0.315066973216,"ADM2_New":"Dukku","id":"NG-GO-DUKKU","name":"Dukku","parentId":"NG-GO","stateName":"Gombe","regionId":"NG-NE","fillColor":"#A8BF7A"},"geometry":{"type":"Polygon","coordinates":[[[10.949585915000057,11.182710648000068],[11.015727043000084,11.107959747000052],[11.055744171000072,11.080466270000045],[11.078983307000044,11.078684807000059],[11.112284660000057,11.067276955000068],[11.13656330100008,11.043478012000037],[11.138581276000082,11.030184746000089],[11.112566948000051,10.970416069000066],[11.100236893000044,10.921986580000066],[11.11663055400004,10.859142303000056],[11.101209641000082,10.792079926000042],[11.092273712000065,10.662887573000091],[11.039483070000074,10.664777756000092],[10.970793724000089,10.648683548000065],[10.94839954400004,10.637722969000038],[10.931358337000063,10.620506287000069],[10.923133850000056,10.597693443000082],[10.930541039000047,10.548562050000044],[11.003874779000057,10.42555427600007],[11.022908211000072,10.375184059000048],[10.956107140000086,10.379782677000037],[10.91051006300006,10.396705627000074],[10.83744716600006,10.395590782000056],[10.833250046000046,10.418011665000051],[10.819402695000065,10.441228867000063],[10.789127350000058,10.465806007000083],[10.765764236000052,10.477622986000085],[10.704874992000043,10.494524002000048],[10.616939545000037,10.508310318000042],[10.577321053000048,10.53761482200008],[10.558775902000093,10.560891151000078],[10.545124054000041,10.602539062000062],[10.525551796000059,10.639653206000048],[10.516180992000045,10.65016937300004],[10.47886180900008,10.666742325000087],[10.473125458000084,10.679488182000057],[10.524493217000042,10.761786461000042],[10.550655365000068,10.792561531000047],[10.576300621000087,10.885554314000046],[10.585755348000077,10.891194344000041],[10.593951225000069,10.88878631600005],[10.61776447300008,10.858255386000053],[10.629999161000057,10.854919434000067],[10.642976761000057,10.860515594000049],[10.645520210000086,10.87891674000008],[10.638669014000072,10.89743614200006],[10.615489006000075,10.926531792000048],[10.602950096000086,10.962405205000039],[10.618556023000053,10.994465828000045],[10.648155212000063,11.017131805000076],[10.670490265000069,11.019152641000062],[10.720526695000046,11.08649158500009],[10.76195335400007,11.11707210500009],[10.779591560000085,11.11915302300008],[10.793634415000042,11.114366531000087],[10.840165138000089,11.072301865000043],[10.85190773000005,11.072153091000075],[10.863735199000075,11.080067635000091],[10.874583244000064,11.106428146000042],[10.904365540000072,11.146373749000077],[10.949585915000057,11.182710648000068]]]}},{"type":"Feature","properties":{"CNTRY_NAME":"Nigeria","CNTRY_CODE":"NGA","ADM1_NAME":"Gombe","ADM1_CODE":"NGA016","ADM2_NAME":"Funakaye","ADM2_CODE":"NGA016005","HRname":"Funakaye","HRpcode":"NG016005","HRparent":"NG016","Shape_Leng":1.76146002598,"Shape_Area":0.11672598783,"ADM2_New":"Funakaye","id":"NG-GO-FUNAKAYE","name":"Funakaye","parentId":"NG-GO","stateName":"Gombe","regionId":"NG-NE","fillColor":"#B8956B"},"geometry":{"type":"Polygon","coordinates":[[[11.40013885500008,11.08908748600004],[11.470545769000069,11.021645546000059],[11.513415337000083,10.968695641000068],[11.530362129000082,10.934866905000092],[11.528417587000092,10.879737854000041],[11.53907489800008,10.850962639000045],[11.526517868000042,10.757863998000062],[11.516614914000058,10.73211288500005],[11.51507091500008,10.694953918000067],[11.522719383000037,10.661479950000057],[11.514748573000077,10.612222672000087],[11.491074562000051,10.62189197500004],[11.460226059000092,10.626976013000046],[11.402394295000079,10.618674278000071],[11.290354729000057,10.623035431000062],[11.230916023000077,10.636157036000043],[11.146666527000093,10.670744896000087],[11.092273712000065,10.662887573000091],[11.101209641000082,10.792079926000042],[11.11663055400004,10.859142303000056],[11.216980934000048,10.803465843000083],[11.317038536000041,10.789546967000092],[11.340121269000065,10.795302391000064],[11.352054596000073,10.807180405000054],[11.356776237000076,10.831071854000072],[11.347775459000047,10.873206139000047],[11.346070290000057,10.927110672000083],[11.326571465000086,10.999743462000083],[11.331027985000048,11.00854778300004],[11.378531456000076,11.03923225400007],[11.375558853000086,11.070485115000054],[11.390812874000062,11.089980125000068],[11.40013885500008,11.08908748600004]]]}},{"type":"Feature","properties":{"CNTRY_NAME":"Nigeria","CNTRY_CODE":"NGA","ADM1_NAME":"Gombe","ADM1_CODE":"NGA016","ADM2_NAME":"Gombe","ADM2_CODE":"NGA016006","HRname":"Gombe","HRpcode":"NG016006","HRparent":"NG016","Shape_Leng":0.260392909801,"Shape_Area":0.00427034270388,"ADM2_New":"Gombe","id":"NG-GO-GOMBE","name":"Gombe","parentId":"NG-GO","stateName":"Gombe","regionId":"NG-NE","fillColor":"#6AADA3"},"geometry":{"type":"Polygon","coordinates":[[[11.126645088000089,10.323994637000055],[11.137793541000065,10.317873001000066],[11.17312336000009,10.320432663000076],[11.198706627000092,10.28970432300008],[11.20073700000006,10.27583026900004],[11.17854976700005,10.255013466000037],[11.172463417000074,10.240951538000047],[11.16554164900009,10.239050865000081],[11.125814438000077,10.28047180200008],[11.121247292000078,10.304729462000068],[11.126645088000089,10.323994637000055]]]}},{"type":"Feature","properties":{"CNTRY_NAME":"Nigeria","CNTRY_CODE":"NGA","ADM1_NAME":"Gombe","ADM1_CODE":"NGA016","ADM2_NAME":"Kaltungo","ADM2_CODE":"NGA016007","HRname":"Kaltungo","HRpcode":"NG016007","HRparent":"NG016","Shape_Leng":1.06971250308,"Shape_Area":0.0724988348555,"ADM2_New":"Kaltungo","id":"NG-GO-KALTUNGO","name":"Kaltungo","parentId":"NG-GO","stateName":"Gombe","regionId":"NG-NE","fillColor":"#8FAF6E"},"geometry":{"type":"Polygon","coordinates":[[[11.291143417000058,9.96833801300005],[11.355161667000061,9.991711617000078],[11.38936805700007,9.992505074000064],[11.458132744000068,9.94943714100009],[11.48964595800004,9.940307617000087],[11.523356438000064,9.937029839000047],[11.527006149000044,9.90115165700007],[11.574211121000076,9.862804413000049],[11.57799243900007,9.848390579000068],[11.576365471000088,9.787447929000052],[11.566921234000063,9.739665031000072],[11.556208611000045,9.72491550400008],[11.504538536000041,9.699355125000068],[11.446573257000068,9.697430611000073],[11.436270714000045,9.690811157000041],[11.412031174000049,9.65718555500007],[11.378609657000084,9.674391747000072],[11.334350586000085,9.738329887000077],[11.292412758000069,9.774479866000092],[11.287484169000038,9.788286209000091],[11.29513931300005,9.83834743500006],[11.27362442000009,9.896432877000052],[11.261001587000067,9.917601585000057],[11.24590492200008,9.924029350000069],[11.256881714000087,9.948247910000077],[11.291143417000058,9.96833801300005]]]}},{"type":"Feature","properties":{"CNTRY_NAME":"Nigeria","CNTRY_CODE":"NGA","ADM1_NAME":"Gombe","ADM1_CODE":"NGA016","ADM2_NAME":"Kwami","ADM2_CODE":"NGA016008","HRname":"Kwami","HRpcode":"NG016008","HRparent":"NG016","Shape_Leng":1.58887718859,"Shape_Area":0.147332233626,"ADM2_New":"Kwami","id":"NG-GO-KWAMI","name":"Kwami","parentId":"NG-GO","stateName":"Gombe","regionId":"NG-NE","fillColor":"#D4C4A0"},"geometry":{"type":"Polygon","coordinates":[[[11.092273712000065,10.662887573000091],[11.146666527000093,10.670744896000087],[11.230916023000077,10.636157036000043],[11.290354729000057,10.623035431000062],[11.402394295000079,10.618674278000071],[11.460226059000092,10.626976013000046],[11.491074562000051,10.62189197500004],[11.51242351500008,10.613064766000036],[11.512721062000082,10.585270882000088],[11.516513824000072,10.570278168000073],[11.521873474000074,10.568999290000079],[11.50945091200009,10.519650459000047],[11.490923882000061,10.490218163000065],[11.473180771000045,10.478786469000056],[11.41431427000009,10.408974648000083],[11.396547318000046,10.398701668000058],[11.35747432700009,10.38097381600005],[11.304413795000073,10.366401672000052],[11.283313751000037,10.349091530000067],[11.268639565000058,10.32960987100006],[11.255437851000067,10.322922707000089],[11.197614670000064,10.313154221000048],[11.186227798000061,10.331757545000073],[11.179850578000071,10.331609726000067],[11.159233093000068,10.318950653000059],[11.137793541000065,10.317873001000066],[11.11834716800007,10.332503319000068],[11.109843254000054,10.350867271000084],[11.099249840000084,10.358161926000037],[11.059812546000046,10.357827187000055],[11.02652454400004,10.368655205000039],[11.003874779000057,10.42555427600007],[10.930541039000047,10.548562050000044],[10.923955917000058,10.586112022000066],[10.923133850000056,10.597693443000082],[10.931358337000063,10.620506287000069],[10.958726883000054,10.643182755000055],[11.024445534000051,10.662689209000064],[11.092273712000065,10.662887573000091]]]}},{"type":"Feature","properties":{"CNTRY_NAME":"Nigeria","CNTRY_CODE":"NGA","ADM1_NAME":"Gombe","ADM1_CODE":"NGA016","ADM2_NAME":"Nafada","ADM2_CODE":"NGA016009","HRname":"Nafada","HRpcode":"NG016009","HRparent":"NG016","Shape_Leng":1.69889697938,"Shape_Area":0.131022509346,"ADM2_New":"Nafada","id":"NG-GO-NAFADA","name":"Nafada","parentId":"NG-GO","stateName":"Gombe","regionId":"NG-NE","fillColor":"#688EB5"},"geometry":{"type":"Polygon","coordinates":[[[10.949585915000057,11.182710648000068],[11.000440598000068,11.23616981500004],[11.023275375000082,11.285419464000086],[11.022173882000061,11.292346001000055],[11.007315636000044,11.29586505900005],[11.028300285000057,11.298649788000091],[11.036870003000047,11.306520462000037],[11.078680038000073,11.312479973000052],[11.098469734000048,11.295390129000054],[11.13031959500006,11.278650284000037],[11.137700081000048,11.279769897000051],[11.154979706000063,11.268870354000057],[11.20724964100009,11.25924015000004],[11.237930298000038,11.242699623000078],[11.270199776000084,11.242099762000066],[11.286560059000067,11.253339767000057],[11.309089661000087,11.245059967000088],[11.36518955200006,11.127169609000077],[11.40013885500008,11.08908748600004],[11.390812874000062,11.089980125000068],[11.375558853000086,11.070485115000054],[11.378531456000076,11.03923225400007],[11.331027985000048,11.00854778300004],[11.326571465000086,10.999743462000083],[11.346070290000057,10.927110672000083],[11.347775459000047,10.873206139000047],[11.356776237000076,10.831071854000072],[11.348660469000038,10.803041458000052],[11.340121269000065,10.795302391000064],[11.317038536000041,10.789546967000092],[11.216980934000048,10.803465843000083],[11.11663055400004,10.859142303000056],[11.100236893000044,10.921986580000066],[11.112566948000051,10.970416069000066],[11.138581276000082,11.030184746000089],[11.13656330100008,11.043478012000037],[11.112284660000057,11.067276955000068],[11.078983307000044,11.078684807000059],[11.055744171000072,11.080466270000045],[11.015727043000084,11.107959747000052],[10.949585915000057,11.182710648000068]]]}},{"type":"Feature","properties":{"CNTRY_NAME":"Nigeria","CNTRY_CODE":"NGA","ADM1_NAME":"Gombe","ADM1_CODE":"NGA016","ADM2_NAME":"Shomgom","ADM2_CODE":"NGA016010","HRname":"Shomgom","HRpcode":"NG016010","HRparent":"NG016","Shape_Leng":1.49311829785,"Shape_Area":0.0758168487253,"ADM2_New":"Shomgom","id":"NG-GO-SHOMGOM","name":"Shomgom","parentId":"NG-GO","stateName":"Gombe","regionId":"NG-NE","fillColor":"#7CB087"},"geometry":{"type":"Polygon","coordinates":[[[10.950280190000058,9.714367867000078],[10.97794532800009,9.707723618000045],[11.023332596000046,9.688190460000044],[11.08916091900005,9.674636841000051],[11.11399364500005,9.679853439000055],[11.198396683000055,9.721254349000048],[11.216391563000059,9.748353958000052],[11.239796638000087,9.82198238400008],[11.24417591100007,9.917791367000063],[11.24590492200008,9.924029350000069],[11.252763748000064,9.923211098000081],[11.261001587000067,9.917601585000057],[11.27362442000009,9.896432877000052],[11.29513931300005,9.83834743500006],[11.287484169000038,9.788286209000091],[11.292412758000069,9.774479866000092],[11.334350586000085,9.738329887000077],[11.378609657000084,9.674391747000072],[11.412031174000049,9.65718555500007],[11.380015373000049,9.579297066000038],[11.373851776000038,9.546802521000075],[11.278014183000039,9.54734897600008],[11.227089882000087,9.569368362000091],[11.16134738900007,9.551022530000068],[11.020428658000071,9.54949283600007],[10.99238205000006,9.559283257000061],[10.978140831000076,9.574613571000043],[10.951502800000071,9.683623314000045],[10.950280190000058,9.714367867000078]]]}},{"type":"Feature","properties":{"CNTRY_NAME":"Nigeria","CNTRY_CODE":"NGA","ADM1_NAME":"Gombe","ADM1_CODE":"NGA016","ADM2_NAME":"Yamaltu/Deba","ADM2_CODE":"NGA016011","HRname":"Yamaltu/Deba","HRpcode":"NG016011","HRparent":"NG016","Shape_Leng":2.20082884039,"Shape_Area":0.163133379643,"ADM2_New":"Yamaltu/Deba","id":"NG-GO-YAMALTU-DEBA","name":"Yamaltu/Deba","parentId":"NG-GO","stateName":"Gombe","regionId":"NG-NE","fillColor":"#C9B896"},"geometry":{"type":"Polygon","coordinates":[[[11.521873474000074,10.568999290000079],[11.527589798000065,10.567634583000086],[11.561311722000085,10.591618538000091],[11.640150070000061,10.609040260000086],[11.63907432600007,10.562100410000085],[11.648750305000078,10.543184280000048],[11.65020084400004,10.529296875000057],[11.640370369000038,10.50006675700007],[11.635866165000039,10.46573925000007],[11.635479927000063,10.39455032300009],[11.602020264000089,10.35658836400006],[11.543486595000047,10.32611846900005],[11.533864975000085,10.311686516000066],[11.533062935000089,10.300460815000065],[11.573154449000072,10.261171341000079],[11.597208977000037,10.20183658600007],[11.698238373000038,10.16735744500005],[11.73993396800006,10.164150238000047],[11.759979248000093,10.133681297000066],[11.80679607400009,10.087003708000054],[11.81108379400007,10.07479476900005],[11.828603745000066,10.05387783100008],[11.825482368000053,10.051927567000064],[11.80913925200008,10.056768417000058],[11.782602310000073,10.077614784000048],[11.767431259000091,10.081903458000056],[11.683799744000055,10.086922646000062],[11.632333755000047,10.079348564000043],[11.615074158000084,10.072567940000056],[11.588707924000062,10.057455063000077],[11.565434456000048,10.033132553000087],[11.539426804000072,10.021604538000076],[11.512529373000064,10.038866043000041],[11.492720604000056,10.043046951000065],[11.431362152000077,10.036982536000039],[11.404041290000066,10.03982925400004],[11.355532646000086,10.05726528200006],[11.32006931300009,10.088924408000082],[11.256460190000041,10.16285419500008],[11.213556290000042,10.189701080000077],[11.201683044000049,10.202766418000067],[11.190182686000071,10.225701332000085],[11.190496445000065,10.238470078000091],[11.209650993000082,10.265596390000042],[11.211039543000084,10.28244972200008],[11.197614670000064,10.313154221000048],[11.255437851000067,10.322922707000089],[11.268639565000058,10.32960987100006],[11.283313751000037,10.349091530000067],[11.304413795000073,10.366401672000052],[11.37531375900005,10.387768745000074],[11.41431427000009,10.408974648000083],[11.473180771000045,10.478786469000056],[11.490923882000061,10.490218163000065],[11.50945091200009,10.519650459000047],[11.521873474000074,10.568999290000079]]]}}]}