{"type":"FeatureCollection","features":[{"type":"Feature","properties":{"CNTRY_NAME":"Nigeria","CNTRY_CODE":"NGA","ADM1_NAME":"Imo","ADM1_CODE":"NGA017","ADM2_NAME":"Aboh-Mbaise","ADM2_CODE":"NGA017001","HRname":"Aboh-Mbaise","HRpcode":"NG017001","HRparent":"NG017","Shape_Leng":0.675281691111,"Shape_Area":0.0150515213401,"ADM2_New":"Aboh-Mbaise","id":"NG-IM-ABOH-MBAISE","name":"Aboh-Mbaise","parentId":"NG-IM","stateName":"Imo","regionId":"NG-SE","fillColor":"#7cb87c"},"geometry":{"type":"Polygon","coordinates":[[[7.217172146000053,5.511276722000048],[7.231443882000065,5.506299019000039],[7.250473022000051,5.514778614000079],[7.290309429000047,5.5136432650000415],[7.310739517000059,5.5195302960000845],[7.306853294000064,5.506927967000081],[7.281964302000063,5.488442421000059],[7.2769207950000805,5.474987030000079],[7.26830244100006,5.47361135500006],[7.269601822000084,5.462982178000061],[7.292017937000082,5.4217834470000525],[7.30420732500005,5.410792351000055],[7.321908474000054,5.4049296380000555],[7.321912766000082,5.382541656000058],[7.311897755000075,5.361371040000051],[7.305711746000043,5.358143330000075],[7.291588783000066,5.319604874000049],[7.276765347000037,5.326308727000082],[7.252136230000076,5.351162434000059],[7.240371227000082,5.373057365000079],[7.222198009000067,5.386960030000068],[7.219849586000066,5.405345917000091],[7.23224067700005,5.433102131000055],[7.228350639000041,5.44288778300006],[7.210997581000072,5.45362711000007],[7.185142517000088,5.4495000840000785],[7.160571575000063,5.4789457320000565],[7.158354282000062,5.48498868900009],[7.174849987000073,5.497217178000085],[7.217172146000053,5.511276722000048]]]}},{"type":"Feature","properties":{"CNTRY_NAME":"Nigeria","CNTRY_CODE":"NGA","ADM1_NAME":"Imo","ADM1_CODE":"NGA017","ADM2_NAME":"Ahiazu-Mbaise","ADM2_CODE":"NGA017002","HRname":"Ahiazu-Mbaise","HRpcode":"NG017002","HRparent":"NG017","Shape_Leng":0.422536520143,"Shape_Area":0.0092798475841,"ADM2_New":"Ahiazu-Mbaise","id":"NG-IM-AHIAZU-MBAISE","name":"Ahiazu-Mbaise","parentId":"NG-IM","stateName":"Imo","regionId":"NG-SE","fillColor":"#8fbc8f"},"geometry":{"type":"Polygon","coordinates":[[[7.21423006100008,5.609873295000057],[7.253663540000048,5.6086144450000575],[7.289921761000073,5.619271755000057],[7.29907369600005,5.617486477000057],[7.303751469000076,5.601954937000073],[7.308646679000049,5.6036434170000575],[7.306333065000047,5.556586742000093],[7.3125205040000765,5.547072411000045],[7.324478149000072,5.54162931400009],[7.32117891300004,5.528930187000071],[7.306991100000062,5.517833710000048],[7.28801250500004,5.513371944000085],[7.250473022000051,5.514778614000079],[7.228000164000093,5.506035805000067],[7.218935490000092,5.510213375000092],[7.2070102690000795,5.546650887000055],[7.222432137000055,5.564627647000066],[7.2304401400000415,5.585812092000083],[7.213768959000049,5.605157852000048],[7.21423006100008,5.609873295000057]]]}},{"type":"Feature","properties":{"CNTRY_NAME":"Nigeria","CNTRY_CODE":"NGA","ADM1_NAME":"Imo","ADM1_CODE":"NGA017","ADM2_NAME":"Ehime-Mbano","ADM2_CODE":"NGA017003","HRname":"Ehime-Mbano","HRpcode":"NG017003","HRparent":"NG017","Shape_Leng":0.505206830376,"Shape_Area":0.0137637828287,"ADM2_New":"Ehime-Mbano","id":"NG-IM-EHIME-MBANO","name":"Ehime-Mbano","parentId":"NG-IM","stateName":"Imo","regionId":"NG-SE","fillColor":"#a8c686"},"geometry":{"type":"Polygon","coordinates":[[[7.265237331000037,5.760420799000087],[7.292965889000072,5.769652367000049],[7.302114010000082,5.767580032000069],[7.33114147200007,5.727770329000066],[7.358800411000061,5.715811729000052],[7.34542846700009,5.701265812000088],[7.3456406590000825,5.649886608000088],[7.336815834000049,5.632151604000057],[7.3165678980000735,5.6179399490000606],[7.285614491000047,5.618727207000063],[7.253663540000048,5.6086144450000575],[7.225021839000078,5.610820770000089],[7.221135139000069,5.6208934780000845],[7.22330045700005,5.656182766000086],[7.2309527400000775,5.671916485000054],[7.249706268000068,5.6812591550000775],[7.2555408480000665,5.689255714000069],[7.26593971300008,5.740849018000063],[7.265237331000037,5.760420799000087]]]}},{"type":"Feature","properties":{"CNTRY_NAME":"Nigeria","CNTRY_CODE":"NGA","ADM1_NAME":"Imo","ADM1_CODE":"NGA017","ADM2_NAME":"Ezinihitte","ADM2_CODE":"NGA017004","HRname":"Ezinihitte","HRpcode":"NG017004","HRparent":"NG017","Shape_Leng":0.39031150792,"Shape_Area":0.00892129384275,"ADM2_New":"Ezinihitte","id":"NG-IM-EZINIHITTE","name":"Ezinihitte","parentId":"NG-IM","stateName":"Imo","regionId":"NG-SE","fillColor":"#c2b280"},"geometry":{"type":"Polygon","coordinates":[[[7.310739517000059,5.5195302960000845],[7.322354794000091,5.5312180520000425],[7.324478149000072,5.54162931400009],[7.329074860000048,5.541217804000041],[7.38803243600006,5.510386944000061],[7.358891487000051,5.450312138000072],[7.335130692000064,5.430384159000084],[7.321908474000054,5.4049296380000555],[7.30420732500005,5.410792351000055],[7.290326595000067,5.424090862000071],[7.267413616000056,5.471321106000062],[7.2769207950000805,5.474987030000079],[7.281964302000063,5.488442421000059],[7.305108070000074,5.504930496000043],[7.310739517000059,5.5195302960000845]]]}},{"type":"Feature","properties":{"CNTRY_NAME":"Nigeria","CNTRY_CODE":"NGA","ADM1_NAME":"Imo","ADM1_CODE":"NGA017","ADM2_NAME":"Ideato North","ADM2_CODE":"NGA017005","HRname":"Ideato North","HRpcode":"NG017005","HRparent":"NG017","Shape_Leng":0.691303497702,"Shape_Area":0.0155317415836,"ADM2_New":"Ideato North","id":"NG-IM-IDEATO-NORTH","name":"Ideato North","parentId":"NG-IM","stateName":"Imo","regionId":"NG-SE","fillColor":"#9bb898"},"geometry":{"type":"Polygon","coordinates":[[[7.202844620000064,5.920961857000066],[7.220468998000058,5.93174743700007],[7.230931759000043,5.8975191120000545],[7.211019039000064,5.841686249000077],[7.1954741480000735,5.8139519690000725],[7.191991329000075,5.787856579000049],[7.179290295000044,5.803730488000042],[7.170714378000071,5.8284735680000495],[7.146404743000062,5.855908394000039],[7.126616955000088,5.855470657000069],[7.062359810000089,5.829793930000051],[7.042726517000062,5.887047768000059],[7.006989956000041,5.895043373000078],[7.0031118390000415,5.905193329000042],[7.031001091000064,5.91209936100006],[7.047820091000062,5.927196026000047],[7.060201168000049,5.931416035000041],[7.142893791000063,5.918504238000082],[7.186522961000037,5.899834156000054],[7.19518852200008,5.90494108200005],[7.202844620000064,5.920961857000066]]]}},{"type":"Feature","properties":{"CNTRY_NAME":"Nigeria","CNTRY_CODE":"NGA","ADM1_NAME":"Imo","ADM1_CODE":"NGA017","ADM2_NAME":"Ideato South","ADM2_CODE":"NGA017006","HRname":"Ideato South","HRpcode":"NG017006","HRparent":"NG017","Shape_Leng":0.363859202639,"Shape_Area":0.00722360392739,"ADM2_New":"Ideato South","id":"NG-IM-IDEATO-SOUTH","name":"Ideato South","parentId":"NG-IM","stateName":"Imo","regionId":"NG-SE","fillColor":"#6ba3be"},"geometry":{"type":"Polygon","coordinates":[[[7.063775063000037,5.828349113000058],[7.126616955000088,5.855470657000069],[7.146404743000062,5.855908394000039],[7.172119141000053,5.826167583000085],[7.180970192000075,5.800561428000037],[7.191991329000075,5.787856579000049],[7.1795344350000505,5.754934311000056],[7.134141922000083,5.770172119000051],[7.1098432540000545,5.770549774000074],[7.09763193100008,5.807737350000082],[7.074820995000039,5.817653179000047],[7.063775063000037,5.828349113000058]]]}},{"type":"Feature","properties":{"CNTRY_NAME":"Nigeria","CNTRY_CODE":"NGA","ADM1_NAME":"Imo","ADM1_CODE":"NGA017","ADM2_NAME":"Ihitte/Uboma","ADM2_CODE":"NGA017007","HRname":"Ihitte/Uboma","HRpcode":"NG017007","HRparent":"NG017","Shape_Leng":0.443572777511,"Shape_Area":0.00848704936484,"ADM2_New":"Ihitte/Uboma","id":"NG-IM-IHITTE-UBOMA","name":"Ihitte/Uboma","parentId":"NG-IM","stateName":"Imo","regionId":"NG-SE","fillColor":"#89a96d"},"geometry":{"type":"Polygon","coordinates":[[[7.361155987000075,5.714311600000087],[7.3816075330000785,5.705608845000086],[7.41519641900004,5.66375875500006],[7.4322857860000795,5.60939312000005],[7.422786236000093,5.583626270000082],[7.4031543730000635,5.595529556000088],[7.368790150000052,5.598636627000076],[7.348548412000071,5.607673645000091],[7.303751469000076,5.601954937000073],[7.300815582000041,5.61919641500009],[7.319448948000058,5.619068146000075],[7.342396736000069,5.642733097000075],[7.346620083000062,5.659351826000091],[7.346038342000043,5.704131603000064],[7.361155987000075,5.714311600000087]]]}},{"type":"Feature","properties":{"CNTRY_NAME":"Nigeria","CNTRY_CODE":"NGA","ADM1_NAME":"Imo","ADM1_CODE":"NGA017","ADM2_NAME":"Ikeduru","ADM2_CODE":"NGA017008","HRname":"Ikeduru","HRpcode":"NG017008","HRparent":"NG017","Shape_Leng":0.481657878443,"Shape_Area":0.0145862370134,"ADM2_New":"Ikeduru","id":"NG-IM-IKEDURU","name":"Ikeduru","parentId":"NG-IM","stateName":"Imo","regionId":"NG-SE","fillColor":"#b5c99a"},"geometry":{"type":"Polygon","coordinates":[[[7.139022827000076,5.634375095000053],[7.199769020000076,5.608985424000082],[7.21423006100008,5.609873295000057],[7.230698109000059,5.583514214000047],[7.222432137000055,5.564627647000066],[7.2070102690000795,5.546650887000055],[7.217172146000053,5.511276722000048],[7.185239315000047,5.502599239000062],[7.158354282000062,5.48498868900009],[7.145093918000043,5.502014637000059],[7.126833916000066,5.509028912000076],[7.107840538000062,5.52609443700004],[7.081934452000041,5.54062414200007],[7.078043938000064,5.550409794000075],[7.096807003000038,5.605963707000058],[7.115069866000056,5.621911049000062],[7.139022827000076,5.634375095000053]]]}},{"type":"Feature","properties":{"CNTRY_NAME":"Nigeria","CNTRY_CODE":"NGA","ADM1_NAME":"Imo","ADM1_CODE":"NGA017","ADM2_NAME":"Isiala Mbano","ADM2_CODE":"NGA017009","HRname":"Isiala Mbano","HRpcode":"NG017009","HRparent":"NG017","Shape_Leng":0.562203165049,"Shape_Area":0.0135159741374,"ADM2_New":"Isiala Mbano","id":"NG-IM-ISIALA-MBANO","name":"Isiala Mbano","parentId":"NG-IM","stateName":"Imo","regionId":"NG-SE","fillColor":"#d4a574"},"geometry":{"type":"Polygon","coordinates":[[[7.175797462000048,5.735958576000087],[7.215743065000083,5.738898277000089],[7.24550533300004,5.757349968000085],[7.265237331000037,5.760420799000087],[7.26593971300008,5.740849018000063],[7.254655838000076,5.687252522000051],[7.2309527400000775,5.671916485000054],[7.223898888000065,5.658187866000048],[7.223068714000078,5.612481117000073],[7.199769020000076,5.608985424000082],[7.139022827000076,5.634375095000053],[7.124536514000056,5.645094872000072],[7.078218937000088,5.655172825000079],[7.087573528000064,5.669459820000043],[7.1075420380000764,5.68424749400009],[7.149719238000046,5.686827660000063],[7.163733006000086,5.706822872000089],[7.175797462000048,5.735958576000087]]]}},{"type":"Feature","properties":{"CNTRY_NAME":"Nigeria","CNTRY_CODE":"NGA","ADM1_NAME":"Imo","ADM1_CODE":"NGA017","ADM2_NAME":"Isu","ADM2_CODE":"NGA017010","HRname":"Isu","HRpcode":"NG017010","HRparent":"NG017","Shape_Leng":0.237141402042,"Shape_Area":0.00326906208908,"ADM2_New":"Isu","id":"NG-IM-ISU","name":"Isu","parentId":"NG-IM","stateName":"Imo","regionId":"NG-SE","fillColor":"#5a9e6f"},"geometry":{"type":"Polygon","coordinates":[[[7.074816704000057,5.72637891800008],[7.073641777000091,5.701415539000038],[7.08200693100008,5.660026550000055],[7.0687079430000495,5.651220322000086],[7.042777538000053,5.646309853000048],[7.040896416000066,5.673799992000056],[7.025723934000041,5.6983013150000374],[7.026757717000066,5.71207141900004],[7.038391113000046,5.72519493100009],[7.074816704000057,5.72637891800008]]]}},{"type":"Feature","properties":{"CNTRY_NAME":"Nigeria","CNTRY_CODE":"NGA","ADM1_NAME":"Imo","ADM1_CODE":"NGA017","ADM2_NAME":"Mbaitoli","ADM2_CODE":"NGA017011","HRname":"Mbaitoli","HRpcode":"NG017011","HRparent":"NG017","Shape_Leng":0.573646669293,"Shape_Area":0.0166494032257,"ADM2_New":"Mbaitoli","id":"NG-IM-MBAITOLI","name":"Mbaitoli","parentId":"NG-IM","stateName":"Imo","regionId":"NG-SE","fillColor":"#84b882"},"geometry":{"type":"Polygon","coordinates":[[[7.042777538000053,5.646309853000048],[7.078218937000088,5.655172825000079],[7.119115353000041,5.647141457000089],[7.137919903000068,5.637827396000091],[7.139022827000076,5.634375095000053],[7.111887455000044,5.619637012000055],[7.094470024000088,5.602535248000038],[7.089274406000072,5.577025890000073],[7.078127384000084,5.557010651000041],[7.0790352820000635,5.538060665000046],[7.028766155000085,5.530370235000078],[6.982578754000087,5.5507802960000845],[6.955863953000062,5.546658993000051],[6.934704304000093,5.551110268000059],[6.9459743500000855,5.580883026000038],[6.94324970200006,5.637589931000093],[6.98147249200008,5.6449322700000835],[7.042777538000053,5.646309853000048]]]}},{"type":"Feature","properties":{"CNTRY_NAME":"Nigeria","CNTRY_CODE":"NGA","ADM1_NAME":"Imo","ADM1_CODE":"NGA017","ADM2_NAME":"Ngor-Okpala","ADM2_CODE":"NGA017012","HRname":"Ngor-Okpala","HRpcode":"NG017012","HRparent":"NG017","Shape_Leng":0.957453215705,"Shape_Area":0.045783055522,"ADM2_New":"Ngor-Okpala","id":"NG-IM-NGOR-OKPALA","name":"Ngor-Okpala","parentId":"NG-IM","stateName":"Imo","regionId":"NG-SE","fillColor":"#c9b896"},"geometry":{"type":"Polygon","coordinates":[[[7.035417557000073,5.32394409200009],[7.06060266500009,5.349611759000084],[7.089308739000046,5.397921085000064],[7.1045746800000416,5.403556824000077],[7.149643898000079,5.408125877000089],[7.154919624000058,5.4172739980000415],[7.155507088000093,5.441093445000092],[7.1732072830000675,5.457905769000092],[7.192011833000038,5.448591709000084],[7.213283539000088,5.453037262000066],[7.230901718000041,5.440573692000044],[7.231329918000085,5.429090023000072],[7.219849586000066,5.405345917000091],[7.221083641000064,5.389550686000064],[7.239536285000042,5.375072479000039],[7.253547668000067,5.3494305610000765],[7.267704010000045,5.335268974000087],[7.291588783000066,5.319604874000049],[7.292351246000067,5.311850071000038],[7.2778120040000545,5.272914410000055],[7.276068211000052,5.255671501000052],[7.267606735000072,5.242113590000088],[7.26391744600005,5.21561050400004],[7.256109238000079,5.213470936000078],[7.251398087000041,5.201854229000048],[7.231534004000082,5.1945519450000575],[7.206140518000041,5.197731495000085],[7.165431023000053,5.212290764000045],[7.104058743000053,5.221520424000062],[7.045132160000037,5.2487378120000585],[6.9984402660000455,5.239194393000048],[6.984025002000067,5.255101204000084],[6.9827065470000775,5.265475750000064],[7.030710697000075,5.298152924000078],[7.035417557000073,5.32394409200009]]]}},{"type":"Feature","properties":{"CNTRY_NAME":"Nigeria","CNTRY_CODE":"NGA","ADM1_NAME":"Imo","ADM1_CODE":"NGA017","ADM2_NAME":"Njaba","ADM2_CODE":"NGA017013","HRname":"Njaba","HRpcode":"NG017013","HRparent":"NG017","Shape_Leng":0.45253020443,"Shape_Area":0.00685201741066,"ADM2_New":"Njaba","id":"NG-IM-NJABA","name":"Njaba","parentId":"NG-IM","stateName":"Imo","regionId":"NG-SE","fillColor":"#7eb09a"},"geometry":{"type":"Polygon","coordinates":[[[6.986301899000068,5.7679409980000855],[6.990599632000055,5.754800797000087],[7.000785828000062,5.744110584000055],[7.033143520000067,5.741017342000077],[7.058504581000079,5.751462460000084],[7.074021816000084,5.731550694000077],[7.074816704000057,5.72637891800008],[7.038391113000046,5.72519493100009],[7.026757717000066,5.71207141900004],[7.025723934000041,5.6983013150000374],[7.0417022710000765,5.669488907000073],[7.042777538000053,5.646309853000048],[6.988643169000056,5.645170212000039],[6.9827122690000465,5.697736740000039],[6.972129822000056,5.7224941250000825],[6.957451344000049,5.740677834000053],[6.955854416000079,5.750447750000092],[6.962864876000083,5.760732174000054],[6.986301899000068,5.7679409980000855]]]}},{"type":"Feature","properties":{"CNTRY_NAME":"Nigeria","CNTRY_CODE":"NGA","ADM1_NAME":"Imo","ADM1_CODE":"NGA017","ADM2_NAME":"Nkwerre","ADM2_CODE":"NGA017014","HRname":"Nkwerre","HRpcode":"NG017014","HRparent":"NG017","Shape_Leng":0.254992525485,"Shape_Area":0.00310757105993,"ADM2_New":"Nkwerre","id":"NG-IM-NKWERRE","name":"Nkwerre","parentId":"NG-IM","stateName":"Imo","regionId":"NG-SE","fillColor":"#a4c4a0"},"geometry":{"type":"Polygon","coordinates":[[[7.1098432540000545,5.770549774000074],[7.134141922000083,5.770172119000051],[7.161811829000044,5.759074688000055],[7.1384606360000475,5.748902798000074],[7.126809120000075,5.73434448200004],[7.106724262000057,5.733047962000057],[7.085311413000056,5.717408657000078],[7.074432373000093,5.718631744000049],[7.074021816000084,5.731550694000077],[7.058504581000079,5.751462460000084],[7.077609539000093,5.765969276000078],[7.1098432540000545,5.770549774000074]]]}},{"type":"Feature","properties":{"CNTRY_NAME":"Nigeria","CNTRY_CODE":"NGA","ADM1_NAME":"Imo","ADM1_CODE":"NGA017","ADM2_NAME":"Nwangele","ADM2_CODE":"NGA017015","HRname":"Nwangele","HRpcode":"NG017015","HRparent":"NG017","Shape_Leng":0.328489192244,"Shape_Area":0.00516498519328,"ADM2_New":"Nwangele","id":"NG-IM-NWANGELE","name":"Nwangele","parentId":"NG-IM","stateName":"Imo","regionId":"NG-SE","fillColor":"#96b57c"},"geometry":{"type":"Polygon","coordinates":[[[7.161811829000044,5.759074688000055],[7.178054333000091,5.751213074000077],[7.172891140000047,5.728286743000069],[7.1517477040000585,5.6885356900000374],[7.1075420380000764,5.68424749400009],[7.08233737900008,5.663468361000071],[7.073641777000091,5.701415539000038],[7.074432373000093,5.718631744000049],[7.082437515000038,5.716854572000045],[7.106724262000057,5.733047962000057],[7.12478828400009,5.733210087000089],[7.140772343000037,5.750321865000046],[7.155715466000061,5.753088951000052],[7.161811829000044,5.759074688000055]]]}},{"type":"Feature","properties":{"CNTRY_NAME":"Nigeria","CNTRY_CODE":"NGA","ADM1_NAME":"Imo","ADM1_CODE":"NGA017","ADM2_NAME":"Obowo","ADM2_CODE":"NGA017016","HRname":"Obowo","HRpcode":"NG017016","HRparent":"NG017","Shape_Leng":0.354021204139,"Shape_Area":0.00761320390833,"ADM2_New":"Obowo","id":"NG-IM-OBOWO","name":"Obowo","parentId":"NG-IM","stateName":"Imo","regionId":"NG-SE","fillColor":"#7cb87c"},"geometry":{"type":"Polygon","coordinates":[[[7.308646679000049,5.6036434170000575],[7.346262455000044,5.608263493000038],[7.366783142000088,5.59865045500004],[7.4031543730000635,5.595529556000088],[7.422786236000093,5.583626270000082],[7.415235043000052,5.57592868800009],[7.417093277000049,5.564147472000059],[7.4083123210000394,5.549856663000071],[7.406669140000076,5.533220768000092],[7.3909096720000775,5.511228085000084],[7.3125205040000765,5.547072411000045],[7.305817604000083,5.561182976000055],[7.308646679000049,5.6036434170000575]]]}},{"type":"Feature","properties":{"CNTRY_NAME":"Nigeria","CNTRY_CODE":"NGA","ADM1_NAME":"Imo","ADM1_CODE":"NGA017","ADM2_NAME":"Oguta","ADM2_CODE":"NGA017017","HRname":"Oguta","HRpcode":"NG017017","HRparent":"NG017","Shape_Leng":0.903981917231,"Shape_Area":0.039452729139,"ADM2_New":"Oguta","id":"NG-IM-OGUTA","name":"Oguta","parentId":"NG-IM","stateName":"Imo","regionId":"NG-SE","fillColor":"#8fbc8f"},"geometry":{"type":"Polygon","coordinates":[[[6.794939041000077,5.789730549000069],[6.815245628000071,5.785859108000068],[6.838277817000062,5.770775318000062],[6.833267689000081,5.737227917000041],[6.8514633180000715,5.7023720740000385],[6.915458202000082,5.6390728950000835],[6.9432005880000816,5.633715153000082],[6.9459743500000855,5.580883026000038],[6.934704304000093,5.551110268000059],[6.899574757000039,5.53901004800008],[6.892288208000082,5.529588223000076],[6.8862648010000385,5.529342651000093],[6.86132335700006,5.552189827000063],[6.825756550000051,5.596349716000077],[6.804677010000091,5.607114792000061],[6.780668736000052,5.6130208970000695],[6.660396576000039,5.624182224000037],[6.673841476000064,5.720951080000077],[6.668275833000052,5.721829414000069],[6.671439648000046,5.726861477000057],[6.714305401000047,5.761296272000038],[6.749246120000066,5.781147480000072],[6.794939041000077,5.789730549000069]]]}},{"type":"Feature","properties":{"CNTRY_NAME":"Nigeria","CNTRY_CODE":"NGA","ADM1_NAME":"Imo","ADM1_CODE":"NGA017","ADM2_NAME":"Ohaji/Egbema","ADM2_CODE":"NGA017018","HRname":"Ohaji/Egbema","HRpcode":"NG017018","HRparent":"NG017","Shape_Leng":1.3258701909,"Shape_Area":0.0726226897766,"ADM2_New":"Ohaji/Egbema","id":"NG-IM-OHAJI-EGBEMA","name":"Ohaji/Egbema","parentId":"NG-IM","stateName":"Imo","regionId":"NG-SE","fillColor":"#a8c686"},"geometry":{"type":"Polygon","coordinates":[[[6.658436298000083,5.62485027300005],[6.804677010000091,5.607114792000061],[6.828307629000051,5.594036102000075],[6.86132335700006,5.552189827000063],[6.890501499000038,5.5280838010000934],[6.890985966000073,5.517255306000038],[6.878798008000047,5.48289585100008],[6.881807327000047,5.4487190250000594],[6.91230726200007,5.434731960000079],[6.931420803000037,5.404462337000041],[6.980279446000054,5.368534565000061],[6.971121788000062,5.324395657000082],[6.983591080000053,5.290153503000056],[6.983238220000089,5.257430077000038],[6.9984402660000455,5.239194393000048],[6.903954983000062,5.219525814000065],[6.88759374600005,5.225611210000068],[6.866418839000062,5.243133068000077],[6.827092648000075,5.252425671000083],[6.77072477300004,5.30076789900005],[6.75579500200007,5.323452950000046],[6.762536049000062,5.410212994000062],[6.744081974000039,5.449101925000093],[6.743738174000043,5.458882809000045],[6.751194000000055,5.464835167000047],[6.7413597110000865,5.494053841000039],[6.715590477000092,5.489103794000073],[6.639080048000039,5.4934458730000415],[6.658436298000083,5.62485027300005]]]}},{"type":"Feature","properties":{"CNTRY_NAME":"Nigeria","CNTRY_CODE":"NGA","ADM1_NAME":"Imo","ADM1_CODE":"NGA017","ADM2_NAME":"Okigwe","ADM2_CODE":"NGA017019","HRname":"Okigwe","HRpcode":"NG017019","HRparent":"NG017","Shape_Leng":0.729668913975,"Shape_Area":0.0261578667137,"ADM2_New":"Okigwe","id":"NG-IM-OKIGWE","name":"Okigwe","parentId":"NG-IM","stateName":"Imo","regionId":"NG-SE","fillColor":"#c2b280"},"geometry":{"type":"Polygon","coordinates":[[[7.223056793000069,5.932303905000083],[7.248566628000049,5.931840897000086],[7.260983944000088,5.938930988000038],[7.270840168000063,5.924798965000093],[7.284521103000088,5.9183897970000885],[7.362891674000082,5.903785706000065],[7.387948036000068,5.912797928000089],[7.395909786000061,5.907576561000042],[7.3864617350000685,5.863152981000042],[7.392649651000056,5.830963135000047],[7.394280910000077,5.755751133000047],[7.400393009000084,5.717534542000067],[7.396841049000045,5.7086610790000805],[7.3710403440000505,5.708838940000078],[7.3331227300000705,5.725747585000079],[7.310895920000064,5.759195805000047],[7.287856102000092,5.77370595900004],[7.259547710000049,5.8023161890000665],[7.235189915000092,5.848695278000093],[7.215507030000083,5.85658073400009],[7.230931759000043,5.8975191120000545],[7.223056793000069,5.932303905000083]]]}},{"type":"Feature","properties":{"CNTRY_NAME":"Nigeria","CNTRY_CODE":"NGA","ADM1_NAME":"Imo","ADM1_CODE":"NGA017","ADM2_NAME":"Orlu","ADM2_CODE":"NGA017020","HRname":"Orlu","HRpcode":"NG017020","HRparent":"NG017","Shape_Leng":0.467477068111,"Shape_Area":0.0107447749163,"ADM2_New":"Orlu","id":"NG-IM-ORLU","name":"Orlu","parentId":"NG-IM","stateName":"Imo","regionId":"NG-SE","fillColor":"#9bb898"},"geometry":{"type":"Polygon","coordinates":[[[7.015880585000048,5.895269394000081],[7.041311264000058,5.888492584000062],[7.050285339000084,5.872643948000075],[7.058945179000091,5.831826687000046],[7.073115826000048,5.818812847000061],[7.096220493000089,5.809469223000065],[7.1098432540000545,5.770549774000074],[7.077609539000093,5.765969276000078],[7.036590576000037,5.74156761200004],[7.000785828000062,5.744110584000055],[6.993412018000072,5.750475883000092],[6.978499889000091,5.795641422000074],[7.007453442000042,5.818117142000062],[7.008845329000053,5.860300541000072],[7.015880585000048,5.895269394000081]]]}},{"type":"Feature","properties":{"CNTRY_NAME":"Nigeria","CNTRY_CODE":"NGA","ADM1_NAME":"Imo","ADM1_CODE":"NGA017","ADM2_NAME":"Orsu","ADM2_CODE":"NGA017021","HRname":"Orsu","HRpcode":"NG017021","HRparent":"NG017","Shape_Leng":0.334861652955,"Shape_Area":0.00455851777143,"ADM2_New":"Orsu","id":"NG-IM-ORSU","name":"Orsu","parentId":"NG-IM","stateName":"Imo","regionId":"NG-SE","fillColor":"#6ba3be"},"geometry":{"type":"Polygon","coordinates":[[[6.994971752000083,5.896848202000058],[7.0031118390000415,5.905193329000042],[7.006989956000041,5.895043373000078],[7.015880585000048,5.895269394000081],[7.008845329000053,5.860300541000072],[7.010123730000089,5.8252744670000425],[7.0053997040000695,5.814400196000065],[6.978499889000091,5.795641422000074],[6.968353748000084,5.809488773000055],[6.915561199000081,5.823806286000092],[6.948365688000081,5.838615894000043],[6.994971752000083,5.896848202000058]]]}},{"type":"Feature","properties":{"CNTRY_NAME":"Nigeria","CNTRY_CODE":"NGA","ADM1_NAME":"Imo","ADM1_CODE":"NGA017","ADM2_NAME":"Oru East","ADM2_CODE":"NGA017022","HRname":"Oru East","HRpcode":"NG017022","HRparent":"NG017","Shape_Leng":0.620745818748,"Shape_Area":0.0110747191323,"ADM2_New":"Oru East","id":"NG-IM-ORU-EAST","name":"Oru East","parentId":"NG-IM","stateName":"Imo","regionId":"NG-SE","fillColor":"#89a96d"},"geometry":{"type":"Polygon","coordinates":[[[6.936655998000049,5.819466114000079],[6.948605537000049,5.81220817600007],[6.970922947000076,5.808609962000048],[6.97798442800007,5.800237656000093],[6.986301899000068,5.7679409980000855],[6.9602627750000465,5.759027958000047],[6.955814362000069,5.7472906110000395],[6.9827122690000465,5.697736740000039],[6.988643169000056,5.645170212000039],[6.923434734000068,5.634999275000041],[6.8939104080000675,5.658164978000059],[6.869883537000078,5.685310841000046],[6.890396595000084,5.697798729000056],[6.918479443000081,5.696743965000053],[6.926313877000041,5.704152584000042],[6.927397728000074,5.744616032000067],[6.94912624400007,5.762548923000054],[6.948897362000082,5.767142773000046],[6.93470478100005,5.778434753000056],[6.904600620000053,5.77835512200005],[6.902122021000082,5.7864089010000725],[6.910369873000093,5.803860664000069],[6.936655998000049,5.819466114000079]]]}},{"type":"Feature","properties":{"CNTRY_NAME":"Nigeria","CNTRY_CODE":"NGA","ADM1_NAME":"Imo","ADM1_CODE":"NGA017","ADM2_NAME":"Oru West","ADM2_CODE":"NGA017023","HRname":"Oru West","HRpcode":"NG017023","HRparent":"NG017","Shape_Leng":0.510160802863,"Shape_Area":0.0076144712667,"ADM2_New":"Oru West","id":"NG-IM-ORU-WEST","name":"Oru West","parentId":"NG-IM","stateName":"Imo","regionId":"NG-SE","fillColor":"#b5c99a"},"geometry":{"type":"Polygon","coordinates":[[[6.915561199000081,5.823806286000092],[6.936655998000049,5.819466114000079],[6.907757282000091,5.80129528000009],[6.902358055000093,5.782388687000093],[6.904600620000053,5.77835512200005],[6.937847614000077,5.777552128000082],[6.94912624400007,5.762548923000054],[6.927397728000074,5.744616032000067],[6.928443432000051,5.713897228000064],[6.923392773000046,5.699867725000047],[6.914172173000054,5.696199894000074],[6.890396595000084,5.697798729000056],[6.8667445180000755,5.686480522000068],[6.836290836000046,5.726873875000081],[6.83389186900007,5.741241932000094],[6.839083672000072,5.766464233000079],[6.8434057240000925,5.768156528000077],[6.865512371000079,5.747912407000058],[6.879530430000045,5.745519638000076],[6.891510963000087,5.808869839000067],[6.915561199000081,5.823806286000092]]]}},{"type":"Feature","properties":{"CNTRY_NAME":"Nigeria","CNTRY_CODE":"NGA","ADM1_NAME":"Imo","ADM1_CODE":"NGA017","ADM2_NAME":"Owerri-Municipal","ADM2_CODE":"NGA017026","HRname":"Owerri-Municipal","HRpcode":"NG017026","HRparent":"NG017","Shape_Leng":0.27171894559,"Shape_Area":0.00472876964126,"ADM2_New":"Owerri-Municipal","id":"NG-IM-OWERRI-MUNICIPAL","name":"Owerri-Municipal","parentId":"NG-IM","stateName":"Imo","regionId":"NG-SE","fillColor":"#d4a574"},"geometry":{"type":"Polygon","coordinates":[[[7.017480850000084,5.522124290000079],[7.03274011600007,5.50451040300004],[7.061008453000056,5.495418072000064],[7.065748215000042,5.484765530000061],[7.0424017910000885,5.452205181000068],[7.029501438000068,5.452294350000045],[7.011557579000055,5.438927650000039],[7.00410413700007,5.43897914900009],[6.978716850000069,5.449199677000081],[6.972562313000083,5.4612970350000865],[6.988505840000073,5.497926712000037],[7.003916740000079,5.515042305000065],[7.017480850000084,5.522124290000079]]]}},{"type":"Feature","properties":{"CNTRY_NAME":"Nigeria","CNTRY_CODE":"NGA","ADM1_NAME":"Imo","ADM1_CODE":"NGA017","ADM2_NAME":"Owerri North","ADM2_CODE":"NGA017024","HRname":"Owerri North","HRpcode":"NG017024","HRparent":"NG017","Shape_Leng":0.684344101095,"Shape_Area":0.0161733755574,"ADM2_New":"Owerri North","id":"NG-IM-OWERRI-NORTH","name":"Owerri North","parentId":"NG-IM","stateName":"Imo","regionId":"NG-SE","fillColor":"#5a9e6f"},"geometry":{"type":"Polygon","coordinates":[[[7.013906002000056,5.534204006000039],[7.036506176000046,5.530316830000061],[7.081934452000041,5.54062414200007],[7.0893516540000405,5.537702560000071],[7.124264717000074,5.509907722000094],[7.147644997000043,5.499700546000042],[7.174820900000043,5.4594726560000595],[7.154324055000075,5.438230991000069],[7.151672363000046,5.409833908000053],[7.089308739000046,5.397921085000064],[7.056810856000084,5.344471455000075],[7.035417557000073,5.32394409200009],[7.02762079200005,5.3486909870000545],[7.028687477000062,5.365044117000082],[7.041568279000046,5.40887022000004],[7.062204361000056,5.431116104000068],[7.0424017910000885,5.452205181000068],[7.063059330000044,5.47617340100004],[7.065501213000061,5.4879245760000686],[7.061008453000056,5.495418072000064],[7.034725189000085,5.502774715000044],[7.024513721000062,5.511456013000043],[7.013906002000056,5.534204006000039]]]}},{"type":"Feature","properties":{"CNTRY_NAME":"Nigeria","CNTRY_CODE":"NGA","ADM1_NAME":"Imo","ADM1_CODE":"NGA017","ADM2_NAME":"Owerri West","ADM2_CODE":"NGA017025","HRname":"Owerri West","HRpcode":"NG017025","HRparent":"NG017","Shape_Leng":0.87049100525,"Shape_Area":0.024028975452,"ADM2_New":"Owerri West","id":"NG-IM-OWERRI-WEST","name":"Owerri West","parentId":"NG-IM","stateName":"Imo","regionId":"NG-SE","fillColor":"#84b882"},"geometry":{"type":"Polygon","coordinates":[[[6.934704304000093,5.551110268000059],[6.955863953000062,5.546658993000051],[6.979998589000047,5.550797939000063],[7.013906002000056,5.534204006000039],[7.017480850000084,5.522124290000079],[7.0010175700000445,5.512478828000042],[6.979096889000061,5.479334831000074],[6.972562313000083,5.4612970350000865],[6.97559261300006,5.451517582000065],[7.008966446000045,5.438084126000092],[7.024892807000072,5.450603962000059],[7.038976192000064,5.4533772470000486],[7.060800076000078,5.433422089000089],[7.03979778300004,5.404863834000082],[7.027472019000072,5.35959863700009],[7.035278797000046,5.319361210000068],[7.033043861000067,5.3012943270000505],[6.9827065470000775,5.265475750000064],[6.983591080000053,5.290153503000056],[6.971121788000062,5.324395657000082],[6.980279446000054,5.368534565000061],[6.931420803000037,5.404462337000041],[6.91230726200007,5.434731960000079],[6.885769844000038,5.444673538000075],[6.878791332000048,5.459647179000058],[6.878798008000047,5.48289585100008],[6.890985966000073,5.517255306000038],[6.890501499000038,5.5280838010000934],[6.899574757000039,5.53901004800008],[6.934704304000093,5.551110268000059]]]}},{"type":"Feature","properties":{"CNTRY_NAME":"Nigeria","CNTRY_CODE":"NGA","ADM1_NAME":"Imo","ADM1_CODE":"NGA017","ADM2_NAME":"Unuimo","ADM2_CODE":"NGA017027","HRname":"Unuimo","HRpcode":"NG017027","HRparent":"NG017","Shape_Leng":0.377505842664,"Shape_Area":0.00708149812586,"ADM2_New":"Unuimo","id":"NG-IM-UNUIMO","name":"Unuimo","parentId":"NG-IM","stateName":"Imo","regionId":"NG-SE","fillColor":"#c9b896"},"geometry":{"type":"Polygon","coordinates":[[[7.191991329000075,5.787856579000049],[7.196080208000069,5.8165307040000584],[7.215507030000083,5.85658073400009],[7.218653202000041,5.85598516500005],[7.235189915000092,5.848695278000093],[7.259547710000049,5.8023161890000665],[7.292363167000076,5.767360210000049],[7.24550533300004,5.757349968000085],[7.215743065000083,5.738898277000089],[7.175797462000048,5.735958576000087],[7.191991329000075,5.787856579000049]]]}}]}