{"type":"FeatureCollection","features":[{"type":"Feature","properties":{"CNTRY_NAME":"Nigeria","CNTRY_CODE":"NGA","ADM1_NAME":"Jigawa","ADM1_CODE":"NGA018","ADM2_NAME":"Auyo","ADM2_CODE":"NGA018001","HRname":"Auyo","HRpcode":"NG018001","HRparent":"NG018","Shape_Leng":1.46698177493,"Shape_Area":0.0425902360162,"ADM2_New":"Auyo","id":"NG-JI-AUYO","name":"Auyo","parentId":"NG-JI","stateName":"Jigawa","regionId":"NG-NW","fillColor":"#7cb87c"},"geometry":{"type":"Polygon","coordinates":[[[10.025779724000074,12.443030357000055],[10.037409782000054,12.450079918000085],[10.076040268000042,12.451700211000059],[10.056409836000057,12.42498016400009],[10.057669640000086,12.416930199000092],[10.078780174000087,12.413729668000087],[10.207550049000076,12.416440010000088],[10.25899505600006,12.422801018000087],[10.24868011500007,12.40312004100008],[10.243089676000068,12.37771987900004],[10.241379738000091,12.317830086000072],[10.22072982800006,12.277279854000085],[10.211400032000086,12.273710251000068],[10.177756310000063,12.296241760000044],[10.12497043600007,12.363630295000064],[10.06503009800008,12.384779930000093],[10.040499687000079,12.378729820000046],[10.009140015000071,12.355319977000079],[9.97213077500004,12.311120033000066],[9.967690468000058,12.288040161000083],[9.912892342000077,12.26550006900004],[9.857132912000054,12.260219574000075],[9.850693703000047,12.278559685000062],[9.82949829100005,12.289819717000057],[9.813106537000067,12.289620399000057],[9.778103828000042,12.27768993400008],[9.725502014000085,12.30327034000004],[9.729505539000058,12.333519936000073],[9.764788628000076,12.318980217000046],[9.827720642000088,12.347370148000039],[9.845294952000074,12.346429825000087],[9.86629676800004,12.35359001200004],[9.893068314000061,12.368889809000052],[9.92321777300009,12.396880150000072],[9.94651222200008,12.408679962000065],[9.97111129800004,12.407830238000088],[9.975564003000045,12.429759979000039],[9.997846603000085,12.426569939000046],[10.010600090000082,12.438240051000037],[10.025779724000074,12.443030357000055]]]}},{"type":"Feature","properties":{"CNTRY_NAME":"Nigeria","CNTRY_CODE":"NGA","ADM1_NAME":"Jigawa","ADM1_CODE":"NGA018","ADM2_NAME":"Babura","ADM2_CODE":"NGA018002","HRname":"Babura","HRpcode":"NG018002","HRparent":"NG018","Shape_Leng":1.45548588184,"Shape_Area":0.0826128126659,"ADM2_New":"Babura","id":"NG-JI-BABURA","name":"Babura","parentId":"NG-JI","stateName":"Jigawa","regionId":"NG-NW","fillColor":"#8fbc8f"},"geometry":{"type":"Polygon","coordinates":[[[8.73974227900004,12.695759773000077],[8.751450539000075,12.695899963000045],[8.754262924000045,12.683790207000072],[8.75896358500006,12.681509972000072],[8.782412529000055,12.692040443000053],[8.80941772500006,12.687620163000076],[8.815869331000044,12.694379807000075],[8.824665070000037,12.692339897000068],[8.835723877000078,12.699219704000086],[8.871588707000058,12.703029633000085],[8.931398392000062,12.724180222000086],[8.94311618800009,12.732330322000053],[8.95690631900004,12.755949974000089],[8.967593193000084,12.805080414000088],[8.980825424000045,12.819569588000093],[9.037084579000066,12.814490318000082],[9.06321907000006,12.779120445000046],[9.072937012000068,12.745840073000068],[9.069716454000059,12.71817016600005],[9.035307884000076,12.64982032800009],[9.033451080000077,12.603739738000058],[9.011145592000048,12.609230042000092],[8.960946083000067,12.594809532000056],[8.941308975000084,12.569239616000061],[8.91835403400006,12.525210381000079],[8.891632080000079,12.505310059000067],[8.88355732000008,12.493700027000045],[8.871006012000066,12.462459564000085],[8.872516632000043,12.430239677000088],[8.863223076000054,12.423219681000091],[8.82585430100005,12.413550377000092],[8.782388687000093,12.426839828000084],[8.764380455000037,12.43869972200008],[8.74362659500008,12.440352440000083],[8.707165718000056,12.453570366000065],[8.68109226200005,12.483189583000069],[8.678544044000091,12.502730370000052],[8.681911469000056,12.516590118000067],[8.712024689000089,12.54804039000004],[8.719116211000085,12.566590309000048],[8.714098930000091,12.57339954400004],[8.687049866000052,12.584589958000038],[8.64832782700006,12.592180252000048],[8.647129059000065,12.60492992400009],[8.673746109000092,12.624719620000064],[8.700637817000086,12.628499985000076],[8.712273598000081,12.63554954500006],[8.70499420200008,12.659640312000079],[8.734021187000053,12.683019638000076],[8.73974227900004,12.695759773000077]]]}},{"type":"Feature","properties":{"CNTRY_NAME":"Nigeria","CNTRY_CODE":"NGA","ADM1_NAME":"Jigawa","ADM1_CODE":"NGA018","ADM2_NAME":"Biriniwa","ADM2_CODE":"NGA018003","HRname":"Biriniwa","HRpcode":"NG018003","HRparent":"NG018","Shape_Leng":1.6634969763,"Shape_Area":0.130498086967,"ADM2_New":"Biriniwa","id":"NG-JI-BIRINIWA","name":"Biriniwa","parentId":"NG-JI","stateName":"Jigawa","regionId":"NG-NW","fillColor":"#a8c686"},"geometry":{"type":"Polygon","coordinates":[[[10.246970177000037,13.034059525000089],[10.263600349000058,12.987070084000038],[10.279100418000041,12.960769653000057],[10.28172969800005,12.933170319000055],[10.268269539000073,12.877739906000045],[10.250869751000039,12.861410141000079],[10.247469902000091,12.851010323000082],[10.252229691000082,12.844149590000086],[10.272170067000047,12.840940475000082],[10.334460258000092,12.858779907000041],[10.353520393000053,12.787810326000056],[10.346529961000044,12.784270287000083],[10.310230255000079,12.784979820000046],[10.297430038000073,12.776769638000076],[10.27663040200008,12.751190186000088],[10.252180099000043,12.737070084000038],[10.21580982200004,12.744689941000047],[10.207670212000039,12.738840103000086],[10.19277954100005,12.707570076000081],[10.164819717000057,12.693409920000079],[10.12504959100005,12.68947982800006],[10.100299835000044,12.705300331000046],[10.08975029000004,12.706319809000092],[10.066499710000073,12.689920425000082],[10.052680016000068,12.667880058000037],[9.97686862900008,12.639329910000072],[9.935926437000091,12.635379791000048],[9.879607201000056,12.64620971700009],[9.860351562000062,12.69548988300005],[9.854436874000044,12.701180458000067],[9.839878082000041,12.749360085000092],[9.819561958000065,12.78826046000006],[9.799769402000038,12.814499855000065],[9.869421959000078,12.83491993000007],[9.892655373000082,12.852470398000037],[9.920269966000092,12.898859978000075],[9.939663887000052,12.94746017500006],[9.98270511600009,12.97445964800005],[10.000269890000084,12.974670410000044],[10.088970184000061,13.002229691000082],[10.114729881000073,13.002539635000062],[10.147439957000074,13.00984001200004],[10.217329979000056,13.04407978100005],[10.233730316000049,13.04428005200009],[10.246970177000037,13.034059525000089]]]}},{"type":"Feature","properties":{"CNTRY_NAME":"Nigeria","CNTRY_CODE":"NGA","ADM1_NAME":"Jigawa","ADM1_CODE":"NGA018","ADM2_NAME":"Birni Kudu","ADM2_CODE":"NGA018004","HRname":"Birni Kudu","HRpcode":"NG018004","HRparent":"NG018","Shape_Leng":1.72398755627,"Shape_Area":0.117515453949,"ADM2_New":"Birni Kudu","id":"NG-JI-BIRNI-KUDU","name":"Birni Kudu","parentId":"NG-JI","stateName":"Jigawa","regionId":"NG-NW","fillColor":"#c2b280"},"geometry":{"type":"Polygon","coordinates":[[[9.66093158700005,11.729350090000082],[9.664443970000093,11.729390144000092],[9.665821075000053,11.709830284000077],[9.660088539000071,11.69824981700009],[9.658207893000053,11.654470444000083],[9.664195061000044,11.641880035000042],[9.65268135100007,11.623319626000068],[9.652851105000082,11.607199669000067],[9.64138603200007,11.584030151000093],[9.648580551000066,11.567999840000084],[9.643981934000067,11.559889793000082],[9.64760398900006,11.549570084000038],[9.640857697000058,11.522999763000087],[9.647979736000082,11.513879776000067],[9.65179538700005,11.485139847000085],[9.646050453000043,11.474710464000054],[9.652013779000072,11.464420319000055],[9.641792297000052,11.434359550000067],[9.647864342000048,11.413700104000043],[9.641009331000078,11.39750003800009],[9.647033691000047,11.381460190000041],[9.640214920000062,11.361800194000068],[9.64306640600006,11.313469887000053],[9.649126053000089,11.293970108000053],[9.649550438000063,11.253680229000054],[9.628619194000066,11.25190925600009],[9.582262993000086,11.259651184000063],[9.575534821000076,11.276960373000065],[9.576427460000048,11.303460121000057],[9.571549416000039,11.321820259000049],[9.557366371000057,11.334309578000045],[9.542085648000068,11.339889526000093],[9.499984741000048,11.334770203000062],[9.475652695000065,11.310299873000076],[9.446573257000068,11.30792045600009],[9.415868759000091,11.316479683000068],[9.313064575000055,11.369304657000043],[9.239074707000043,11.369090080000092],[9.193549156000074,11.350888252000061],[9.193954468000072,11.373669624000058],[9.217947006000088,11.430379868000045],[9.22222995800007,11.468429565000065],[9.227998734000039,11.476559639000072],[9.263050079000038,11.483889580000039],[9.301456451000092,11.506239891000064],[9.321299553000074,11.512229919000049],[9.329398155000092,11.521539688000075],[9.332753181000044,11.536549568000055],[9.34202289600006,11.545869827000047],[9.382976532000043,11.54866981500004],[9.398136139000087,11.554610252000089],[9.464168549000078,11.622190475000082],[9.532712936000053,11.673680305000062],[9.595561028000077,11.710140228000057],[9.66093158700005,11.729350090000082]]]}},{"type":"Feature","properties":{"CNTRY_NAME":"Nigeria","CNTRY_CODE":"NGA","ADM1_NAME":"Jigawa","ADM1_CODE":"NGA018","ADM2_NAME":"Buji","ADM2_CODE":"NGA018005","HRname":"Buji","HRpcode":"NG018005","HRparent":"NG018","Shape_Leng":1.0110742235,"Shape_Area":0.0454699139267,"ADM2_New":"Buji","id":"NG-JI-BUJI","name":"Buji","parentId":"NG-JI","stateName":"Jigawa","regionId":"NG-NW","fillColor":"#9bb898"},"geometry":{"type":"Polygon","coordinates":[[[9.664443970000093,11.729390144000092],[9.684892654000066,11.728382111000087],[9.783647537000093,11.751560211000083],[9.80244159700004,11.746029854000085],[9.814283371000045,11.733510017000071],[9.81911277800009,11.71975040400008],[9.827119827000047,11.626580238000088],[9.815678596000055,11.60111045800005],[9.820519447000038,11.586199760000056],[9.81837177300008,11.567749977000062],[9.778928757000074,11.532730103000063],[9.786789894000037,11.473539352000046],[9.714091301000053,11.46286010700004],[9.698943138000061,11.455769539000073],[9.672512054000038,11.408249855000065],[9.647033691000047,11.381460190000041],[9.641009331000078,11.39750003800009],[9.647864342000048,11.413700104000043],[9.641792297000052,11.434359550000067],[9.652013779000072,11.464420319000055],[9.646050453000043,11.474710464000054],[9.65179538700005,11.485139847000085],[9.647979736000082,11.513879776000067],[9.640857697000058,11.522999763000087],[9.64760398900006,11.549570084000038],[9.643981934000067,11.559889793000082],[9.648580551000066,11.567999840000084],[9.64138603200007,11.584030151000093],[9.652851105000082,11.607199669000067],[9.65268135100007,11.623319626000068],[9.664195061000044,11.641880035000042],[9.658207893000053,11.654470444000083],[9.664443970000093,11.729390144000092]]]}},{"type":"Feature","properties":{"CNTRY_NAME":"Nigeria","CNTRY_CODE":"NGA","ADM1_NAME":"Jigawa","ADM1_CODE":"NGA018","ADM2_NAME":"Dutse","ADM2_CODE":"NGA018006","HRname":"Dutse","HRpcode":"NG018006","HRparent":"NG018","Shape_Leng":1.59587842885,"Shape_Area":0.0912072599961,"ADM2_New":"Dutse","id":"NG-JI-DUTSE","name":"Dutse","parentId":"NG-JI","stateName":"Jigawa","regionId":"NG-NW","fillColor":"#6ba3be"},"geometry":{"type":"Polygon","coordinates":[[[9.251157761000059,12.00131034900005],[9.273715019000065,12.02748966200005],[9.282887459000051,12.046019554000054],[9.307244301000082,12.068189621000045],[9.31428146400009,12.067130089000045],[9.346075058000054,12.050239563000048],[9.352025986000058,12.04109954800009],[9.36374664300007,12.040089607000084],[9.387380600000085,12.019650459000047],[9.392610550000086,11.96790027600008],[9.404669762000083,11.934659958000054],[9.424671173000092,11.925689697000053],[9.441029549000064,11.92897987400005],[9.43559646600005,11.888970375000042],[9.398967743000071,11.809080124000047],[9.396917343000041,11.78141975400007],[9.401904106000075,11.752699852000092],[9.397718430000054,11.705439568000088],[9.413060188000088,11.694109917000048],[9.435390472000051,11.686320305000038],[9.446061134000047,11.673789978000059],[9.455657959000064,11.652029991000063],[9.45949745200005,11.620980263000092],[9.442202568000084,11.595439911000085],[9.40858840900006,11.562800407000054],[9.382976532000043,11.54866981500004],[9.35486602800006,11.549480438000046],[9.362976074000073,11.557640076000041],[9.365196228000059,11.569179535000046],[9.359975815000041,11.575396538000064],[9.305339813000046,11.582269669000084],[9.272337914000047,11.602600098000039],[9.262815475000082,11.617449760000056],[9.276390076000041,11.66252040900008],[9.24368095400007,11.655220032000045],[9.231911659000048,11.66082954400008],[9.217450142000075,11.699810028000059],[9.224426270000038,11.704500198000062],[9.233828545000051,11.701160431000062],[9.25104045900008,11.73476028400006],[9.248576164000042,11.74623966200005],[9.236831665000068,11.749549866000052],[9.194743156000072,11.74328994800004],[9.186487198000066,11.748940468000058],[9.160850525000058,11.737119675000088],[9.146703720000062,11.746159554000087],[9.147705078000058,11.762290001000054],[9.140437126000052,11.785229683000068],[9.144889832000047,11.807160378000049],[9.197104454000055,11.852700233000064],[9.207457542000043,11.870100021000042],[9.222618103000059,11.87604045900008],[9.23875522600008,11.90040969800009],[9.23499965700006,11.923390388000087],[9.22187805200008,11.946260452000047],[9.219390869000051,11.960049629000082],[9.229758263000065,11.976289749000046],[9.254176140000084,11.99271011400009],[9.251157761000059,12.00131034900005]]]}},{"type":"Feature","properties":{"CNTRY_NAME":"Nigeria","CNTRY_CODE":"NGA","ADM1_NAME":"Jigawa","ADM1_CODE":"NGA018","ADM2_NAME":"Gagarawa","ADM2_CODE":"NGA018007","HRname":"Gagarawa","HRpcode":"NG018007","HRparent":"NG018","Shape_Leng":1.01514704857,"Shape_Area":0.0543740242453,"ADM2_New":"Gagarawa","id":"NG-JI-GAGARAWA","name":"Gagarawa","parentId":"NG-JI","stateName":"Jigawa","regionId":"NG-NW","fillColor":"#89a96d"},"geometry":{"type":"Polygon","coordinates":[[[9.50751972200004,12.619839668000054],[9.546289444000081,12.60764026600009],[9.568547249000062,12.606760025000085],[9.614039421000086,12.623430252000048],[9.649139404000039,12.626150131000088],[9.676115990000085,12.62187004100008],[9.72917938200004,12.586819649000063],[9.741691589000084,12.584670067000047],[9.737544060000062,12.570799828000077],[9.707503319000068,12.532440186000088],[9.677147865000052,12.524020195000048],[9.656449318000057,12.48806953400009],[9.632128716000068,12.462450027000045],[9.634700775000056,12.440600395000047],[9.594074249000073,12.406720161000067],[9.587380409000048,12.392379761000086],[9.553204536000067,12.395859718000054],[9.51815414400005,12.388529778000077],[9.435027122000065,12.387530327000093],[9.398488998000062,12.410110474000078],[9.404051781000078,12.437809944000037],[9.43141078900004,12.50837993600004],[9.43118095400007,12.530260086000055],[9.421523094000065,12.557769775000054],[9.427328110000076,12.562450409000064],[9.417695045000073,12.587659836000057],[9.420000076000065,12.591139793000082],[9.445807457000058,12.58685016600009],[9.48204135900005,12.593050003000087],[9.502982140000086,12.605970383000056],[9.50751972200004,12.619839668000054]]]}},{"type":"Feature","properties":{"CNTRY_NAME":"Nigeria","CNTRY_CODE":"NGA","ADM1_NAME":"Jigawa","ADM1_CODE":"NGA018","ADM2_NAME":"Garki","ADM2_CODE":"NGA018008","HRname":"Garki","HRpcode":"NG018008","HRparent":"NG018","Shape_Leng":2.07152652467,"Shape_Area":0.117095411567,"ADM2_New":"Garki","id":"NG-JI-GARKI","name":"Garki","parentId":"NG-JI","stateName":"Jigawa","regionId":"NG-NW","fillColor":"#b5c99a"},"geometry":{"type":"Polygon","coordinates":[[[8.81648731200005,12.413439751000055],[8.85622215300009,12.420829773000037],[8.872516632000043,12.430239677000088],[8.871006012000066,12.462459564000085],[8.88355732000008,12.493700027000045],[8.891632080000079,12.505310059000067],[8.91835403400006,12.525210381000079],[8.95167636900004,12.585479736000082],[8.964433670000062,12.597149849000061],[9.011145592000048,12.609230042000092],[9.033451080000077,12.603739738000058],[9.050303459000077,12.560190201000069],[9.072792053000057,12.537440300000071],[9.082206726000038,12.532939911000085],[9.138405800000044,12.53361988100005],[9.188920021000058,12.518119812000066],[9.219603539000047,12.49545955700006],[9.252786636000053,12.457859993000056],[9.274019241000076,12.443149567000091],[9.29974079100009,12.446920395000063],[9.357231140000067,12.43610000600006],[9.435027122000065,12.387530327000093],[9.508775711000055,12.389570236000054],[9.507689476000053,12.381500244000051],[9.479868889000045,12.354680061000067],[9.405253410000057,12.323840141000062],[9.335173607000058,12.306870461000074],[9.248473167000043,12.311579704000053],[9.227156639000043,12.334349632000055],[9.209508896000045,12.342200279000053],[9.15920066800004,12.33813953400005],[9.117039680000062,12.338780403000044],[9.079501152000091,12.345230103000063],[9.02683830300009,12.342289925000046],[8.918195724000043,12.317950249000091],[8.891280174000087,12.316470146000086],[8.869142532000069,12.30583953900009],[8.863544464000086,12.281599998000047],[8.85188484200006,12.276849747000085],[8.841008186000067,12.308959961000085],[8.818689346000042,12.315600395000047],[8.801212311000086,12.307330132000061],[8.794381142000077,12.288820267000062],[8.77922153500009,12.28287982900008],[8.740081787000065,12.219079971000042],[8.724909782000054,12.21428966500008],[8.72128772700006,12.224610329000086],[8.740233421000084,12.315799713000047],[8.810803413000087,12.397250175000067],[8.81648731200005,12.413439751000055]]]}},{"type":"Feature","properties":{"CNTRY_NAME":"Nigeria","CNTRY_CODE":"NGA","ADM1_NAME":"Jigawa","ADM1_CODE":"NGA018","ADM2_NAME":"Gumel","ADM2_CODE":"NGA018009","HRname":"Gumel","HRpcode":"NG018009","HRparent":"NG018","Shape_Leng":0.591457460988,"Shape_Area":0.0185995672497,"ADM2_New":"Gumel","id":"NG-JI-GUMEL","name":"Gumel","parentId":"NG-JI","stateName":"Jigawa","regionId":"NG-NW","fillColor":"#d4a574"},"geometry":{"type":"Polygon","coordinates":[[[9.349002838000047,12.682109833000084],[9.37316227000008,12.702260017000071],[9.41757965100004,12.709710121000057],[9.451545715000066,12.708970070000078],[9.478959084000053,12.663249969000049],[9.476896286000056,12.636739731000091],[9.48754310600009,12.626500130000068],[9.50751972200004,12.619839668000054],[9.505287170000088,12.60945034000008],[9.496029854000085,12.598970413000075],[9.461014748000082,12.588190079000071],[9.438781738000046,12.58677005800007],[9.420000076000065,12.591139793000082],[9.41775608100005,12.581910133000065],[9.427328110000076,12.562450409000064],[9.425023079000084,12.55897045100005],[9.406326294000053,12.555290222000053],[9.375837326000067,12.559519768000087],[9.356703758000037,12.597290039000086],[9.332858086000044,12.609950066000067],[9.331813812000064,12.625769615000081],[9.316387177000081,12.645159721000084],[9.31274032600004,12.657779694000055],[9.349002838000047,12.682109833000084]]]}},{"type":"Feature","properties":{"CNTRY_NAME":"Nigeria","CNTRY_CODE":"NGA","ADM1_NAME":"Jigawa","ADM1_CODE":"NGA018","ADM2_NAME":"Guri","ADM2_CODE":"NGA018010","HRname":"Guri","HRpcode":"NG018010","HRparent":"NG018","Shape_Leng":1.3099225995,"Shape_Area":0.0881385808557,"ADM2_New":"Guri","id":"NG-JI-GURI","name":"Guri","parentId":"NG-JI","stateName":"Jigawa","regionId":"NG-NW","fillColor":"#5a9e6f"},"geometry":{"type":"Polygon","coordinates":[[[10.371110916000077,12.472255707000045],[10.348699570000065,12.46765995000004],[10.342630386000053,12.488309860000072],[10.343580246000045,12.509050369000079],[10.350449562000051,12.524100304000058],[10.350210190000041,12.547120094000093],[10.335439682000072,12.61487960800008],[10.360810280000067,12.652029991000063],[10.368700027000045,12.68091011000007],[10.35783958400009,12.711870193000038],[10.362000465000051,12.761429787000054],[10.334460258000092,12.858779907000041],[10.364459991000047,12.861630440000056],[10.37619972200008,12.858320236000054],[10.408201218000045,12.840026855000076],[10.419540405000077,12.841739655000083],[10.442460060000087,12.835709572000042],[10.460648537000054,12.821568489000072],[10.490169525000056,12.821700096000086],[10.534569740000052,12.830300331000046],[10.566309929000056,12.819169998000064],[10.577699661000054,12.80685043300008],[10.57087993600004,12.802169800000058],[10.577119827000047,12.792819977000079],[10.574460030000068,12.754139900000041],[10.600000381000086,12.70139026600009],[10.594079971000042,12.660679817000073],[10.598620415000084,12.642239571000061],[10.595664024000087,12.618811607000055],[10.599329948000047,12.581130028000075],[10.588580132000061,12.553930283000057],[10.594969749000086,12.542480469000054],[10.58967971800007,12.525979996000046],[10.594050407000054,12.52013015700004],[10.577839851000078,12.502670288000047],[10.526539803000048,12.481320381000046],[10.484869957000058,12.435910225000043],[10.451029778000077,12.423990250000088],[10.435729980000076,12.431870461000074],[10.42477989200006,12.470879555000067],[10.371110916000077,12.472255707000045]]]}},{"type":"Feature","properties":{"CNTRY_NAME":"Nigeria","CNTRY_CODE":"NGA","ADM1_NAME":"Jigawa","ADM1_CODE":"NGA018","ADM2_NAME":"Gwaram","ADM2_CODE":"NGA018011","HRname":"Gwaram","HRpcode":"NG018011","HRparent":"NG018","Shape_Leng":2.45582232397,"Shape_Area":0.158276669343,"ADM2_New":"Gwaram","id":"NG-JI-GWARAM","name":"Gwaram","parentId":"NG-JI","stateName":"Jigawa","regionId":"NG-NW","fillColor":"#84b882"},"geometry":{"type":"Polygon","coordinates":[[[9.647033691000047,11.381460190000041],[9.672512054000038,11.408249855000065],[9.688551903000075,11.441829681000058],[9.70476055100005,11.459300041000063],[9.786789894000037,11.473539352000046],[9.797230721000062,11.462719917000072],[9.819328308000081,11.461479187000066],[9.851895332000083,11.497920036000039],[9.869602203000056,11.484319687000038],[9.883931160000088,11.458009720000064],[9.879503250000084,11.43377971600006],[9.879059792000078,11.364689827000063],[9.896819115000085,11.348797798000078],[9.920232773000066,11.346759796000072],[9.952111244000037,11.321820259000049],[9.99148845700006,11.25205993700007],[10.00092029600006,11.246410370000092],[10.034709930000076,11.261790276000056],[10.067254066000089,11.260951042000045],[10.09564971900005,11.256770134000078],[10.127429962000065,11.241029739000055],[10.148530006000044,11.238989830000037],[10.165049553000074,11.227669716000037],[10.183830261000082,11.223290443000053],[10.229479790000084,11.225000381000086],[10.29485988600004,11.20599842100006],[10.358460426000079,11.208129883000083],[10.366720200000088,11.202480316000049],[10.364620209000066,11.179420471000071],[10.346444130000066,11.16284561200007],[10.327670097000066,11.129469872000072],[10.315890312000079,11.136230469000054],[10.305370331000063,11.134949684000048],[10.28676033000005,11.123209953000071],[10.282159805000049,11.115099907000058],[10.272820473000081,11.112680435000073],[10.262459755000066,11.095290184000078],[10.242569923000076,11.093890190000081],[10.217869759000052,11.103960037000093],[10.201354027000093,11.101158142000088],[10.17486000100007,11.074649811000086],[10.144442558000037,11.02697181700006],[10.141530037000052,11.014380455000037],[10.158220291000077,10.986949921000075],[10.187629700000059,10.97348022500006],[10.19474983200007,10.96436023700005],[10.192560196000045,10.950510025000085],[10.186759949000077,10.944689751000055],[10.175080299000058,10.942239761000053],[10.134039879000056,10.94750022900007],[10.110460281000087,10.963339806000079],[10.103240013000061,10.981670380000082],[10.078559875000053,10.989439964000042],[10.036015511000073,10.986955643000044],[10.020660400000054,10.98245716100007],[10.002690315000052,10.966640472000051],[9.953554153000084,10.96259021800006],[9.86581897700006,10.999396324000088],[9.859332085000062,11.014419556000064],[9.854406357000073,11.03738975500005],[9.85365390800007,11.108770370000059],[9.865143776000082,11.129630089000045],[9.892939568000088,11.158749580000062],[9.865719795000075,11.18605995200005],[9.846465111000043,11.235329628000045],[9.834587097000053,11.25131034900005],[9.824892998000053,11.282279968000068],[9.801440239000044,11.285449982000046],[9.759497643000088,11.265370369000038],[9.649550438000063,11.253680229000054],[9.649126053000089,11.293970108000053],[9.640433311000038,11.341079712000067],[9.640214920000062,11.361800194000068],[9.647033691000047,11.381460190000041]]]}},{"type":"Feature","properties":{"CNTRY_NAME":"Nigeria","CNTRY_CODE":"NGA","ADM1_NAME":"Jigawa","ADM1_CODE":"NGA018","ADM2_NAME":"Gwiwa","ADM2_CODE":"NGA018012","HRname":"Gwiwa","HRpcode":"NG018012","HRparent":"NG018","Shape_Leng":0.823158664852,"Shape_Area":0.0375034795227,"ADM2_New":"Gwiwa","id":"NG-JI-GWIWA","name":"Gwiwa","parentId":"NG-JI","stateName":"Jigawa","regionId":"NG-NW","fillColor":"#c9b896"},"geometry":{"type":"Polygon","coordinates":[[[8.238273621000076,12.839650154000083],[8.245820999000046,12.836930275000043],[8.280342102000077,12.843339920000062],[8.32316112500007,12.840404510000042],[8.33017635300007,12.844449997000083],[8.37717056300005,12.825189590000036],[8.39958095600008,12.82716941800004],[8.395408630000077,12.813639641000066],[8.401748657000041,12.767660141000079],[8.395305634000067,12.71232032800009],[8.397735596000075,12.691867828000056],[8.373545647000071,12.666000366000048],[8.361801147000051,12.669309616000078],[8.32568836200005,12.651599884000063],[8.29878330200006,12.648980141000038],[8.29056358300005,12.651180267000086],[8.284515381000062,12.669529915000055],[8.245635986000082,12.692090034000046],[8.235086441000078,12.693110466000064],[8.221158028000048,12.681429863000062],[8.192852974000061,12.700659752000092],[8.149989128000072,12.701290131000064],[8.15085601800007,12.716889381000044],[8.174598694000053,12.766070366000065],[8.173015594000049,12.794969559000037],[8.162396431000047,12.819089890000043],[8.171748161000039,12.835289955000064],[8.184647560000087,12.83998966200005],[8.238273621000076,12.839650154000083]]]}},{"type":"Feature","properties":{"CNTRY_NAME":"Nigeria","CNTRY_CODE":"NGA","ADM1_NAME":"Jigawa","ADM1_CODE":"NGA018","ADM2_NAME":"Hadejia","ADM2_CODE":"NGA018013","HRname":"Hadejia","HRpcode":"NG018013","HRparent":"NG018","Shape_Leng":0.200411837376,"Shape_Area":0.00270116191769,"ADM2_New":"Hadejia","id":"NG-JI-HADEJIA","name":"Hadejia","parentId":"NG-JI","stateName":"Jigawa","regionId":"NG-NW","fillColor":"#7eb09a"},"geometry":{"type":"Polygon","coordinates":[[[10.074970245000088,12.478549957000041],[10.07839012100004,12.45057010700009],[10.037409782000054,12.450079918000085],[10.025779724000074,12.443030357000055],[10.016320229000087,12.450969696000072],[10.013839722000057,12.46475982700008],[10.018349648000083,12.480939865000039],[10.031069756000079,12.496060371000056],[10.04977989200006,12.498590469000078],[10.074970245000088,12.478549957000041]]]}},{"type":"Feature","properties":{"CNTRY_NAME":"Nigeria","CNTRY_CODE":"NGA","ADM1_NAME":"Jigawa","ADM1_CODE":"NGA018","ADM2_NAME":"Jahun","ADM2_CODE":"NGA018014","HRname":"Jahun","HRpcode":"NG018014","HRparent":"NG018","Shape_Leng":1.45323782073,"Shape_Area":0.0973005167584,"ADM2_New":"Jahun","id":"NG-JI-JAHUN","name":"Jahun","parentId":"NG-JI","stateName":"Jigawa","regionId":"NG-NW","fillColor":"#a4c4a0"},"geometry":{"type":"Polygon","coordinates":[[[9.337813377000089,12.16757965100004],[9.34699726100007,12.184969902000091],[9.352827072000082,12.187339783000084],[9.394879341000092,12.197059631000059],[9.424198151000041,12.192810059000067],[9.448627472000055,12.208069801000079],[9.483654976000082,12.21770954100009],[9.511790276000056,12.214590073000068],[9.521278381000059,12.203189850000058],[9.536559105000038,12.19762039200009],[9.569378853000046,12.194560051000053],[9.572915077000062,12.192299843000058],[9.567157745000088,12.183019638000076],[9.573048592000077,12.179639816000076],[9.601147652000066,12.179980278000073],[9.625820160000046,12.17222023000005],[9.654198647000044,12.146080017000088],[9.671711922000043,12.150899887000037],[9.71620273600007,12.151430130000051],[9.74085044900005,12.14597034500008],[9.747983932000068,12.13570022600004],[9.744666100000074,12.11723995200009],[9.751727104000054,12.113869667000074],[9.774021149000077,12.10953044900009],[9.812597275000087,12.115750313000092],[9.824497223000037,12.113599777000047],[9.817546844000049,12.090479851000055],[9.82083511400009,12.000709534000066],[9.798699379000084,11.990079880000053],[9.723961830000064,11.970760345000087],[9.671493530000077,11.949399948000064],[9.65625953700004,11.950360298000078],[9.648004532000073,11.956020355000078],[9.637212753000085,11.980070114000057],[9.62065124500009,11.995989799000085],[9.613625526000078,11.995900154000083],[9.596160889000089,11.986479759000076],[9.527205467000044,11.974129677000064],[9.47490692100007,11.936659813000063],[9.431695938000075,11.925769806000062],[9.415280342000074,11.92788028700005],[9.401097298000082,11.940369606000047],[9.392610550000086,11.96790027600008],[9.387380600000085,12.019650459000047],[9.36374664300007,12.040089607000084],[9.352025986000058,12.04109954800009],[9.346075058000054,12.050239563000048],[9.31428146400009,12.067130089000045],[9.318842888000063,12.078700066000067],[9.321785927000064,12.132849693000082],[9.33678722400009,12.153750420000051],[9.337813377000089,12.16757965100004]]]}},{"type":"Feature","properties":{"CNTRY_NAME":"Nigeria","CNTRY_CODE":"NGA","ADM1_NAME":"Jigawa","ADM1_CODE":"NGA018","ADM2_NAME":"Kafin Hausa","ADM2_CODE":"NGA018015","HRname":"Kafin Hausa","HRpcode":"NG018015","HRparent":"NG018","Shape_Leng":1.38835046005,"Shape_Area":0.114621156688,"ADM2_New":"Kafin Hausa","id":"NG-JI-KAFIN-HAUSA","name":"Kafin Hausa","parentId":"NG-JI","stateName":"Jigawa","regionId":"NG-NW","fillColor":"#96b57c"},"geometry":{"type":"Polygon","coordinates":[[[9.857132912000054,12.260219574000075],[9.912892342000077,12.26550006900004],[9.96420192700009,12.285690308000085],[9.971166611000058,12.29152965500009],[9.97213077500004,12.311120033000066],[9.98021698000008,12.321579933000066],[10.009140015000071,12.355319977000079],[10.040499687000079,12.378729820000046],[10.06503009800008,12.384779930000093],[10.12497043600007,12.363630295000064],[10.177756310000063,12.296241760000044],[10.214920044000053,12.272600174000047],[10.195400238000047,12.236669540000037],[10.163599968000085,12.143030167000063],[10.161580086000072,12.111909866000076],[10.174850464000087,12.075229645000093],[10.172739983000042,12.053330421000055],[10.143639565000058,12.036849976000042],[10.130740166000066,12.038999557000068],[10.122630119000064,12.030839920000062],[10.099229813000079,12.028260231000047],[10.094739914000058,12.009779930000093],[9.97686862900008,11.97266006500007],[9.965257645000065,11.963310242000091],[9.947647095000093,11.96770000500004],[9.906777382000087,11.95685005200005],[9.90311908700005,11.970620155000063],[9.888924599000063,11.98425960500009],[9.866666794000082,11.98515033700005],[9.821713448000082,11.998209953000071],[9.817546844000049,12.090479851000055],[9.830917358000079,12.155119896000087],[9.823298454000053,12.211449623000078],[9.831324577000089,12.227669716000037],[9.856900215000053,12.245249748000049],[9.857132912000054,12.260219574000075]]]}},{"type":"Feature","properties":{"CNTRY_NAME":"Nigeria","CNTRY_CODE":"NGA","ADM1_NAME":"Jigawa","ADM1_CODE":"NGA018","ADM2_NAME":"Kaugama","ADM2_CODE":"NGA018016","HRname":"Kaugama","HRpcode":"NG018016","HRparent":"NG018","Shape_Leng":1.67758435001,"Shape_Area":0.0733977957618,"ADM2_New":"Kaugama","id":"NG-JI-KAUGAMA","name":"Kaugama","parentId":"NG-JI","stateName":"Jigawa","regionId":"NG-NW","fillColor":"#7cb87c"},"geometry":{"type":"Polygon","coordinates":[[[9.726465225000084,12.812100410000085],[9.764303207000069,12.809470177000037],[9.799769402000038,12.814499855000065],[9.819561958000065,12.78826046000006],[9.839878082000041,12.749360085000092],[9.874862671000074,12.651909828000043],[9.849590302000081,12.60554981200005],[9.846283913000093,12.585940361000041],[9.849001884000074,12.550270081000065],[9.856232643000055,12.53079032900007],[9.854351997000037,12.48701000200009],[9.84630203200004,12.473099709000053],[9.821908951000069,12.454380035000042],[9.825567245000059,12.440609932000086],[9.849056244000053,12.43397998800009],[9.921659470000066,12.433710098000063],[9.952197075000072,12.424869537000063],[9.965245247000041,12.408909798000082],[9.94651222200008,12.408679962000065],[9.92321777300009,12.396880150000072],[9.893068314000061,12.368889809000052],[9.86629676800004,12.35359001200004],[9.845294952000074,12.346429825000087],[9.827720642000088,12.347370148000039],[9.774130821000085,12.321390152000049],[9.758922577000078,12.32005977600005],[9.734177589000069,12.33471965800004],[9.729505539000058,12.333519936000073],[9.725502014000085,12.30327034000004],[9.695516586000053,12.336560249000058],[9.59929180100005,12.356120110000063],[9.60253715500005,12.381489754000086],[9.58833026900004,12.396289825000053],[9.599867821000089,12.412549973000068],[9.634700775000056,12.440600395000047],[9.632128716000068,12.462450027000045],[9.656449318000057,12.48806953400009],[9.677147865000052,12.524020195000048],[9.707503319000068,12.532440186000088],[9.737544060000062,12.570799828000077],[9.741691589000084,12.584670067000047],[9.767779350000069,12.590740204000042],[9.792123795000066,12.614069939000046],[9.794113159000062,12.647480011000084],[9.787968636000073,12.675040245000048],[9.73173904400005,12.788350105000063],[9.726465225000084,12.812100410000085]]]}},{"type":"Feature","properties":{"CNTRY_NAME":"Nigeria","CNTRY_CODE":"NGA","ADM1_NAME":"Jigawa","ADM1_CODE":"NGA018","ADM2_NAME":"Kazaure","ADM2_CODE":"NGA018017","HRname":"Kazaure","HRpcode":"NG018017","HRparent":"NG018","Shape_Leng":1.02800579609,"Shape_Area":0.0306692358535,"ADM2_New":"Kazaure","id":"NG-JI-KAZAURE","name":"Kazaure","parentId":"NG-JI","stateName":"Jigawa","regionId":"NG-NW","fillColor":"#8fbc8f"},"geometry":{"type":"Polygon","coordinates":[[[8.68263244600007,12.698269844000038],[8.702130318000059,12.709119797000085],[8.73974227900004,12.695759773000077],[8.734021187000053,12.683019638000076],[8.70499420200008,12.659640312000079],[8.712273598000081,12.63554954500006],[8.659769058000052,12.617650032000086],[8.647129059000065,12.60492992400009],[8.648221016000093,12.595221519000063],[8.627826691000053,12.588952065000058],[8.597985268000059,12.597599983000066],[8.49927806900007,12.586030960000073],[8.470646858000066,12.58719921100004],[8.449169159000064,12.601280212000063],[8.43255901300006,12.621809959000075],[8.40572738600008,12.612270355000078],[8.38933658600007,12.612070084000038],[8.370506287000069,12.621060371000056],[8.36329937000005,12.638239861000045],[8.370045662000052,12.664810181000064],[8.394365311000058,12.690429687000062],[8.422404289000042,12.696530342000074],[8.447063446000072,12.689920425000082],[8.495752335000077,12.736559868000086],[8.530937195000092,12.73122978200007],[8.542742729000054,12.722160339000084],[8.546339989000046,12.714150429000085],[8.544132233000084,12.701450348000037],[8.533679962000065,12.693269730000054],[8.526872635000075,12.67245960200006],[8.540031433000081,12.646140099000093],[8.558775902000093,12.64521026600005],[8.577351570000076,12.660400391000053],[8.68263244600007,12.698269844000038]]]}},{"type":"Feature","properties":{"CNTRY_NAME":"Nigeria","CNTRY_CODE":"NGA","ADM1_NAME":"Jigawa","ADM1_CODE":"NGA018","ADM2_NAME":"Kiri Kasamma","ADM2_CODE":"NGA018018","HRname":"Kiri Kasamma","HRpcode":"NG018018","HRparent":"NG018","Shape_Leng":1.29941436564,"Shape_Area":0.0662363588397,"ADM2_New":"Kiri Kasamma","id":"NG-JI-KIRI-KASAMMA","name":"Kiri Kasamma","parentId":"NG-JI","stateName":"Jigawa","regionId":"NG-NW","fillColor":"#a8c686"},"geometry":{"type":"Polygon","coordinates":[[[10.191120148000039,12.705900192000058],[10.207670212000039,12.738840103000086],[10.21580982200004,12.744689941000047],[10.252180099000043,12.737070084000038],[10.27663040200008,12.751190186000088],[10.297430038000073,12.776769638000076],[10.310230255000079,12.784979820000046],[10.346529961000044,12.784270287000083],[10.353520393000053,12.787810326000056],[10.362000465000051,12.761429787000054],[10.35783958400009,12.711870193000038],[10.368740082000045,12.67745971700009],[10.360810280000067,12.652029991000063],[10.335439682000072,12.61487960800008],[10.350210190000041,12.547120094000093],[10.350449562000051,12.524100304000058],[10.343580246000045,12.509050369000079],[10.342630386000053,12.488309860000072],[10.348699570000065,12.46765995000004],[10.287989616000061,12.45079994200006],[10.25899505600006,12.422801018000087],[10.207550049000076,12.416440010000088],[10.078780174000087,12.413729668000087],[10.057669640000086,12.416930199000092],[10.056409836000057,12.42498016400009],[10.07839012100004,12.45057010700009],[10.074970245000088,12.478549957000041],[10.086150169000064,12.492119789000071],[10.100899696000056,12.537199974000089],[10.128359795000051,12.597410202000049],[10.137720108000053,12.598670006000077],[10.160220146000086,12.574760437000066],[10.173100471000055,12.574919701000056],[10.202230453000084,12.58794021600005],[10.209039688000075,12.608739853000088],[10.225290298000061,12.622759819000066],[10.202859879000073,12.639760017000071],[10.20158004800004,12.650110245000064],[10.213120461000074,12.666359901000078],[10.213020325000059,12.67556953400009],[10.203450203000045,12.695030212000063],[10.191120148000039,12.705900192000058]]]}},{"type":"Feature","properties":{"CNTRY_NAME":"Nigeria","CNTRY_CODE":"NGA","ADM1_NAME":"Jigawa","ADM1_CODE":"NGA018","ADM2_NAME":"Malam Madori","ADM2_CODE":"NGA018021","HRname":"Malam Madori","HRpcode":"NG018021","HRparent":"NG018","Shape_Leng":1.3197879298,"Shape_Area":0.0636945934393,"ADM2_New":"Malam Madori","id":"NG-JI-MALAM-MADORI","name":"Malam Madori","parentId":"NG-JI","stateName":"Jigawa","regionId":"NG-NW","fillColor":"#c2b280"},"geometry":{"type":"Polygon","coordinates":[[[9.876443863000077,12.65001010900005],[9.906620026000041,12.638480186000038],[9.971027374000073,12.638110161000043],[10.052680016000068,12.667880058000037],[10.066499710000073,12.689920425000082],[10.085069656000087,12.705120087000068],[10.100299835000044,12.705300331000046],[10.12504959100005,12.68947982800006],[10.164819717000057,12.693409920000079],[10.191120148000039,12.705900192000058],[10.203450203000045,12.695030212000063],[10.213020325000059,12.67556953400009],[10.213120461000074,12.666359901000078],[10.20158004800004,12.650110245000064],[10.202859879000073,12.639760017000071],[10.225290298000061,12.622759819000066],[10.209039688000075,12.608739853000088],[10.202230453000084,12.58794021600005],[10.173100471000055,12.574919701000056],[10.160220146000086,12.574760437000066],[10.137720108000053,12.598670006000077],[10.128359795000051,12.597410202000049],[10.08154010800007,12.48515033700005],[10.074970245000088,12.478549957000041],[10.04977989200006,12.498590469000078],[10.026410103000046,12.493700027000045],[10.013839722000057,12.46475982700008],[10.016320229000087,12.450969696000072],[10.025779724000074,12.443030357000055],[10.010600090000082,12.438240051000037],[9.997846603000085,12.426569939000046],[9.975564003000045,12.429759979000039],[9.967611313000077,12.406629562000091],[9.959269524000092,12.420350075000044],[9.940440178000074,12.42932987200004],[9.91345119500005,12.434760094000069],[9.83733654000008,12.43498992900004],[9.825567245000059,12.440609932000086],[9.821908951000069,12.454380035000042],[9.84630203200004,12.473099709000053],[9.854351997000037,12.48701000200009],[9.856232643000055,12.53079032900007],[9.849001884000074,12.550270081000065],[9.846283913000093,12.585940361000041],[9.849590302000081,12.60554981200005],[9.876443863000077,12.65001010900005]]]}},{"type":"Feature","properties":{"CNTRY_NAME":"Nigeria","CNTRY_CODE":"NGA","ADM1_NAME":"Jigawa","ADM1_CODE":"NGA018","ADM2_NAME":"Miga","ADM2_CODE":"NGA018022","HRname":"Miga","HRpcode":"NG018022","HRparent":"NG018","Shape_Leng":1.02200263277,"Shape_Area":0.0486819763037,"ADM2_New":"Miga","id":"NG-JI-MIGA","name":"Miga","parentId":"NG-JI","stateName":"Jigawa","regionId":"NG-NW","fillColor":"#9bb898"},"geometry":{"type":"Polygon","coordinates":[[[9.59929180100005,12.356120110000063],[9.695516586000053,12.336560249000058],[9.719260216000066,12.305760384000052],[9.754529953000088,12.292369843000074],[9.778103828000042,12.27768993400008],[9.822461128000043,12.290889740000068],[9.850693703000047,12.278559685000062],[9.859169006000059,12.252180099000043],[9.856900215000053,12.245249748000049],[9.831324577000089,12.227669716000037],[9.823298454000053,12.211449623000078],[9.830917358000079,12.155119896000087],[9.824497223000037,12.113599777000047],[9.812597275000087,12.115750313000092],[9.774021149000077,12.10953044900009],[9.751727104000054,12.113869667000074],[9.744666100000074,12.11723995200009],[9.747983932000068,12.13570022600004],[9.74085044900005,12.14597034500008],[9.71620273600007,12.151430130000051],[9.671711922000043,12.150899887000037],[9.654198647000044,12.146080017000088],[9.625820160000046,12.17222023000005],[9.601147652000066,12.179980278000073],[9.573048592000077,12.179639816000076],[9.567157745000088,12.183019638000076],[9.572915077000062,12.192299843000058],[9.569378853000046,12.194560051000053],[9.521278381000059,12.203189850000058],[9.511790276000056,12.214590073000068],[9.548892021000086,12.24958038300008],[9.59929180100005,12.356120110000063]]]}},{"type":"Feature","properties":{"CNTRY_NAME":"Nigeria","CNTRY_CODE":"NGA","ADM1_NAME":"Jigawa","ADM1_CODE":"NGA018","ADM2_NAME":"Ringim","ADM2_CODE":"NGA018023","HRname":"Ringim","HRpcode":"NG018023","HRparent":"NG018","Shape_Leng":1.56820400239,"Shape_Area":0.0878065149535,"ADM2_New":"Ringim","id":"NG-JI-RINGIM","name":"Ringim","parentId":"NG-JI","stateName":"Jigawa","regionId":"NG-NW","fillColor":"#6ba3be"},"geometry":{"type":"Polygon","coordinates":[[[8.907670975000087,12.316670418000058],[9.02683830300009,12.342289925000046],[9.079501152000091,12.345230103000063],[9.132251740000072,12.339730263000092],[9.134856224000089,12.314809799000045],[9.170684814000083,12.248459816000093],[9.195428848000063,12.233799934000047],[9.292933464000043,12.203889847000085],[9.337813377000089,12.16757965100004],[9.33678722400009,12.153750420000051],[9.321785927000064,12.132849693000082],[9.31542778000005,12.06943988800009],[9.307244301000082,12.068189621000045],[9.282887459000051,12.046019554000054],[9.273715019000065,12.02748966200005],[9.252895355000078,12.003060341000037],[9.236528397000086,12.000559807000059],[9.225967407000041,12.002730370000052],[9.21634578700008,12.02678966500008],[9.222861290000083,12.075229645000093],[9.213033676000066,12.118869781000058],[9.196629524000059,12.11981964100005],[9.165187836000086,12.10332012200007],[9.14802646600009,12.065119743000082],[9.14599227900004,12.03004169500008],[9.135657310000056,12.016610146000062],[9.120449066000049,12.01527023300008],[9.096947670000077,12.023050308000052],[9.082703590000051,12.041299820000063],[9.070607185000085,12.07800006900004],[9.05881118800005,12.084670067000047],[9.007408142000088,12.074930191000078],[8.992138863000093,12.079350471000055],[8.98149204300006,12.089590073000068],[8.966510773000039,12.085522652000066],[8.94657421100004,12.06958961500004],[8.947405815000081,12.101840019000065],[8.941417694000052,12.114430428000048],[8.951640129000054,12.144490242000074],[8.965641022000057,12.14927005800007],[8.967885971000044,12.158510208000052],[8.954606056000046,12.196339607000084],[8.91325187700005,12.231530190000058],[8.89663028700005,12.253210068000044],[8.889410973000054,12.271550179000087],[8.891607285000077,12.285389900000041],[8.907670975000087,12.316670418000058]]]}},{"type":"Feature","properties":{"CNTRY_NAME":"Nigeria","CNTRY_CODE":"NGA","ADM1_NAME":"Jigawa","ADM1_CODE":"NGA018","ADM2_NAME":"Roni","ADM2_CODE":"NGA018024","HRname":"Roni","HRpcode":"NG018024","HRparent":"NG018","Shape_Leng":1.04557564789,"Shape_Area":0.0268322585749,"ADM2_New":"Roni","id":"NG-JI-RONI","name":"Roni","parentId":"NG-JI","stateName":"Jigawa","regionId":"NG-NW","fillColor":"#89a96d"},"geometry":{"type":"Polygon","coordinates":[[[8.149989128000072,12.701290131000064],[8.192852974000061,12.700659752000092],[8.221158028000048,12.681429863000062],[8.235086441000078,12.693110466000064],[8.245635986000082,12.692090034000046],[8.284515381000062,12.669529915000055],[8.29056358300005,12.651180267000086],[8.29878330200006,12.648980141000038],[8.32568836200005,12.651599884000063],[8.361801147000051,12.669309616000078],[8.370045662000052,12.664810181000064],[8.36329937000005,12.638239861000045],[8.375238419000084,12.616510391000077],[8.40572738600008,12.612270355000078],[8.43255901300006,12.621809959000075],[8.449169159000064,12.601280212000063],[8.467391968000072,12.588199615000065],[8.442568779000055,12.560899734000088],[8.439563751000037,12.54584026300006],[8.43111515000004,12.536589622000065],[8.420388222000042,12.510219574000075],[8.389573097000039,12.478509903000088],[8.38177776300006,12.440420151000069],[8.374728203000075,12.442640305000054],[8.355643272000066,12.475799561000088],[8.31670379600007,12.504119873000093],[8.311886787000049,12.51671981800007],[8.311231613000075,12.578889847000085],[8.290033340000093,12.599989891000064],[8.291969299000073,12.620679855000049],[8.286055565000083,12.64023017900007],[8.276662827000052,12.641309738000075],[8.26024818400009,12.634289742000078],[8.252026558000068,12.63652992200008],[8.24495697000009,12.648010254000042],[8.236741066000093,12.647950172000037],[8.206247330000053,12.638520241000037],[8.193304062000038,12.65225982700008],[8.14640903500009,12.663249969000049],[8.145031929000083,12.682809830000053],[8.149989128000072,12.701290131000064]]]}},{"type":"Feature","properties":{"CNTRY_NAME":"Nigeria","CNTRY_CODE":"NGA","ADM1_NAME":"Jigawa","ADM1_CODE":"NGA018","ADM2_NAME":"Taura","ADM2_CODE":"NGA018026","HRname":"Taura","HRpcode":"NG018026","HRparent":"NG018","Shape_Leng":1.2003318395,"Shape_Area":0.0542486291068,"ADM2_New":"Taura","id":"NG-JI-TAURA","name":"Taura","parentId":"NG-JI","stateName":"Jigawa","regionId":"NG-NW","fillColor":"#b5c99a"},"geometry":{"type":"Polygon","coordinates":[[[9.508775711000055,12.389570236000054],[9.575450897000053,12.39612960800008],[9.594256401000052,12.389450073000091],[9.60253715500005,12.381489754000086],[9.59929180100005,12.356120110000063],[9.548892021000086,12.24958038300008],[9.511790276000056,12.214590073000068],[9.480141640000056,12.21765995000004],[9.448627472000055,12.208069801000079],[9.424198151000041,12.192810059000067],[9.394879341000092,12.197059631000059],[9.359827995000046,12.189729691000082],[9.34699726100007,12.184969902000091],[9.337813377000089,12.16757965100004],[9.28116512300005,12.209500313000092],[9.195428848000063,12.233799934000047],[9.176587105000067,12.243929863000062],[9.165952682000068,12.253009796000072],[9.132453918000067,12.320540428000072],[9.132251740000072,12.339730263000092],[9.209508896000045,12.342200279000053],[9.227156639000043,12.334349632000055],[9.248473167000043,12.311579704000053],[9.335173607000058,12.306870461000074],[9.405253410000057,12.323840141000062],[9.479868889000045,12.354680061000067],[9.507689476000053,12.381500244000051],[9.508775711000055,12.389570236000054]]]}},{"type":"Feature","properties":{"CNTRY_NAME":"Nigeria","CNTRY_CODE":"NGA","ADM1_NAME":"Jigawa","ADM1_CODE":"NGA018","ADM2_NAME":"Yankwashi","ADM2_CODE":"NGA018027","HRname":"Yankwashi","HRpcode":"NG018027","HRparent":"NG018","Shape_Leng":0.933917904004,"Shape_Area":0.0309181577202,"ADM2_New":"Yankwashi","id":"NG-JI-YANKWASHI","name":"Yankwashi","parentId":"NG-JI","stateName":"Jigawa","regionId":"NG-NW","fillColor":"#d4a574"},"geometry":{"type":"Polygon","coordinates":[[[8.39958095600008,12.82716941800004],[8.420649529000059,12.821904182000083],[8.488647461000085,12.836330414000088],[8.535599709000053,12.834349632000055],[8.562610626000037,12.82761955300009],[8.590817451000078,12.81169033100008],[8.595565796000074,12.788680077000038],[8.60496902500006,12.782979965000038],[8.599143982000044,12.764510155000039],[8.609733582000047,12.753060341000037],[8.607416153000088,12.740369797000085],[8.612127304000069,12.733489990000066],[8.650867462000065,12.73031044000004],[8.68263244600007,12.698269844000038],[8.577351570000076,12.660400391000053],[8.558775902000093,12.64521026600005],[8.540031433000081,12.646140099000093],[8.52812862400009,12.664409637000063],[8.531386375000068,12.688630104000083],[8.544132233000084,12.701450348000037],[8.546376228000042,12.710689545000037],[8.542742729000054,12.722160339000084],[8.530937195000092,12.73122978200007],[8.501606941000091,12.736630440000056],[8.489922523000075,12.734189987000036],[8.447063446000072,12.689920425000082],[8.422404289000042,12.696530342000074],[8.397735596000075,12.691867828000056],[8.395305634000067,12.71232032800009],[8.401748657000041,12.767660141000079],[8.395408630000077,12.813639641000066],[8.39958095600008,12.82716941800004]]]}},{"type":"Feature","properties":{"CNTRY_NAME":"Nigeria","CNTRY_CODE":"NGA","ADM1_NAME":"Jigawa","ADM1_CODE":"NGA018","ADM2_NAME":"kiyawa","ADM2_CODE":"NGA018019","HRname":"kiyawa","HRpcode":"NG018019","HRparent":"NG018","Shape_Leng":1.57426960054,"Shape_Area":0.0854908228097,"ADM2_New":"kiyawa","id":"NG-JI-KIYAWA","name":"kiyawa","parentId":"NG-JI","stateName":"Jigawa","regionId":"NG-NW","fillColor":"#5a9e6f"},"geometry":{"type":"Polygon","coordinates":[[[9.821713448000082,11.998209953000071],[9.866666794000082,11.98515033700005],[9.888924599000063,11.98425960500009],[9.90311908700005,11.970620155000063],[9.906777382000087,11.95685005200005],[9.851919174000045,11.940059662000067],[9.811292648000062,11.90618038200006],[9.768437386000073,11.892925262000063],[9.754056931000036,11.892820358000051],[9.72026062000009,11.87744998900007],[9.69318676000006,11.89093971300008],[9.683844566000062,11.888520241000037],[9.67351341200009,11.868820190000065],[9.67374420200008,11.846949577000089],[9.664632797000081,11.822660446000043],[9.663655281000047,11.804220200000088],[9.656727791000037,11.794930458000067],[9.633457184000065,11.78083038300008],[9.626650810000058,11.760020256000075],[9.63978385900009,11.736000061000084],[9.66093158700005,11.729350090000082],[9.57692432400006,11.700699806000046],[9.532712936000053,11.673680305000062],[9.461852074000092,11.61985969500006],[9.455657959000064,11.652029991000063],[9.446061134000047,11.673789978000059],[9.435390472000051,11.686320305000038],[9.413060188000088,11.694109917000048],[9.397718430000054,11.705439568000088],[9.401904106000075,11.752699852000092],[9.396917343000041,11.78141975400007],[9.398967743000071,11.809080124000047],[9.43559646600005,11.888970375000042],[9.441029549000064,11.92897987400005],[9.47490692100007,11.936659813000063],[9.527205467000044,11.974129677000064],[9.596160889000089,11.986479759000076],[9.613625526000078,11.995900154000083],[9.626553535000085,11.991459846000055],[9.637212753000085,11.980070114000057],[9.648004532000073,11.956020355000078],[9.663297653000086,11.94929981200005],[9.678505898000083,11.950630188000048],[9.727461815000083,11.971949577000089],[9.821713448000082,11.998209953000071]]]}},{"type":"Feature","properties":{"CNTRY_NAME":"Nigeria","CNTRY_CODE":"NGA","ADM1_NAME":"Jigawa","ADM1_CODE":"NGA018","ADM2_NAME":"Sule-Tankarkar","ADM2_CODE":"NGA018025","HRname":"Sule-Tankarkar","HRpcode":"NG018025","HRparent":"NG018","Shape_Leng":1.59168263443,"Shape_Area":0.106863888656,"ADM2_New":"Sule-Tankarkar","id":"NG-JI-SULE-TANKARKAR","name":"Sule-Tankarkar","parentId":"NG-JI","stateName":"Jigawa","regionId":"NG-NW","fillColor":"#84b882"},"geometry":{"type":"Polygon","coordinates":[[[9.379885354000066,12.819868747000044],[9.325796127000046,12.752349854000045],[9.348356247000083,12.722689629000058],[9.35207557700005,12.70316028600007],[9.349002838000047,12.682109833000084],[9.31274032600004,12.657779694000055],[9.316387177000081,12.645159721000084],[9.331813812000064,12.625769615000081],[9.332858086000044,12.609950066000067],[9.356703758000037,12.597290039000086],[9.375837326000067,12.559519768000087],[9.406326294000053,12.555290222000053],[9.421523094000065,12.557769775000054],[9.426327705000062,12.546319962000041],[9.43118095400007,12.530260086000055],[9.430313110000043,12.501460075000068],[9.39622306800004,12.41141033200006],[9.377232552000066,12.427129745000059],[9.34430408500009,12.440549850000082],[9.29974079100009,12.446920395000063],[9.274019241000076,12.443149567000091],[9.252786636000053,12.457859993000056],[9.219603539000047,12.49545955700006],[9.188920021000058,12.518119812000066],[9.123160362000078,12.535739899000077],[9.082206726000038,12.532939911000085],[9.050303459000077,12.560190201000069],[9.033487320000063,12.600290298000061],[9.033099174000085,12.63712978400008],[9.035307884000076,12.64982032800009],[9.069716454000059,12.71817016600005],[9.072937012000068,12.745840073000068],[9.06321907000006,12.779120445000046],[9.03712177300008,12.811039925000046],[9.049713135000047,12.821769714000084],[9.045207936000054,12.837526991000061],[9.220360000000085,12.828470000000038],[9.287999999000078,12.81203000000005],[9.379885354000066,12.819868747000044]]]}},{"type":"Feature","properties":{"CNTRY_NAME":"Nigeria","CNTRY_CODE":"NGA","ADM1_NAME":"Jigawa","ADM1_CODE":"NGA018","ADM2_NAME":"Maigatari","ADM2_CODE":"NGA018020","HRname":"Maigatari","HRpcode":"NG018020","HRparent":"NG018","Shape_Leng":1.27785815182,"Shape_Area":0.072512551594,"ADM2_New":"Maigatari","id":"NG-JI-MAIGATARI","name":"Maigatari","parentId":"NG-JI","stateName":"Jigawa","regionId":"NG-NW","fillColor":"#c9b896"},"geometry":{"type":"Polygon","coordinates":[[[9.658006816000068,12.809307969000088],[9.726465225000084,12.812100410000085],[9.73173904400005,12.788350105000063],[9.747238159000062,12.762060165000037],[9.767700195000089,12.709340096000062],[9.785553932000084,12.681920052000066],[9.792869568000071,12.65437984500005],[9.792123795000066,12.614069939000046],[9.767779350000069,12.590740204000042],[9.74442386600009,12.584699631000092],[9.72917938200004,12.586819649000063],[9.683177948000093,12.618510246000085],[9.649139404000039,12.626150131000088],[9.614039421000086,12.623430252000048],[9.568547249000062,12.606760025000085],[9.546289444000081,12.60764026600009],[9.50048255900009,12.620900154000083],[9.476896286000056,12.636739731000091],[9.478959084000053,12.663249969000049],[9.451545715000066,12.708970070000078],[9.41757965100004,12.709710121000057],[9.37316227000008,12.702260017000071],[9.349002838000047,12.682109833000084],[9.35207557700005,12.70316028600007],[9.348356247000083,12.722689629000058],[9.325796127000046,12.752349854000045],[9.379885588000093,12.81986689900009],[9.390260000000069,12.823130000000049],[9.51389000000006,12.80902000000009],[9.650240000000053,12.803610000000049],[9.658006816000068,12.809307969000088]]]}}]}