{"type":"FeatureCollection","features":[{"type":"Feature","properties":{"CNTRY_NAME":"Nigeria","CNTRY_CODE":"NGA","ADM1_NAME":"Kogi","ADM1_CODE":"NGA023","ADM2_NAME":"Adavi","ADM2_CODE":"NGA023001","HRname":"Adavi","HRpcode":"NG023001","HRparent":"NG023","Shape_Leng":1.51382341757,"Shape_Area":0.0588164209667,"ADM2_New":"Adavi","id":"NG-KO-ADAVI","name":"Adavi","parentId":"NG-KO","stateName":"Kogi","regionId":"NG-NC","fillColor":"#7cb87c"},"geometry":{"type":"Polygon","coordinates":[[[6.57058095900004,7.869692326000063],[6.584398270000065,7.869183064000083],[6.602783203000058,7.85907125500006],[6.660695553000039,7.84436368900009],[6.691030979000061,7.815866947000075],[6.71033477800006,7.786450863000084],[6.68827295300008,7.780935287000091],[6.6073794360000875,7.727619171000072],[6.592671394000092,7.7257804870000655],[6.570609570000045,7.701879978000079],[6.559578419000047,7.699122429000056],[6.434560776000069,7.609955311000078],[6.430883884000082,7.593409061000045],[6.413418293000063,7.568589211000074],[6.408822060000091,7.5272231100000795],[6.385840893000079,7.499645710000038],[6.366536617000065,7.496888161000072],[6.320574284000088,7.5024032590000616],[6.299431324000068,7.5143537520000905],[6.294835091000039,7.525384426000073],[6.277369499000088,7.533658028000048],[6.27369260800009,7.541011810000043],[6.2157797810000375,7.573185444000046],[6.199233532000051,7.577781677000075],[6.173494339000058,7.5713472370000545],[6.133570671000086,7.5520768170000565],[6.125701427000081,7.575399876000063],[6.131209373000047,7.581458569000063],[6.1716561320000665,7.597085953000089],[6.204749107000055,7.617309570000089],[6.236922741000058,7.623744011000042],[6.270015717000092,7.614551544000051],[6.310462475000065,7.632017136000059],[6.360101700000087,7.643967628000041],[6.391355991000069,7.682576180000069],[6.398710251000068,7.698203087000081],[6.425368309000078,7.723942280000074],[6.48420000100009,7.762550354000041],[6.539354801000059,7.813108921000037],[6.561417103000053,7.839767456000061],[6.57058095900004,7.869692326000063]]]}},{"type":"Feature","properties":{"CNTRY_NAME":"Nigeria","CNTRY_CODE":"NGA","ADM1_NAME":"Kogi","ADM1_CODE":"NGA023","ADM2_NAME":"Ajaokuta","ADM2_CODE":"NGA023002","HRname":"Ajaokuta","HRpcode":"NG023002","HRparent":"NG023","Shape_Leng":1.55542059455,"Shape_Area":0.111510934969,"ADM2_New":"Ajaokuta","id":"NG-KO-AJAOKUTA","name":"Ajaokuta","parentId":"NG-KO","stateName":"Kogi","regionId":"NG-NC","fillColor":"#8fbc8f"},"geometry":{"type":"Polygon","coordinates":[[[6.71033477800006,7.786450863000084],[6.724123478000081,7.759792805000075],[6.755282879000049,7.730327129000045],[6.74434709500008,7.67062568700004],[6.735154629000078,7.650402069000052],[6.720446587000083,7.637532711000063],[6.699304104000078,7.5897321700000475],[6.713092804000041,7.512515068000084],[6.702980995000075,7.451844692000066],[6.708496571000069,7.369112492000056],[6.692869186000053,7.294653416000074],[6.690157413000065,7.2195730210000875],[6.669155121000074,7.240518093000048],[6.637670040000046,7.294764996000083],[6.569521904000055,7.2752947810000705],[6.544260025000085,7.27491903300006],[6.514884949000077,7.266996861000052],[6.508032799000091,7.269968033000055],[6.499695778000046,7.29218721400008],[6.499551773000064,7.327163219000056],[6.485763073000044,7.341996193000057],[6.490634918000069,7.412317276000067],[6.486958027000071,7.435298443000079],[6.4612188340000785,7.481260777000045],[6.446510792000083,7.490453243000047],[6.436399460000075,7.505161285000042],[6.411579609000057,7.526303768000048],[6.409740925000051,7.546527386000093],[6.413418293000063,7.568589211000074],[6.430883884000082,7.593409061000045],[6.434560776000069,7.609955311000078],[6.4538650510000934,7.62650203700008],[6.559578419000047,7.699122429000056],[6.570609570000045,7.701879978000079],[6.592671394000092,7.7257804870000655],[6.6073794360000875,7.727619171000072],[6.68827295300008,7.780935287000091],[6.71033477800006,7.786450863000084]]]}},{"type":"Feature","properties":{"CNTRY_NAME":"Nigeria","CNTRY_CODE":"NGA","ADM1_NAME":"Kogi","ADM1_CODE":"NGA023","ADM2_NAME":"Ankpa","ADM2_CODE":"NGA023003","HRname":"Ankpa","HRpcode":"NG023003","HRparent":"NG023","Shape_Leng":1.47469208446,"Shape_Area":0.0982891401718,"ADM2_New":"Ankpa","id":"NG-KO-ANKPA","name":"Ankpa","parentId":"NG-KO","stateName":"Kogi","regionId":"NG-NC","fillColor":"#a8c686"},"geometry":{"type":"Polygon","coordinates":[[[7.483005047000063,7.507169247000093],[7.524367332000054,7.528838634000067],[7.5399928090000685,7.553975582000078],[7.552221775000078,7.564166069000066],[7.572602749000055,7.600172520000058],[7.5970602040000585,7.621232986000052],[7.6575241090000645,7.637537956000074],[7.6779050830000415,7.637537956000074],[7.726819515000045,7.648407936000069],[7.752448082000058,7.647782803000041],[7.754532337000057,7.51288414000004],[7.764121056000079,7.433673382000052],[7.776211262000061,7.4194989200000805],[7.79288721100005,7.414913177000074],[7.848751545000084,7.420332909000081],[7.866261005000069,7.404073715000038],[7.865427494000073,7.392817497000067],[7.818734646000053,7.286925316000065],[7.768290043000093,7.30193328900009],[7.7236819270000865,7.289009571000065],[7.709507465000058,7.289009571000065],[7.688245773000062,7.29943227800004],[7.657812119000084,7.303184032000047],[7.62446022000006,7.321527958000047],[7.597361565000085,7.322778225000093],[7.571514130000082,7.310688496000068],[7.544415474000061,7.2906770710000615],[7.532325745000037,7.289009571000065],[7.473959923000052,7.292345047000083],[7.456449986000052,7.2894268040000725],[7.401579380000044,7.300522327000067],[7.408493042000089,7.322579861000065],[7.44108533900004,7.331139565000058],[7.471043587000054,7.370316029000037],[7.483005047000063,7.507169247000093]]]}},{"type":"Feature","properties":{"CNTRY_NAME":"Nigeria","CNTRY_CODE":"NGA","ADM1_NAME":"Kogi","ADM1_CODE":"NGA023","ADM2_NAME":"Bassa","ADM2_CODE":"NGA023004","HRname":"Bassa","HRpcode":"NG023004","HRparent":"NG023","Shape_Leng":2.16740087394,"Shape_Area":0.157812896655,"ADM2_New":"Bassa","id":"NG-KO-BASSA","name":"Bassa","parentId":"NG-KO","stateName":"Kogi","regionId":"NG-NC","fillColor":"#c2b280"},"geometry":{"type":"Polygon","coordinates":[[[7.404485226000077,8.042964935000043],[7.445786953000038,8.04486084000007],[7.396530151000093,7.974826336000092],[7.37785625500004,7.93556261100008],[7.350563049000073,7.900129795000055],[7.346253872000091,7.874752045000093],[7.34912681600008,7.846980095000049],[7.334762096000077,7.832136631000083],[7.287837505000084,7.804843426000048],[7.197339535000083,7.780902386000093],[7.180580616000043,7.76845312100005],[7.148020744000064,7.725358963000076],[7.114982128000065,7.702854156000058],[7.084337234000088,7.696629524000059],[7.001021862000073,7.695192814000052],[6.976601601000084,7.677955151000049],[6.9694194790000665,7.663111687000082],[6.938774586000079,7.632946014000083],[6.876527786000054,7.620017529000052],[6.84109449400006,7.6013436320000665],[6.821463108000046,7.571177483000042],[6.812844276000078,7.515155315000072],[6.815717220000067,7.464878559000056],[6.807577133000052,7.444767952000063],[6.78507232700008,7.443810463000091],[6.754427433000046,7.480201244000057],[6.7090306280000505,7.488724709000053],[6.713092804000041,7.512515068000084],[6.699304104000078,7.5897321700000475],[6.720446587000083,7.637532711000063],[6.735154629000078,7.650402069000052],[6.74434709500008,7.67062568700004],[6.76943779000004,7.800436020000063],[6.799042225000051,7.82322073000006],[6.82570028300006,7.833332539000082],[6.849600792000047,7.849878788000069],[6.963587761000042,7.8792948720000595],[7.072845459000064,7.942744732000051],[7.195903301000044,7.993021488000068],[7.253840923000041,8.015047073000062],[7.404485226000077,8.042964935000043]]]}},{"type":"Feature","properties":{"CNTRY_NAME":"Nigeria","CNTRY_CODE":"NGA","ADM1_NAME":"Kogi","ADM1_CODE":"NGA023","ADM2_NAME":"Dekina","ADM2_CODE":"NGA023005","HRname":"Dekina","HRpcode":"NG023005","HRparent":"NG023","Shape_Leng":2.08957957654,"Shape_Area":0.201692193608,"ADM2_New":"Dekina","id":"NG-KO-DEKINA","name":"Dekina","parentId":"NG-KO","stateName":"Kogi","regionId":"NG-NC","fillColor":"#9bb898"},"geometry":{"type":"Polygon","coordinates":[[[7.34912681600008,7.846980095000049],[7.355204105000041,7.8270821570000635],[7.388493538000091,7.786999226000091],[7.412271500000088,7.736725807000084],[7.428576469000063,7.7170243260000575],[7.442163467000057,7.687811375000081],[7.440125465000051,7.6300649640000415],[7.454392433000066,7.574356556000055],[7.472055912000087,7.550578594000058],[7.483605385000089,7.517968655000061],[7.475001812000073,7.406157970000038],[7.450632572000075,7.399286747000076],[7.415406227000062,7.396982670000057],[7.3943367000000535,7.4002747540000655],[7.360756397000046,7.3973116870000695],[7.330139637000059,7.402579308000043],[7.307423592000077,7.398957729000074],[7.273185253000065,7.41245555900008],[7.253761768000061,7.407517433000066],[7.241580486000089,7.372620583000071],[7.213268280000079,7.351880074000064],[7.164544106000051,7.3515505790000475],[7.148083210000038,7.355830669000056],[7.132698536000078,7.375817299000062],[7.118812561000084,7.4064621930000385],[7.107320786000059,7.417475224000043],[7.100138187000084,7.442852974000061],[7.100138187000084,7.477807045000077],[7.0919985770000835,7.484989166000048],[7.082900524000081,7.487383366000074],[7.053692341000044,7.47541284600004],[7.02975130100009,7.445725918000051],[7.028314590000093,7.432797432000086],[7.014429092000057,7.412686825000037],[6.98282671000004,7.41699647900009],[6.933986664000088,7.410292625000068],[6.915791035000041,7.41939067800007],[6.871260643000085,7.408856392000075],[6.849234581000076,7.421784401000082],[6.822899342000085,7.44859886200004],[6.813199043000054,7.452984810000089],[6.812844276000078,7.515155315000072],[6.821463108000046,7.571177483000042],[6.84109449400006,7.6013436320000665],[6.876527786000054,7.620017529000052],[6.938774586000079,7.632946014000083],[6.9694194790000665,7.663111687000082],[6.976601601000084,7.677955151000049],[7.001021862000073,7.695192814000052],[7.084337234000088,7.696629524000059],[7.114982128000065,7.702854156000058],[7.148020744000064,7.725358963000076],[7.180580616000043,7.76845312100005],[7.197339535000083,7.780902386000093],[7.287837505000084,7.804843426000048],[7.32231283200008,7.823517799000058],[7.34912681600008,7.846980095000049]]]}},{"type":"Feature","properties":{"CNTRY_NAME":"Nigeria","CNTRY_CODE":"NGA","ADM1_NAME":"Kogi","ADM1_CODE":"NGA023","ADM2_NAME":"Ibaji","ADM2_CODE":"NGA023006","HRname":"Ibaji","HRpcode":"NG023006","HRparent":"NG023","Shape_Leng":1.55908742523,"Shape_Area":0.112595586762,"ADM2_New":"Ibaji","id":"NG-KO-IBAJI","name":"Ibaji","parentId":"NG-KO","stateName":"Kogi","regionId":"NG-NC","fillColor":"#6ba3be"},"geometry":{"type":"Polygon","coordinates":[[[6.683835506000094,7.05161380800007],[6.846851349000076,7.013446331000068],[6.863970280000046,7.011471272000051],[6.872529984000039,7.022006035000061],[6.883394241000076,7.015092373000073],[6.901171684000076,7.016080379000073],[6.90643930400006,7.0124588010000934],[6.905780792000087,7.006203651000078],[6.892612457000041,6.994351864000066],[6.894587517000048,6.9877676960000485],[6.942323685000076,6.953858376000085],[6.961418152000078,6.928838253000038],[6.963064194000083,6.859703064000087],[6.960817337000037,6.840898991000074],[6.952182293000078,6.827945709000062],[6.949030876000052,6.788558006000073],[6.939578056000073,6.773591042000078],[6.932072639000069,6.76769352000008],[6.931231976000049,6.78803300900006],[6.92338800400006,6.8019781110000395],[6.896804810000049,6.792390823000062],[6.87828397800007,6.760578156000065],[6.859981060000052,6.7531700130000445],[6.842113495000092,6.730508804000067],[6.80637931800004,6.703054428000087],[6.80027818700006,6.6934671400000525],[6.808993816000054,6.615897179000058],[6.808122635000075,6.580162525000048],[6.76410818100004,6.563602924000065],[6.683923244000084,6.543120861000091],[6.664700985000081,6.532356262000064],[6.660110950000046,6.608610630000044],[6.652776241000083,6.634282112000051],[6.628021717000081,6.674623489000055],[6.617936134000047,6.7048792840000715],[6.631689072000086,6.769058228000063],[6.6107902530000615,6.822104931000069],[6.646236897000051,6.885384560000091],[6.6526556020000385,6.907848358000081],[6.672980309000081,6.935661316000051],[6.679398537000054,6.968822479000039],[6.6772589680000465,7.03407573700008],[6.683835506000094,7.05161380800007]]]}},{"type":"Feature","properties":{"CNTRY_NAME":"Nigeria","CNTRY_CODE":"NGA","ADM1_NAME":"Kogi","ADM1_CODE":"NGA023","ADM2_NAME":"Idah","ADM2_CODE":"NGA023007","HRname":"Idah","HRpcode":"NG023007","HRparent":"NG023","Shape_Leng":0.243180045516,"Shape_Area":0.00293322331827,"ADM2_New":"Idah","id":"NG-KO-IDAH","name":"Idah","parentId":"NG-KO","stateName":"Kogi","regionId":"NG-NC","fillColor":"#89a96d"},"geometry":{"type":"Polygon","coordinates":[[[6.683835506000094,7.05161380800007],[6.715768814000057,7.120723248000047],[6.720103264000045,7.1237335210000765],[6.741502285000081,7.119453907000093],[6.7477574350000395,7.10562658300006],[6.736235142000055,7.088178158000062],[6.7322845460000735,7.072376251000037],[6.732390404000057,7.039344788000051],[6.683835506000094,7.05161380800007]]]}},{"type":"Feature","properties":{"CNTRY_NAME":"Nigeria","CNTRY_CODE":"NGA","ADM1_NAME":"Kogi","ADM1_CODE":"NGA023","ADM2_NAME":"Igalamela-Odolu","ADM2_CODE":"NGA023008","HRname":"Igalamela-Odolu","HRpcode":"NG023008","HRparent":"NG023","Shape_Leng":2.16970476287,"Shape_Area":0.177982775653,"ADM2_New":"Igalamela-Odolu","id":"NG-KO-IGALAMELA-ODOLU","name":"Igalamela-Odolu","parentId":"NG-KO","stateName":"Kogi","regionId":"NG-NC","fillColor":"#b5c99a"},"geometry":{"type":"Polygon","coordinates":[[[6.70343017600004,7.17057561900009],[6.710375786000043,7.17566919300009],[6.722346306000077,7.213974953000047],[6.7362322810000705,7.23456430400006],[6.743893623000076,7.281968117000076],[6.746766567000066,7.288671494000084],[6.752991199000064,7.289628983000057],[6.7649617200000876,7.288192749000075],[6.807577133000052,7.247014046000061],[6.875569820000067,7.224987984000052],[6.918185234000077,7.199610233000044],[6.949308872000074,7.192428112000073],[6.990008831000068,7.194821835000084],[7.03166675600005,7.205834866000089],[7.0412430760000575,7.2173266410000565],[7.044116020000047,7.259942055000067],[7.0479464530000655,7.263772488000086],[7.0647053720000486,7.25275993300005],[7.113545418000058,7.241268158000082],[7.202404022000053,7.238958836000052],[7.2139263150000374,7.23500824000007],[7.251127720000056,7.19122266800008],[7.263967037000043,7.18397998800009],[7.307423592000077,7.18332147600006],[7.29820585300007,7.165215015000058],[7.284708023000064,7.112540245000048],[7.29293823200004,7.10562658300006],[7.327176571000052,7.100359440000091],[7.353843212000072,7.088178158000062],[7.360756397000046,7.080935478000072],[7.368657589000065,7.056902885000056],[7.366837025000052,7.03986597100004],[7.327153206000048,7.024096489000044],[7.3121857640000485,7.005190372000072],[7.241288185000087,6.971317291000048],[7.238136768000061,6.957925320000072],[7.242863655000065,6.927990437000062],[7.234985828000049,6.9106602670000825],[7.187720776000049,6.901206970000089],[7.175904274000061,6.896480560000043],[7.1703901290000545,6.883876324000084],[7.156210423000061,6.883088589000067],[7.146757603000083,6.864182472000039],[7.119973660000085,6.848427296000068],[7.0813736920000565,6.800374508000061],[7.06010437000009,6.794860363000055],[7.055377960000044,6.786194801000079],[7.041985989000068,6.783043861000067],[7.020716667000045,6.789345741000091],[6.990782261000049,6.785407066000062],[6.9860553740000455,6.788558006000073],[6.985267639000085,6.798799038000084],[6.989994526000089,6.823219299000073],[6.986843109000063,6.844488621000039],[6.978178024000044,6.8500027660000455],[6.960817337000037,6.840898991000074],[6.961418152000078,6.928838253000038],[6.942323685000076,6.953858376000085],[6.894587517000048,6.9877676960000485],[6.892612457000041,6.994351864000066],[6.905780792000087,7.006203651000078],[6.90643930400006,7.0124588010000934],[6.901171684000076,7.016080379000073],[6.883394241000076,7.015092373000073],[6.872529984000039,7.022006035000061],[6.863970280000046,7.011471272000051],[6.846851349000076,7.013446331000068],[6.732390404000057,7.039344788000051],[6.7322845460000735,7.072376251000037],[6.747428417000037,7.109906673000069],[6.741502285000081,7.119453907000093],[6.715768814000057,7.122821331000068],[6.715768814000057,7.135699272000068],[6.70343017600004,7.17057561900009]]]}},{"type":"Feature","properties":{"CNTRY_NAME":"Nigeria","CNTRY_CODE":"NGA","ADM1_NAME":"Kogi","ADM1_CODE":"NGA023","ADM2_NAME":"Ijumu","ADM2_CODE":"NGA023009","HRname":"Ijumu","HRpcode":"NG023009","HRparent":"NG023","Shape_Leng":1.72875038942,"Shape_Area":0.106889803006,"ADM2_New":"Ijumu","id":"NG-KO-IJUMU","name":"Ijumu","parentId":"NG-KO","stateName":"Kogi","regionId":"NG-NC","fillColor":"#d4a574"},"geometry":{"type":"Polygon","coordinates":[[[5.8348946570000635,7.923977852000064],[5.860002995000059,7.939153671000042],[5.9079875950000655,7.999338150000085],[5.920186996000041,8.031869888000074],[5.957599163000054,8.09612083400009],[5.977118492000045,8.106693268000072],[5.990944386000081,8.13515949200007],[6.0242896080000605,8.153864861000045],[6.075527668000063,8.041629791000048],[6.079594135000093,8.012351036000041],[6.054381847000059,7.930207253000049],[6.051128864000077,7.8993020060000845],[6.021849632000055,7.840744495000081],[6.041368961000046,7.802519321000091],[6.083660603000055,7.744774818000053],[6.0982999800000925,7.704923153000038],[6.122699261000093,7.678083897000079],[6.121885777000045,7.647178650000058],[6.1048064230000705,7.614646435000054],[6.098731041000065,7.588197231000038],[6.043387890000076,7.577459812000086],[6.028888226000049,7.565337181000075],[6.012996197000064,7.533405781000056],[6.004125595000062,7.529235840000069],[5.996539116000065,7.559537411000065],[5.937628269000072,7.648777008000081],[5.921491146000051,7.7160930630000735],[5.930603981000047,7.744768143000044],[5.921306610000045,7.749332905000074],[5.9083309170000575,7.748338223000076],[5.85002613100005,7.728624344000082],[5.827743053000063,7.7340407370000435],[5.816439152000044,7.7278490070000885],[5.8010244370000805,7.733303547000048],[5.773028374000091,7.747318745000086],[5.791615486000069,7.782068729000059],[5.767953873000067,7.787636280000072],[5.755774975000065,7.795639515000062],[5.737289429000043,7.82107925400004],[5.759966850000069,7.834238052000046],[5.789245605000076,7.8618903160000855],[5.820151329000055,7.896048546000088],[5.8348946570000635,7.923977852000064]]]}},{"type":"Feature","properties":{"CNTRY_NAME":"Nigeria","CNTRY_CODE":"NGA","ADM1_NAME":"Kogi","ADM1_CODE":"NGA023","ADM2_NAME":"Kabba/Bunu","ADM2_CODE":"NGA023010","HRname":"Kabba/Bunu","HRpcode":"NG023010","HRparent":"NG023","Shape_Leng":2.59358419062,"Shape_Area":0.221761678353,"ADM2_New":"Kabba/Bunu","id":"NG-KO-KABBA-BUNU","name":"Kabba/Bunu","parentId":"NG-KO","stateName":"Kogi","regionId":"NG-NC","fillColor":"#5a9e6f"},"geometry":{"type":"Polygon","coordinates":[[[6.082657814000072,8.40176391600005],[6.111312866000048,8.431200981000075],[6.113124847000051,8.441468239000073],[6.16338300700005,8.451066971000046],[6.192798615000072,8.464855194000052],[6.241518974000087,8.459340096000062],[6.26817703200004,8.44922828700004],[6.300350666000043,8.428085327000076],[6.346313000000066,8.386719704000086],[6.360101700000087,8.364657402000091],[6.395952225000087,8.32880687700009],[6.450188160000039,8.24239730800008],[6.4731693270000505,8.217577934000076],[6.496150494000062,8.163342476000082],[6.4915542600000435,8.144957542000043],[6.457541943000081,8.093479156000058],[6.447430134000058,8.063144684000065],[6.445591927000066,8.03556728400008],[6.463976860000059,8.006151199000044],[6.462138176000053,7.975815773000079],[6.468573093000089,7.95559215500009],[6.468573093000089,7.947319031000063],[6.456622601000049,7.939965248000078],[6.4106602670000825,7.968461990000037],[6.387679100000071,8.001554489000057],[6.338959217000081,8.042001724000045],[6.32976675000009,8.061306000000059],[6.286561966000079,8.095317841000053],[6.251630783000053,8.100833893000072],[6.229568481000058,8.095317841000053],[6.220376015000056,8.068659782000054],[6.2304878230000895,8.045678139000074],[6.241518974000087,8.033728600000074],[6.248872757000072,7.996958733000042],[6.270015717000092,7.969380856000043],[6.287481308000054,7.961107731000084],[6.293915749000064,7.943642139000076],[6.308623791000059,7.939965248000078],[6.327008724000052,7.916064739000092],[6.32976675000009,7.903195381000046],[6.324251175000086,7.887567997000076],[6.323331833000054,7.843444347000059],[6.271853924000084,7.791966438000088],[6.26817703200004,7.782773972000086],[6.271853924000084,7.729457378000063],[6.26817703200004,7.706476212000041],[6.258984566000038,7.706476212000041],[6.234164715000077,7.7184267040000805],[6.186364174000062,7.7184267040000805],[6.133047581000085,7.692687511000088],[6.122699261000093,7.678083897000079],[6.0982999800000925,7.704923153000038],[6.083660603000055,7.744774818000053],[6.041368961000046,7.802519321000091],[6.021849632000055,7.840744495000081],[6.051128864000077,7.8993020060000845],[6.054381847000059,7.930207253000049],[6.079594135000093,8.012351036000041],[6.075527668000063,8.041629791000048],[6.0271449090000715,8.15453720100004],[6.071461201000091,8.162811279000039],[6.058448315000078,8.181517601000053],[6.055195332000039,8.21079635600006],[6.073087692000058,8.227875710000092],[6.06658124900008,8.264473915000053],[6.083660603000055,8.301072121000061],[6.089353561000053,8.32465839400004],[6.0870304110000575,8.35402965500009],[6.0779676440000685,8.36938953400005],[6.082657814000072,8.40176391600005]]]}},{"type":"Feature","properties":{"CNTRY_NAME":"Nigeria","CNTRY_CODE":"NGA","ADM1_NAME":"Kogi","ADM1_CODE":"NGA023","ADM2_NAME":"Kogi","ADM2_CODE":"NGA023011","HRname":"Kogi","HRpcode":"NG023011","HRparent":"NG023","Shape_Leng":1.83477657605,"Shape_Area":0.122848577584,"ADM2_New":"Kogi","id":"NG-KO-KOGI","name":"Kogi","parentId":"NG-KO","stateName":"Kogi","regionId":"NG-NC","fillColor":"#84b882"},"geometry":{"type":"Polygon","coordinates":[[[6.827889919000086,8.457550049000076],[6.9841747280000845,8.459377289000088],[6.969562531000065,8.391315460000044],[6.957612514000061,8.374769211000057],[6.934631348000039,8.30122947700005],[6.964966297000046,8.265378952000049],[6.972320557000046,8.22493171700006],[7.000817299000062,8.181727409000075],[7.002655506000053,8.167018890000065],[6.983351231000086,8.115541458000052],[6.987028599000041,8.077852249000046],[6.970941544000084,8.030051231000073],[6.979214668000054,8.000635147000082],[6.9782953260000795,7.985927582000045],[6.963587761000042,7.960188389000052],[6.952556610000045,7.917903423000041],[6.963587761000042,7.8792948720000595],[6.849600792000047,7.849878788000069],[6.82570028300006,7.833332539000082],[6.799042225000051,7.82322073000006],[6.76943779000004,7.800436020000063],[6.790309429000047,7.8857297900000844],[6.792148113000053,7.91514539700006],[6.777440071000058,7.997877598000059],[6.779278278000049,8.044759750000082],[6.761812687000088,8.088883400000043],[6.717689037000071,8.13300705000006],[6.691258430000062,8.183006287000069],[6.712633133000054,8.201951027000064],[6.7144713400000455,8.229528427000048],[6.724583149000068,8.249751091000064],[6.719986916000039,8.27457141900004],[6.730098724000072,8.283763885000042],[6.749403000000086,8.263540268000042],[6.761353016000044,8.27273273500009],[6.761353016000044,8.29295635200009],[6.749403000000086,8.299390793000043],[6.751241207000078,8.30490589100009],[6.766868591000048,8.308583260000091],[6.772384167000041,8.335241318000044],[6.790769100000091,8.33064556100004],[6.807315350000067,8.34259510000004],[6.836731434000058,8.391315460000044],[6.837650776000089,8.396831512000063],[6.824781418000043,8.404185295000048],[6.832135201000085,8.417054176000079],[6.832135201000085,8.425327301000038],[6.824781418000043,8.432682037000063],[6.827889919000086,8.457550049000076]]]}},{"type":"Feature","properties":{"CNTRY_NAME":"Nigeria","CNTRY_CODE":"NGA","ADM1_NAME":"Kogi","ADM1_CODE":"NGA023","ADM2_NAME":"Lokoja","ADM2_CODE":"NGA023012","HRname":"Lokoja","HRpcode":"NG023012","HRparent":"NG023","Shape_Leng":3.52990774968,"Shape_Area":0.260752083843,"ADM2_New":"Lokoja","id":"NG-KO-LOKOJA","name":"Lokoja","parentId":"NG-KO","stateName":"Kogi","regionId":"NG-NC","fillColor":"#c9b896"},"geometry":{"type":"Polygon","coordinates":[[[6.208536148000064,8.732375145000049],[6.267717361000052,8.738791466000066],[6.302649021000093,8.727760315000069],[6.358722687000068,8.684555054000043],[6.379865646000042,8.648704529000042],[6.398250580000081,8.629400253000085],[6.405604362000076,8.611934662000067],[6.452945709000062,8.448308945000065],[6.503504276000058,8.412458420000064],[6.527404785000044,8.375688553000089],[6.5513052940000875,8.369254112000078],[6.579802036000046,8.33064556100004],[6.599105835000046,8.324210167000047],[6.608298302000037,8.31409835800008],[6.641391277000082,8.255267143000083],[6.665291786000068,8.226770401000067],[6.683676720000051,8.212981224000089],[6.690111637000086,8.185403824000048],[6.717689037000071,8.13300705000006],[6.761812687000088,8.088883400000043],[6.779278278000049,8.044759750000082],[6.777440071000058,7.997877598000059],[6.792148113000053,7.91514539700006],[6.790309429000047,7.8857297900000844],[6.755282879000049,7.730327129000045],[6.724123478000081,7.759792805000075],[6.691030979000061,7.815866947000075],[6.660695553000039,7.84436368900009],[6.602783203000058,7.85907125500006],[6.584398270000065,7.869183064000083],[6.57058095900004,7.869692326000063],[6.559578419000047,7.883891106000078],[6.546709061000058,7.887567997000076],[6.480523109000046,7.8609099390000665],[6.445591927000066,7.854475021000042],[6.424448967000046,7.833332539000082],[6.386759758000039,7.811270714000045],[6.34447431600006,7.80759334600009],[6.315334797000048,7.83326578100008],[6.323331833000054,7.843444347000059],[6.324251175000086,7.887567997000076],[6.32976675000009,7.903195381000046],[6.327008724000052,7.916064739000092],[6.308623791000059,7.939965248000078],[6.293915749000064,7.943642139000076],[6.287481308000054,7.961107731000084],[6.270015717000092,7.969380856000043],[6.248872757000072,7.996958733000042],[6.241518974000087,8.033728600000074],[6.2304878230000895,8.045678139000074],[6.220376015000056,8.068659782000054],[6.229568481000058,8.095317841000053],[6.251630783000053,8.100833893000072],[6.286561966000079,8.095317841000053],[6.32976675000009,8.061306000000059],[6.338959217000081,8.042001724000045],[6.387679100000071,8.001554489000057],[6.4106602670000825,7.968461990000037],[6.456622601000049,7.939965248000078],[6.468573093000089,7.947319031000063],[6.468573093000089,7.95559215500009],[6.462138176000053,7.975815773000079],[6.463976860000059,8.006151199000044],[6.445591927000066,8.03556728400008],[6.447430134000058,8.063144684000065],[6.457541943000081,8.093479156000058],[6.4915542600000435,8.144957542000043],[6.496150494000062,8.163342476000082],[6.4731693270000505,8.217577934000076],[6.450188160000039,8.24239730800008],[6.395952225000087,8.32880687700009],[6.360101700000087,8.364657402000091],[6.346313000000066,8.386719704000086],[6.300350666000043,8.428085327000076],[6.26817703200004,8.44922828700004],[6.214860439000063,8.463935852000077],[6.192798615000072,8.464855194000052],[6.16338300700005,8.451066971000046],[6.113124847000051,8.441468239000073],[6.125139236000052,8.555635452000047],[6.147911549000071,8.596301079000057],[6.169870377000052,8.662991524000063],[6.208536148000064,8.732375145000049]]]}},{"type":"Feature","properties":{"CNTRY_NAME":"Nigeria","CNTRY_CODE":"NGA","ADM1_NAME":"Kogi","ADM1_CODE":"NGA023","ADM2_NAME":"Mopa-Muro","ADM2_CODE":"NGA023013","HRname":"Mopa-Muro","HRpcode":"NG023013","HRparent":"NG023","Shape_Leng":1.22682661327,"Shape_Area":0.0738471722856,"ADM2_New":"Mopa-Muro","id":"NG-KO-MOPA-MURO","name":"Mopa-Muro","parentId":"NG-KO","stateName":"Kogi","regionId":"NG-NC","fillColor":"#7eb09a"},"geometry":{"type":"Polygon","coordinates":[[[6.0870304110000575,8.35402965500009],[6.089353561000053,8.32465839400004],[6.083660603000055,8.301072121000061],[6.06658124900008,8.264473915000053],[6.073087692000058,8.227875710000092],[6.055195332000039,8.21079635600006],[6.058448315000078,8.181517601000053],[6.071461201000091,8.162811279000039],[6.0271449090000715,8.15453720100004],[5.990944386000081,8.13515949200007],[5.977118492000045,8.106693268000072],[5.957599163000054,8.09612083400009],[5.948652744000071,8.084734917000048],[5.9079875950000655,7.999338150000085],[5.860002995000059,7.939153671000042],[5.8348946570000635,7.923977852000064],[5.827470779000066,7.940780163000056],[5.805511951000085,7.950540066000087],[5.769726753000043,7.975752354000065],[5.753460407000091,8.025363922000054],[5.757526875000053,8.106693268000072],[5.7973790170000825,8.17907714800009],[5.818524837000041,8.202663422000057],[5.82665777200009,8.223809242000073],[5.836417198000049,8.226248741000063],[5.854310036000072,8.254714012000079],[5.876268864000053,8.270167351000055],[5.912867546000086,8.288059235000048],[5.935639858000059,8.30513858800009],[5.987691402000053,8.323031425000067],[6.027543068000057,8.344990730000063],[6.062514782000051,8.354750633000037],[6.0870304110000575,8.35402965500009]]]}},{"type":"Feature","properties":{"CNTRY_NAME":"Nigeria","CNTRY_CODE":"NGA","ADM1_NAME":"Kogi","ADM1_CODE":"NGA023","ADM2_NAME":"Ofu","ADM2_CODE":"NGA023014","HRname":"Ofu","HRpcode":"NG023014","HRparent":"NG023","Shape_Leng":2.41475594662,"Shape_Area":0.137564009082,"ADM2_New":"Ofu","id":"NG-KO-OFU","name":"Ofu","parentId":"NG-KO","stateName":"Kogi","regionId":"NG-NC","fillColor":"#a4c4a0"},"geometry":{"type":"Polygon","coordinates":[[[6.7090306280000505,7.488724709000053],[6.754427433000046,7.480201244000057],[6.78507232700008,7.443810463000091],[6.807577133000052,7.444767952000063],[6.813199043000054,7.452984810000089],[6.818110943000079,7.451950550000049],[6.849234581000076,7.421784401000082],[6.871260643000085,7.408856392000075],[6.915791035000041,7.41939067800007],[6.933986664000088,7.410292625000068],[6.98282671000004,7.41699647900009],[7.014429092000057,7.412686825000037],[7.028314590000093,7.432797432000086],[7.02975130100009,7.445725918000051],[7.053692341000044,7.47541284600004],[7.082900524000081,7.487383366000074],[7.0919985770000835,7.484989166000048],[7.100138187000084,7.477807045000077],[7.100138187000084,7.442852974000061],[7.107320786000059,7.417475224000043],[7.118812561000084,7.4064621930000385],[7.132698536000078,7.375817299000062],[7.148083210000038,7.355830669000056],[7.164544106000051,7.3515505790000475],[7.213268280000079,7.351880074000064],[7.241580486000089,7.372620583000071],[7.253761768000061,7.407517433000066],[7.273185253000065,7.41245555900008],[7.307423592000077,7.398957729000074],[7.330139637000059,7.402579308000043],[7.360756397000046,7.3973116870000695],[7.3943367000000535,7.4002747540000655],[7.415406227000062,7.396982670000057],[7.47426652900009,7.403488159000062],[7.471043587000054,7.370316029000037],[7.44108533900004,7.331139565000058],[7.408493042000089,7.322579861000065],[7.401579380000044,7.300522327000067],[7.376229763000083,7.292950153000049],[7.368328571000063,7.281098843000052],[7.351538658000038,7.273197651000089],[7.346271038000054,7.246860027000082],[7.330139637000059,7.20735454600009],[7.307423592000077,7.18332147600006],[7.263967037000043,7.18397998800009],[7.251127720000056,7.19122266800008],[7.2139263150000374,7.23500824000007],[7.202404022000053,7.238958836000052],[7.113545418000058,7.241268158000082],[7.0647053720000486,7.25275993300005],[7.0479464530000655,7.263772488000086],[7.044116020000047,7.259942055000067],[7.0412430760000575,7.2173266410000565],[7.03166675600005,7.205834866000089],[6.990008831000068,7.194821835000084],[6.942605495000066,7.193385601000045],[6.918185234000077,7.199610233000044],[6.864078045000042,7.229776382000068],[6.807577133000052,7.247014046000061],[6.7649617200000876,7.288192749000075],[6.752991199000064,7.289628983000057],[6.746766567000066,7.288671494000084],[6.743893623000076,7.281968117000076],[6.7362322810000705,7.23456430400006],[6.722346306000077,7.213974953000047],[6.710375786000043,7.17566919300009],[6.70343017600004,7.17057561900009],[6.697583675000089,7.204161644000067],[6.690157413000065,7.2195730210000875],[6.693788528000084,7.2431759830000715],[6.691030979000061,7.276268482000091],[6.708496571000069,7.369112492000056],[6.702980995000075,7.451844692000066],[6.7090306280000505,7.488724709000053]]]}},{"type":"Feature","properties":{"CNTRY_NAME":"Nigeria","CNTRY_CODE":"NGA","ADM1_NAME":"Kogi","ADM1_CODE":"NGA023","ADM2_NAME":"Ogori/Mangongo","ADM2_CODE":"NGA023015","HRname":"Ogori/Mangongo","HRpcode":"NG023015","HRparent":"NG023","Shape_Leng":0.34535714716,"Shape_Area":0.00649703297744,"ADM2_New":"Ogori/Magongo","id":"NG-KO-OGORI-MANGONGO","name":"Ogori/Mangongo","parentId":"NG-KO","stateName":"Kogi","regionId":"NG-NC","fillColor":"#96b57c"},"geometry":{"type":"Polygon","coordinates":[[[6.158284187000049,7.528297901000087],[6.198079586000063,7.49606084800007],[6.206281662000038,7.470428944000048],[6.225323200000048,7.468395710000038],[6.218708992000074,7.456531048000045],[6.186916828000051,7.438720226000044],[6.182785034000062,7.4294271470000695],[6.170909882000046,7.444097042000067],[6.142848015000084,7.449572086000046],[6.11869812000009,7.446270943000059],[6.110196114000075,7.455084801000055],[6.110102177000044,7.494141102000071],[6.146535873000062,7.515995026000041],[6.158284187000049,7.528297901000087]]]}},{"type":"Feature","properties":{"CNTRY_NAME":"Nigeria","CNTRY_CODE":"NGA","ADM1_NAME":"Kogi","ADM1_CODE":"NGA023","ADM2_NAME":"Okehi","ADM2_CODE":"NGA023016","HRname":"Okehi","HRpcode":"NG023016","HRparent":"NG023","Shape_Leng":1.30934485582,"Shape_Area":0.0541382191422,"ADM2_New":"Okehi","id":"NG-KO-OKEHI","name":"Okehi","parentId":"NG-KO","stateName":"Kogi","regionId":"NG-NC","fillColor":"#7cb87c"},"geometry":{"type":"Polygon","coordinates":[[[6.315334797000048,7.83326578100008],[6.34447431600006,7.80759334600009],[6.386759758000039,7.811270714000045],[6.424448967000046,7.833332539000082],[6.445591927000066,7.854475021000042],[6.480523109000046,7.8609099390000665],[6.546709061000058,7.887567997000076],[6.559578419000047,7.883891106000078],[6.57058095900004,7.869692326000063],[6.561417103000053,7.839767456000061],[6.539354801000059,7.813108921000037],[6.48420000100009,7.762550354000041],[6.425368309000078,7.723942280000074],[6.398710251000068,7.698203087000081],[6.391355991000069,7.682576180000069],[6.360101700000087,7.643967628000041],[6.310462475000065,7.632017136000059],[6.270015717000092,7.614551544000051],[6.236922741000058,7.623744011000042],[6.222214699000062,7.622824669000067],[6.131209373000047,7.581458569000063],[6.125701427000081,7.575399876000063],[6.118761063000079,7.5914168360000644],[6.098731041000065,7.588197231000038],[6.1048064230000705,7.614646435000054],[6.121885777000045,7.647178650000058],[6.122699261000093,7.678083897000079],[6.133047581000085,7.692687511000088],[6.172575474000041,7.714749813000083],[6.20382976500008,7.7202649120000615],[6.234164715000077,7.7184267040000805],[6.258984566000038,7.706476212000041],[6.26817703200004,7.706476212000041],[6.271853924000084,7.729457378000063],[6.26817703200004,7.782773972000086],[6.277369499000088,7.801158905000079],[6.315334797000048,7.83326578100008]]]}},{"type":"Feature","properties":{"CNTRY_NAME":"Nigeria","CNTRY_CODE":"NGA","ADM1_NAME":"Kogi","ADM1_CODE":"NGA023","ADM2_NAME":"Okene","ADM2_CODE":"NGA023017","HRname":"Okene","HRpcode":"NG023017","HRparent":"NG023","Shape_Leng":1.09235124454,"Shape_Area":0.0268323366382,"ADM2_New":"Okene","id":"NG-KO-OKENE","name":"Okene","parentId":"NG-KO","stateName":"Kogi","regionId":"NG-NC","fillColor":"#8fbc8f"},"geometry":{"type":"Polygon","coordinates":[[[6.158284187000049,7.528297901000087],[6.165878773000088,7.548480034000079],[6.133570671000086,7.5520768170000565],[6.173494339000058,7.5713472370000545],[6.199233532000051,7.577781677000075],[6.2157797810000375,7.573185444000046],[6.27369260800009,7.541011810000043],[6.277369499000088,7.533658028000048],[6.294835091000039,7.525384426000073],[6.299431324000068,7.5143537520000905],[6.320574284000088,7.5024032590000616],[6.366536617000065,7.496888161000072],[6.385840893000079,7.499645710000038],[6.408822060000091,7.5272231100000795],[6.418933392000042,7.52262687700005],[6.446510792000083,7.490453243000047],[6.4612188340000785,7.481260777000045],[6.486958027000071,7.435298443000079],[6.490634918000069,7.412317276000067],[6.485763073000044,7.341996193000057],[6.466869831000054,7.365318775000048],[6.450531960000092,7.355543137000041],[6.435657978000052,7.359745026000041],[6.434144020000076,7.376661777000038],[6.422241211000085,7.388999939000087],[6.43210601800007,7.397664070000076],[6.426575184000058,7.414612770000076],[6.422245026000041,7.416828156000065],[6.378143787000056,7.397521019000067],[6.358232975000078,7.412255764000065],[6.298429012000042,7.497266769000078],[6.2841010090000395,7.499133110000059],[6.27659606900005,7.495697021000069],[6.267814159000068,7.48177909900005],[6.237886906000085,7.475611210000068],[6.225323200000048,7.468395710000038],[6.206281662000038,7.470428944000048],[6.198079586000063,7.49606084800007],[6.158284187000049,7.528297901000087]]]}},{"type":"Feature","properties":{"CNTRY_NAME":"Nigeria","CNTRY_CODE":"NGA","ADM1_NAME":"Kogi","ADM1_CODE":"NGA023","ADM2_NAME":"Olamabolo","ADM2_CODE":"NGA023018","HRname":"Olamabolo","HRpcode":"NG023018","HRparent":"NG023","Shape_Leng":1.51645515636,"Shape_Area":0.0926902734841,"ADM2_New":"Olamabolo","id":"NG-KO-OLAMABOLO","name":"Olamabolo","parentId":"NG-KO","stateName":"Kogi","regionId":"NG-NC","fillColor":"#a8c686"},"geometry":{"type":"Polygon","coordinates":[[[7.401579380000044,7.300522327000067],[7.456449986000052,7.2894268040000725],[7.473959923000052,7.292345047000083],[7.532325745000037,7.289009571000065],[7.544415474000061,7.2906770710000615],[7.571514130000082,7.310688496000068],[7.597361565000085,7.322778225000093],[7.62446022000006,7.321527958000047],[7.657812119000084,7.303184032000047],[7.688245773000062,7.29943227800004],[7.709507465000058,7.289009571000065],[7.7236819270000865,7.289009571000065],[7.768290043000093,7.30193328900009],[7.818734646000053,7.286925316000065],[7.78996896700005,7.216886044000091],[7.777878761000068,7.198125839000056],[7.723265171000037,7.167275429000085],[7.695749760000069,7.164357185000085],[7.656978130000084,7.146430492000093],[7.6373839380000845,7.132672787000047],[7.60194778400006,7.090566158000058],[7.599446297000043,7.079309940000087],[7.611119270000074,7.027197361000049],[7.607784271000071,7.017608643000074],[7.60111379600005,7.01635789900007],[7.543581963000065,7.040121078000084],[7.5305137630000445,7.032278061000056],[7.502034664000064,7.068998814000054],[7.491006374000051,7.073725224000043],[7.469736576000059,7.099720955000066],[7.4555573460000915,7.103660107000053],[7.429561138000054,7.090268135000088],[7.397263527000064,7.090268135000088],[7.3878102300000705,7.083178520000047],[7.389385700000048,7.065060139000082],[7.384659290000059,7.051668167000059],[7.366837025000052,7.03986597100004],[7.368657589000065,7.056902885000056],[7.360756397000046,7.080935478000072],[7.353843212000072,7.088178158000062],[7.327176571000052,7.100359440000091],[7.29293823200004,7.10562658300006],[7.284708023000064,7.112540245000048],[7.29820585300007,7.165215015000058],[7.307423592000077,7.18332147600006],[7.330139637000059,7.20735454600009],[7.346271038000054,7.246860027000082],[7.351538658000038,7.273197651000089],[7.368328571000063,7.281098843000052],[7.376229763000083,7.292950153000049],[7.401579380000044,7.300522327000067]]]}},{"type":"Feature","properties":{"CNTRY_NAME":"Nigeria","CNTRY_CODE":"NGA","ADM1_NAME":"Kogi","ADM1_CODE":"NGA023","ADM2_NAME":"Omala","ADM2_CODE":"NGA023019","HRname":"Omala","HRpcode":"NG023019","HRparent":"NG023","Shape_Leng":1.56382258161,"Shape_Area":0.136673710818,"ADM2_New":"Omala","id":"NG-KO-OMALA","name":"Omala","parentId":"NG-KO","stateName":"Kogi","regionId":"NG-NC","fillColor":"#c2b280"},"geometry":{"type":"Polygon","coordinates":[[[7.445786953000038,8.04486084000007],[7.505344868000066,8.04719829600009],[7.542710304000082,8.043121338000049],[7.677225590000091,8.016626358000053],[7.663638115000083,7.90588903400004],[7.692851067000049,7.838631153000051],[7.7446904180000615,7.768656731000078],[7.752635479000048,7.74419879900006],[7.754673958000069,7.647728443000062],[7.726819515000045,7.648407936000069],[7.6779050830000415,7.637537956000074],[7.6575241090000645,7.637537956000074],[7.5970602040000585,7.621232986000052],[7.572602749000055,7.600172520000058],[7.552221775000078,7.564166069000066],[7.5399928090000685,7.553975582000078],[7.524367332000054,7.528838634000067],[7.483005047000063,7.507169247000093],[7.483605385000089,7.517968655000061],[7.472055912000087,7.550578594000058],[7.454392433000066,7.574356556000055],[7.440125465000051,7.6300649640000415],[7.442163467000057,7.687811375000081],[7.428576469000063,7.7170243260000575],[7.412271500000088,7.736725807000084],[7.388493538000091,7.786999226000091],[7.355204105000041,7.8270821570000635],[7.347211361000063,7.85990858100007],[7.350563049000073,7.900129795000055],[7.37785625500004,7.93556261100008],[7.396530151000093,7.974826336000092],[7.445786953000038,8.04486084000007]]]}},{"type":"Feature","properties":{"CNTRY_NAME":"Nigeria","CNTRY_CODE":"NGA","ADM1_NAME":"Kogi","ADM1_CODE":"NGA023","ADM2_NAME":"Yagba East","ADM2_CODE":"NGA023020","HRname":"Yagba East","HRpcode":"NG023020","HRparent":"NG023","Shape_Leng":2.11415834911,"Shape_Area":0.11436517447,"ADM2_New":"Yagba East","id":"NG-KO-YAGBA-EAST","name":"Yagba East","parentId":"NG-KO","stateName":"Kogi","regionId":"NG-NC","fillColor":"#9bb898"},"geometry":{"type":"Polygon","coordinates":[[[5.688176632000079,8.452851295000073],[5.782739639000056,8.427947044000064],[5.849430084000062,8.422254562000091],[5.912054062000038,8.42388057700009],[5.956785679000063,8.408428192000088],[6.0405559540000695,8.392975807000084],[6.0600748060000456,8.393788338000093],[6.082657814000072,8.40176391600005],[6.0779676440000685,8.36938953400005],[6.0870304110000575,8.35402965500009],[6.062514782000051,8.354750633000037],[6.027543068000057,8.344990730000063],[5.987691402000053,8.323031425000067],[5.935639858000059,8.30513858800009],[5.854310036000072,8.254714012000079],[5.836417198000049,8.226248741000063],[5.82665777200009,8.223809242000073],[5.818524837000041,8.202663422000057],[5.7973790170000825,8.17907714800009],[5.757526875000053,8.106693268000072],[5.753460407000091,8.025363922000054],[5.769726753000043,7.975752354000065],[5.805511951000085,7.950540066000087],[5.827470779000066,7.940780163000056],[5.8348946570000635,7.923977852000064],[5.820151329000055,7.896048546000088],[5.789245605000076,7.8618903160000855],[5.759966850000069,7.834238052000046],[5.737289429000043,7.82107925400004],[5.728981495000085,7.82834863700009],[5.6426858900000525,7.8286962510000535],[5.630506992000051,7.834959984000079],[5.614152431000093,7.865581036000037],[5.598841667000045,7.95187664000008],[5.601625443000046,7.963707447000047],[5.609628677000046,7.9661436080000385],[5.627027035000083,7.957096100000058],[5.645469666000054,7.963011742000049],[5.6475572590000525,7.9861583710000446],[5.6680874820000895,8.002331734000052],[5.662519932000066,8.015206337000052],[5.650689125000042,8.023557663000076],[5.639902115000041,8.053831100000082],[5.659736156000065,8.069837570000061],[5.656256676000055,8.074708939000061],[5.643636227000059,8.073967934000052],[5.633091927000066,8.121333122000067],[5.637158394000039,8.167691231000049],[5.644478321000065,8.188023567000073],[5.681890011000064,8.244141579000086],[5.686769962000085,8.270980835000046],[5.701409340000055,8.29293918600007],[5.688176632000079,8.452851295000073]]]}},{"type":"Feature","properties":{"CNTRY_NAME":"Nigeria","CNTRY_CODE":"NGA","ADM1_NAME":"Kogi","ADM1_CODE":"NGA023","ADM2_NAME":"Yagba West","ADM2_CODE":"NGA023021","HRname":"Yagba West","HRpcode":"NG023021","HRparent":"NG023","Shape_Leng":1.60193051148,"Shape_Area":0.104544026933,"ADM2_New":"Yagba West","id":"NG-KO-YAGBA-WEST","name":"Yagba West","parentId":"NG-KO","stateName":"Kogi","regionId":"NG-NC","fillColor":"#6ba3be"},"geometry":{"type":"Polygon","coordinates":[[[5.446378708000054,8.479719162000038],[5.476577282000051,8.499857903000077],[5.503032207000047,8.534453392000046],[5.524109840000051,8.536930084000062],[5.554202080000039,8.512530327000093],[5.574534416000063,8.506024361000073],[5.6428518300000405,8.462919235000072],[5.688176632000079,8.452851295000073],[5.690022945000067,8.441773415000057],[5.688396454000042,8.415747643000088],[5.695716381000068,8.385655403000044],[5.701409340000055,8.29293918600007],[5.686769962000085,8.270980835000046],[5.681890011000064,8.244141579000086],[5.644478321000065,8.188023567000073],[5.637158394000039,8.167691231000049],[5.633091927000066,8.121333122000067],[5.643636227000059,8.073967934000052],[5.576571941000054,8.071229935000076],[5.5087184910000815,8.017642975000058],[5.5038471220000815,8.023557663000076],[5.514633656000058,8.104982376000066],[5.51393795000007,8.111246109000092],[5.497963905000063,8.110664368000073],[5.497963905000063,8.114674568000055],[5.53274250000004,8.146844864000059],[5.53969812400004,8.190752983000039],[5.537089825000066,8.205533981000087],[5.524482250000062,8.215967178000085],[5.5123100280000585,8.21640205400007],[5.494920731000093,8.214663506000079],[5.466228008000087,8.20249080700006],[5.42231988900005,8.228139877000046],[5.418407440000067,8.283785820000048],[5.397105694000061,8.292045593000068],[5.372325897000053,8.27422142000006],[5.356675148000079,8.274656296000046],[5.353197575000081,8.309869766000077],[5.335808277000069,8.328563690000067],[5.324504852000075,8.33378028900006],[5.321502686000088,8.341078758000037],[5.341900826000085,8.375241280000068],[5.380872726000064,8.420846939000057],[5.446378708000054,8.479719162000038]]]}}]}