{"type":"FeatureCollection","features":[{"type":"Feature","properties":{"CNTRY_NAME":"Nigeria","CNTRY_CODE":"NGA","ADM1_NAME":"Kwara","ADM1_CODE":"NGA024","ADM2_NAME":"Asa","ADM2_CODE":"NGA024001","HRname":"Asa","HRpcode":"NG024001","HRparent":"NG024","Shape_Leng":1.65299138721,"Shape_Area":0.105125420435,"ADM2_New":"Asa","id":"NG-KW-ASA","name":"Asa","parentId":"NG-KW","stateName":"Kwara","regionId":"NG-NC","fillColor":"#7cb87c"},"geometry":{"type":"Polygon","coordinates":[[[4.209143639000047,8.680658340000093],[4.213420868000071,8.682601929000043],[4.20611333800008,8.703819275000058],[4.329244614000061,8.693248749000077],[4.342456341000059,8.690199852000092],[4.3947944640000856,8.656154633000085],[4.472539425000093,8.576376915000083],[4.478637218000074,8.564689636000082],[4.476096153000071,8.549953461000086],[4.483718395000039,8.507269859000075],[4.505060196000045,8.44375324200007],[4.518779755000082,8.424952507000057],[4.537072659000046,8.415297508000037],[4.590519905000065,8.404359818000046],[4.614309788000071,8.393447876000039],[4.628537178000045,8.371597290000068],[4.62934017200007,8.380662918000041],[4.643781662000038,8.376679420000073],[4.664106846000038,8.356353760000047],[4.641851902000042,8.33631420100005],[4.622111797000059,8.281384468000056],[4.601084232000062,8.263360977000048],[4.584776878000071,8.240187645000049],[4.584776878000071,8.212722778000057],[4.597651005000046,8.186116219000041],[4.594646931000057,8.17109680200008],[4.584347725000043,8.159081459000049],[4.535855293000054,8.135049820000063],[4.494964123000045,8.122775078000075],[4.4940781590000825,8.166700363000075],[4.477091312000084,8.218339920000062],[4.4179782870000395,8.27337646500007],[4.391735077000078,8.304002762000039],[4.209143639000047,8.680658340000093]]]}},{"type":"Feature","properties":{"CNTRY_NAME":"Nigeria","CNTRY_CODE":"NGA","ADM1_NAME":"Kwara","ADM1_CODE":"NGA024","ADM2_NAME":"Edu","ADM2_CODE":"NGA024003","HRname":"Edu","HRpcode":"NG024003","HRparent":"NG024","Shape_Leng":2.46537486625,"Shape_Area":0.208362626063,"ADM2_New":"Edu","id":"NG-KW-EDU","name":"Edu","parentId":"NG-KW","stateName":"Kwara","regionId":"NG-NC","fillColor":"#8fbc8f"},"geometry":{"type":"Polygon","coordinates":[[[4.890408039000079,9.056834221000088],[4.900326729000085,9.086622238000075],[4.8996486660000755,9.106293678000043],[4.897613525000054,9.117147446000047],[4.886081696000076,9.124608994000084],[4.889473438000039,9.136140823000062],[4.876585007000074,9.161239624000075],[4.923390388000087,9.176162720000093],[4.971552849000091,9.20058345800004],[4.996651173000089,9.207366943000068],[5.016323090000071,9.205331802000046],[5.048204899000041,9.18769455000006],[5.065163612000049,9.162596703000077],[5.159452915000088,9.106972694000092],[5.20897197700009,9.035068512000066],[5.23780107500005,9.018788338000093],[5.272396564000076,9.01471805600005],[5.323272228000064,8.992332458000078],[5.348370552000063,8.998437881000086],[5.370077610000067,8.996402740000065],[5.391106129000093,8.982835770000065],[5.425023079000084,8.978766441000062],[5.457583427000088,8.968590736000067],[5.473863602000051,8.947562218000087],[5.525417805000075,8.94010067000005],[5.516599178000092,8.920428276000052],[5.4799690250000594,8.895330429000069],[5.448086739000075,8.861413002000063],[5.447408676000066,8.842419624000058],[5.462331772000084,8.796970367000085],[5.460297108000077,8.764410019000081],[5.45012188000004,8.720317841000053],[5.457583427000088,8.675547600000073],[5.486073971000053,8.609748840000066],[5.515920639000058,8.558195114000057],[5.514564037000071,8.535131454000066],[5.503032207000047,8.534453392000046],[5.49624919900009,8.529026031000058],[5.476577282000051,8.499857903000077],[5.446378708000054,8.479719162000038],[5.435599327000091,8.49215698200004],[5.420673847000046,8.533617020000065],[5.419015408000064,8.56927204100009],[5.423990726000056,8.613218307000068],[5.420673847000046,8.658823967000046],[5.408650398000077,8.700283051000042],[5.402846336000039,8.704429626000092],[5.380458355000087,8.716037750000055],[5.338998795000066,8.709404945000074],[5.326560974000074,8.705258369000092],[5.2743220330000895,8.656336784000075],[5.237008572000093,8.660482407000075],[5.193061829000044,8.689503670000079],[5.162381649000054,8.69447898900006],[5.098534107000091,8.729305267000086],[5.090242386000057,8.737596512000039],[5.051270485000089,8.81719875300007],[5.029711723000048,8.826319695000052],[4.997373104000076,8.828807831000063],[4.984935284000073,8.842904091000037],[4.925233841000079,8.866950035000059],[4.905333519000067,8.882704735000061],[4.894553661000089,8.907580376000055],[4.897041321000074,8.975573540000084],[4.907820702000038,8.99381637600004],[4.907820702000038,9.019520760000091],[4.890408039000079,9.056834221000088]]]}},{"type":"Feature","properties":{"CNTRY_NAME":"Nigeria","CNTRY_CODE":"NGA","ADM1_NAME":"Kwara","ADM1_CODE":"NGA024","ADM2_NAME":"Ekiti","ADM2_CODE":"NGA024004","HRname":"Ekiti","HRpcode":"NG024004","HRparent":"NG024","Shape_Leng":0.978412651049,"Shape_Area":0.0392592594505,"ADM2_New":"Ekiti","id":"NG-KW-EKITI","name":"Ekiti","parentId":"NG-KW","stateName":"Kwara","regionId":"NG-NC","fillColor":"#a8c686"},"geometry":{"type":"Polygon","coordinates":[[[5.45753336000007,8.20640373200007],[5.466228008000087,8.20249080700006],[5.494920731000093,8.214663506000079],[5.5123100280000585,8.21640205400007],[5.530568600000038,8.211185455000077],[5.53969812400004,8.198577881000062],[5.53274250000004,8.146844864000059],[5.504484653000077,8.123804092000057],[5.497963905000063,8.110664368000073],[5.398257732000047,8.103638649000061],[5.371161938000057,8.09648799900009],[5.364011288000086,8.090466499000058],[5.358742714000073,8.073907852000048],[5.3606243130000735,8.038532257000043],[5.33239936800004,8.009554863000062],[5.282862186000045,8.008471489000044],[5.230788708000091,8.021973610000089],[5.195789337000065,8.018210411000041],[5.181865215000073,8.03627395600006],[5.16261148500007,8.049506187000077],[5.170174599000063,8.081199646000073],[5.190607071000045,8.113369942000077],[5.206257343000061,8.125977516000091],[5.296247482000069,8.161190987000055],[5.434492588000069,8.185101509000049],[5.454055786000083,8.197709084000053],[5.45753336000007,8.20640373200007]]]}},{"type":"Feature","properties":{"CNTRY_NAME":"Nigeria","CNTRY_CODE":"NGA","ADM1_NAME":"Kwara","ADM1_CODE":"NGA024","ADM2_NAME":"Ifelodun","ADM2_CODE":"NGA024005","HRname":"Ifelodun","HRpcode":"NG024005","HRparent":"NG024","Shape_Leng":3.46099237491,"Shape_Area":0.281281929412,"ADM2_New":"Ifelodun","id":"NG-KW-IFELODUN","name":"Ifelodun","parentId":"NG-KW","stateName":"Kwara","regionId":"NG-NC","fillColor":"#c2b280"},"geometry":{"type":"Polygon","coordinates":[[[4.880776405000063,8.746441841000092],[4.862629890000051,8.783202171000084],[4.835267067000075,8.81388187400006],[4.815366268000048,8.846220970000047],[4.802099228000088,8.951527596000062],[4.812878609000052,8.974744797000085],[4.830291748000093,8.99049949600004],[4.851021290000062,8.99796199800005],[4.851850510000077,9.013716698000053],[4.877555370000039,9.021179199000073],[4.877555370000039,9.047713280000039],[4.8846035000000825,9.05766391800006],[4.890408039000079,9.056834221000088],[4.907820702000038,9.019520760000091],[4.907820702000038,8.99381637600004],[4.897041321000074,8.975573540000084],[4.894553661000089,8.907580376000055],[4.905333519000067,8.882704735000061],[4.925233841000079,8.866950035000059],[4.984935284000073,8.842904091000037],[4.997373104000076,8.828807831000063],[5.029711723000048,8.826319695000052],[5.051270485000089,8.81719875300007],[5.090242386000057,8.737596512000039],[5.098534107000091,8.729305267000086],[5.162381649000054,8.69447898900006],[5.193061829000044,8.689503670000079],[5.237008572000093,8.660482407000075],[5.257738113000073,8.655507088000093],[5.2743220330000895,8.656336784000075],[5.326560974000074,8.705258369000092],[5.338998795000066,8.709404945000074],[5.380458355000087,8.716037750000055],[5.408650398000077,8.700283051000042],[5.4231615070000885,8.640582085000062],[5.420673847000046,8.533617020000065],[5.435599327000091,8.49215698200004],[5.446378708000054,8.479719162000038],[5.396627426000066,8.438260078000042],[5.347705364000092,8.382704735000061],[5.322829723000041,8.344395638000037],[5.324504852000075,8.33378028900006],[5.306246281000085,8.300740242000074],[5.281031609000081,8.273787498000047],[5.2558169360000875,8.265526772000044],[5.245818138000061,8.257266998000091],[5.209300518000077,8.248572350000074],[5.186694622000061,8.24726867700008],[5.175826073000053,8.252050400000087],[5.177999973000055,8.292480469000054],[5.152350426000055,8.345952988000079],[5.134526730000061,8.364212036000083],[5.08714056000008,8.364212036000083],[5.035407066000062,8.349864960000048],[4.997585297000057,8.346387863000075],[4.9415049550000845,8.356386185000076],[4.907160759000078,8.369863510000073],[4.856731892000084,8.367689133000056],[4.820214272000044,8.35899448400005],[4.806302547000087,8.347256660000085],[4.8032598500000745,8.316825867000091],[4.808911324000064,8.277699471000062],[4.798042774000066,8.248137474000089],[4.7893481250000605,8.233791351000093],[4.7671766280000725,8.215967178000085],[4.747418880000055,8.209718704000068],[4.678328514000043,8.335455894000063],[4.649371147000068,8.37312221500008],[4.62934017200007,8.380662918000041],[4.620661259000087,8.399545670000066],[4.637938023000061,8.405135155000039],[4.687735558000043,8.39649677300008],[4.707552910000061,8.388366699000073],[4.7324514390000445,8.386841774000061],[4.753284931000053,8.395480156000076],[4.753284931000053,8.435114861000045],[4.738295078000078,8.462553978000074],[4.722034454000038,8.478815079000071],[4.692054749000079,8.488469124000062],[4.676814556000068,8.506817818000059],[4.692646503000049,8.530300140000065],[4.723326683000039,8.549371719000078],[4.769761086000074,8.56595516200008],[4.855167389000087,8.580051422000054],[4.877555370000039,8.602438927000037],[4.98120403300004,8.656336784000075],[4.983691692000093,8.676237106000087],[4.972912312000062,8.68784523000005],[4.889163971000073,8.727646828000047],[4.880776405000063,8.746441841000092]]]}},{"type":"Feature","properties":{"CNTRY_NAME":"Nigeria","CNTRY_CODE":"NGA","ADM1_NAME":"Kwara","ADM1_CODE":"NGA024","ADM2_NAME":"Ilorin East","ADM2_CODE":"NGA024006","HRname":"Ilorin East","HRpcode":"NG024006","HRparent":"NG024","Shape_Leng":1.30477159035,"Shape_Area":0.0397624669136,"ADM2_New":"Ilorin East","id":"NG-KW-ILORIN-EAST","name":"Ilorin East","parentId":"NG-KW","stateName":"Kwara","regionId":"NG-NC","fillColor":"#9bb898"},"geometry":{"type":"Polygon","coordinates":[[[4.55020761500009,8.55985641500007],[4.618815422000068,8.55344677000005],[4.650019169000075,8.555481911000072],[4.6635861400000636,8.561586380000051],[4.741595268000083,8.630777359000092],[4.825031281000065,8.693184853000048],[4.845381260000067,8.72438812300004],[4.880776405000063,8.746441841000092],[4.889163971000073,8.727646828000047],[4.972912312000062,8.68784523000005],[4.983691692000093,8.676237106000087],[4.98120403300004,8.656336784000075],[4.877555370000039,8.602438927000037],[4.855167389000087,8.580051422000054],[4.769761086000074,8.56595516200008],[4.723326683000039,8.549371719000078],[4.692646503000049,8.530300140000065],[4.676814556000068,8.506817818000059],[4.590426922000063,8.505745888000092],[4.582296848000055,8.499648094000065],[4.587378502000092,8.48897743200007],[4.629045486000052,8.478306770000074],[4.6336188320000815,8.470176697000056],[4.629553795000049,8.453915596000058],[4.634127140000089,8.444769859000075],[4.620407104000037,8.43816375700004],[4.576707363000082,8.436638832000085],[4.5457110400000715,8.469160080000051],[4.536056519000056,8.494058609000092],[4.531483173000083,8.530644417000076],[4.533515930000078,8.55351066600008],[4.537072659000046,8.558591843000045],[4.55020761500009,8.55985641500007]]]}},{"type":"Feature","properties":{"CNTRY_NAME":"Nigeria","CNTRY_CODE":"NGA","ADM1_NAME":"Kwara","ADM1_CODE":"NGA024","ADM2_NAME":"Ilorin South","ADM2_CODE":"NGA024007","HRname":"Ilorin South","HRpcode":"NG024007","HRparent":"NG024","Shape_Leng":0.65141418122,"Shape_Area":0.0142705898692,"ADM2_New":"Ilorin South","id":"NG-KW-ILORIN-SOUTH","name":"Ilorin South","parentId":"NG-KW","stateName":"Kwara","regionId":"NG-NC","fillColor":"#6ba3be"},"geometry":{"type":"Polygon","coordinates":[[[4.582304478000083,8.437612534000039],[4.607195854000054,8.435623169000053],[4.634127140000089,8.442228317000058],[4.629553795000049,8.453915596000058],[4.6336188320000815,8.470176697000056],[4.629045486000052,8.478306770000074],[4.587378502000092,8.48897743200007],[4.5828051570000525,8.497107506000077],[4.590426922000063,8.505745888000092],[4.676814556000068,8.506817818000059],[4.692054749000079,8.488469124000062],[4.722034454000038,8.478815079000071],[4.738295078000078,8.462553978000074],[4.753284931000053,8.435114861000045],[4.753284931000053,8.395480156000076],[4.7324514390000445,8.386841774000061],[4.707552910000061,8.388366699000073],[4.687735558000043,8.39649677300008],[4.6292996410000455,8.405135155000039],[4.620661259000087,8.399545670000066],[4.631586075000087,8.374138832000085],[4.628537178000045,8.371597290000068],[4.614309788000071,8.393447876000039],[4.590519905000065,8.404359818000046],[4.582304478000083,8.437612534000039]]]}},{"type":"Feature","properties":{"CNTRY_NAME":"Nigeria","CNTRY_CODE":"NGA","ADM1_NAME":"Kwara","ADM1_CODE":"NGA024","ADM2_NAME":"Ilorin West","ADM2_CODE":"NGA024008","HRname":"Ilorin West","HRpcode":"NG024008","HRparent":"NG024","Shape_Leng":0.490593887346,"Shape_Area":0.0085525105543,"ADM2_New":"Ilorin West","id":"NG-KW-ILORIN-WEST","name":"Ilorin West","parentId":"NG-KW","stateName":"Kwara","regionId":"NG-NC","fillColor":"#89a96d"},"geometry":{"type":"Polygon","coordinates":[[[4.47910118100009,8.561439514000085],[4.492864609000094,8.560625076000065],[4.498454571000082,8.566721916000063],[4.522844791000068,8.57129573800006],[4.55020761500009,8.55985641500007],[4.537072659000046,8.558591843000045],[4.533515930000078,8.55351066600008],[4.531483173000083,8.530644417000076],[4.536056519000056,8.494058609000092],[4.557398319000072,8.452899933000083],[4.576707363000082,8.436638832000085],[4.582304478000083,8.437612534000039],[4.590519905000065,8.404359818000046],[4.537072659000046,8.415297508000037],[4.518779755000082,8.424952507000057],[4.505060196000045,8.44375324200007],[4.483718395000039,8.507269859000075],[4.476096153000071,8.549953461000086],[4.47910118100009,8.561439514000085]]]}},{"type":"Feature","properties":{"CNTRY_NAME":"Nigeria","CNTRY_CODE":"NGA","ADM1_NAME":"Kwara","ADM1_CODE":"NGA024","ADM2_NAME":"Irepodun","ADM2_CODE":"NGA024009","HRname":"Irepodun","HRpcode":"NG024009","HRparent":"NG024","Shape_Leng":1.44982966907,"Shape_Area":0.0602512147724,"ADM2_New":"Irepodun","id":"NG-KW-IREPODUN","name":"Irepodun","parentId":"NG-KW","stateName":"Kwara","regionId":"NG-NC","fillColor":"#b5c99a"},"geometry":{"type":"Polygon","coordinates":[[[4.747418880000055,8.209718704000068],[4.7671766280000725,8.215967178000085],[4.7893481250000605,8.233791351000093],[4.798042774000066,8.248137474000089],[4.808911324000064,8.277699471000062],[4.8032598500000745,8.316825867000091],[4.806302547000087,8.347256660000085],[4.820214272000044,8.35899448400005],[4.8850302700000725,8.369849205000037],[4.880642414000079,8.324215889000072],[4.882815838000056,8.295523643000081],[4.899770260000082,8.260745049000093],[4.919768333000093,8.231183052000063],[4.933679581000092,8.22118473100005],[4.964110851000044,8.184231758000067],[5.011931896000078,8.150322914000071],[5.044102192000082,8.144236565000085],[5.07322931300007,8.145106316000067],[5.112789631000055,8.163364410000042],[5.12800550500009,8.18684005700004],[5.146698952000065,8.19988250700004],[5.181912422000039,8.192491531000087],[5.175826073000053,8.15988731400006],[5.168001175000086,8.14771461500004],[5.069751263000057,8.056855202000065],[5.054930210000066,8.049190521000071],[5.049627304000069,8.064624786000081],[5.039715767000075,8.071867943000086],[5.009981632000063,8.05013942700009],[5.001976013000046,8.034128189000057],[4.989295483000092,8.034039497000037],[4.9695730210000875,8.017354965000038],[4.9669046400000525,8.046708107000086],[4.9497499470000434,8.055476189000046],[4.926877499000057,8.079873085000088],[4.913153648000048,8.085591316000091],[4.854066372000091,8.095502853000085],[4.85749721500008,8.072630882000055],[4.843392372000039,8.061956406000093],[4.818613529000061,8.053569794000055],[4.799294949000057,8.065057755000055],[4.7826080320000415,8.088703156000065],[4.747418880000055,8.209718704000068]]]}},{"type":"Feature","properties":{"CNTRY_NAME":"Nigeria","CNTRY_CODE":"NGA","ADM1_NAME":"Kwara","ADM1_CODE":"NGA024","ADM2_NAME":"Isin","ADM2_CODE":"NGA024010","HRname":"Isin","HRpcode":"NG024010","HRparent":"NG024","Shape_Leng":1.01047135697,"Shape_Area":0.0518034022209,"ADM2_New":"Isin","id":"NG-KW-ISIN","name":"Isin","parentId":"NG-KW","stateName":"Kwara","regionId":"NG-NC","fillColor":"#d4a574"},"geometry":{"type":"Polygon","coordinates":[[[4.8850302700000725,8.369849205000037],[4.907160759000078,8.369863510000073],[4.9415049550000845,8.356386185000076],[4.997585297000057,8.346387863000075],[5.035407066000062,8.349864960000048],[5.08714056000008,8.364212036000083],[5.134526730000061,8.364212036000083],[5.152350426000055,8.345952988000079],[5.177999973000055,8.292480469000054],[5.175826073000053,8.252050400000087],[5.186694622000061,8.24726867700008],[5.2398958210000615,8.255067825000083],[5.197997570000041,8.214228630000093],[5.191476822000084,8.190752983000039],[5.146698952000065,8.19988250700004],[5.12800550500009,8.18684005700004],[5.112789631000055,8.163364410000042],[5.07322931300007,8.145106316000067],[5.044102192000082,8.144236565000085],[5.011931896000078,8.150322914000071],[4.964110851000044,8.184231758000067],[4.933679581000092,8.22118473100005],[4.919768333000093,8.231183052000063],[4.899770260000082,8.260745049000093],[4.882815838000056,8.295523643000081],[4.880642414000079,8.324215889000072],[4.8850302700000725,8.369849205000037]]]}},{"type":"Feature","properties":{"CNTRY_NAME":"Nigeria","CNTRY_CODE":"NGA","ADM1_NAME":"Kwara","ADM1_CODE":"NGA024","ADM2_NAME":"Kaiama","ADM2_CODE":"NGA024011","HRname":"Kaiama","HRpcode":"NG024011","HRparent":"NG024","Shape_Leng":3.65177909741,"Shape_Area":0.570965033761,"ADM2_New":"Kaiama","id":"NG-KW-KAIAMA","name":"Kaiama","parentId":"NG-KW","stateName":"Kwara","regionId":"NG-NC","fillColor":"#5a9e6f"},"geometry":{"type":"Polygon","coordinates":[[[3.823319197000046,10.054306030000077],[3.83303499200008,10.047019005000038],[3.8510396480000395,10.055203438000092],[3.864133835000075,10.050292969000054],[3.903416395000079,10.019194603000074],[3.8903222080000432,10.015920639000058],[3.887048721000042,9.988095284000053],[3.909963608000055,9.989732742000058],[3.9214208130000543,9.999552727000037],[3.934515238000074,9.999552727000037],[3.949246168000059,9.99136924700008],[3.95251965500006,9.978275299000074],[3.9410622120000767,9.97663784000008],[3.934515238000074,9.966817856000091],[3.965613842000039,9.956996918000073],[3.9705240730000924,9.948813438000059],[3.959066868000093,9.93408203100006],[3.934515238000074,9.927535057000057],[3.93615198100008,9.916077614000073],[3.9459724430000733,9.907893181000077],[3.9623403550000376,9.907893181000077],[3.967250586000091,9.902983665000079],[3.9800174240000388,9.906583786000056],[3.9852552410000612,9.89348983800005],[4.002277851000088,9.906583786000056],[4.011443615000076,9.898727417000089],[4.021918774000085,9.856825829000059],[4.038941383000065,9.864683151000065],[4.0808429720000845,9.851588249000088],[4.095246315000054,9.86730194100005],[4.095246315000054,9.87777710000006],[4.114887714000076,9.881705284000077],[4.124053478000064,9.875158310000074],[4.118815899000083,9.855516434000037],[4.127982140000086,9.851588249000088],[4.141076088000091,9.860754013000076],[4.152861118000089,9.86206340800004],[4.1711926460000655,9.82016277300005],[4.282493591000048,9.694458008000083],[4.350583553000092,9.58839511900004],[4.387247086000059,9.562206268000068],[4.443552017000059,9.509829521000086],[4.5011668210000835,9.440430641000091],[4.6097269060000485,9.361758232000057],[4.6170501710000735,9.330439568000088],[4.639310360000081,9.308178902000066],[4.737516880000044,9.268896103000088],[4.75453949000007,9.24794578600006],[4.757158279000066,9.224376678000056],[4.751920700000085,9.17985630000004],[4.764554977000046,9.149931908000042],[4.7172179220000885,9.101505280000083],[4.702736855000069,9.093460083000082],[4.6544661520000545,9.080587387000037],[4.60351419400007,9.084342003000074],[4.52413606600004,9.074151993000044],[4.398096561000045,9.023736000000042],[4.360016346000066,8.99852848100005],[4.329013348000046,8.989559174000078],[4.316407204000086,8.997709274000044],[4.29027652700006,8.991560936000042],[4.253385544000082,8.96696662900007],[4.210460186000091,8.970032692000075],[4.0120601650000935,9.03459930400004],[3.99054050400008,9.04843330400007],[3.9720952510000416,9.077638626000066],[3.9444272520000823,9.148345947000053],[3.921370745000047,9.172939301000042],[3.8629605770000808,9.188310623000064],[3.826070070000071,9.18216228500006],[3.810251236000056,9.173461914000086],[3.8199408050000443,10.056839943000057],[3.823319197000046,10.054306030000077]]]}},{"type":"Feature","properties":{"CNTRY_NAME":"Nigeria","CNTRY_CODE":"NGA","ADM1_NAME":"Kwara","ADM1_CODE":"NGA024","ADM2_NAME":"Moro","ADM2_CODE":"NGA024012","HRname":"Moro","HRpcode":"NG024012","HRparent":"NG024","Shape_Leng":2.27337157264,"Shape_Area":0.267867375637,"ADM2_New":"Moro","id":"NG-KW-MORO","name":"Moro","parentId":"NG-KW","stateName":"Kwara","regionId":"NG-NC","fillColor":"#84b882"},"geometry":{"type":"Polygon","coordinates":[[[4.764554977000046,9.149931908000042],[4.768706322000071,9.153530121000074],[4.785332680000067,9.135293961000059],[4.810540676000073,9.136366844000065],[4.815904140000043,9.132612228000085],[4.848084450000044,9.141194344000041],[4.8760714530000655,9.15764617900004],[4.889473438000039,9.136140823000062],[4.886081696000076,9.124608994000084],[4.897613525000054,9.117147446000047],[4.900326729000085,9.086622238000075],[4.89218664200007,9.069664001000092],[4.892865181000047,9.059488297000087],[4.8846035000000825,9.05766391800006],[4.877555370000039,9.047713280000039],[4.877555370000039,9.021179199000073],[4.851850510000077,9.013716698000053],[4.851021290000062,8.99796199800005],[4.830291748000093,8.99049949600004],[4.812878609000052,8.974744797000085],[4.802099228000088,8.951527596000062],[4.815366268000048,8.846220970000047],[4.835267067000075,8.81388187400006],[4.862629890000051,8.783202171000084],[4.880776405000063,8.746441841000092],[4.845381260000067,8.72438812300004],[4.825031281000065,8.693184853000048],[4.741595268000083,8.630777359000092],[4.6635861400000636,8.561586380000051],[4.650019169000075,8.555481911000072],[4.618815422000068,8.55344677000005],[4.55232334100009,8.559770584000091],[4.522844791000068,8.57129573800006],[4.50861692400008,8.570279121000056],[4.4852428440000836,8.559100151000052],[4.3947944640000856,8.656154633000085],[4.342456341000059,8.690199852000092],[4.20611333800008,8.703819275000058],[4.190364361000093,8.753309250000086],[4.194975853000074,8.81633091000009],[4.221106529000053,8.860906601000067],[4.257997036000063,8.900871277000078],[4.321018219000052,8.942373276000069],[4.3348522190000836,8.95774459800009],[4.3348522190000836,8.980800629000044],[4.329013348000046,8.989559174000078],[4.360016346000066,8.99852848100005],[4.398096561000045,9.023736000000042],[4.502146244000073,9.068251610000061],[4.60351419400007,9.084342003000074],[4.6544661520000545,9.080587387000037],[4.702736855000069,9.093460083000082],[4.7172179220000885,9.101505280000083],[4.764554977000046,9.149931908000042]]]}},{"type":"Feature","properties":{"CNTRY_NAME":"Nigeria","CNTRY_CODE":"NGA","ADM1_NAME":"Kwara","ADM1_CODE":"NGA024","ADM2_NAME":"Offa","ADM2_CODE":"NGA024013","HRname":"Offa","HRpcode":"NG024013","HRparent":"NG024","Shape_Leng":0.378653519266,"Shape_Area":0.00779735907096,"ADM2_New":"Offa","id":"NG-KW-OFFA","name":"Offa","parentId":"NG-KW","stateName":"Kwara","regionId":"NG-NC","fillColor":"#c9b896"},"geometry":{"type":"Polygon","coordinates":[[[4.643139362000056,8.108014107000088],[4.6324110030000725,8.109301567000045],[4.63326931000006,8.121316910000075],[4.6238284110000905,8.129899979000072],[4.621253490000072,8.139341354000067],[4.630265236000071,8.150498390000052],[4.650434494000081,8.162513733000083],[4.676182747000041,8.205428123000047],[4.693777084000089,8.217443466000077],[4.703217983000059,8.214439392000088],[4.722958565000056,8.154789925000046],[4.732399464000082,8.14835262300005],[4.746560574000057,8.12260437000009],[4.714375496000059,8.111876488000064],[4.680902958000047,8.114451408000093],[4.643139362000056,8.108014107000088]]]}},{"type":"Feature","properties":{"CNTRY_NAME":"Nigeria","CNTRY_CODE":"NGA","ADM1_NAME":"Kwara","ADM1_CODE":"NGA024","ADM2_NAME":"Oke-Ero","ADM2_CODE":"NGA024014","HRname":"Oke-Ero","HRpcode":"NG024014","HRparent":"NG024","Shape_Leng":1.16215260433,"Shape_Area":0.0358278758213,"ADM2_New":"Oke-Ero","id":"NG-KW-OKE-ERO","name":"Oke-Ero","parentId":"NG-KW","stateName":"Kwara","regionId":"NG-NC","fillColor":"#7eb09a"},"geometry":{"type":"Polygon","coordinates":[[[5.2398958210000615,8.255067825000083],[5.281031609000081,8.273787498000047],[5.306246281000085,8.300740242000074],[5.324504852000075,8.33378028900006],[5.335808277000069,8.328563690000067],[5.353197575000081,8.309869766000077],[5.356675148000079,8.274656296000046],[5.372325897000053,8.27422142000006],[5.397105694000061,8.292045593000068],[5.418407440000067,8.283785820000048],[5.42231988900005,8.228139877000046],[5.45753336000007,8.20640373200007],[5.454055786000083,8.197709084000053],[5.434492588000069,8.185101509000049],[5.296247482000069,8.161190987000055],[5.206257343000061,8.125977516000091],[5.190607071000045,8.113369942000077],[5.170174599000063,8.081199646000073],[5.16261148500007,8.049506187000077],[5.142349720000084,8.061864853000088],[5.117887974000041,8.062618256000064],[5.084393978000094,8.024231911000072],[5.075738430000058,8.024984360000076],[5.057632923000085,8.03946495100007],[5.054930210000066,8.049190521000071],[5.069751263000057,8.056855202000065],[5.168001175000086,8.14771461500004],[5.175826073000053,8.15988731400006],[5.181912422000039,8.192491531000087],[5.191476822000084,8.190752983000039],[5.197997570000041,8.214228630000093],[5.2398958210000615,8.255067825000083]]]}},{"type":"Feature","properties":{"CNTRY_NAME":"Nigeria","CNTRY_CODE":"NGA","ADM1_NAME":"Kwara","ADM1_CODE":"NGA024","ADM2_NAME":"Oyun","ADM2_CODE":"NGA024015","HRname":"Oyun","HRpcode":"NG024015","HRparent":"NG024","Shape_Leng":1.41391851921,"Shape_Area":0.038931618534,"ADM2_New":"Oyun","id":"NG-KW-OYUN","name":"Oyun","parentId":"NG-KW","stateName":"Kwara","regionId":"NG-NC","fillColor":"#a4c4a0"},"geometry":{"type":"Polygon","coordinates":[[[4.664106846000038,8.356353760000047],[4.69120216400006,8.315286636000053],[4.747418880000055,8.209718704000068],[4.7826080320000415,8.088703156000065],[4.799294949000057,8.065057755000055],[4.779158115000087,8.068437576000065],[4.721214294000049,8.064244270000074],[4.711684227000092,8.059669495000037],[4.704441071000076,8.048233032000041],[4.687286377000078,8.057001114000059],[4.665557384000067,8.043276787000082],[4.648403168000073,8.053569794000055],[4.637347698000042,8.053569794000055],[4.632392406000065,8.06119442000005],[4.633916855000052,8.07148647300005],[4.628961086000061,8.074536324000064],[4.6129503250000425,8.073011398000062],[4.568998337000039,8.054756165000072],[4.533486843000048,8.07157516500007],[4.505629063000072,8.091959000000088],[4.494964123000045,8.122775078000075],[4.535855293000054,8.135049820000063],[4.584347725000043,8.159081459000049],[4.594646931000057,8.17109680200008],[4.597651005000046,8.186116219000041],[4.584776878000071,8.212722778000057],[4.584776878000071,8.240187645000049],[4.601084232000062,8.263360977000048],[4.622111797000059,8.281384468000056],[4.641851902000042,8.33631420100005],[4.664106846000038,8.356353760000047]],[[4.643139362000056,8.108014107000088],[4.680902958000047,8.114451408000093],[4.714375496000059,8.111876488000064],[4.746560574000057,8.12260437000009],[4.732399464000082,8.14835262300005],[4.722958565000056,8.154789925000046],[4.703217983000059,8.214439392000088],[4.693777084000089,8.217443466000077],[4.676182747000041,8.205428123000047],[4.650434494000081,8.162513733000083],[4.630265236000071,8.150498390000052],[4.621253490000072,8.139341354000067],[4.631552696000085,8.12303352400005],[4.630694389000041,8.111447334000047],[4.643139362000056,8.108014107000088]]]}},{"type":"Feature","properties":{"CNTRY_NAME":"Nigeria","CNTRY_CODE":"NGA","ADM1_NAME":"Kwara","ADM1_CODE":"NGA024","ADM2_NAME":"Pategi","ADM2_CODE":"NGA024016","HRname":"Pategi","HRpcode":"NG024016","HRparent":"NG024","Shape_Leng":2.22170111692,"Shape_Area":0.238928304432,"ADM2_New":"Pategi","id":"NG-KW-PATEGI","name":"Pategi","parentId":"NG-KW","stateName":"Kwara","regionId":"NG-NC","fillColor":"#96b57c"},"geometry":{"type":"Polygon","coordinates":[[[5.525417805000075,8.94010067000005],[5.539562702000069,8.930567741000061],[5.543629169000042,8.916741371000057],[5.563148022000064,8.89884853400008],[5.601373196000054,8.876889229000085],[5.619266033000088,8.852490425000042],[5.64203834500006,8.835411072000056],[5.7127957340000535,8.828905106000093],[5.728248119000057,8.819958687000053],[5.774606228000039,8.753267288000075],[5.795752048000054,8.74188137100009],[5.901481152000088,8.750014305000093],[5.928320408000047,8.742694855000082],[5.97467851600004,8.756521225000085],[5.978744984000059,8.750014305000093],[6.033236027000044,8.758960724000076],[6.084474087000046,8.760587692000058],[6.114566326000045,8.758147240000085],[6.131645203000062,8.751641273000075],[6.149538040000039,8.720735550000086],[6.169057369000086,8.721549034000077],[6.2032160760000465,8.73456192000009],[6.208536148000064,8.732375145000049],[6.169870377000052,8.662991524000063],[6.147911549000071,8.596301079000057],[6.125139236000052,8.555635452000047],[6.111312866000048,8.431200981000075],[6.097486973000059,8.414121628000089],[6.0779676440000685,8.397855759000038],[6.0405559540000695,8.392975807000084],[5.956785679000063,8.408428192000088],[5.912054062000038,8.42388057700009],[5.849430084000062,8.422254562000091],[5.782739639000056,8.427947044000064],[5.6428518300000405,8.462919235000072],[5.574534416000063,8.506024361000073],[5.554202080000039,8.512530327000093],[5.524109840000051,8.536930084000062],[5.513207436000073,8.53852272000006],[5.515920639000058,8.558195114000057],[5.486073971000053,8.609748840000066],[5.457583427000088,8.675547600000073],[5.45012188000004,8.720317841000053],[5.460297108000077,8.764410019000081],[5.462331772000084,8.796970367000085],[5.447408676000066,8.842419624000058],[5.448086739000075,8.861413002000063],[5.4799690250000594,8.895330429000069],[5.516599178000092,8.920428276000052],[5.525417805000075,8.94010067000005]]]}},{"type":"Feature","properties":{"CNTRY_NAME":"Nigeria","CNTRY_CODE":"NGA","ADM1_NAME":"Kwara","ADM1_CODE":"NGA024","ADM2_NAME":"Baruten","ADM2_CODE":"NGA024002","HRname":"Baruten","HRpcode":"NG024002","HRparent":"NG024","Shape_Leng":4.93638087634,"Shape_Area":0.796489743522,"ADM2_New":"Baruten","id":"NG-KW-BARUTEN","name":"Baruten","parentId":"NG-KW","stateName":"Kwara","regionId":"NG-NC","fillColor":"#7cb87c"},"geometry":{"type":"Polygon","coordinates":[[[3.823319197000046,10.054306030000077],[3.8199408050000443,10.056839943000057],[3.810251236000056,9.173461914000086],[3.77073431000008,9.146808624000073],[3.7538261410000473,9.120677948000093],[3.7522890570000413,9.086861610000085],[3.7430663110000637,9.046896935000063],[3.7200098040000853,9.013080597000055],[3.6554512980000595,8.980800629000044],[3.5247972010000694,8.928539276000038],[3.3879947660000767,8.84246158600007],[3.281934500000091,8.804033279000066],[3.237358332000042,8.782514572000082],[3.197393656000088,8.796348572000056],[3.1835596560000567,8.811718941000038],[3.1635773180000797,8.808645248000062],[3.1036300660000506,8.75023460400007],[3.014477968000051,8.71026992800006],[2.9207143780000706,8.61189556100004],[2.802357197000049,8.61035823800006],[2.7762262820000387,8.590375900000083],[2.7587640290000763,8.561583519000067],[2.7491300000000933,8.583420000000046],[2.7490600000000427,8.640360000000044],[2.7375600000000873,8.654860000000042],[2.7461300000000506,8.666550000000086],[2.741320000000087,8.677810000000079],[2.7503800000000638,8.700290000000052],[2.746020000000044,8.709950000000049],[2.746090000000038,8.735200000000077],[2.7284100000000535,8.772680000000037],[2.7393200000000775,8.794240000000059],[2.7633800000000406,8.809780000000046],[2.75879000000009,8.819670000000087],[2.761190000000056,8.851590000000044],[2.7570700000000556,8.863540000000057],[2.76816000000008,8.867180000000076],[2.773550000000057,8.894720000000063],[2.7703500000000645,8.904840000000092],[2.7583300000000577,8.903730000000053],[2.7581100000000447,8.907860000000085],[2.7685300000000552,8.917010000000062],[2.781780000000083,8.945230000000038],[2.771180000000072,8.952830000000063],[2.7887900000000627,8.970240000000047],[2.782120000000077,8.982660000000067],[2.7874400000000605,8.985400000000084],[2.786770000000047,8.990680000000054],[2.777770000000089,8.994850000000042],[2.782410000000084,9.003100000000074],[2.772260000000074,9.007490000000075],[2.784080000000074,9.019400000000076],[2.7741600000000517,9.026090000000067],[2.782500000000084,9.031810000000064],[2.786000000000058,9.044890000000066],[2.7790800000000786,9.051570000000083],[2.7809200000000374,9.065200000000061],[2.867590000000064,9.062150000000088],[2.8791500000000383,9.06466000000006],[2.881930000000068,9.072930000000042],[2.8960400000000845,9.083710000000053],[2.9533800000000383,9.092600000000061],[2.9640000000000555,9.079490000000078],[2.984110000000044,9.072350000000085],[3.0081500000000574,9.073920000000044],[3.088170000000048,9.10158000000007],[3.092140000000086,9.129820000000052],[3.123700000000042,9.192240000000083],[3.122160000000065,9.238420000000076],[3.126350000000059,9.252190000000041],[3.1571700000000646,9.282460000000071],[3.1517900000000623,9.375740000000064],[3.1308500000000663,9.440340000000049],[3.136220000000094,9.462840000000085],[3.1545600000000604,9.492900000000077],[3.1948900000000435,9.51511000000005],[3.2079100000000835,9.544490000000053],[3.2534400000000687,9.609870000000058],[3.2560600000000477,9.639740000000074],[3.2635000000000787,9.652360000000044],[3.2799700000000485,9.661740000000066],[3.31517000000008,9.657740000000047],[3.34860000000009,9.685230000000047],[3.35027000000008,9.705220000000054],[3.3286000000000513,9.74595000000005],[3.323340000000087,9.776760000000081],[3.3296600000000467,9.798800000000085],[3.3468600000000492,9.817590000000052],[3.3568400000000906,9.825840000000085],[3.456390000000056,9.861170000000072],[3.474710000000073,9.863180000000057],[3.511320000000069,9.857320000000072],[3.529640000000086,9.862080000000049],[3.562680000000057,9.89552000000009],[3.564140000000066,9.915970000000073],[3.5957800000000475,9.945740000000058],[3.6023100000000454,9.957440000000076],[3.6114900000000603,9.99601000000007],[3.611500000000092,10.062430000000063],[3.615720000000067,10.075980000000072],[3.6292400000000384,10.093170000000043],[3.662930000000074,10.107060000000047],[3.6760900000000447,10.14930000000004],[3.678209562000063,10.176829918000067],[3.6884567740000875,10.161474228000088],[3.703017235000061,10.15273761700007],[3.715393782000092,10.089399338000078],[3.730682373000093,10.068286896000075],[3.736506701000053,10.068286896000075],[3.735050440000066,10.08794307700009],[3.743058920000067,10.084303856000076],[3.750339031000067,10.068286896000075],[3.7714519500000847,10.047174454000071],[3.7750921250000715,10.03334140800007],[3.7838284970000586,10.03115749400007],[3.7881965640000885,10.038437843000054],[3.780188322000072,10.052269936000073],[3.784556389000045,10.062462807000088],[3.7940208910000592,10.062462807000088],[3.7991170880000595,10.071198463000087],[3.818045616000063,10.066830635000088],[3.823319197000046,10.054306030000077]]]}}]}