{"type":"FeatureCollection","features":[{"type":"Feature","properties":{"CNTRY_NAME":"Nigeria","CNTRY_CODE":"NGA","ADM1_NAME":"Kaduna","ADM1_CODE":"NGA019","ADM2_NAME":"Birnin-Gwari","ADM2_CODE":"NGA019001","HRname":"Birnin-Gwari","HRpcode":"NG019001","HRparent":"NG019","Shape_Leng":4.32170944161,"Shape_Area":0.511217989868,"ADM2_New":"Birnin-Gwari","id":"NG-KD-BIRNIN-GWARI","name":"Birnin-Gwari","parentId":"NG-KD","stateName":"Kaduna","regionId":"NG-NW","fillColor":"#7cb87c"},"geometry":{"type":"Polygon","coordinates":[[[6.888557911000078,11.380746841000075],[6.919289112000058,11.383079529000042],[6.961600780000083,11.358030319000079],[7.006193161000056,11.361789703000056],[7.013246059000039,11.357230186000038],[7.023858070000074,11.336569786000041],[7.02156209900005,11.314669609000077],[7.008699894000074,11.293840408000051],[6.9724049570000375,11.255570412000054],[6.970087051000064,11.242879868000045],[7.004116058000079,11.246569633000092],[7.035851955000055,11.22721004500005],[7.044062138000072,11.22957038900006],[7.0734400750000646,11.21479034400005],[7.095783234000066,11.196519852000051],[7.0957942010000465,11.191909790000068],[7.1393260960000475,11.147279739000055],[7.152255058000037,11.139300346000084],[7.176891804000093,11.14408016200008],[7.217633724000052,11.17046737700008],[7.204074860000048,11.154294014000072],[7.181891441000062,11.140368462000083],[7.1504187580000576,10.982595444000083],[7.1327333450000765,10.945787430000053],[7.0968375210000545,10.896680832000072],[7.095226288000049,10.88564682000009],[7.101634026000056,10.845222473000092],[7.114823818000048,10.818293571000083],[7.131797791000054,10.748482704000082],[7.1585516930000495,10.706882477000079],[7.149559021000073,10.704408646000047],[7.111564636000082,10.711668968000083],[7.015753746000087,10.70285606400006],[7.0018525120000845,10.706498146000058],[6.942799568000055,10.733313560000056],[6.82533073400009,10.807780266000066],[6.808993816000054,10.815093040000079],[6.792431831000044,10.815052986000069],[6.756798744000093,10.732858658000055],[6.724087715000053,10.704592705000039],[6.690440178000074,10.645686150000074],[6.691526890000091,10.639561653000044],[6.713820457000054,10.634363174000043],[6.729884148000053,10.603038788000049],[6.731490612000073,10.596613884000078],[6.725868225000056,10.589385033000042],[6.64706993100009,10.593429565000065],[6.586916924000093,10.574124336000068],[6.5740656850000505,10.55725765200009],[6.55610084500006,10.546940804000087],[6.540331841000068,10.545209885000077],[6.521593094000082,10.572834969000041],[6.5242681500000685,10.595006943000044],[6.513826847000075,10.605448723000052],[6.493747234000068,10.614283562000082],[6.482116222000059,10.610178947000065],[6.439130306000038,10.59259796100008],[6.418247700000052,10.576534271000071],[6.396561623000082,10.572518349000063],[6.387966156000061,10.552417755000079],[6.370056152000075,10.532359123000049],[6.306604385000071,10.488986969000052],[6.298572540000066,10.47051334400004],[6.2632322310000745,10.45685958900009],[6.254397392000044,10.443204880000053],[6.249577999000053,10.421519279000051],[6.228695393000066,10.417503357000044],[6.21688318300005,10.394705772000066],[6.20138692900008,10.386981964000086],[6.167398453000089,10.38547802000005],[6.154097080000042,10.409971237000093],[6.149179935000063,10.45043373100009],[6.1323127750000594,10.46408748600004],[6.105004311000073,10.45685958900009],[6.089744091000057,10.475332260000073],[6.086531162000085,10.515491486000087],[6.091350079000051,10.522720337000067],[6.092956543000071,10.546012878000056],[6.121068001000083,10.553241730000082],[6.1274938580000935,10.569305420000092],[6.1274938580000935,10.59340095500005],[6.1146426200000406,10.599022865000052],[6.112233162000052,10.605448723000052],[6.125083923000091,10.649623871000074],[6.137132168000051,10.669703484000081],[6.135525703000042,10.677735329000086],[6.118658543000038,10.68416118600004],[6.1114301680000835,10.695405960000073],[6.091350079000051,10.70022487600005],[6.091350079000051,10.708256721000055],[6.103397846000064,10.718698502000052],[6.113036156000078,10.739581108000039],[6.108217239000055,10.759660721000046],[6.099381924000056,10.770905495000079],[6.11062669800009,10.796607018000088],[6.108217239000055,10.81347465500005],[6.121068001000083,10.814277649000076],[6.131098270000052,10.824039459000062],[6.118658543000038,10.837570190000065],[6.1226744650000455,10.84479904200009],[6.149982929000089,10.852830887000039],[6.161300659000062,10.866134644000056],[6.181543827000041,10.872239113000091],[6.205962181000075,10.863421440000081],[6.211388111000076,10.87902164500008],[6.226310253000065,10.895300865000081],[6.223597527000038,10.91090107000008],[6.233771324000088,10.945493698000064],[6.245302200000083,10.948206902000038],[6.263615608000066,10.965842247000069],[6.2771816250000825,10.965842247000069],[6.300920963000067,11.001791000000082],[6.322626114000059,11.01739120500008],[6.323304176000079,11.025530815000081],[6.357218266000075,11.019426346000046],[6.3829927440000915,11.033669472000042],[6.411480904000086,11.030278206000048],[6.419996262000041,11.014126778000048],[6.439290047000043,10.998398781000049],[6.446751118000066,11.003825188000064],[6.45828199400006,10.99907779700004],[6.463708401000076,11.00111198400009],[6.471847534000062,11.021460533000038],[6.5077962880000655,11.013320923000038],[6.517292500000053,11.02620887800009],[6.548492908000071,11.028243065000083],[6.575624466000079,11.02349567400006],[6.606825352000044,11.047235489000059],[6.645487309000089,11.048591614000088],[6.663122177000048,11.056731224000089],[6.6638007160000825,11.061479568000038],[6.673296452000045,11.058087349000061],[6.682114124000066,11.062835693000068],[6.691609859000039,11.07300949100005],[6.688897133000069,11.094715118000067],[6.706532001000085,11.095393181000077],[6.716028214000062,11.106245995000052],[6.706532001000085,11.12184619900006],[6.722132683000041,11.140837669000064],[6.733663559000092,11.147620201000052],[6.731628418000071,11.161186218000068],[6.742463589000067,11.17453289000008],[6.732985020000058,11.201883316000078],[6.7434983250000755,11.216805458000067],[6.74553346600004,11.243258476000051],[6.75435113900005,11.262928009000063],[6.808613300000047,11.300233841000079],[6.816164970000045,11.309980392000057],[6.828365803000054,11.307539940000083],[6.8552083970000695,11.336822510000047],[6.864155769000092,11.340076447000058],[6.874730110000087,11.364479065000069],[6.888557911000078,11.380746841000075]]]}},{"type":"Feature","properties":{"CNTRY_NAME":"Nigeria","CNTRY_CODE":"NGA","ADM1_NAME":"Kaduna","ADM1_CODE":"NGA019","ADM2_NAME":"Chikun","ADM2_CODE":"NGA019002","HRname":"Chikun","HRpcode":"NG019002","HRparent":"NG019","Shape_Leng":4.0770350899,"Shape_Area":0.383531897471,"ADM2_New":"Chikun","id":"NG-KD-CHIKUN","name":"Chikun","parentId":"NG-KD","stateName":"Kaduna","regionId":"NG-NW","fillColor":"#8fbc8f"},"geometry":{"type":"Polygon","coordinates":[[[6.713820457000054,10.634363174000043],[6.691526890000091,10.639561653000044],[6.693175316000065,10.65182113600008],[6.724087715000053,10.704592705000039],[6.756798744000093,10.732858658000055],[6.785725117000084,10.804007530000092],[6.797565460000044,10.81629085500009],[6.82533073400009,10.807780266000066],[6.942799568000055,10.733313560000056],[7.0018525120000845,10.706498146000058],[7.015753746000087,10.70285606400006],[7.111564636000082,10.711668968000083],[7.156584740000085,10.705038071000047],[7.153868198000055,10.678684235000048],[7.162149429000067,10.65787124600007],[7.219965458000047,10.632276535000074],[7.21955347100004,10.618796349000093],[7.211534977000042,10.606521606000058],[7.204153538000071,10.573415756000088],[7.20344209700005,10.55012989000005],[7.221765041000083,10.524439812000082],[7.206889153000077,10.49621772800009],[7.211011410000083,10.464365005000047],[7.201531887000044,10.404293060000043],[7.211049557000081,10.382257462000041],[7.228585243000055,10.372496605000038],[7.245484352000062,10.383567810000045],[7.269202232000055,10.451026917000092],[7.28643846500006,10.473128319000068],[7.3055853840000395,10.474401474000047],[7.347177029000079,10.459795952000093],[7.365200520000087,10.465968132000057],[7.3668317790000515,10.471589088000087],[7.377940178000074,10.465999603000057],[7.376066685000069,10.446386337000092],[7.379701138000087,10.44026947000009],[7.393340588000058,10.428047180000078],[7.411063671000079,10.42441368100009],[7.418895245000044,10.43056011200008],[7.428674698000066,10.458770752000078],[7.426763058000063,10.479598999000075],[7.420543194000061,10.484485626000037],[7.533777237000038,10.521527290000051],[7.658813953000049,10.569627762000039],[7.684331417000067,10.570915222000053],[7.711347103000037,10.579560280000067],[7.733978748000084,10.569811821000087],[7.740198612000086,10.564925194000068],[7.734391212000048,10.541626930000064],[7.737875938000059,10.530606270000078],[7.7751960750000535,10.50128555300006],[7.735816002000092,10.421532631000048],[7.700556755000093,10.39326000200009],[7.67267942400008,10.356427193000059],[7.607781887000044,10.317052841000077],[7.585450172000037,10.29493999500005],[7.566677570000081,10.264255524000077],[7.56502914400005,10.251997948000053],[7.586349487000064,10.199354172000085],[7.6093373300000735,10.166779518000055],[7.59695386900006,10.171194077000052],[7.568626404000042,10.161320686000067],[7.534341335000079,10.164913177000074],[7.513620853000077,10.153833389000056],[7.493724823000093,10.128049850000082],[7.460301399000059,10.118164062000062],[7.414438248000067,10.11805152900007],[7.3731088640000735,10.099568367000074],[7.351863384000069,10.071330070000045],[7.334964752000076,10.060258865000037],[7.300492287000054,10.057723999000075],[7.28850221600004,10.040537834000077],[7.273401737000086,10.046627998000076],[7.254066944000044,10.039226532000043],[7.232373714000062,10.043349266000064],[7.229088306000051,10.03842067700009],[7.216015816000038,10.037407875000042],[7.207139492000067,10.041666985000063],[7.1886343960000545,10.027367592000076],[7.138165951000076,10.035778999000058],[7.105361462000076,10.026526451000052],[7.103679180000086,10.03157329600009],[7.06498670600007,10.04250812500004],[7.033864021000056,10.044190407000087],[7.0187234880000915,10.038302422000072],[7.007788658000038,10.045031548000054],[6.952273369000068,10.047554970000078],[6.940497398000048,10.061013222000042],[6.9144220350000865,10.077836037000054],[6.901178837000089,10.07638168300008],[6.882088184000054,10.117111206000061],[6.885301113000082,10.150844574000075],[6.9037742610000805,10.168515205000062],[6.915019035000057,10.18859481800007],[6.921444416000043,10.191003799000043],[6.928672791000054,10.180562973000065],[6.942327023000075,10.180562973000065],[6.954472542000076,10.191998482000088],[6.970438957000056,10.232769966000092],[6.982486725000058,10.244014740000068],[6.98488903000009,10.236814499000047],[7.002566338000065,10.24722766900004],[7.003369331000044,10.241604805000065],[7.008188725000082,10.242407799000091],[7.019433022000044,10.273732185000085],[7.03228426000004,10.287386894000065],[7.045938492000062,10.291402817000062],[7.050757408000038,10.317104340000071],[7.033890724000059,10.343609810000089],[7.020236492000038,10.35405159000004],[6.996943951000048,10.35646057100007],[6.977213860000063,10.364830017000088],[6.934295177000081,10.361279488000037],[6.926263332000076,10.37011528000005],[6.923050880000062,10.382163048000052],[6.93766880000004,10.431426048000048],[6.954374790000088,10.462481499000091],[6.953519821000043,10.48217868800009],[6.93590164200009,10.500231743000086],[6.914323330000059,10.536052704000042],[6.882088184000054,10.550831795000079],[6.869102478000059,10.555356979000067],[6.849157333000051,10.530752182000072],[6.839519024000083,10.53155517600004],[6.835503101000086,10.537981033000051],[6.841928959000086,10.572518349000063],[6.836068630000057,10.593016624000086],[6.829479218000074,10.59982681300005],[6.829479218000074,10.62472534200009],[6.816628456000046,10.63837909700004],[6.8029742240000814,10.643198967000046],[6.785304070000052,10.639183044000049],[6.7290811540000846,10.648820877000048],[6.713820457000054,10.634363174000043]]]}},{"type":"Feature","properties":{"CNTRY_NAME":"Nigeria","CNTRY_CODE":"NGA","ADM1_NAME":"Kaduna","ADM1_CODE":"NGA019","ADM2_NAME":"Giwa","ADM2_CODE":"NGA019003","HRname":"Giwa","HRpcode":"NG019003","HRparent":"NG019","Shape_Leng":2.06542991842,"Shape_Area":0.170993703665,"ADM2_New":"Giwa","id":"NG-KD-GIWA","name":"Giwa","parentId":"NG-KD","stateName":"Kaduna","regionId":"NG-NW","fillColor":"#a8c686"},"geometry":{"type":"Polygon","coordinates":[[[7.402882099000067,11.387769699000046],[7.439185143000088,11.40740966800007],[7.47791290300006,11.408829689000072],[7.489668846000086,11.400850296000044],[7.507055759000082,11.356015205000062],[7.530137062000051,11.360974312000053],[7.550295830000039,11.35367107400009],[7.57757425300008,11.32922744800004],[7.600243568000053,11.320705414000088],[7.627147198000046,11.284006119000082],[7.6253485680000495,11.266844749000086],[7.6033167840000715,11.254536629000086],[7.579260826000052,11.217713356000047],[7.57161760300005,11.176028252000037],[7.572404385000084,11.160099030000083],[7.579748631000086,11.150312424000049],[7.62664175000009,11.136588097000072],[7.63108301200009,11.079360962000067],[7.610137463000058,11.019260406000058],[7.551197529000092,11.00808620500004],[7.489934444000085,11.00426006300006],[7.407762527000045,11.024891853000042],[7.3732900620000805,11.02235698700008],[7.356129169000042,11.00270652800009],[7.333272934000092,10.921769142000073],[7.264366150000058,10.834590912000067],[7.234727383000063,10.823489189000043],[7.177623272000062,10.830701828000088],[7.113662243000078,10.821967125000072],[7.103957176000051,10.837874413000065],[7.094889164000051,10.874616623000065],[7.0968375210000545,10.896680832000072],[7.1327333450000765,10.945787430000053],[7.1504187580000576,10.982595444000083],[7.181891441000062,11.140368462000083],[7.21194362600005,11.16166687000009],[7.236639023000066,11.19172954600009],[7.198932171000081,11.254830360000085],[7.197404385000084,11.269473076000054],[7.206896782000058,11.284540176000064],[7.232869148000077,11.29769039200005],[7.275116920000073,11.30029010800007],[7.325638771000058,11.277600288000087],[7.358510971000044,11.274370193000038],[7.370110035000039,11.333200455000053],[7.3934760090000395,11.379449844000078],[7.402882099000067,11.387769699000046]]]}},{"type":"Feature","properties":{"CNTRY_NAME":"Nigeria","CNTRY_CODE":"NGA","ADM1_NAME":"Kaduna","ADM1_CODE":"NGA019","ADM2_NAME":"Kajuru","ADM2_CODE":"NGA019012","HRname":"Kajuru","HRpcode":"NG019012","HRparent":"NG019","Shape_Leng":2.92565060662,"Shape_Area":0.232093515042,"ADM2_New":"Kajuru","id":"NG-KD-KAJURU","name":"Kajuru","parentId":"NG-KD","stateName":"Kaduna","regionId":"NG-NW","fillColor":"#c2b280"},"geometry":{"type":"Polygon","coordinates":[[[7.947845459000064,10.674424171000055],[7.971500397000057,10.672108650000041],[8.013991356000076,10.686918259000038],[8.070270538000045,10.694409370000074],[8.081662178000045,10.691986084000064],[8.133333206000088,10.673730850000084],[8.190361977000066,10.66406631500007],[8.239560127000061,10.648255348000077],[8.297077179000041,10.612856865000083],[8.308055878000062,10.596953392000046],[8.320570946000089,10.58963108100005],[8.412485123000067,10.554317474000072],[8.439485550000086,10.549694061000082],[8.432531357000073,10.54333686800004],[8.409225464000087,10.489357948000077],[8.397498131000077,10.439085007000074],[8.367073059000063,10.360578537000038],[8.364262581000048,10.310327530000052],[8.371457100000043,10.295639038000047],[8.38262271900004,10.285862923000082],[8.439952850000054,10.244337082000072],[8.460785866000037,10.217427254000086],[8.489788055000076,10.16602802300008],[8.492823601000055,10.14030075100004],[8.488552094000056,10.12558460200006],[8.486828804000083,10.069208145000061],[8.473977089000073,10.023833275000072],[8.476786613000058,9.990752220000047],[8.488178253000058,9.988328934000037],[8.518078804000083,10.008009911000045],[8.528346062000082,10.01048660300006],[8.540935516000047,10.00561523400006],[8.584662437000077,10.019202232000055],[8.61100387600004,10.005786896000075],[8.623069763000046,9.983757973000081],[8.624618530000077,9.977009773000077],[8.617712975000074,9.975303650000058],[8.610556602000088,9.963402748000078],[8.63550090800004,9.923970222000037],[8.635857582000085,9.916263580000077],[8.619621277000078,9.892376900000045],[8.618143082000074,9.882658958000093],[8.628827095000076,9.859967232000088],[8.626355171000057,9.78842830700006],[8.631447792000074,9.761628151000082],[8.615465164000057,9.74239635500004],[8.578557968000041,9.73610115100007],[8.519054413000049,9.748209953000071],[8.517144203000043,9.76903915400004],[8.52718544000004,9.805828094000049],[8.52804756200004,9.834015846000057],[8.519728661000045,9.853603363000047],[8.494811058000039,9.871924400000069],[8.45501709000007,9.987022400000058],[8.403683662000049,10.016308784000046],[8.338897705000079,10.02227687800007],[8.276097298000082,10.05153465300009],[8.240575790000037,10.098015785000086],[8.214609146000043,10.165353775000085],[8.149147987000049,10.27426147500006],[8.120558739000046,10.297475815000041],[8.085411072000056,10.314546585000073],[8.049889565000058,10.319361687000082],[8.031828880000091,10.35363102000008],[8.04610538500009,10.403910637000081],[8.052661896000075,10.451720238000064],[8.034937859000081,10.538686752000046],[7.973748684000043,10.620643616000052],[7.947845459000064,10.674424171000055]]]}},{"type":"Feature","properties":{"CNTRY_NAME":"Nigeria","CNTRY_CODE":"NGA","ADM1_NAME":"Kaduna","ADM1_CODE":"NGA019","ADM2_NAME":"Igabi","ADM2_CODE":"NGA019004","HRname":"Igabi","HRpcode":"NG019004","HRparent":"NG019","Shape_Leng":3.13871591069,"Shape_Area":0.308113888754,"ADM2_New":"Igabi","id":"NG-KD-IGABI","name":"Igabi","parentId":"NG-KD","stateName":"Kaduna","regionId":"NG-NW","fillColor":"#9bb898"},"geometry":{"type":"Polygon","coordinates":[[[7.6096038820000445,11.01664066300009],[7.613098145000038,10.99108123800005],[7.631720543000085,10.975195885000062],[7.72685670900006,10.961948395000093],[7.754921913000089,10.963242531000049],[7.7995805740000606,10.977532387000053],[7.807492256000046,10.974401474000047],[7.820906639000043,10.95482635500008],[7.825365543000089,10.934003830000051],[7.8008232120000685,10.881248474000074],[7.774332523000055,10.848094940000067],[7.78325033200008,10.80645084400004],[7.826266289000046,10.755085945000076],[7.851109028000053,10.692646980000063],[7.864898205000088,10.685327530000052],[7.918292999000073,10.681781769000054],[7.947845459000064,10.674424171000055],[7.973748684000043,10.620643616000052],[8.022685051000053,10.554587364000042],[8.002151489000084,10.54963493300005],[7.974236012000063,10.553243637000037],[7.93047142000006,10.538430214000073],[7.909113884000078,10.548181534000037],[7.890865803000054,10.53465652500006],[7.856506348000039,10.494132042000047],[7.832188129000087,10.490395546000059],[7.818286896000075,10.494038582000087],[7.798465252000085,10.512372017000075],[7.7751960750000535,10.50128555300006],[7.742784500000084,10.524490356000058],[7.734391212000048,10.541626930000064],[7.740198612000086,10.564925194000068],[7.711347103000037,10.579560280000067],[7.684331417000067,10.570915222000053],[7.658813953000049,10.569627762000039],[7.533777237000038,10.521527290000051],[7.453981400000089,10.49700546300005],[7.450294495000037,10.499264717000074],[7.46936607400005,10.539752007000061],[7.465019703000053,10.564250946000072],[7.468204498000091,10.585092545000066],[7.46097278600007,10.598554611000054],[7.4254884720000405,10.604595184000061],[7.408514500000081,10.591073036000068],[7.3872699740000485,10.521168709000051],[7.3713827130000595,10.501522064000085],[7.365200520000087,10.465968132000057],[7.347177029000079,10.459795952000093],[7.3055853840000395,10.474401474000047],[7.28643846500006,10.473128319000068],[7.269202232000055,10.451026917000092],[7.245484352000062,10.383567810000045],[7.234992981000062,10.373737335000044],[7.218468666000092,10.374922752000089],[7.203742504000047,10.393268585000044],[7.201531887000044,10.404293060000043],[7.211011410000083,10.464365005000047],[7.206889153000077,10.49621772800009],[7.221765041000083,10.524439812000082],[7.20344209700005,10.55012989000005],[7.204153538000071,10.573415756000088],[7.211534977000042,10.606521606000058],[7.21955347100004,10.618796349000093],[7.219965458000047,10.632276535000074],[7.19489812900008,10.64569664000004],[7.167095184000061,10.652981758000067],[7.1585149770000385,10.663990021000075],[7.153868198000055,10.678684235000048],[7.15832710300009,10.699528694000037],[7.131797791000054,10.748482704000082],[7.113662243000078,10.821967125000072],[7.177623272000062,10.830701828000088],[7.234727383000063,10.823489189000043],[7.264366150000058,10.834590912000067],[7.333272934000092,10.921769142000073],[7.356129169000042,11.00270652800009],[7.3732900620000805,11.02235698700008],[7.407762527000045,11.024891853000042],[7.489934444000085,11.00426006300006],[7.6096038820000445,11.01664066300009]]]}},{"type":"Feature","properties":{"CNTRY_NAME":"Nigeria","CNTRY_CODE":"NGA","ADM1_NAME":"Kaduna","ADM1_CODE":"NGA019","ADM2_NAME":"Ikara","ADM2_CODE":"NGA019005","HRname":"Ikara","HRpcode":"NG019005","HRparent":"NG019","Shape_Leng":1.85447704006,"Shape_Area":0.0706666415065,"ADM2_New":"Ikara","id":"NG-KD-IKARA","name":"Ikara","parentId":"NG-KD","stateName":"Kaduna","regionId":"NG-NW","fillColor":"#6ba3be"},"geometry":{"type":"Polygon","coordinates":[[[7.990206718000081,11.469874382000057],[8.033166885000071,11.484769821000043],[8.053160667000043,11.479590416000065],[8.089966774000061,11.493610382000043],[8.104694366000047,11.50574970200006],[8.121953011000073,11.512140274000046],[8.156202316000076,11.499270439000043],[8.16475868200007,11.487890244000084],[8.166899681000075,11.459989548000067],[8.132845879000058,11.400609970000062],[8.13221073200009,11.38543033600007],[8.142053604000068,11.370599747000085],[8.187391281000089,11.340609550000067],[8.215225220000093,11.31122016900008],[8.258177757000055,11.316120148000039],[8.273596764000047,11.308460236000087],[8.276062965000051,11.271249771000043],[8.294095993000042,11.255519867000089],[8.321091652000064,11.216770172000054],[8.337553024000044,11.212650299000074],[8.359346390000042,11.222680092000076],[8.373397827000076,11.22080993700007],[8.41502285000007,11.230330467000044],[8.434016228000075,11.22045993800009],[8.470081329000038,11.189000130000068],[8.482618332000072,11.16376972200004],[8.506288528000084,11.15262699100009],[8.468910217000087,11.150039673000038],[8.458831787000065,11.153691292000076],[8.382804871000076,11.208651543000087],[8.377521515000069,11.202511787000049],[8.378458023000064,11.191484451000065],[8.417576790000055,11.137659073000066],[8.417201996000074,11.125403404000053],[8.405474663000064,11.116795540000055],[8.346721649000074,11.111750603000075],[8.236484528000062,11.131088257000044],[8.16870403300004,11.129142761000082],[8.146594048000054,11.149250031000065],[8.052731514000072,11.204166412000063],[8.036694527000066,11.221284866000076],[8.089039803000048,11.22508907300005],[8.126397133000069,11.238660812000091],[8.135577202000093,11.247262001000081],[8.088289261000057,11.325576782000041],[8.041563988000064,11.380610466000064],[8.017658234000066,11.432021141000064],[7.990206718000081,11.469874382000057]]]}},{"type":"Feature","properties":{"CNTRY_NAME":"Nigeria","CNTRY_CODE":"NGA","ADM1_NAME":"Kaduna","ADM1_CODE":"NGA019","ADM2_NAME":"Jaba","ADM2_CODE":"NGA019006","HRname":"Jaba","HRpcode":"NG019006","HRparent":"NG019","Shape_Leng":0.903659376695,"Shape_Area":0.0303416426025,"ADM2_New":"Jaba","id":"NG-KD-JABA","name":"Jaba","parentId":"NG-KD","stateName":"Kaduna","regionId":"NG-NW","fillColor":"#89a96d"},"geometry":{"type":"Polygon","coordinates":[[[8.009627342000044,9.546586037000054],[8.05195617700008,9.553440094000052],[8.076498985000057,9.564529419000053],[8.076798439000072,9.57433414500008],[8.094034195000063,9.596434593000083],[8.128093719000049,9.627155304000041],[8.130492210000057,9.580593109000063],[8.18283748600004,9.520467758000052],[8.169087410000088,9.509609222000051],[8.116292000000044,9.49109745000004],[8.082306862000053,9.46282863600004],[8.059488297000087,9.424782753000045],[8.04633617400009,9.369604111000058],[8.019770622000067,9.333999634000065],[7.997314930000073,9.317783356000064],[8.001719475000073,9.34078788800008],[7.9990768430000685,9.354002953000077],[7.938289642000086,9.403336525000043],[7.920670509000047,9.405098915000053],[7.914795876000085,9.400461197000084],[7.912755966000077,9.41707038900006],[7.917139530000043,9.43546295200008],[7.937073708000071,9.462472916000081],[7.9763422010000795,9.496882439000046],[7.990542889000039,9.503045082000085],[8.005043030000081,9.519011497000065],[8.009627342000044,9.546586037000054]]]}},{"type":"Feature","properties":{"CNTRY_NAME":"Nigeria","CNTRY_CODE":"NGA","ADM1_NAME":"Kaduna","ADM1_CODE":"NGA019","ADM2_NAME":"Jema'a","ADM2_CODE":"NGA019007","HRname":"Jema'a","HRpcode":"NG019007","HRparent":"NG019","Shape_Leng":1.89541491671,"Shape_Area":0.13681333715,"ADM2_New":"Jema'a","id":"NG-KD-JEMAA","name":"Jema'a","parentId":"NG-KD","stateName":"Kaduna","regionId":"NG-NW","fillColor":"#b5c99a"},"geometry":{"type":"Polygon","coordinates":[[[8.18283748600004,9.520467758000052],[8.192393303000074,9.521921158000055],[8.201161385000091,9.517041206000044],[8.270368576000067,9.530691147000084],[8.283032417000072,9.569936752000046],[8.297496796000075,9.584678650000058],[8.32320022600004,9.59209442100007],[8.366928101000042,9.52234840400007],[8.394131660000085,9.495454788000075],[8.412005424000085,9.496724129000086],[8.555624008000052,9.547332764000089],[8.570406914000046,9.498299599000063],[8.586234093000087,9.481567383000083],[8.51594734200006,9.438155174000087],[8.498785973000054,9.41850566900007],[8.465775490000055,9.338768959000049],[8.434450150000089,9.314182281000058],[8.425120354000057,9.300679207000087],[8.425795555000093,9.281072617000063],[8.418975830000079,9.266350746000057],[8.399790764000045,9.263852119000092],[8.359173775000045,9.268654823000077],[8.299035072000038,9.259929657000043],[8.264786720000075,9.264747620000037],[8.25437068900004,9.25736904100006],[8.251597404000051,9.25000953700004],[8.258679390000054,9.231644630000062],[8.196479797000052,9.15551185600009],[8.154401779000068,9.112517357000058],[8.144921303000046,9.094111443000088],[8.135277748000078,9.051707268000087],[8.128138542000045,9.049187660000086],[8.107876778000048,9.052711487000067],[8.102590561000056,9.063282967000077],[8.09859085100004,9.162779808000039],[8.103912354000045,9.17604732500007],[8.102149963000045,9.19719028500009],[8.088935852000077,9.22802448300007],[8.062506676000055,9.272072792000074],[8.045767784000077,9.277358055000093],[8.000838280000039,9.306430817000091],[7.997314930000073,9.317783356000064],[8.019770622000067,9.333999634000065],[8.04633617400009,9.369604111000058],[8.059488297000087,9.424782753000045],[8.082306862000053,9.46282863600004],[8.116292000000044,9.49109745000004],[8.169087410000088,9.509609222000051],[8.18283748600004,9.520467758000052]]]}},{"type":"Feature","properties":{"CNTRY_NAME":"Nigeria","CNTRY_CODE":"NGA","ADM1_NAME":"Kaduna","ADM1_CODE":"NGA019","ADM2_NAME":"Kachia","ADM2_CODE":"NGA019008","HRname":"Kachia","HRpcode":"NG019008","HRparent":"NG019","Shape_Leng":3.27241951809,"Shape_Area":0.381927215037,"ADM2_New":"Kachia","id":"NG-KD-KACHIA","name":"Kachia","parentId":"NG-KD","stateName":"Kaduna","regionId":"NG-NW","fillColor":"#d4a574"},"geometry":{"type":"Polygon","coordinates":[[[7.254066944000044,10.039226532000043],[7.273401737000086,10.046627998000076],[7.28850221600004,10.040537834000077],[7.300492287000054,10.057723999000075],[7.334964752000076,10.060258865000037],[7.351863384000069,10.071330070000045],[7.3731088640000735,10.099568367000074],[7.414438248000067,10.11805152900007],[7.460301399000059,10.118164062000062],[7.493724823000093,10.128049850000082],[7.513620853000077,10.153833389000056],[7.534341335000079,10.164913177000074],[7.568626404000042,10.161320686000067],[7.59695386900006,10.171194077000052],[7.6093373300000735,10.166779518000055],[7.662376881000057,10.10272789000004],[7.720418453000093,10.042820930000062],[7.75316715200006,10.030646324000088],[7.774787426000046,10.029473305000067],[7.819601059000092,10.03693676000006],[7.900948048000089,10.07267475100008],[7.990951061000089,10.099855423000065],[8.05337619800008,10.100008965000086],[8.054013252000061,10.079176903000075],[8.046931267000048,10.055875778000086],[8.011073112000076,10.007993698000064],[7.978436947000091,9.940512657000056],[7.973229408000066,9.895156860000043],[7.996685505000073,9.829038620000063],[8.001594543000067,9.781256676000055],[7.996499062000055,9.739577293000082],[8.00744056700006,9.722447395000074],[8.070389748000082,9.698091507000072],[8.115316391000079,9.66756534600006],[8.128093719000049,9.627155304000041],[8.104600906000087,9.60871601100007],[8.076798439000072,9.57433414500008],[8.076498985000057,9.564529419000053],[8.067430496000043,9.559605598000076],[7.966074467000055,9.536072731000047],[7.946965218000059,9.536026001000039],[7.9194622040000695,9.553114891000064],[7.893757343000061,9.587366104000068],[7.87865686400005,9.593456268000068],[7.834030151000093,9.63378810900008],[7.804615498000089,9.671706200000074],[7.780560017000084,9.676548958000069],[7.722069740000052,9.638415337000083],[7.683775902000093,9.594204903000048],[7.667513847000066,9.562301636000086],[7.657172203000073,9.557374954000068],[7.607449532000089,9.556027412000049],[7.552368641000044,9.546089172000052],[7.50077295300008,9.566795349000074],[7.401814461000072,9.58003330200006],[7.344860077000078,9.550482750000072],[7.298884869000062,9.54669380200005],[7.263447762000055,9.52968215900006],[7.287047863000055,9.556327820000092],[7.29461813000006,9.584926605000078],[7.344309330000044,9.606965065000054],[7.347609997000063,9.621936798000092],[7.311440945000072,9.66904068000008],[7.28284215900004,9.684181213000045],[7.288730145000045,9.706050873000038],[7.280318737000073,9.72455596900005],[7.2710661890000665,9.732126236000056],[7.244990826000048,9.732126236000056],[7.224803448000046,9.738855362000038],[7.204740047000087,9.758296013000063],[7.210504055000058,9.780071259000067],[7.223962307000079,9.787641525000083],[7.251719952000087,9.794370651000065],[7.26013135900007,9.78680038500005],[7.273589611000091,9.783435822000058],[7.285365582000054,9.789323807000073],[7.291253567000069,9.80025863600008],[7.288730145000045,9.840633392000086],[7.299664974000052,9.856616020000047],[7.297982693000051,9.898673058000043],[7.285365582000054,9.933159828000043],[7.2777953150000485,10.016432762000079],[7.270225048000043,10.028208733000042],[7.254066944000044,10.039226532000043]]]}},{"type":"Feature","properties":{"CNTRY_NAME":"Nigeria","CNTRY_CODE":"NGA","ADM1_NAME":"Kaduna","ADM1_CODE":"NGA019","ADM2_NAME":"Kaduna North","ADM2_CODE":"NGA019009","HRname":"Kaduna North","HRpcode":"NG019009","HRparent":"NG019","Shape_Leng":0.348579318259,"Shape_Area":0.00598241353387,"ADM2_New":"Kaduna North","id":"NG-KD-KADUNA-NORTH","name":"Kaduna North","parentId":"NG-KD","stateName":"Kaduna","regionId":"NG-NW","fillColor":"#5a9e6f"},"geometry":{"type":"Polygon","coordinates":[[[7.399914742000078,10.56165790600005],[7.408514500000081,10.591073036000068],[7.4254884720000405,10.604595184000061],[7.445834637000075,10.603419304000056],[7.46468210200004,10.594886780000081],[7.46936607400005,10.539752007000061],[7.450294495000037,10.499264717000074],[7.453981400000089,10.49700546300005],[7.420543194000061,10.484485626000037],[7.405405521000091,10.489350319000039],[7.401808262000088,10.496694565000041],[7.410275936000062,10.523675919000084],[7.419606209000051,10.537178993000055],[7.421404362000089,10.554340363000051],[7.399914742000078,10.56165790600005]]]}},{"type":"Feature","properties":{"CNTRY_NAME":"Nigeria","CNTRY_CODE":"NGA","ADM1_NAME":"Kaduna","ADM1_CODE":"NGA019","ADM2_NAME":"Kagarko","ADM2_CODE":"NGA019011","HRname":"Kagarko","HRpcode":"NG019011","HRparent":"NG019","Shape_Leng":2.20018672595,"Shape_Area":0.153495252955,"ADM2_New":"Kagarko","id":"NG-KD-KAGARKO","name":"Kagarko","parentId":"NG-KD","stateName":"Kaduna","regionId":"NG-NW","fillColor":"#84b882"},"geometry":{"type":"Polygon","coordinates":[[[7.263447762000055,9.52968215900006],[7.298884869000062,9.54669380200005],[7.344860077000078,9.550482750000072],[7.401814461000072,9.58003330200006],[7.50077295300008,9.566795349000074],[7.552368641000044,9.546089172000052],[7.607449532000089,9.556027412000049],[7.657172203000073,9.557374954000068],[7.667513847000066,9.562301636000086],[7.683775902000093,9.594204903000048],[7.722069740000052,9.638415337000083],[7.780560017000084,9.676548958000069],[7.804615498000089,9.671706200000074],[7.8191914560000555,9.648457527000062],[7.87865686400005,9.593456268000068],[7.893757343000061,9.587366104000068],[7.9194622040000695,9.553114891000064],[7.9343752860000905,9.54089736900005],[7.957119465000062,9.534825325000043],[8.009627342000044,9.546586037000054],[8.005043030000081,9.519011497000065],[7.929130077000082,9.452649117000078],[7.914329052000085,9.426877975000082],[7.914795876000085,9.400461197000084],[7.889836311000067,9.374264717000074],[7.823763847000066,9.27119159700004],[7.807906151000054,9.266786575000083],[7.7638578410000605,9.295858383000052],[7.748000622000063,9.32140731800007],[7.7300548550000485,9.331963539000071],[7.67238903000009,9.411277771000073],[7.589875221000057,9.431607246000056],[7.509752750000075,9.361051559000089],[7.476269245000083,9.370618820000061],[7.417672157000084,9.367031097000051],[7.388168335000046,9.349822998000093],[7.376487255000086,9.363329887000077],[7.360388756000077,9.367021561000058],[7.335326672000065,9.361163139000041],[7.321242332000054,9.366598129000067],[7.2703018190000535,9.34940528900006],[7.254631042000085,9.362788200000068],[7.256255627000087,9.375785828000062],[7.289834023000083,9.409363747000043],[7.289505959000053,9.425436974000093],[7.276604176000092,9.43862628900007],[7.254631042000085,9.441317558000037],[7.2378416060000745,9.436985016000051],[7.221594334000088,9.447816849000048],[7.224302292000061,9.460272789000044],[7.211304188000042,9.500891685000056],[7.215550900000039,9.50333595300009],[7.220597744000088,9.495765686000084],[7.22732687000007,9.49492454500006],[7.239102840000044,9.518476486000054],[7.263447762000055,9.52968215900006]]]}},{"type":"Feature","properties":{"CNTRY_NAME":"Nigeria","CNTRY_CODE":"NGA","ADM1_NAME":"Kaduna","ADM1_CODE":"NGA019","ADM2_NAME":"Kaura","ADM2_CODE":"NGA019013","HRname":"Kaura","HRpcode":"NG019013","HRparent":"NG019","Shape_Leng":0.970084776981,"Shape_Area":0.0399706377785,"ADM2_New":"Kaura","id":"NG-KD-KAURA","name":"Kaura","parentId":"NG-KD","stateName":"Kaduna","regionId":"NG-NW","fillColor":"#c9b896"},"geometry":{"type":"Polygon","coordinates":[[[8.519054413000049,9.748209953000071],[8.578557968000041,9.73610115100007],[8.599562645000049,9.737936020000063],[8.592849731000058,9.721303940000041],[8.59812068900004,9.69064998600004],[8.593065262000039,9.674982071000045],[8.587653160000059,9.667018890000065],[8.56247806500005,9.669762611000067],[8.555053711000085,9.663640976000067],[8.553666115000055,9.651996613000051],[8.566628456000046,9.621684074000086],[8.567339897000068,9.606271744000082],[8.555038452000076,9.580629349000048],[8.554541588000063,9.549718857000073],[8.475067139000089,9.517711639000083],[8.412005424000085,9.496724129000086],[8.394131660000085,9.495454788000075],[8.366928101000042,9.52234840400007],[8.32320022600004,9.59209442100007],[8.308351517000062,9.588274956000078],[8.352276802000063,9.62647914900009],[8.370449066000049,9.67921924600006],[8.402636528000073,9.690327644000092],[8.452171326000041,9.685546875000057],[8.49818420400004,9.690561295000066],[8.520966530000067,9.68571567500004],[8.53254413600007,9.689419746000056],[8.51616954800005,9.737174034000077],[8.519054413000049,9.748209953000071]]]}},{"type":"Feature","properties":{"CNTRY_NAME":"Nigeria","CNTRY_CODE":"NGA","ADM1_NAME":"Kaduna","ADM1_CODE":"NGA019","ADM2_NAME":"Kauru","ADM2_CODE":"NGA019014","HRname":"Kauru","HRpcode":"NG019014","HRparent":"NG019","Shape_Leng":1.9169834698,"Shape_Area":0.203468910333,"ADM2_New":"Kauru","id":"NG-KD-KAURU","name":"Kauru","parentId":"NG-KD","stateName":"Kaduna","regionId":"NG-NW","fillColor":"#7eb09a"},"geometry":{"type":"Polygon","coordinates":[[[7.7751960750000535,10.50128555300006],[7.798465252000085,10.512372017000075],[7.818286896000075,10.494038582000087],[7.84623909000004,10.491655350000087],[7.856506348000039,10.494132042000047],[7.890865803000054,10.53465652500006],[7.909113884000078,10.548181534000037],[7.93047142000006,10.538430214000073],[7.974236012000063,10.553243637000037],[8.002151489000084,10.54963493300005],[8.022685051000053,10.554587364000042],[8.034937859000081,10.538686752000046],[8.052661896000075,10.451720238000064],[8.04610538500009,10.403910637000081],[8.031828880000091,10.35363102000008],[8.034152031000076,10.346283913000093],[8.049889565000058,10.319361687000082],[8.085411072000056,10.314546585000073],[8.120558739000046,10.297475815000041],[8.149147987000049,10.27426147500006],[8.218168259000038,10.156784058000085],[8.163911819000077,10.132142067000075],[8.080242157000043,10.103751183000043],[8.054574966000075,10.097560883000085],[8.029245377000052,10.102400780000039],[7.990951061000089,10.099855423000065],[7.9434013370000685,10.086258888000089],[7.884199142000057,10.066506386000071],[7.819601059000092,10.03693676000006],[7.774787426000046,10.029473305000067],[7.75316715200006,10.030646324000088],[7.720418453000093,10.042820930000062],[7.613141060000089,10.15897941600008],[7.604784966000068,10.177341461000083],[7.586349487000064,10.199354172000085],[7.56502914400005,10.251997948000053],[7.565291405000039,10.260577202000093],[7.593355656000085,10.303537369000082],[7.614301205000061,10.321970940000085],[7.67267942400008,10.356427193000059],[7.700556755000093,10.39326000200009],[7.735816002000092,10.421532631000048],[7.7751960750000535,10.50128555300006]]]}},{"type":"Feature","properties":{"CNTRY_NAME":"Nigeria","CNTRY_CODE":"NGA","ADM1_NAME":"Kaduna","ADM1_CODE":"NGA019","ADM2_NAME":"Kubau","ADM2_CODE":"NGA019015","HRname":"Kubau","HRpcode":"NG019015","HRparent":"NG019","Shape_Leng":2.35334940862,"Shape_Area":0.207258830624,"ADM2_New":"Kubau","id":"NG-KD-KUBAU","name":"Kubau","parentId":"NG-KD","stateName":"Kaduna","regionId":"NG-NW","fillColor":"#a4c4a0"},"geometry":{"type":"Polygon","coordinates":[[[8.506288528000084,11.15262699100009],[8.52052307100007,11.14636039700008],[8.52736187000005,11.117440224000063],[8.543351173000076,11.09348964700007],[8.580050468000081,11.077199936000056],[8.596919060000062,11.061440468000058],[8.598156929000083,10.99271011400009],[8.571494102000088,10.92191028600007],[8.567220688000077,10.87749004400007],[8.574587822000069,10.833439827000063],[8.577030182000044,10.763589859000092],[8.58793163300004,10.71848964700007],[8.586776733000079,10.714577675000044],[8.556031227000062,10.707853317000058],[8.526842117000058,10.71145916000006],[8.510712624000064,10.69559478800005],[8.48292732200008,10.69174289700004],[8.469850540000039,10.680682182000055],[8.452352524000048,10.65000152600004],[8.443846703000077,10.621795654000039],[8.446169853000072,10.572781563000092],[8.439485550000086,10.549694061000082],[8.412485123000067,10.554317474000072],[8.320570946000089,10.58963108100005],[8.308055878000062,10.596953392000046],[8.297077179000041,10.612856865000083],[8.239560127000061,10.648255348000077],[8.190361977000066,10.66406631500007],[8.133333206000088,10.673730850000084],[8.070270538000045,10.694409370000074],[8.013991356000076,10.686918259000038],[8.041231155000048,10.74458313000008],[8.062551498000062,10.77527236900005],[8.109463692000077,10.809700012000064],[8.183354378000047,10.851548195000078],[8.221199036000087,10.881052017000059],[8.263090134000038,10.917919159000064],[8.285796165000079,10.952288628000076],[8.283585548000076,10.963312149000046],[8.267510414000071,10.979204178000089],[8.208720207000056,11.01459884600007],[8.175446510000086,11.051281929000083],[8.15753555300006,11.09045410200008],[8.15850925400008,11.122318268000072],[8.163792610000087,11.128458977000037],[8.236484528000062,11.131088257000044],[8.346721649000074,11.111750603000075],[8.405474663000064,11.116795540000055],[8.417201996000074,11.125403404000053],[8.417576790000055,11.137659073000066],[8.378458023000064,11.191484451000065],[8.377521515000069,11.202511787000049],[8.382804871000076,11.208651543000087],[8.458831787000065,11.153691292000076],[8.468910217000087,11.150039673000038],[8.506288528000084,11.15262699100009]]]}},{"type":"Feature","properties":{"CNTRY_NAME":"Nigeria","CNTRY_CODE":"NGA","ADM1_NAME":"Kaduna","ADM1_CODE":"NGA019","ADM2_NAME":"Kudan","ADM2_CODE":"NGA019016","HRname":"Kudan","HRpcode":"NG019016","HRparent":"NG019","Shape_Leng":0.844257789823,"Shape_Area":0.0331170952805,"ADM2_New":"Kudan","id":"NG-KD-KUDAN","name":"Kudan","parentId":"NG-KD","stateName":"Kaduna","regionId":"NG-NW","fillColor":"#96b57c"},"geometry":{"type":"Polygon","coordinates":[[[7.777465820000089,11.371832848000054],[7.7841458320000925,11.377528191000067],[7.848203182000077,11.37672615100007],[7.84462261200008,11.355616570000052],[7.8541026120000765,11.33235454600009],[7.873961449000092,11.315247536000072],[7.877334118000078,11.300550461000057],[7.874898911000059,11.262554169000055],[7.895170212000039,11.21726131400004],[7.783210754000038,11.138555527000051],[7.776990414000068,11.185109138000087],[7.761140347000037,11.208354950000057],[7.741018772000075,11.216883659000075],[7.708007812000062,11.220479012000055],[7.6821537020000505,11.208161354000083],[7.675821304000067,11.209371567000062],[7.654687881000086,11.226475716000039],[7.6253485680000495,11.266844749000086],[7.6295557020000615,11.283232689000045],[7.647493362000091,11.282830238000088],[7.710855007000077,11.313623428000085],[7.746638775000065,11.317387581000048],[7.753345490000072,11.328433037000082],[7.7528209690000836,11.352942467000048],[7.777465820000089,11.371832848000054]]]}},{"type":"Feature","properties":{"CNTRY_NAME":"Nigeria","CNTRY_CODE":"NGA","ADM1_NAME":"Kaduna","ADM1_CODE":"NGA019","ADM2_NAME":"Lere","ADM2_CODE":"NGA019017","HRname":"Lere","HRpcode":"NG019017","HRparent":"NG019","Shape_Leng":2.23237358997,"Shape_Area":0.178215591087,"ADM2_New":"Lere","id":"NG-KD-LERE","name":"Lere","parentId":"NG-KD","stateName":"Kaduna","regionId":"NG-NW","fillColor":"#7cb87c"},"geometry":{"type":"Polygon","coordinates":[[[8.439485550000086,10.549694061000082],[8.446169853000072,10.572781563000092],[8.442348480000078,10.614439011000059],[8.452352524000048,10.65000152600004],[8.476408005000053,10.686825752000061],[8.490646362000064,10.694212914000047],[8.508172035000086,10.695245743000044],[8.515582085000062,10.654350281000063],[8.536105156000076,10.634050369000079],[8.56196117400009,10.627900124000064],[8.587440491000052,10.633337975000074],[8.612835884000049,10.649169922000056],[8.628048897000042,10.646756172000039],[8.653228760000047,10.637013435000085],[8.689275742000063,10.566023827000038],[8.735888481000075,10.548981667000078],[8.756309509000062,10.550256729000068],[8.773358345000076,10.566229820000046],[8.77940368700007,10.562673569000083],[8.762154579000082,10.49144840200006],[8.735888481000075,10.465648651000038],[8.72906971000009,10.450925827000049],[8.739860535000048,10.42889404300007],[8.796814919000042,10.416778564000083],[8.823521614000072,10.383281708000084],[8.799246788000062,10.382980347000057],[8.773364067000045,10.395070076000081],[8.775052071000061,10.36452961000009],[8.762839317000044,10.336959839000087],[8.77159977000008,10.314180374000046],[8.768287659000066,10.30245018000005],[8.742437363000079,10.278140068000084],[8.703038216000039,10.255149841000048],[8.654915810000091,10.21247959100009],[8.646013260000075,10.196640015000071],[8.645694733000084,10.161870003000047],[8.629547119000051,10.13605976100007],[8.62869358100005,10.112859726000067],[8.67263603200007,10.037590027000078],[8.679473877000078,10.014730453000084],[8.676608086000044,9.99336242700008],[8.66176033000005,9.981120110000063],[8.627238274000092,9.97765731800007],[8.61100387600004,10.005786896000075],[8.584662437000077,10.019202232000055],[8.540935516000047,10.00561523400006],[8.528346062000082,10.01048660300006],[8.518078804000083,10.008009911000045],[8.488178253000058,9.988328934000037],[8.476786613000058,9.990752220000047],[8.473977089000073,10.023833275000072],[8.486828804000083,10.069208145000061],[8.488552094000056,10.12558460200006],[8.492823601000055,10.14030075100004],[8.489788055000076,10.16602802300008],[8.447334290000072,10.235776901000065],[8.371457100000043,10.295639038000047],[8.363326073000053,10.321354866000092],[8.367073059000063,10.360578537000038],[8.397498131000077,10.439085007000074],[8.409225464000087,10.489357948000077],[8.432531357000073,10.54333686800004],[8.439485550000086,10.549694061000082]]]}},{"type":"Feature","properties":{"CNTRY_NAME":"Nigeria","CNTRY_CODE":"NGA","ADM1_NAME":"Kaduna","ADM1_CODE":"NGA019","ADM2_NAME":"Markafi","ADM2_CODE":"NGA019018","HRname":"Markafi","HRpcode":"NG019018","HRparent":"NG019","Shape_Leng":0.867393949207,"Shape_Area":0.0447884102278,"ADM2_New":"Markafi","id":"NG-KD-MARKAFI","name":"Markafi","parentId":"NG-KD","stateName":"Kaduna","regionId":"NG-NW","fillColor":"#8fbc8f"},"geometry":{"type":"Polygon","coordinates":[[[7.848203182000077,11.37672615100007],[7.867611885000088,11.380682945000046],[7.937151909000079,11.441698074000044],[7.990206718000081,11.469874382000057],[8.017658234000066,11.432021141000064],[8.041563988000064,11.380610466000064],[8.088289261000057,11.325576782000041],[8.135577202000093,11.247262001000081],[8.126397133000069,11.238660812000091],[8.089039803000048,11.22508907300005],[7.953960896000069,11.223532677000037],[7.895170212000039,11.21726131400004],[7.874898911000059,11.262554169000055],[7.877334118000078,11.300550461000057],[7.873961449000092,11.315247536000072],[7.8541026120000765,11.33235454600009],[7.84462261200008,11.355616570000052],[7.848203182000077,11.37672615100007]]]}},{"type":"Feature","properties":{"CNTRY_NAME":"Nigeria","CNTRY_CODE":"NGA","ADM1_NAME":"Kaduna","ADM1_CODE":"NGA019","ADM2_NAME":"Sabon-Gari","ADM2_CODE":"NGA019019","HRname":"Sabon-Gari","HRpcode":"NG019019","HRparent":"NG019","Shape_Leng":0.633256639013,"Shape_Area":0.0218151108728,"ADM2_New":"Sabon-Gari","id":"NG-KD-SABON-GARI","name":"Sabon-Gari","parentId":"NG-KD","stateName":"Kaduna","regionId":"NG-NW","fillColor":"#a8c686"},"geometry":{"type":"Polygon","coordinates":[[[7.6253485680000495,11.266844749000086],[7.654687881000086,11.226475716000039],[7.675821304000067,11.209371567000062],[7.6821537020000505,11.208161354000083],[7.708007812000062,11.220479012000055],[7.751135826000052,11.214458466000053],[7.768597126000088,11.202245712000092],[7.78040027600008,11.171637535000059],[7.783210754000038,11.138555527000051],[7.742068768000081,11.084534645000076],[7.712992191000069,11.09181594800009],[7.696879864000039,11.10648345900006],[7.64929294600006,11.13332653000009],[7.589828014000091,11.146660805000067],[7.579748631000086,11.150312424000049],[7.572404385000084,11.160099030000083],[7.579260826000052,11.217713356000047],[7.6033167840000715,11.254536629000086],[7.6253485680000495,11.266844749000086]]]}},{"type":"Feature","properties":{"CNTRY_NAME":"Nigeria","CNTRY_CODE":"NGA","ADM1_NAME":"Kaduna","ADM1_CODE":"NGA019","ADM2_NAME":"Sanga","ADM2_CODE":"NGA019020","HRname":"Sanga","HRpcode":"NG019020","HRparent":"NG019","Shape_Leng":1.92936218963,"Shape_Area":0.103377917603,"ADM2_New":"Sanga","id":"NG-KD-SANGA","name":"Sanga","parentId":"NG-KD","stateName":"Kaduna","regionId":"NG-NW","fillColor":"#c2b280"},"geometry":{"type":"Polygon","coordinates":[[[8.586234093000087,9.481567383000083],[8.602242470000078,9.476547241000048],[8.61766147600008,9.434761047000052],[8.642338753000047,9.401107788000047],[8.656154633000085,9.393999100000087],[8.669525146000069,9.396523476000084],[8.695412636000071,9.37836742400009],[8.689414978000059,9.341422081000076],[8.698085785000046,9.320570946000089],[8.678983688000073,9.275321960000042],[8.671559334000051,9.269200325000043],[8.648664474000043,9.264323235000063],[8.63591671000006,9.24831295000007],[8.638195992000078,9.240692139000089],[8.650911331000088,9.23471164700004],[8.65973568000004,9.22355175000007],[8.649191856000073,9.17132663700005],[8.620715141000062,9.114884377000067],[8.566833496000072,9.060831070000063],[8.554131508000069,9.020359039000084],[8.53326129900006,9.004377365000039],[8.50434589400004,9.001431465000053],[8.490657806000058,9.037734985000043],[8.476561546000084,9.055354118000082],[8.47391891500007,9.072973251000064],[8.446608543000082,9.112617493000073],[8.395512581000048,9.16195106500004],[8.38731193500007,9.175717354000085],[8.332963943000038,9.17780876200004],[8.288684845000091,9.198684692000086],[8.251033783000082,9.191023827000038],[8.248138428000061,9.182249069000079],[8.255879402000062,9.178689957000074],[8.23825931500005,9.139926910000042],[8.160416603000044,9.066604614000084],[8.135277748000078,9.051707268000087],[8.144921303000046,9.094111443000088],[8.154401779000068,9.112517357000058],[8.196479797000052,9.15551185600009],[8.258679390000054,9.231644630000062],[8.251597404000051,9.25000953700004],[8.25437068900004,9.25736904100006],[8.264786720000075,9.264747620000037],[8.299035072000038,9.259929657000043],[8.359173775000045,9.268654823000077],[8.399790764000045,9.263852119000092],[8.418975830000079,9.266350746000057],[8.425795555000093,9.281072617000063],[8.425120354000057,9.300679207000087],[8.434450150000089,9.314182281000058],[8.465775490000055,9.338768959000049],[8.498785973000054,9.41850566900007],[8.51594734200006,9.438155174000087],[8.586234093000087,9.481567383000083]]]}},{"type":"Feature","properties":{"CNTRY_NAME":"Nigeria","CNTRY_CODE":"NGA","ADM1_NAME":"Kaduna","ADM1_CODE":"NGA019","ADM2_NAME":"Soba","ADM2_CODE":"NGA019021","HRname":"Soba","HRpcode":"NG019021","HRparent":"NG019","Shape_Leng":1.81444743703,"Shape_Area":0.184835162431,"ADM2_New":"Soba","id":"NG-KD-SOBA","name":"Soba","parentId":"NG-KD","stateName":"Kaduna","regionId":"NG-NW","fillColor":"#9bb898"},"geometry":{"type":"Polygon","coordinates":[[[7.895170212000039,11.21726131400004],[7.953960896000069,11.223532677000037],[8.035070419000078,11.223731041000065],[8.052731514000072,11.204166412000063],[8.150341034000064,11.146808624000073],[8.16870403300004,11.129142761000082],[8.15850925400008,11.122318268000072],[8.15753555300006,11.09045410200008],[8.175446510000086,11.051281929000083],[8.208720207000056,11.01459884600007],[8.267510414000071,10.979204178000089],[8.283585548000076,10.963312149000046],[8.285796165000079,10.952288628000076],[8.263090134000038,10.917919159000064],[8.221199036000087,10.881052017000059],[8.183354378000047,10.851548195000078],[8.109463692000077,10.809700012000064],[8.062551498000062,10.77527236900005],[8.041231155000048,10.74458313000008],[8.013991356000076,10.686918259000038],[7.971500397000057,10.672108650000041],[7.856055260000062,10.687756538000087],[7.840242386000057,10.712227821000056],[7.826266289000046,10.755085945000076],[7.78325033200008,10.80645084400004],[7.774032593000072,10.838290215000086],[7.774332523000055,10.848094940000067],[7.8115768430000685,10.899656296000046],[7.825365543000089,10.934003830000051],[7.8244662280000625,10.94625663800008],[7.797599792000085,10.984180450000053],[7.790518284000086,11.002545357000088],[7.802246094000054,11.052819252000063],[7.795875549000073,11.094470024000088],[7.784896851000042,11.110374451000041],[7.776016712000057,11.111577988000079],[7.756382465000058,11.094372749000058],[7.7513613700000406,11.096812248000049],[7.776690960000053,11.133638382000072],[7.895170212000039,11.21726131400004]]]}},{"type":"Feature","properties":{"CNTRY_NAME":"Nigeria","CNTRY_CODE":"NGA","ADM1_NAME":"Kaduna","ADM1_CODE":"NGA019","ADM2_NAME":"Zango-Kataf","ADM2_CODE":"NGA019022","HRname":"Zango-Kataf","HRpcode":"NG019022","HRparent":"NG019","Shape_Leng":1.96303662772,"Shape_Area":0.21998412955,"ADM2_New":"Zango-Kataf","id":"NG-KD-ZANGO-KATAF","name":"Zango-Kataf","parentId":"NG-KD","stateName":"Kaduna","regionId":"NG-NW","fillColor":"#6ba3be"},"geometry":{"type":"Polygon","coordinates":[[[8.054574966000075,10.097560883000085],[8.163911819000077,10.132142067000075],[8.218168259000038,10.156784058000085],[8.240575790000037,10.098015785000086],[8.276097298000082,10.05153465300009],[8.338897705000079,10.02227687800007],[8.403683662000049,10.016308784000046],[8.45501709000007,9.987022400000058],[8.494811058000039,9.871924400000069],[8.519728661000045,9.853603363000047],[8.52804756200004,9.834015846000057],[8.51616954800005,9.737174034000077],[8.53254413600007,9.689419746000056],[8.520966530000067,9.68571567500004],[8.49818420400004,9.690561295000066],[8.452171326000041,9.685546875000057],[8.402636528000073,9.690327644000092],[8.370449066000049,9.67921924600006],[8.352276802000063,9.62647914900009],[8.283032417000072,9.569936752000046],[8.270368576000067,9.530691147000084],[8.201161385000091,9.517041206000044],[8.192393303000074,9.521921158000055],[8.18283748600004,9.520467758000052],[8.172234535000086,9.529224396000075],[8.130492210000057,9.580593109000063],[8.125958443000059,9.640630722000083],[8.115316391000079,9.66756534600006],[8.070389748000082,9.698091507000072],[8.00744056700006,9.722447395000074],[7.996499062000055,9.739577293000082],[8.001594543000067,9.781256676000055],[7.996685505000073,9.829038620000063],[7.973229408000066,9.895156860000043],[7.978436947000091,9.940512657000056],[8.011073112000076,10.007993698000064],[8.046931267000048,10.055875778000086],[8.054574966000075,10.097560883000085]]]}},{"type":"Feature","properties":{"CNTRY_NAME":"Nigeria","CNTRY_CODE":"NGA","ADM1_NAME":"Kaduna","ADM1_CODE":"NGA019","ADM2_NAME":"Zaria","ADM2_CODE":"NGA019023","HRname":"Zaria","HRpcode":"NG019023","HRparent":"NG019","Shape_Leng":0.675478105383,"Shape_Area":0.0248128973417,"ADM2_New":"Zaria","id":"NG-KD-ZARIA","name":"Zaria","parentId":"NG-KD","stateName":"Kaduna","regionId":"NG-NW","fillColor":"#89a96d"},"geometry":{"type":"Polygon","coordinates":[[[7.62664175000009,11.136588097000072],[7.64929294600006,11.13332653000009],[7.696879864000039,11.10648345900006],[7.710481644000083,11.093034744000079],[7.736972809000065,11.08452129400007],[7.742068768000081,11.084534645000076],[7.7513613700000406,11.096812248000049],[7.756382465000058,11.094372749000058],[7.7641758920000825,11.099293709000051],[7.776016712000057,11.111577988000079],[7.784896851000042,11.110374451000041],[7.7982363700000406,11.088348389000089],[7.802246094000054,11.052819252000063],[7.800409794000075,11.034432411000068],[7.790892601000053,11.014801025000054],[7.790518284000086,11.002545357000088],[7.7995805740000606,10.977532387000053],[7.754921913000089,10.963242531000049],[7.72685670900006,10.961948395000093],[7.65577602400009,10.970353127000067],[7.625463009000043,10.978857040000037],[7.613098145000038,10.99108123800005],[7.6086387630000445,11.011903763000078],[7.63108301200009,11.079360962000067],[7.62664175000009,11.136588097000072]]]}},{"type":"Feature","properties":{"CNTRY_NAME":"Nigeria","CNTRY_CODE":"NGA","ADM1_NAME":"Kaduna","ADM1_CODE":"NGA019","ADM2_NAME":"Kaduna South","ADM2_CODE":"NGA019010","HRname":"Kaduna South","HRpcode":"NG019010","HRparent":"NG019","Shape_Leng":0.355301787278,"Shape_Area":0.00490097826409,"ADM2_New":"Kaduna South","id":"NG-KD-KADUNA-SOUTH","name":"Kaduna South","parentId":"NG-KD","stateName":"Kaduna","regionId":"NG-NW","fillColor":"#b5c99a"},"geometry":{"type":"Polygon","coordinates":[[[7.399914742000078,10.56165790600005],[7.421404362000089,10.554340363000051],[7.419606209000051,10.537178993000055],[7.410275936000062,10.523675919000084],[7.401808262000088,10.496694565000041],[7.407878399000083,10.486906052000052],[7.424327850000054,10.483269691000089],[7.428899288000082,10.46612358100009],[7.422978878000038,10.439148903000046],[7.411063671000079,10.42441368100009],[7.393340588000058,10.428047180000078],[7.379701138000087,10.44026947000009],[7.376066685000069,10.446386337000092],[7.377940178000074,10.465999603000057],[7.3668317790000515,10.471589088000087],[7.3713827130000595,10.501522064000085],[7.3872699740000485,10.521168709000051],[7.399914742000078,10.56165790600005]]]}}]}