{"type":"FeatureCollection","features":[{"type":"Feature","properties":{"CNTRY_NAME":"Nigeria","CNTRY_CODE":"NGA","ADM1_NAME":"Kano","ADM1_CODE":"NGA020","ADM2_NAME":"Ajingi","ADM2_CODE":"NGA020001","HRname":"Ajingi","HRpcode":"NG020001","HRparent":"NG020","Shape_Leng":1.2724690555,"Shape_Area":0.0592923582083,"ADM2_New":"Ajingi","id":"NG-KN-AJINGI","name":"Ajingi","parentId":"NG-KN","stateName":"Kano","regionId":"NG-NW","fillColor":"#6BA368"},"geometry":{"type":"Polygon","coordinates":[[[9.043839455000068,12.079520226000056],[9.05881118800005,12.084670067000047],[9.070607185000085,12.07800006900004],[9.083898544000078,12.03901004800008],[9.096947670000077,12.023050308000052],[9.120449066000049,12.01527023300008],[9.135657310000056,12.016610146000062],[9.14599227900004,12.03004169500008],[9.148050308000052,12.062809944000037],[9.165187836000086,12.10332012200007],[9.196629524000059,12.11981964100005],[9.213033676000066,12.118869781000058],[9.22239589700007,12.084775925000088],[9.21634578700008,12.02678966500008],[9.221211433000065,12.009579659000053],[9.225967407000041,12.002730370000052],[9.251157761000059,12.00131034900005],[9.254138947000058,11.996159554000087],[9.249541283000042,11.988050461000057],[9.22164726300008,11.96813964800009],[9.219390869000051,11.960049629000082],[9.238681793000069,11.907320023000068],[9.234156609000081,11.892290115000037],[9.126349449000088,11.88640976000005],[9.10259342200004,11.86581993100009],[9.086295128000074,11.865289688000075],[9.021655083000041,11.880660057000057],[8.992591858000083,11.878549576000069],[8.974355698000068,11.90009021800006],[8.95568847700008,11.900650024000072],[8.941962242000045,11.893210411000041],[8.925663948000079,11.892680168000084],[8.915023804000043,11.89698982200008],[8.90726470900006,11.918889999000044],[8.901281357000073,11.923350334000077],[8.893172264000043,11.921919823000053],[8.882101059000092,11.90524005900005],[8.871786118000045,11.900239944000077],[8.86848068200004,11.928110123000067],[8.85855674700008,11.945269585000062],[8.870345116000067,11.974789619000092],[8.903373718000068,11.996850014000074],[8.925639153000077,12.02670955700006],[9.006031990000054,12.060799599000063],[9.017798424000091,12.071680069000081],[9.043839455000068,12.079520226000056]]]}},{"type":"Feature","properties":{"CNTRY_NAME":"Nigeria","CNTRY_CODE":"NGA","ADM1_NAME":"Kano","ADM1_CODE":"NGA020","ADM2_NAME":"Albasu","ADM2_CODE":"NGA020002","HRname":"Albasu","HRpcode":"NG020002","HRparent":"NG020","Shape_Leng":1.31052238653,"Shape_Area":0.0330303711339,"ADM2_New":"Albasu","id":"NG-KN-ALBASU","name":"Albasu","parentId":"NG-KN","stateName":"Kano","regionId":"NG-NW","fillColor":"#C4A574"},"geometry":{"type":"Polygon","coordinates":[[[8.972121239000046,11.672309875000053],[9.002840996000089,11.685409546000074],[9.041421890000038,11.682000160000086],[9.067749977000062,11.695679665000057],[9.144869804000052,11.690039635000062],[9.19480705300009,11.695170403000077],[9.206001282000045,11.70835018200006],[9.223464012000079,11.708919525000056],[9.246453285000086,11.725489616000061],[9.233828545000051,11.701160431000062],[9.222084045000088,11.704469681000091],[9.217450142000075,11.699810028000059],[9.23429012300005,11.65740966800007],[9.241338730000052,11.655190468000058],[9.276390076000041,11.66252040900008],[9.262815475000082,11.617449760000056],[9.272337914000047,11.602600098000039],[9.305339813000046,11.582269669000084],[9.359975815000041,11.575396538000064],[9.365196228000059,11.569179535000046],[9.351237297000068,11.554590225000084],[9.322052002000078,11.555959702000052],[9.31518936200007,11.552240372000085],[9.287843704000068,11.567669868000053],[9.245176315000037,11.554619789000071],[9.227672577000078,11.55521011400009],[9.216747284000064,11.567680359000065],[9.22150993300005,11.598139763000063],[9.21652793900006,11.607299805000082],[9.183605194000052,11.615550041000063],[9.17437362700008,11.612919807000083],[9.163488388000076,11.624219894000078],[9.171027184000081,11.641940117000047],[9.149786949000088,11.649410248000038],[9.09841728200007,11.618599892000077],[9.086058617000049,11.605369568000071],[9.074108124000077,11.580510139000069],[9.060642242000085,11.532279968000068],[9.056311607000055,11.522820473000081],[9.051654816000053,11.522660255000062],[8.947033882000085,11.614819527000066],[8.942849159000048,11.634499550000044],[8.94826316800004,11.646329880000053],[8.970178604000068,11.652870178000057],[8.972121239000046,11.672309875000053]]]}},{"type":"Feature","properties":{"CNTRY_NAME":"Nigeria","CNTRY_CODE":"NGA","ADM1_NAME":"Kano","ADM1_CODE":"NGA020","ADM2_NAME":"Bagwai","ADM2_CODE":"NGA020003","HRname":"Bagwai","HRpcode":"NG020003","HRparent":"NG020","Shape_Leng":0.786557516096,"Shape_Area":0.0336456359574,"ADM2_New":"Bagwai","id":"NG-KN-BAGWAI","name":"Bagwai","parentId":"NG-KN","stateName":"Kano","regionId":"NG-NW","fillColor":"#5B8FA8"},"geometry":{"type":"Polygon","coordinates":[[[8.136273384000049,12.202580452000063],[8.14554595900006,12.204050064000057],[8.189189911000085,12.18916034700004],[8.20281028700009,12.16629028300008],[8.21081256900004,12.137419701000056],[8.228723526000067,12.125180244000092],[8.239729881000073,12.11038970900006],[8.251037598000039,12.053649902000075],[8.246438026000078,12.01852989200006],[8.219108582000047,12.000160217000087],[8.169455528000071,11.986880302000088],[8.15962505300007,11.977569580000079],[8.136655807000068,11.991640091000079],[8.123199463000049,12.00984954800009],[8.123386383000081,12.03783035300006],[8.114707947000056,12.05268955200006],[8.08989334100005,12.062370300000055],[8.03505516100006,12.064080238000088],[8.020556450000072,12.078760147000082],[8.012635231000047,12.10531044000004],[8.01750278500009,12.166069984000046],[8.047136307000073,12.151889801000038],[8.059250832000089,12.172100067000088],[8.075386047000052,12.177289963000078],[8.097749710000073,12.171019554000054],[8.120219231000078,12.195070267000062],[8.136273384000049,12.202580452000063]]]}},{"type":"Feature","properties":{"CNTRY_NAME":"Nigeria","CNTRY_CODE":"NGA","ADM1_NAME":"Kano","ADM1_CODE":"NGA020","ADM2_NAME":"Bebeji","ADM2_CODE":"NGA020004","HRname":"Bebeji","HRpcode":"NG020004","HRparent":"NG020","Shape_Leng":1.01599218523,"Shape_Area":0.0594339206602,"ADM2_New":"Bebeji","id":"NG-KN-BEBEJI","name":"Bebeji","parentId":"NG-KN","stateName":"Kano","regionId":"NG-NW","fillColor":"#A8BF7A"},"geometry":{"type":"Polygon","coordinates":[[[8.292622566000091,11.73099041000006],[8.301056862000053,11.723110199000075],[8.31755828900009,11.71782016800006],[8.329705238000088,11.670430183000065],[8.35232925400004,11.623390198000038],[8.420599937000077,11.570839882000087],[8.429741859000046,11.509360313000059],[8.424898148000068,11.48122978200007],[8.411620140000082,11.46098995200009],[8.41874408700005,11.423919678000061],[8.414900780000039,11.400489807000042],[8.372884750000082,11.368809700000043],[8.364019394000081,11.355699539000057],[8.316319466000039,11.32394981400006],[8.278196335000075,11.343580246000045],[8.254668236000043,11.349800110000047],[8.237922668000067,11.362079620000088],[8.208313942000075,11.408900261000042],[8.202557564000074,11.440179825000087],[8.206318855000063,11.465940475000082],[8.229651451000052,11.531970024000088],[8.226712227000064,11.549360275000083],[8.231760025000085,11.571669579000059],[8.22459602400005,11.609889984000063],[8.253113747000043,11.66094017000006],[8.259407043000067,11.680959702000052],[8.292622566000091,11.73099041000006]]]}},{"type":"Feature","properties":{"CNTRY_NAME":"Nigeria","CNTRY_CODE":"NGA","ADM1_NAME":"Kano","ADM1_CODE":"NGA020","ADM2_NAME":"Bichi","ADM2_CODE":"NGA020005","HRname":"Bichi","HRpcode":"NG020005","HRparent":"NG020","Shape_Leng":1.16562858652,"Shape_Area":0.0508607995202,"ADM2_New":"Bichi","id":"NG-KN-BICHI","name":"Bichi","parentId":"NG-KN","stateName":"Kano","regionId":"NG-NW","fillColor":"#B8956B"},"geometry":{"type":"Polygon","coordinates":[[[8.090344429000083,12.361060143000088],[8.116156578000073,12.377920151000069],[8.126593590000084,12.37942028000009],[8.163496971000086,12.357319832000087],[8.222438812000064,12.338259697000069],[8.245168686000056,12.321519852000051],[8.300820351000084,12.296529770000063],[8.313545227000077,12.299280167000063],[8.332415581000078,12.292900085000042],[8.334988594000038,12.285989761000053],[8.345506668000041,12.285169601000064],[8.357865334000053,12.298390388000087],[8.378900528000088,12.29675006900004],[8.402982712000039,12.308019638000076],[8.443906784000092,12.345930099000043],[8.48941612200008,12.302680016000068],[8.498133659000075,12.273790359000088],[8.488512993000086,12.261859894000054],[8.47905254400007,12.232419968000045],[8.468860626000037,12.223930359000065],[8.455932617000087,12.227000237000084],[8.457772255000066,12.24104976700005],[8.453953743000056,12.250249863000079],[8.44335460700006,12.253399849000061],[8.415821075000053,12.240839958000038],[8.412939072000086,12.223270416000048],[8.383728981000047,12.192009926000082],[8.352663040000039,12.180509567000058],[8.33395481100007,12.182229996000046],[8.323639870000079,12.177229881000073],[8.300046921000046,12.15198040000007],[8.27455711400006,12.14764976500004],[8.256810188000088,12.155229568000038],[8.244639397000071,12.169989586000042],[8.210430145000089,12.18169021600005],[8.193799973000068,12.182310104000067],[8.177304268000057,12.195759773000077],[8.136273384000049,12.202580452000063],[8.125389099000074,12.213879585000086],[8.119388580000077,12.252149582000072],[8.109627724000063,12.264650345000064],[8.106322289000047,12.292510033000042],[8.082289696000089,12.34650993300005],[8.090344429000083,12.361060143000088]]]}},{"type":"Feature","properties":{"CNTRY_NAME":"Nigeria","CNTRY_CODE":"NGA","ADM1_NAME":"Kano","ADM1_CODE":"NGA020","ADM2_NAME":"Bunkure","ADM2_CODE":"NGA020006","HRname":"Bunkure","HRpcode":"NG020006","HRparent":"NG020","Shape_Leng":1.08202420551,"Shape_Area":0.040420923654,"ADM2_New":"Bunkure","id":"NG-KN-BUNKURE","name":"Bunkure","parentId":"NG-KN","stateName":"Kano","regionId":"NG-NW","fillColor":"#6AADA3"},"geometry":{"type":"Polygon","coordinates":[[[8.76193046600008,11.734620094000093],[8.757266045000051,11.70886039700008],[8.761922836000053,11.709010124000088],[8.766025543000069,11.691659927000046],[8.765756607000071,11.666009903000088],[8.75954532600008,11.643670082000085],[8.766016960000059,11.625229836000074],[8.74730873100009,11.626950264000072],[8.654732704000082,11.604249954000068],[8.622026443000038,11.61003971100007],[8.595657349000078,11.597530365000068],[8.589323997000065,11.57866954800005],[8.574515343000087,11.568860054000083],[8.56379318200004,11.575510025000085],[8.560691833000078,11.597550392000073],[8.549009323000064,11.598340034000046],[8.49173641200008,11.569660187000068],[8.472114563000048,11.572950363000075],[8.474583626000083,11.593580246000045],[8.443549156000074,11.681139946000087],[8.459278107000046,11.69797039000008],[8.498249054000041,11.716730118000044],[8.503867149000087,11.72274017300009],[8.506789207000054,11.739150047000066],[8.526848793000056,11.765439987000093],[8.555627823000066,11.775710106000076],[8.575622559000067,11.770529747000069],[8.61068534900005,11.734379768000053],[8.645016670000075,11.719180107000057],[8.659287453000047,11.67768955200006],[8.66904926300009,11.665189743000042],[8.679648399000087,11.66203975700006],[8.684305191000078,11.66219043700005],[8.694090843000083,11.68231964100005],[8.694481850000045,11.704480171000057],[8.704511642000057,11.717630386000053],[8.705268860000047,11.729310036000072],[8.717219353000075,11.75417995500004],[8.734560013000078,11.758239746000072],[8.748815536000052,11.750539780000054],[8.76193046600008,11.734620094000093]]]}},{"type":"Feature","properties":{"CNTRY_NAME":"Nigeria","CNTRY_CODE":"NGA","ADM1_NAME":"Kano","ADM1_CODE":"NGA020","ADM2_NAME":"Dala","ADM2_CODE":"NGA020007","HRname":"Dala","HRpcode":"NG020007","HRparent":"NG020","Shape_Leng":0.172869760153,"Shape_Area":0.00158293432073,"ADM2_New":"Dala","id":"NG-KN-DALA","name":"Dala","parentId":"NG-KN","stateName":"Kano","regionId":"NG-NW","fillColor":"#8FAF6E"},"geometry":{"type":"Polygon","coordinates":[[[8.467647552000074,12.007940292000058],[8.496450424000045,12.03485012100009],[8.518056870000066,12.016909599000087],[8.532641411000043,11.989859581000076],[8.507432938000079,11.987420082000085],[8.467647552000074,12.007940292000058]]]}},{"type":"Feature","properties":{"CNTRY_NAME":"Nigeria","CNTRY_CODE":"NGA","ADM1_NAME":"Kano","ADM1_CODE":"NGA020","ADM2_NAME":"Dambatta","ADM2_CODE":"NGA020008","HRname":"Dambatta","HRpcode":"NG020008","HRparent":"NG020","Shape_Leng":1.30366724303,"Shape_Area":0.0608690738137,"ADM2_New":"Dambatta","id":"NG-KN-DAMBATTA","name":"Dambatta","parentId":"NG-KN","stateName":"Kano","regionId":"NG-NW","fillColor":"#D4C4A0"},"geometry":{"type":"Polygon","coordinates":[[[8.550526619000038,12.594169617000091],[8.597985268000059,12.597599983000066],[8.627826691000053,12.588952065000058],[8.648221016000093,12.595221519000063],[8.657731056000046,12.588839531000076],[8.687049866000052,12.584589958000038],[8.714098930000091,12.57339954400004],[8.719116211000085,12.566590309000048],[8.712024689000089,12.54804039000004],[8.681911469000056,12.516590118000067],[8.678616524000063,12.495829582000056],[8.683482170000048,12.478610039000046],[8.707165718000056,12.453570366000065],[8.718934059000048,12.447950363000075],[8.764380455000037,12.43869972200008],[8.782388687000093,12.426839828000084],[8.815292358000079,12.415730476000078],[8.816572189000055,12.405380249000075],[8.740233421000084,12.315799713000047],[8.731102943000053,12.271685600000069],[8.714386940000054,12.301870346000044],[8.697925568000073,12.30599021900008],[8.678420067000047,12.297200203000045],[8.659605026000065,12.26861000100007],[8.611280441000076,12.250720024000088],[8.593800545000079,12.283949852000092],[8.583144188000063,12.322059631000059],[8.556840897000086,12.341019630000062],[8.534420013000044,12.382240295000088],[8.522697449000077,12.384189606000064],[8.51699829100005,12.38051033000005],[8.499185562000093,12.35661983500006],[8.493365288000064,12.356430054000043],[8.488463402000093,12.36326026900008],[8.502621651000084,12.391690254000082],[8.505405426000038,12.445400238000047],[8.512619019000056,12.472439766000036],[8.566601753000043,12.495180130000051],[8.557598114000086,12.51935958900009],[8.530643463000047,12.556940079000071],[8.53858852400009,12.563030243000071],[8.549147606000076,12.561039925000046],[8.556010246000085,12.564760208000052],[8.556686401000093,12.578769684000065],[8.550526619000038,12.594169617000091]]]}},{"type":"Feature","properties":{"CNTRY_NAME":"Nigeria","CNTRY_CODE":"NGA","ADM1_NAME":"Kano","ADM1_CODE":"NGA020","ADM2_NAME":"Dawakin Kudu","ADM2_CODE":"NGA020009","HRname":"Dawakin Kudu","HRpcode":"NG020009","HRparent":"NG020","Shape_Leng":0.932816843206,"Shape_Area":0.0318915910977,"ADM2_New":"Dawakin Kudu","id":"NG-KN-DAWAKIN-KUDU","name":"Dawakin Kudu","parentId":"NG-KN","stateName":"Kano","regionId":"NG-NW","fillColor":"#688EB5"},"geometry":{"type":"Polygon","coordinates":[[[8.559234619000051,11.872559547000037],[8.597448349000047,11.879639626000085],[8.614584923000052,11.889519691000089],[8.631223679000072,11.927169800000058],[8.641467094000063,11.920700073000091],[8.665849686000058,11.890029907000041],[8.70042419400005,11.867850304000058],[8.728706360000047,11.825650215000053],[8.742839813000046,11.821439743000042],[8.804622650000056,11.821129799000062],[8.818836212000065,11.81459999100008],[8.832627296000055,11.797960281000087],[8.803042412000082,11.766300201000092],[8.76193046600008,11.734620094000093],[8.748815536000052,11.750539780000054],[8.734560013000078,11.758239746000072],[8.717219353000075,11.75417995500004],[8.705268860000047,11.729310036000072],[8.704511642000057,11.717630386000053],[8.694481850000045,11.704480171000057],[8.694090843000083,11.68231964100005],[8.684305191000078,11.66219043700005],[8.679648399000087,11.66203975700006],[8.66904926300009,11.665189743000042],[8.659287453000047,11.67768955200006],[8.649917603000063,11.712349892000077],[8.636704445000078,11.723569870000063],[8.635849953000047,11.748020172000054],[8.621228218000056,11.766189575000055],[8.597415924000074,11.780570030000092],[8.577893257000085,11.805569649000063],[8.559062958000084,11.81079006200008],[8.518382072000065,11.84092998500006],[8.528248787000052,11.858730316000049],[8.559234619000051,11.872559547000037]]]}},{"type":"Feature","properties":{"CNTRY_NAME":"Nigeria","CNTRY_CODE":"NGA","ADM1_NAME":"Kano","ADM1_CODE":"NGA020","ADM2_NAME":"Dawakin Tofa","ADM2_CODE":"NGA020010","HRname":"Dawakin Tofa","HRpcode":"NG020010","HRparent":"NG020","Shape_Leng":1.11542884841,"Shape_Area":0.0398103385459,"ADM2_New":"Dawakin Tofa","id":"NG-KN-DAWAKIN-TOFA","name":"Dawakin Tofa","parentId":"NG-KN","stateName":"Kano","regionId":"NG-NW","fillColor":"#7CB087"},"geometry":{"type":"Polygon","coordinates":[[[8.498133659000075,12.273790359000088],[8.508425713000065,12.259019852000051],[8.517902374000073,12.25465965300009],[8.527133942000091,12.257300377000092],[8.518756866000047,12.230219841000064],[8.52273845700006,12.216360092000059],[8.517730713000049,12.192890167000087],[8.516518593000058,12.127579689000072],[8.497052193000059,12.117620468000041],[8.46829032900007,12.07355976100007],[8.442084312000077,12.056389809000052],[8.433666229000039,12.030469894000078],[8.438900948000082,11.980759621000061],[8.420038223000063,11.986900330000083],[8.354608536000057,12.05819034600006],[8.334247589000086,12.073840141000062],[8.306103706000044,12.07874965700006],[8.284538269000052,12.095529556000088],[8.239729881000073,12.11038970900006],[8.205871582000043,12.145409584000049],[8.20281028700009,12.16629028300008],[8.195336342000076,12.180029869000066],[8.199912071000085,12.182510376000039],[8.244639397000071,12.169989586000042],[8.256810188000088,12.155229568000038],[8.27455711400006,12.14764976500004],[8.300046921000046,12.15198040000007],[8.323639870000079,12.177229881000073],[8.33395481100007,12.182229996000046],[8.352663040000039,12.180509567000058],[8.383728981000047,12.192009926000082],[8.412939072000086,12.223270416000048],[8.419232368000053,12.24328994800004],[8.44335460700006,12.253399849000061],[8.453953743000056,12.250249863000079],[8.457772255000066,12.24104976700005],[8.455932617000087,12.227000237000084],[8.468860626000037,12.223930359000065],[8.47905254400007,12.232419968000045],[8.488512993000086,12.261859894000054],[8.498133659000075,12.273790359000088]]]}},{"type":"Feature","properties":{"CNTRY_NAME":"Nigeria","CNTRY_CODE":"NGA","ADM1_NAME":"Kano","ADM1_CODE":"NGA020","ADM2_NAME":"Doguwa","ADM2_CODE":"NGA020011","HRname":"Doguwa","HRpcode":"NG020011","HRparent":"NG020","Shape_Leng":1.90342510625,"Shape_Area":0.121872748555,"ADM2_New":"Doguwa","id":"NG-KN-DOGUWA","name":"Doguwa","parentId":"NG-KN","stateName":"Kano","regionId":"NG-NW","fillColor":"#C9B896"},"geometry":{"type":"Polygon","coordinates":[[[8.512828827000078,11.152175903000057],[8.56274318700008,11.172209740000085],[8.592995644000041,11.206999779000057],[8.628148079000084,11.234950066000067],[8.646978378000085,11.229740143000072],[8.662023544000078,11.16613006600005],[8.659507751000092,11.13807010700009],[8.664978027000075,11.114939690000085],[8.679680824000059,11.094440460000044],[8.707352638000089,11.069700241000078],[8.709615707000069,11.038310051000053],[8.717374802000052,11.016420364000055],[8.75070381200004,10.996529579000082],[8.766937256000062,10.965589523000062],[8.788697243000058,10.942250252000065],[8.77262783100008,10.902839661000087],[8.764616966000062,10.865280151000093],[8.769371033000084,10.82929992700008],[8.78564453100006,10.797200203000045],[8.821589470000049,10.769240379000053],[8.82898044600006,10.757820129000038],[8.837984085000073,10.733639717000074],[8.85127830500005,10.720089912000049],[8.854420662000052,10.696880341000053],[8.835419655000067,10.640319824000073],[8.816890717000092,10.603580475000058],[8.80020141600005,10.580889702000093],[8.77940368700007,10.562673569000083],[8.773358345000076,10.566229820000046],[8.756309509000062,10.550256729000068],[8.718164444000081,10.552614212000037],[8.689275742000063,10.566023827000038],[8.665069580000079,10.60763168300008],[8.656901360000063,10.63212108600004],[8.646971703000077,10.64067459100005],[8.612835884000049,10.649169922000056],[8.589406967000059,10.634492874000046],[8.56196117400009,10.627900124000064],[8.536105156000076,10.634050369000079],[8.515582085000062,10.654350281000063],[8.508172035000086,10.695245743000044],[8.526842117000058,10.71145916000006],[8.556031227000062,10.707853317000058],[8.586776733000079,10.714577675000044],[8.58793163300004,10.71848964700007],[8.577030182000044,10.763589859000092],[8.574587822000069,10.833439827000063],[8.567220688000077,10.87749004400007],[8.571494102000088,10.92191028600007],[8.598995209000066,11.00205993700007],[8.596919060000062,11.061440468000058],[8.580050468000081,11.077199936000056],[8.543351173000076,11.09348964700007],[8.52736187000005,11.117440224000063],[8.52052307100007,11.14636039700008],[8.512828827000078,11.152175903000057]]]}},{"type":"Feature","properties":{"CNTRY_NAME":"Nigeria","CNTRY_CODE":"NGA","ADM1_NAME":"Kano","ADM1_CODE":"NGA020","ADM2_NAME":"Fagge","ADM2_CODE":"NGA020012","HRname":"Fagge","HRpcode":"NG020012","HRparent":"NG020","Shape_Leng":0.189088117209,"Shape_Area":0.00172038540337,"ADM2_New":"Fagge","id":"NG-KN-FAGGE","name":"Fagge","parentId":"NG-KN","stateName":"Kano","regionId":"NG-NW","fillColor":"#5E9E78"},"geometry":{"type":"Polygon","coordinates":[[[8.496450424000045,12.03485012100009],[8.521858215000066,12.041509628000085],[8.549366951000081,12.021419525000056],[8.559926033000067,12.019439697000053],[8.550628662000065,11.985340118000067],[8.545748711000044,11.982689857000082],[8.535331726000038,11.989500046000046],[8.518056870000066,12.016909599000087],[8.496450424000045,12.03485012100009]]]}},{"type":"Feature","properties":{"CNTRY_NAME":"Nigeria","CNTRY_CODE":"NGA","ADM1_NAME":"Kano","ADM1_CODE":"NGA020","ADM2_NAME":"Gabasawa","ADM2_CODE":"NGA020013","HRname":"Gabasawa","HRpcode":"NG020013","HRparent":"NG020","Shape_Leng":1.28749041854,"Shape_Area":0.0502993652311,"ADM2_New":"Gabasawa","id":"NG-KN-GABASAWA","name":"Gabasawa","parentId":"NG-KN","stateName":"Kano","regionId":"NG-NW","fillColor":"#94B86A"},"geometry":{"type":"Polygon","coordinates":[[[8.730245590000038,12.214969635000045],[8.740081787000065,12.219079971000042],[8.77922153500009,12.28287982900008],[8.796698570000046,12.291150093000056],[8.807005882000055,12.31315040600009],[8.836263657000075,12.314660072000038],[8.85188484200006,12.276849747000085],[8.863544464000086,12.281599998000047],[8.871460915000057,12.308170319000055],[8.891280174000087,12.316470146000086],[8.905329704000053,12.316639900000041],[8.905438423000078,12.306280136000055],[8.890472412000065,12.281920433000039],[8.889410973000054,12.271550179000087],[8.89663028700005,12.253210068000044],[8.915617943000086,12.22926044500008],[8.954606056000046,12.196339607000084],[8.967885971000044,12.158510208000052],[8.965641022000057,12.14927005800007],[8.951640129000054,12.144490242000074],[8.941417694000052,12.114430428000048],[8.947405815000081,12.101840019000065],[8.94657421100004,12.06958961500004],[8.966510773000039,12.085522652000066],[8.979150772000082,12.08955955500005],[8.992138863000093,12.079350471000055],[9.007408142000088,12.074930191000078],[9.041300774000092,12.081100464000087],[8.987689972000055,12.052049637000039],[8.925639153000077,12.02670955700006],[8.903373718000068,11.996850014000074],[8.866278648000048,11.969340324000086],[8.849226952000038,11.978759766000053],[8.837242126000092,11.979829788000075],[8.81710243200007,11.997529984000039],[8.820310593000045,12.00578975700006],[8.838895798000067,12.00755977600005],[8.842144966000092,12.014659882000046],[8.831446648000053,12.05393981900005],[8.820318222000083,12.072219849000078],[8.800363541000081,12.076239586000042],[8.791971207000074,12.08294963800006],[8.779149055000062,12.116339684000081],[8.781582832000083,12.146719933000043],[8.749784470000066,12.156169891000047],[8.728910446000043,12.15316009500009],[8.734674454000071,12.188309669000091],[8.730245590000038,12.214969635000045]]]}},{"type":"Feature","properties":{"CNTRY_NAME":"Nigeria","CNTRY_CODE":"NGA","ADM1_NAME":"Kano","ADM1_CODE":"NGA020","ADM2_NAME":"Garko","ADM2_CODE":"NGA020014","HRname":"Garko","HRpcode":"NG020014","HRparent":"NG020","Shape_Leng":1.2108901561,"Shape_Area":0.0373364958547,"ADM2_New":"Garko","id":"NG-KN-GARKO","name":"Garko","parentId":"NG-KN","stateName":"Kano","regionId":"NG-NW","fillColor":"#C2A882"},"geometry":{"type":"Polygon","coordinates":[[[8.766016960000059,11.625229836000074],[8.75954532600008,11.643670082000085],[8.765756607000071,11.666009903000088],[8.763208389000056,11.70555973100005],[8.779344559000037,11.710749626000052],[8.792679787000054,11.696029663000047],[8.81367492700008,11.695549965000055],[8.832196236000073,11.665849686000058],[8.855398178000087,11.668939590000036],[8.874797821000072,11.647430420000092],[8.879454613000064,11.647580147000042],[8.880374908000078,11.654600143000039],[8.877557755000055,11.668499947000043],[8.88346004500005,11.666359901000078],[8.903226852000046,11.634369850000041],[8.888621330000092,11.618740082000045],[8.878225327000052,11.616069794000055],[8.874937057000068,11.610139847000085],[8.878754616000037,11.600939751000055],[8.901077271000077,11.59584045400004],[8.953956604000041,11.605719566000062],[9.027597427000046,11.544019699000046],[9.04503631600005,11.511960030000068],[9.041869164000047,11.50253009800008],[9.033923149000088,11.49643993400008],[9.011519432000057,11.503870010000071],[8.979622841000037,11.549449921000075],[8.95568847700008,11.567319870000063],[8.938265800000067,11.565580368000042],[8.896005630000047,11.54090023000009],[8.882523537000054,11.526470184000061],[8.87588119500009,11.483130455000037],[8.853696823000064,11.450940132000085],[8.844481468000083,11.414509773000077],[8.83778095200006,11.406129837000037],[8.79406261400004,11.388669968000045],[8.791132927000092,11.406940460000044],[8.778961182000046,11.421689987000093],[8.772204399000088,11.44828033400006],[8.76039028200006,11.462109566000038],[8.770454407000045,11.498339653000073],[8.764030457000047,11.582039833000067],[8.766016960000059,11.625229836000074]]]}},{"type":"Feature","properties":{"CNTRY_NAME":"Nigeria","CNTRY_CODE":"NGA","ADM1_NAME":"Kano","ADM1_CODE":"NGA020","ADM2_NAME":"Garum Mallam","ADM2_CODE":"NGA020015","HRname":"Garum Mallam","HRpcode":"NG020015","HRparent":"NG020","Shape_Leng":0.595492320784,"Shape_Area":0.0177689840281,"ADM2_New":"Garum Mallam","id":"NG-KN-GARUM-MALLAM","name":"Garum Mallam","parentId":"NG-KN","stateName":"Kano","regionId":"NG-NW","fillColor":"#72A898"},"geometry":{"type":"Polygon","coordinates":[[[8.318925858000057,11.71203994800004],[8.36853790300006,11.726479530000063],[8.393294334000075,11.751759529000083],[8.400238991000037,11.75314998600004],[8.408388138000078,11.753419876000066],[8.424784660000057,11.71782016800006],[8.459588051000082,11.722459793000041],[8.47226715100004,11.703570366000065],[8.446879387000081,11.685910225000043],[8.443834305000053,11.672989845000075],[8.460026741000092,11.64321994800008],[8.459310532000075,11.630370140000082],[8.474583626000083,11.593580246000045],[8.472114563000048,11.572950363000075],[8.456892967000044,11.566189766000036],[8.43569374100008,11.572489738000058],[8.420599937000077,11.570839882000087],[8.363213539000071,11.612090111000043],[8.34618282300005,11.632510185000058],[8.329705238000088,11.670430183000065],[8.318925858000057,11.71203994800004]]]}},{"type":"Feature","properties":{"CNTRY_NAME":"Nigeria","CNTRY_CODE":"NGA","ADM1_NAME":"Kano","ADM1_CODE":"NGA020","ADM2_NAME":"Gaya","ADM2_CODE":"NGA020016","HRname":"Gaya","HRpcode":"NG020016","HRparent":"NG020","Shape_Leng":1.21686355793,"Shape_Area":0.0508862632547,"ADM2_New":"Gaya","id":"NG-KN-GAYA","name":"Gaya","parentId":"NG-KN","stateName":"Kano","regionId":"NG-NW","fillColor":"#D4896A"},"geometry":{"type":"Polygon","coordinates":[[[8.946037292000085,11.893340111000043],[8.95568847700008,11.900650024000072],[8.974355698000068,11.90009021800006],[8.992591858000083,11.878549576000069],[9.021655083000041,11.880660057000057],[9.086295128000074,11.865289688000075],[9.10259342200004,11.86581993100009],[9.126349449000088,11.88640976000005],[9.234156609000081,11.892290115000037],[9.222618103000059,11.87604045900008],[9.207457542000043,11.870100021000042],[9.197104454000055,11.852700233000064],[9.144889832000047,11.807160378000049],[9.140437126000052,11.785229683000068],[9.150252342000044,11.742750168000043],[9.160850525000058,11.737119675000088],[9.186487198000066,11.748940468000058],[9.207622528000059,11.743439674000058],[9.240344048000054,11.749589920000062],[9.248576164000042,11.74623966200005],[9.24915027600008,11.726077080000039],[9.223464012000079,11.708919525000056],[9.206001282000045,11.70835018200006],[9.19480705300009,11.695170403000077],[9.144869804000052,11.690039635000062],[9.067749977000062,11.695679665000057],[9.041421890000038,11.682000160000086],[9.002840996000089,11.685409546000074],[8.972121239000046,11.672309875000053],[8.920722008000041,11.734009743000058],[8.894360542000072,11.787929535000046],[8.899408340000093,11.810239792000061],[8.95795154600006,11.869259834000047],[8.957422256000086,11.884389877000046],[8.946037292000085,11.893340111000043]]]}},{"type":"Feature","properties":{"CNTRY_NAME":"Nigeria","CNTRY_CODE":"NGA","ADM1_NAME":"Kano","ADM1_CODE":"NGA020","ADM2_NAME":"Gezawa","ADM2_CODE":"NGA020017","HRname":"Gezawa","HRpcode":"NG020017","HRparent":"NG020","Shape_Leng":0.799296023654,"Shape_Area":0.0282357049363,"ADM2_New":"Gezawa","id":"NG-KN-GEZAWA","name":"Gezawa","parentId":"NG-KN","stateName":"Kano","regionId":"NG-NW","fillColor":"#9B8B72"},"geometry":{"type":"Polygon","coordinates":[[[8.65650177000009,12.09348964700007],[8.667958260000091,12.096389771000077],[8.73344516800006,12.156800270000076],[8.775598526000067,12.151189804000069],[8.781582832000083,12.146719933000043],[8.779149055000062,12.116339684000081],[8.791971207000074,12.08294963800006],[8.800363541000081,12.076239586000042],[8.820318222000083,12.072219849000078],[8.831446648000053,12.05393981900005],[8.842144966000092,12.014659882000046],[8.838895798000067,12.00755977600005],[8.820310593000045,12.00578975700006],[8.81710243200007,11.997529984000039],[8.837242126000092,11.979829788000075],[8.81321907000006,11.97525978100009],[8.770877838000047,11.952899933000083],[8.75911426500005,11.956009865000055],[8.726622581000072,11.985250473000065],[8.715982437000093,11.989569664000044],[8.688245773000062,11.98283004800004],[8.66099739100008,11.962129593000043],[8.628196716000048,11.966890335000073],[8.613616943000068,11.983889580000039],[8.620194435000087,11.995759964000058],[8.605629921000059,12.012310028000059],[8.60645294200009,12.022120476000055],[8.612070084000038,12.028129578000062],[8.64675045000007,12.03625965100008],[8.662763596000048,12.04493999500005],[8.665727615000037,12.060190201000069],[8.65650177000009,12.09348964700007]]]}},{"type":"Feature","properties":{"CNTRY_NAME":"Nigeria","CNTRY_CODE":"NGA","ADM1_NAME":"Kano","ADM1_CODE":"NGA020","ADM2_NAME":"Gwale","ADM2_CODE":"NGA020018","HRname":"Gwale","HRpcode":"NG020018","HRparent":"NG020","Shape_Leng":0.210372028804,"Shape_Area":0.00151897015645,"ADM2_New":"Gwale","id":"NG-KN-GWALE","name":"Gwale","parentId":"NG-KN","stateName":"Kano","regionId":"NG-NW","fillColor":"#A3C986"},"geometry":{"type":"Polygon","coordinates":[[[8.467647552000074,12.007940292000058],[8.507432938000079,11.987420082000085],[8.532641411000043,11.989859581000076],[8.532287598000039,11.976579666000077],[8.49973106400006,11.974349976000042],[8.472090721000086,11.954620361000082],[8.469975471000055,11.992030144000069],[8.463910103000046,11.998820305000038],[8.467647552000074,12.007940292000058]]]}},{"type":"Feature","properties":{"CNTRY_NAME":"Nigeria","CNTRY_CODE":"NGA","ADM1_NAME":"Kano","ADM1_CODE":"NGA020","ADM2_NAME":"Gwarzo","ADM2_CODE":"NGA020019","HRname":"Gwarzo","HRpcode":"NG020019","HRparent":"NG020","Shape_Leng":0.875005355993,"Shape_Area":0.0326279298467,"ADM2_New":"Gwarzo","id":"NG-KN-GWARZO","name":"Gwarzo","parentId":"NG-KN","stateName":"Kano","regionId":"NG-NW","fillColor":"#8AAB76"},"geometry":{"type":"Polygon","coordinates":[[[7.8336949350000395,11.965359688000092],[7.837253571000076,12.00436306000006],[7.899938107000082,11.96177005800007],[7.906207085000062,11.949150085000042],[7.914558887000055,11.94359970100004],[7.934105873000078,11.95123004900006],[7.947669029000053,11.96333026900004],[7.991908073000047,11.964770317000045],[8.030854225000041,11.950889587000063],[8.048357964000047,11.950300217000063],[8.062387466000075,11.937319756000079],[8.081727982000075,11.929240227000037],[8.11798000300007,11.92576026900008],[8.127741814000046,11.91326046000006],[8.126822472000072,11.906240463000074],[8.115546227000038,11.895380020000061],[8.09603977200004,11.886580467000044],[8.081679344000065,11.863969803000089],[8.038685799000064,11.860239983000042],[8.033231735000072,11.849570274000087],[8.014849663000064,11.841979980000076],[8.00931358300005,11.833640099000093],[7.946650982000051,11.82575988800005],[7.934253216000059,11.813710213000093],[7.921258926000064,11.785309792000078],[7.905002117000038,11.783610344000067],[7.8741641040000445,11.798919678000061],[7.870247841000037,11.844249725000054],[7.842397213000083,11.907440186000088],[7.8336949350000395,11.965359688000092]]]}},{"type":"Feature","properties":{"CNTRY_NAME":"Nigeria","CNTRY_CODE":"NGA","ADM1_NAME":"Kano","ADM1_CODE":"NGA020","ADM2_NAME":"Kabo","ADM2_CODE":"NGA020020","HRname":"Kabo","HRpcode":"NG020020","HRparent":"NG020","Shape_Leng":0.848823834653,"Shape_Area":0.0282887762406,"ADM2_New":"Kabo","id":"NG-KN-KABO","name":"Kabo","parentId":"NG-KN","stateName":"Kano","regionId":"NG-NW","fillColor":"#BFA882"},"geometry":{"type":"Polygon","coordinates":[[[8.062387466000075,11.937319756000079],[8.083633423000038,11.974760056000036],[8.106875420000051,11.976679802000092],[8.123458862000064,11.969059944000037],[8.145659447000071,11.967459679000058],[8.15962505300007,11.977569580000079],[8.17251682300008,11.965999603000057],[8.206685066000091,11.955459595000036],[8.23725509600007,11.914500237000084],[8.244239807000042,11.914730072000054],[8.255148888000065,11.936070442000073],[8.271447182000088,11.936599731000058],[8.303628922000087,11.882869720000087],[8.286980629000084,11.85902023300008],[8.287346840000055,11.848540306000075],[8.300641060000089,11.834989548000067],[8.321123123000064,11.836070061000044],[8.318429947000084,11.826239586000042],[8.302945137000052,11.802430153000046],[8.282315254000082,11.79242992400009],[8.27650260900009,11.783690453000077],[8.256826401000069,11.788100243000088],[8.223269463000065,11.78118038200006],[8.17946052600007,11.800729752000052],[8.156568527000047,11.822130203000086],[8.15242481200005,11.840640068000084],[8.105963707000058,11.869420052000066],[8.093119621000085,11.88346004500005],[8.122367859000065,11.900259972000072],[8.127741814000046,11.91326046000006],[8.124004364000086,11.920129776000067],[8.112077713000076,11.927900314000055],[8.092328072000043,11.926090240000065],[8.062387466000075,11.937319756000079]]]}},{"type":"Feature","properties":{"CNTRY_NAME":"Nigeria","CNTRY_CODE":"NGA","ADM1_NAME":"Kano","ADM1_CODE":"NGA020","ADM2_NAME":"Kano Municipal","ADM2_CODE":"NGA020021","HRname":"Kano Municipal","HRpcode":"NG020021","HRparent":"NG020","Shape_Leng":0.158096383571,"Shape_Area":0.00144419475836,"ADM2_New":"Kano Municipal","id":"NG-KN-KANO-MUNICIPAL","name":"Kano Municipal","parentId":"NG-KN","stateName":"Kano","regionId":"NG-NW","fillColor":"#6BA368"},"geometry":{"type":"Polygon","coordinates":[[[8.472090721000086,11.954620361000082],[8.49973106400006,11.974349976000042],[8.532287598000039,11.976579666000077],[8.517967224000074,11.952799797000068],[8.491842270000063,11.933300018000068],[8.472090721000086,11.954620361000082]]]}},{"type":"Feature","properties":{"CNTRY_NAME":"Nigeria","CNTRY_CODE":"NGA","ADM1_NAME":"Kano","ADM1_CODE":"NGA020","ADM2_NAME":"Karaye","ADM2_CODE":"NGA020022","HRname":"Karaye","HRpcode":"NG020022","HRparent":"NG020","Shape_Leng":0.921180471028,"Shape_Area":0.0397219765411,"ADM2_New":"Karaye","id":"NG-KN-KARAYE","name":"Karaye","parentId":"NG-KN","stateName":"Kano","regionId":"NG-NW","fillColor":"#C4A574"},"geometry":{"type":"Polygon","coordinates":[[[8.093119621000085,11.88346004500005],[8.105963707000058,11.869420052000066],[8.15242481200005,11.840640068000084],[8.156568527000047,11.822130203000086],[8.17946052600007,11.800729752000052],[8.151846886000044,11.790499687000079],[8.095820427000092,11.759539604000054],[8.07416534400005,11.712209702000052],[8.067236900000069,11.677020073000051],[8.044198036000068,11.669269562000068],[8.017097473000092,11.677709579000066],[7.999445915000081,11.649169922000056],[7.941563129000087,11.63794994400007],[7.922732830000086,11.643170357000088],[7.90917778000005,11.653900146000069],[7.909911156000078,11.676549911000052],[7.8814249040000846,11.724570274000087],[7.88293886200006,11.747929573000079],[7.8741641040000445,11.798919678000061],[7.905002117000038,11.783610344000067],[7.921258926000064,11.785309792000078],[7.934253216000059,11.813710213000093],[7.946650982000051,11.82575988800005],[8.00931358300005,11.833640099000093],[8.014849663000064,11.841979980000076],[8.033231735000072,11.849570274000087],[8.038685799000064,11.860239983000042],[8.081679344000065,11.863969803000089],[8.093119621000085,11.88346004500005]]]}},{"type":"Feature","properties":{"CNTRY_NAME":"Nigeria","CNTRY_CODE":"NGA","ADM1_NAME":"Kano","ADM1_CODE":"NGA020","ADM2_NAME":"Kibiya","ADM2_CODE":"NGA020023","HRname":"Kibiya","HRpcode":"NG020023","HRparent":"NG020","Shape_Leng":0.769268186554,"Shape_Area":0.0334674484809,"ADM2_New":"Kibiya","id":"NG-KN-KIBIYA","name":"Kibiya","parentId":"NG-KN","stateName":"Kano","regionId":"NG-NW","fillColor":"#5B8FA8"},"geometry":{"type":"Polygon","coordinates":[[[8.654732704000082,11.604249954000068],[8.74730873100009,11.626950264000072],[8.766016960000059,11.625229836000074],[8.768654823000077,11.483130455000037],[8.747040749000064,11.43463993100005],[8.725247383000067,11.424599648000083],[8.688091278000059,11.387260437000066],[8.617394447000038,11.345740318000082],[8.593914986000073,11.380689621000045],[8.592384338000045,11.39113044700008],[8.60378170000007,11.39848995200009],[8.604743004000056,11.404350281000063],[8.592823982000084,11.478549957000041],[8.602162361000069,11.51148986800007],[8.612314224000045,11.521149635000086],[8.627285004000044,11.526300430000049],[8.64289188400005,11.546620369000038],[8.654732704000082,11.604249954000068]]]}},{"type":"Feature","properties":{"CNTRY_NAME":"Nigeria","CNTRY_CODE":"NGA","ADM1_NAME":"Kano","ADM1_CODE":"NGA020","ADM2_NAME":"Kiru","ADM2_CODE":"NGA020024","HRname":"Kiru","HRpcode":"NG020024","HRparent":"NG020","Shape_Leng":1.63558402426,"Shape_Area":0.0769061916161,"ADM2_New":"Kiru","id":"NG-KN-KIRU","name":"Kiru","parentId":"NG-KN","stateName":"Kano","regionId":"NG-NW","fillColor":"#A8BF7A"},"geometry":{"type":"Polygon","coordinates":[[[8.17946052600007,11.800729752000052],[8.223269463000065,11.78118038200006],[8.256826401000069,11.788100243000088],[8.274370193000038,11.78633976000009],[8.286459923000052,11.77392005900009],[8.292622566000091,11.73099041000006],[8.259407043000067,11.680959702000052],[8.253113747000043,11.66094017000006],[8.22459602400005,11.609889984000063],[8.231760025000085,11.571669579000059],[8.226712227000064,11.549360275000083],[8.229651451000052,11.531970024000088],[8.206318855000063,11.465940475000082],[8.202557564000074,11.440179825000087],[8.208313942000075,11.408900261000042],[8.237922668000067,11.362079620000088],[8.254668236000043,11.349800110000047],[8.278196335000075,11.343580246000045],[8.313813210000092,11.324930191000078],[8.30482578300007,11.315309525000089],[8.275274277000051,11.303959846000055],[8.258177757000055,11.316120148000039],[8.215225220000093,11.31122016900008],[8.187391281000089,11.340609550000067],[8.13598823500007,11.377400398000077],[8.130802155000083,11.392379761000086],[8.132845879000058,11.400609970000062],[8.166899681000075,11.459989548000067],[8.16475868200007,11.487890244000084],[8.156202316000076,11.499270439000043],[8.121953011000073,11.512140274000046],[8.064681053000072,11.483460426000079],[8.053160667000043,11.479590416000065],[8.037863731000073,11.483750343000054],[8.034127235000085,11.49061965900006],[8.038848877000078,11.522250175000067],[8.010379791000048,11.536470413000075],[7.969683170000053,11.60041046100008],[7.970423222000079,11.64589023600007],[7.999445915000081,11.649169922000056],[8.017097473000092,11.677709579000066],[8.044198036000068,11.669269562000068],[8.067236900000069,11.677020073000051],[8.07416534400005,11.712209702000052],[8.095820427000092,11.759539604000054],[8.151846886000044,11.790499687000079],[8.17946052600007,11.800729752000052]]]}},{"type":"Feature","properties":{"CNTRY_NAME":"Nigeria","CNTRY_CODE":"NGA","ADM1_NAME":"Kano","ADM1_CODE":"NGA020","ADM2_NAME":"Kumbotso","ADM2_CODE":"NGA020025","HRname":"Kumbotso","HRpcode":"NG020025","HRparent":"NG020","Shape_Leng":0.557435536077,"Shape_Area":0.0130885664953,"ADM2_New":"Kumbotso","id":"NG-KN-KUMBOTSO","name":"Kumbotso","parentId":"NG-KN","stateName":"Kano","regionId":"NG-NW","fillColor":"#B8956B"},"geometry":{"type":"Polygon","coordinates":[[[8.438192368000045,11.967679977000046],[8.471872330000053,11.971110344000067],[8.472090721000086,11.954620361000082],[8.479793549000078,11.944560051000053],[8.491842270000063,11.933300018000068],[8.509468079000044,11.929209709000077],[8.574050903000057,11.948800087000052],[8.594652176000068,11.960180283000057],[8.627765656000065,11.945890427000052],[8.630867958000067,11.923850060000063],[8.614584923000052,11.889519691000089],[8.581272125000055,11.87561035200008],[8.559234619000051,11.872559547000037],[8.534379005000062,11.883410454000057],[8.46095562000005,11.883339882000087],[8.445495605000076,11.892160416000081],[8.417457581000065,11.92737960800008],[8.438192368000045,11.967679977000046]]]}},{"type":"Feature","properties":{"CNTRY_NAME":"Nigeria","CNTRY_CODE":"NGA","ADM1_NAME":"Kano","ADM1_CODE":"NGA020","ADM2_NAME":"Kunchi","ADM2_CODE":"NGA020026","HRname":"Kunchi","HRpcode":"NG020026","HRparent":"NG020","Shape_Leng":1.17237375567,"Shape_Area":0.0558219101207,"ADM2_New":"Kunchi","id":"NG-KN-KUNCHI","name":"Kunchi","parentId":"NG-KN","stateName":"Kano","regionId":"NG-NW","fillColor":"#6AADA3"},"geometry":{"type":"Polygon","coordinates":[[[8.290033340000093,12.599989891000064],[8.311231613000075,12.578889847000085],[8.311886787000049,12.51671981800007],[8.31670379600007,12.504119873000093],[8.355643272000066,12.475799561000088],[8.374728203000075,12.442640305000054],[8.38177776300006,12.440420151000069],[8.38308620500004,12.443739891000064],[8.39116954800005,12.412529945000074],[8.427153587000078,12.383399963000045],[8.445837021000045,12.349049568000055],[8.402982712000039,12.308019638000076],[8.378900528000088,12.29675006900004],[8.357865334000053,12.298390388000087],[8.345506668000041,12.285169601000064],[8.334988594000038,12.285989761000053],[8.332415581000078,12.292900085000042],[8.313545227000077,12.299280167000063],[8.300820351000084,12.296529770000063],[8.245168686000056,12.321519852000051],[8.222438812000064,12.338259697000069],[8.163496971000086,12.357319832000087],[8.126593590000084,12.37942028000009],[8.116156578000073,12.377920151000069],[8.090344429000083,12.361060143000088],[8.066423416000077,12.366970062000064],[8.04128933000004,12.382889748000082],[8.13142108900007,12.410795212000039],[8.153439522000042,12.429871559000048],[8.188990593000085,12.489789963000078],[8.197299004000058,12.52392005900009],[8.209920883000052,12.540487289000055],[8.207610130000091,12.557889938000073],[8.214612007000085,12.575220108000053],[8.233366966000062,12.585709572000042],[8.277727127000048,12.585391045000051],[8.290033340000093,12.599989891000064]]]}},{"type":"Feature","properties":{"CNTRY_NAME":"Nigeria","CNTRY_CODE":"NGA","ADM1_NAME":"Kano","ADM1_CODE":"NGA020","ADM2_NAME":"Kura","ADM2_CODE":"NGA020027","HRname":"Kura","HRpcode":"NG020027","HRparent":"NG020","Shape_Leng":0.689185841315,"Shape_Area":0.0171361222708,"ADM2_New":"Kura","id":"NG-KN-KURA","name":"Kura","parentId":"NG-KN","stateName":"Kano","regionId":"NG-NW","fillColor":"#8FAF6E"},"geometry":{"type":"Polygon","coordinates":[[[8.393294334000075,11.751759529000083],[8.431720734000066,11.819450378000056],[8.445283890000042,11.831549644000063],[8.465912819000039,11.841549873000076],[8.490401268000085,11.841179848000081],[8.505331993000084,11.847490311000058],[8.568579674000091,11.805270195000048],[8.577893257000085,11.805569649000063],[8.597415924000074,11.780570030000092],[8.621228218000056,11.766189575000055],[8.635849953000047,11.748020172000054],[8.636704445000078,11.723569870000063],[8.61068534900005,11.734379768000053],[8.575622559000067,11.770529747000069],[8.561448097000039,11.775899887000037],[8.526848793000056,11.765439987000093],[8.506789207000054,11.739150047000066],[8.503867149000087,11.72274017300009],[8.486892700000055,11.708200455000053],[8.474208832000045,11.70429039000004],[8.453685760000042,11.724599838000074],[8.424784660000057,11.71782016800006],[8.408388138000078,11.753419876000066],[8.393294334000075,11.751759529000083]]]}},{"type":"Feature","properties":{"CNTRY_NAME":"Nigeria","CNTRY_CODE":"NGA","ADM1_NAME":"Kano","ADM1_CODE":"NGA020","ADM2_NAME":"Madobi","ADM2_CODE":"NGA020028","HRname":"Madobi","HRpcode":"NG020028","HRparent":"NG020","Shape_Leng":0.786758005604,"Shape_Area":0.0226997550666,"ADM2_New":"Madobi","id":"NG-KN-MADOBI","name":"Madobi","parentId":"NG-KN","stateName":"Kano","regionId":"NG-NW","fillColor":"#D4C4A0"},"geometry":{"type":"Polygon","coordinates":[[[8.417457581000065,11.92737960800008],[8.445495605000076,11.892160416000081],[8.46095562000005,11.883339882000087],[8.534379005000062,11.883410454000057],[8.559234619000051,11.872559547000037],[8.528248787000052,11.858730316000049],[8.518382072000065,11.84092998500006],[8.505331993000084,11.847490311000058],[8.490401268000085,11.841179848000081],[8.465912819000039,11.841549873000076],[8.445283890000042,11.831549644000063],[8.431720734000066,11.819450378000056],[8.424222946000043,11.80055999800004],[8.408493996000061,11.783729553000057],[8.383305550000046,11.737449646000073],[8.36853790300006,11.726479530000063],[8.318925858000057,11.71203994800004],[8.313943863000077,11.72119998900007],[8.301056862000053,11.723110199000075],[8.292622566000091,11.73099041000006],[8.286459923000052,11.77392005900009],[8.277821541000037,11.787619591000066],[8.302945137000052,11.802430153000046],[8.321123123000064,11.836070061000044],[8.363612175000071,11.867340088000049],[8.416659355000093,11.916859627000065],[8.417457581000065,11.92737960800008]]]}},{"type":"Feature","properties":{"CNTRY_NAME":"Nigeria","CNTRY_CODE":"NGA","ADM1_NAME":"Kano","ADM1_CODE":"NGA020","ADM2_NAME":"Makoda","ADM2_CODE":"NGA020029","HRname":"Makoda","HRpcode":"NG020029","HRparent":"NG020","Shape_Leng":1.17199016336,"Shape_Area":0.0367150624931,"ADM2_New":"Makoda","id":"NG-KN-MAKODA","name":"Makoda","parentId":"NG-KN","stateName":"Kano","regionId":"NG-NW","fillColor":"#688EB5"},"geometry":{"type":"Polygon","coordinates":[[[8.467391968000072,12.588199615000065],[8.49927806900007,12.586030960000073],[8.550526619000038,12.594169617000091],[8.556686401000093,12.578769684000065],[8.556010246000085,12.564760208000052],[8.549147606000076,12.561039925000046],[8.53858852400009,12.563030243000071],[8.530643463000047,12.556940079000071],[8.557598114000086,12.51935958900009],[8.566601753000043,12.495180130000051],[8.512619019000056,12.472439766000036],[8.505405426000038,12.445400238000047],[8.502621651000084,12.391690254000082],[8.488463402000093,12.36326026900008],[8.493365288000064,12.356430054000043],[8.499185562000093,12.35661983500006],[8.51699829100005,12.38051033000005],[8.522697449000077,12.384189606000064],[8.534420013000044,12.382240295000088],[8.556840897000086,12.341019630000062],[8.583144188000063,12.322059631000059],[8.593800545000079,12.283949852000092],[8.611198425000055,12.253049850000082],[8.604376793000085,12.248160362000078],[8.592694283000071,12.24895000500004],[8.583689690000085,12.273130417000061],[8.572927475000085,12.280929565000065],[8.561611176000042,12.27124023400006],[8.555155754000054,12.255880356000091],[8.542593956000076,12.248479843000041],[8.508425713000065,12.259019852000051],[8.496091843000045,12.27842998500006],[8.48941612200008,12.302680016000068],[8.443906784000092,12.345930099000043],[8.445837021000045,12.349049568000055],[8.427153587000078,12.383399963000045],[8.388637543000073,12.418279648000066],[8.38308620500004,12.443739891000064],[8.388425827000049,12.476200104000043],[8.420388222000042,12.510219574000075],[8.43111515000004,12.536589622000065],[8.439563751000037,12.54584026300006],[8.442568779000055,12.560899734000088],[8.467391968000072,12.588199615000065]]]}},{"type":"Feature","properties":{"CNTRY_NAME":"Nigeria","CNTRY_CODE":"NGA","ADM1_NAME":"Kano","ADM1_CODE":"NGA020","ADM2_NAME":"Minjibir","ADM2_CODE":"NGA020030","HRname":"Minjibir","HRpcode":"NG020030","HRparent":"NG020","Shape_Leng":0.808693027459,"Shape_Area":0.0345791413446,"ADM2_New":"Minjibir","id":"NG-KN-MINJIBIR","name":"Minjibir","parentId":"NG-KN","stateName":"Kano","regionId":"NG-NW","fillColor":"#7CB087"},"geometry":{"type":"Polygon","coordinates":[[[8.611280441000076,12.250720024000088],[8.659605026000065,12.26861000100007],[8.682953835000092,12.300840378000089],[8.708402634000038,12.306329727000048],[8.731102943000053,12.271685600000069],[8.721372604000067,12.216549873000076],[8.730245590000038,12.214969635000045],[8.734674454000071,12.188309669000091],[8.728910446000043,12.15316009500009],[8.667958260000091,12.096389771000077],[8.601128578000043,12.074399948000064],[8.580889702000093,12.086560249000058],[8.54694938700004,12.12390995000004],[8.516518593000058,12.127579689000072],[8.517730713000049,12.192890167000087],[8.52273845700006,12.216360092000059],[8.518756866000047,12.230219841000064],[8.528733253000041,12.255310059000067],[8.542593956000076,12.248479843000041],[8.549456596000084,12.252200127000037],[8.572927475000085,12.280929565000065],[8.583689690000085,12.273130417000061],[8.592694283000071,12.24895000500004],[8.611280441000076,12.250720024000088]]]}},{"type":"Feature","properties":{"CNTRY_NAME":"Nigeria","CNTRY_CODE":"NGA","ADM1_NAME":"Kano","ADM1_CODE":"NGA020","ADM2_NAME":"Nasarawa","ADM2_CODE":"NGA020031","HRname":"Nasarawa","HRpcode":"NG020031","HRparent":"NG020","Shape_Leng":0.211210237914,"Shape_Area":0.00283242986476,"ADM2_New":"Nasarawa","id":"NG-KN-NASARAWA","name":"Nasarawa","parentId":"NG-KN","stateName":"Kano","regionId":"NG-NW","fillColor":"#C9B896"},"geometry":{"type":"Polygon","coordinates":[[[8.559926033000067,12.019439697000053],[8.59372806500005,12.019379616000037],[8.617703438000092,12.000340462000054],[8.619152069000052,11.992230415000051],[8.594652176000068,11.960180283000057],[8.545748711000044,11.982689857000082],[8.55391788500009,11.991270065000037],[8.559926033000067,12.019439697000053]]]}},{"type":"Feature","properties":{"CNTRY_NAME":"Nigeria","CNTRY_CODE":"NGA","ADM1_NAME":"Kano","ADM1_CODE":"NGA020","ADM2_NAME":"Rano","ADM2_CODE":"NGA020032","HRname":"Rano","HRpcode":"NG020032","HRparent":"NG020","Shape_Leng":0.979921084539,"Shape_Area":0.0431492179031,"ADM2_New":"Rano","id":"NG-KN-RANO","name":"Rano","parentId":"NG-KN","stateName":"Kano","regionId":"NG-NW","fillColor":"#5E9E78"},"geometry":{"type":"Polygon","coordinates":[[[8.472114563000048,11.572950363000075],[8.49173641200008,11.569660187000068],[8.549009323000064,11.598340034000046],[8.560691833000078,11.597550392000073],[8.56379318200004,11.575510025000085],[8.574515343000087,11.568860054000083],[8.589323997000065,11.57866954800005],[8.595657349000078,11.597530365000068],[8.603603363000047,11.603610039000046],[8.622026443000038,11.61003971100007],[8.654732704000082,11.604249954000068],[8.64289188400005,11.546620369000038],[8.627285004000044,11.526300430000049],[8.612314224000045,11.521149635000086],[8.602162361000069,11.51148986800007],[8.59574699400008,11.494970322000086],[8.593190193000055,11.468079567000075],[8.604743004000056,11.404350281000063],[8.60378170000007,11.39848995200009],[8.592384338000045,11.39113044700008],[8.601428986000087,11.36577987700008],[8.617394447000038,11.345740318000082],[8.605939865000039,11.336790085000075],[8.585146904000055,11.331450462000078],[8.557003021000071,11.336359978000075],[8.515565872000082,11.354820251000092],[8.485012054000038,11.361980438000046],[8.418062210000073,11.410079956000061],[8.411620140000082,11.46098995200009],[8.424898148000068,11.48122978200007],[8.429741859000046,11.509360313000059],[8.420599937000077,11.570839882000087],[8.43569374100008,11.572489738000058],[8.456892967000044,11.566189766000036],[8.472114563000048,11.572950363000075]]]}},{"type":"Feature","properties":{"CNTRY_NAME":"Nigeria","CNTRY_CODE":"NGA","ADM1_NAME":"Kano","ADM1_CODE":"NGA020","ADM2_NAME":"Rimin Gado","ADM2_CODE":"NGA020033","HRname":"Rimin Gado","HRpcode":"NG020033","HRparent":"NG020","Shape_Leng":0.751034184607,"Shape_Area":0.0187044383009,"ADM2_New":"Rimin Gado","id":"NG-KN-RIMIN-GADO","name":"Rimin Gado","parentId":"NG-KN","stateName":"Kano","regionId":"NG-NW","fillColor":"#94B86A"},"geometry":{"type":"Polygon","coordinates":[[[8.15962505300007,11.977569580000079],[8.169455528000071,11.986880302000088],[8.219108582000047,12.000160217000087],[8.246438026000078,12.01852989200006],[8.249362946000076,12.025779724000074],[8.292369843000074,12.004879951000078],[8.35016346000009,11.95199012800009],[8.361332893000053,11.932539940000083],[8.375628471000084,11.923680305000062],[8.41039085400007,11.929479599000047],[8.417457581000065,11.92737960800008],[8.416659355000093,11.916859627000065],[8.325611115000072,11.83755016300006],[8.300641060000089,11.834989548000067],[8.28987884500009,11.842789650000043],[8.286980629000084,11.85902023300008],[8.303628922000087,11.882869720000087],[8.271447182000088,11.936599731000058],[8.255148888000065,11.936070442000073],[8.244239807000042,11.914730072000054],[8.23725509600007,11.914500237000084],[8.206685066000091,11.955459595000036],[8.17251682300008,11.965999603000057],[8.15962505300007,11.977569580000079]]]}},{"type":"Feature","properties":{"CNTRY_NAME":"Nigeria","CNTRY_CODE":"NGA","ADM1_NAME":"Kano","ADM1_CODE":"NGA020","ADM2_NAME":"Rogo","ADM2_CODE":"NGA020034","HRname":"Rogo","HRpcode":"NG020034","HRparent":"NG020","Shape_Leng":1.02641787488,"Shape_Area":0.0664712760062,"ADM2_New":"Rogo","id":"NG-KN-ROGO","name":"Rogo","parentId":"NG-KN","stateName":"Kano","regionId":"NG-NW","fillColor":"#C2A882"},"geometry":{"type":"Polygon","coordinates":[[[7.90917778000005,11.653900146000069],[7.929881096000088,11.638739586000042],[7.968175888000076,11.643480301000068],[7.972524166000085,11.61915016200004],[7.969683170000053,11.60041046100008],[8.010379791000048,11.536470413000075],[8.038848877000078,11.522250175000067],[8.034127235000085,11.49061965900006],[8.037863731000073,11.483750343000054],[8.00896358500006,11.47698020900009],[7.957748413000047,11.455411911000056],[7.86311721800007,11.378831863000073],[7.7841458320000925,11.377528191000067],[7.777465820000089,11.371832848000054],[7.751364231000082,11.377670288000047],[7.7370681760000934,11.386520386000086],[7.699106216000075,11.438899994000053],[7.685876846000042,11.483920097000066],[7.6893939970000815,11.516670227000077],[7.699179173000061,11.53680038500005],[7.72485590000008,11.569109917000048],[7.72890186300009,11.586720467000077],[7.771039963000078,11.61491012600004],[7.878250122000054,11.648710251000068],[7.900410175000047,11.648260117000063],[7.90917778000005,11.653900146000069]]]}},{"type":"Feature","properties":{"CNTRY_NAME":"Nigeria","CNTRY_CODE":"NGA","ADM1_NAME":"Kano","ADM1_CODE":"NGA020","ADM2_NAME":"Shanono","ADM2_CODE":"NGA020035","HRname":"Shanono","HRpcode":"NG020035","HRparent":"NG020","Shape_Leng":1.23313079028,"Shape_Area":0.0578697469952,"ADM2_New":"Shanono","id":"NG-KN-SHANONO","name":"Shanono","parentId":"NG-KN","stateName":"Kano","regionId":"NG-NW","fillColor":"#72A898"},"geometry":{"type":"Polygon","coordinates":[[[7.83125209800005,12.264719009000089],[7.842838287000063,12.297245026000041],[7.849283218000039,12.30249023400006],[7.886147022000046,12.256190300000071],[7.896234035000077,12.234379768000053],[7.919167995000066,12.21181011200008],[7.975389004000078,12.170530319000079],[8.00079822500004,12.17718029000008],[8.016095161000067,12.173020363000091],[8.012635231000047,12.10531044000004],[8.026702881000062,12.069640160000063],[8.046778679000056,12.062129974000072],[8.08989334100005,12.062370300000055],[8.114707947000056,12.05268955200006],[8.123386383000081,12.03783035300006],[8.123199463000049,12.00984954800009],[8.136655807000068,11.991640091000079],[8.15962505300007,11.977569580000079],[8.145659447000071,11.967459679000058],[8.123458862000064,11.969059944000037],[8.106875420000051,11.976679802000092],[8.083633423000038,11.974760056000036],[8.062387466000075,11.937319756000079],[8.048357964000047,11.950300217000063],[8.030854225000041,11.950889587000063],[7.991908073000047,11.964770317000045],[7.968543053000076,11.966340065000054],[7.947669029000053,11.96333026900004],[7.934105873000078,11.95123004900006],[7.914558887000055,11.94359970100004],[7.906207085000062,11.949150085000042],[7.899938107000082,11.96177005800007],[7.837253571000076,12.00436306000006],[7.841492176000088,12.024250031000065],[7.836308002000067,12.048270226000056],[7.841379166000081,12.072640419000038],[7.837185383000076,12.089837074000059],[7.838901043000078,12.127920151000069],[7.830353737000053,12.145118713000045],[7.82231283200008,12.194620132000068],[7.83125209800005,12.264719009000089]]]}},{"type":"Feature","properties":{"CNTRY_NAME":"Nigeria","CNTRY_CODE":"NGA","ADM1_NAME":"Kano","ADM1_CODE":"NGA020","ADM2_NAME":"Sumaila","ADM2_CODE":"NGA020036","HRname":"Sumaila","HRpcode":"NG020036","HRparent":"NG020","Shape_Leng":1.49277114423,"Shape_Area":0.103604955072,"ADM2_New":"Sumaila","id":"NG-KN-SUMAILA","name":"Sumaila","parentId":"NG-KN","stateName":"Kano","regionId":"NG-NW","fillColor":"#D4896A"},"geometry":{"type":"Polygon","coordinates":[[[8.79406261400004,11.388669968000045],[8.82979488400008,11.401209831000074],[8.844481468000083,11.414509773000077],[8.853696823000064,11.450940132000085],[8.87588119500009,11.483130455000037],[8.882523537000054,11.526470184000061],[8.889183998000078,11.536009789000047],[8.938265800000067,11.565580368000042],[8.95568847700008,11.567319870000063],[8.979622841000037,11.549449921000075],[9.001839638000092,11.51404953000008],[9.016633987000091,11.501170158000036],[8.994153976000064,11.467169762000083],[8.996010780000063,11.44742012000006],[9.000870705000068,11.441749573000038],[9.014841080000053,11.442210197000065],[9.027891159000092,11.435640335000073],[9.032571793000045,11.468429565000065],[9.047503471000084,11.474740028000042],[9.053445816000078,11.471440315000052],[9.05497646300006,11.461000443000046],[9.04543495200005,11.433879852000075],[9.058648109000046,11.42265987400009],[9.086750984000048,11.418910027000038],[9.092775345000064,11.413279533000036],[9.107518196000058,11.391619682000055],[9.115765572000043,11.355759621000061],[9.133554459000038,11.347020149000059],[9.143315315000052,11.334509850000074],[9.13336658500009,11.319040298000061],[9.097049713000047,11.291049957000041],[9.076297760000045,11.284540176000064],[9.032995224000047,11.256320000000073],[9.015304565000065,11.228940010000088],[8.982683182000073,11.195240021000075],[8.947367668000084,11.171939850000058],[8.896217346000071,11.10151004800008],[8.874505043000056,11.089139938000073],[8.86631488800009,11.090040207000072],[8.822860718000072,11.09949970200006],[8.74069881400004,11.182680130000051],[8.723341942000047,11.212420464000047],[8.722608566000076,11.233369827000047],[8.73535823800006,11.268750191000038],[8.770836830000064,11.28738975500005],[8.77837562600007,11.305120468000041],[8.79406261400004,11.388669968000045]]]}},{"type":"Feature","properties":{"CNTRY_NAME":"Nigeria","CNTRY_CODE":"NGA","ADM1_NAME":"Kano","ADM1_CODE":"NGA020","ADM2_NAME":"Takali","ADM2_CODE":"NGA020037","HRname":"Takali","HRpcode":"NG020037","HRparent":"NG020","Shape_Leng":1.2741819537,"Shape_Area":0.0495666880837,"ADM2_New":"Takai","id":"NG-KN-TAKALI","name":"Takali","parentId":"NG-KN","stateName":"Kano","regionId":"NG-NW","fillColor":"#9B8B72"},"geometry":{"type":"Polygon","coordinates":[[[9.362553596000055,11.564279556000088],[9.35951232900004,11.552989960000048],[9.34202289600006,11.545869827000047],[9.332753181000044,11.536549568000055],[9.323641777000091,11.512260437000066],[9.301456451000092,11.506239891000064],[9.263050079000038,11.483889580000039],[9.224522591000039,11.473070145000065],[9.219093323000038,11.432700157000056],[9.193954468000072,11.373669624000058],[9.193549156000074,11.350888252000061],[9.14820766400004,11.327614784000048],[9.133554459000038,11.347020149000059],[9.115765572000043,11.355759621000061],[9.107518196000058,11.391619682000055],[9.092775345000064,11.413279533000036],[9.086750984000048,11.418910027000038],[9.058648109000046,11.42265987400009],[9.04543495200005,11.433879852000075],[9.05497646300006,11.461000443000046],[9.053445816000078,11.471440315000052],[9.047503471000084,11.474740028000042],[9.032571793000045,11.468429565000065],[9.027891159000092,11.435640335000073],[9.014841080000053,11.442210197000065],[9.000870705000068,11.441749573000038],[8.996010780000063,11.44742012000006],[8.994153976000064,11.467169762000083],[9.016633987000091,11.501170158000036],[9.033923149000088,11.49643993400008],[9.041869164000047,11.50253009800008],[9.04503631600005,11.511960030000068],[9.040252686000088,11.529246330000092],[9.056311607000055,11.522820473000081],[9.086058617000049,11.605369568000071],[9.09841728200007,11.618599892000077],[9.145171165000079,11.648090363000051],[9.171027184000081,11.641940117000047],[9.163488388000076,11.624219894000078],[9.17437362700008,11.612919807000083],[9.183605194000052,11.615550041000063],[9.21652793900006,11.607299805000082],[9.22150993300005,11.598139763000063],[9.216747284000064,11.567680359000065],[9.227672577000078,11.55521011400009],[9.245176315000037,11.554619789000071],[9.287843704000068,11.567669868000053],[9.31518936200007,11.552240372000085],[9.322052002000078,11.555959702000052],[9.351237297000068,11.554590225000084],[9.362553596000055,11.564279556000088]]]}},{"type":"Feature","properties":{"CNTRY_NAME":"Nigeria","CNTRY_CODE":"NGA","ADM1_NAME":"Kano","ADM1_CODE":"NGA020","ADM2_NAME":"Tarauni","ADM2_CODE":"NGA020038","HRname":"Tarauni","HRpcode":"NG020038","HRparent":"NG020","Shape_Leng":0.24818955709,"Shape_Area":0.00235791245727,"ADM2_New":"Tarauni","id":"NG-KN-TARAUNI","name":"Tarauni","parentId":"NG-KN","stateName":"Kano","regionId":"NG-NW","fillColor":"#A3C986"},"geometry":{"type":"Polygon","coordinates":[[[8.532641411000043,11.989859581000076],[8.58990192400006,11.962140083000065],[8.574050903000057,11.948800087000052],[8.521027565000054,11.931920052000066],[8.509468079000044,11.929209709000077],[8.491842270000063,11.933300018000068],[8.526914597000086,11.963580132000061],[8.532641411000043,11.989859581000076]]]}},{"type":"Feature","properties":{"CNTRY_NAME":"Nigeria","CNTRY_CODE":"NGA","ADM1_NAME":"Kano","ADM1_CODE":"NGA020","ADM2_NAME":"Tofa","ADM2_CODE":"NGA020039","HRname":"Tofa","HRpcode":"NG020039","HRparent":"NG020","Shape_Leng":0.603760412322,"Shape_Area":0.0167470426033,"ADM2_New":"Tofa","id":"NG-KN-TOFA","name":"Tofa","parentId":"NG-KN","stateName":"Kano","regionId":"NG-NW","fillColor":"#8AAB76"},"geometry":{"type":"Polygon","coordinates":[[[8.249362946000076,12.025779724000074],[8.251037598000039,12.053649902000075],[8.239729881000073,12.11038970900006],[8.284538269000052,12.095529556000088],[8.306103706000044,12.07874965700006],[8.334247589000086,12.073840141000062],[8.354608536000057,12.05819034600006],[8.420038223000063,11.986900330000083],[8.436540604000072,11.981610298000078],[8.438192368000045,11.967679977000046],[8.417457581000065,11.92737960800008],[8.402241707000087,11.929209709000077],[8.375628471000084,11.923680305000062],[8.361332893000053,11.932539940000083],[8.35016346000009,11.95199012800009],[8.292369843000074,12.004879951000078],[8.249362946000076,12.025779724000074]]]}},{"type":"Feature","properties":{"CNTRY_NAME":"Nigeria","CNTRY_CODE":"NGA","ADM1_NAME":"Kano","ADM1_CODE":"NGA020","ADM2_NAME":"Tsanyawa","ADM2_CODE":"NGA020040","HRname":"Tsanyawa","HRpcode":"NG020040","HRparent":"NG020","Shape_Leng":0.837382718404,"Shape_Area":0.0408932922502,"ADM2_New":"Tsanyawa","id":"NG-KN-TSANYAWA","name":"Tsanyawa","parentId":"NG-KN","stateName":"Kano","regionId":"NG-NW","fillColor":"#BFA882"},"geometry":{"type":"Polygon","coordinates":[[[8.04128933000004,12.382889748000082],[8.066423416000077,12.366970062000064],[8.090344429000083,12.361060143000088],[8.082289696000089,12.34650993300005],[8.106322289000047,12.292510033000042],[8.109627724000063,12.264650345000064],[8.119388580000077,12.252149582000072],[8.125389099000074,12.213879585000086],[8.136273384000049,12.202580452000063],[8.120219231000078,12.195070267000062],[8.097749710000073,12.171019554000054],[8.075386047000052,12.177289963000078],[8.059250832000089,12.172100067000088],[8.047136307000073,12.151889801000038],[8.01750278500009,12.166069984000046],[8.016095161000067,12.173020363000091],[8.00894737200008,12.17745018000005],[7.975389004000078,12.170530319000079],[7.919167995000066,12.21181011200008],[7.896234035000077,12.234379768000053],[7.886147022000046,12.256190300000071],[7.849283218000039,12.30249023400006],[7.878327847000037,12.332110405000037],[7.9139666560000705,12.339818954000066],[7.9404830930000685,12.354430199000092],[8.028921127000046,12.37504386900008],[8.04128933000004,12.382889748000082]]]}},{"type":"Feature","properties":{"CNTRY_NAME":"Nigeria","CNTRY_CODE":"NGA","ADM1_NAME":"Kano","ADM1_CODE":"NGA020","ADM2_NAME":"Tudun Wada","ADM2_CODE":"NGA020041","HRname":"Tudun Wada","HRpcode":"NG020041","HRparent":"NG020","Shape_Leng":2.0571010261,"Shape_Area":0.0997601547975,"ADM2_New":"Tudun Wada","id":"NG-KN-TUDUN-WADA","name":"Tudun Wada","parentId":"NG-KN","stateName":"Kano","regionId":"NG-NW","fillColor":"#6BA368"},"geometry":{"type":"Polygon","coordinates":[[[8.76039028200006,11.462109566000038],[8.769713402000093,11.452859879000073],[8.778961182000046,11.421689987000093],[8.791132927000092,11.406940460000044],[8.794397354000068,11.38024044000008],[8.770836830000064,11.28738975500005],[8.73535823800006,11.268750191000038],[8.721689224000045,11.22634983100005],[8.723341942000047,11.212420464000047],[8.74069881400004,11.182680130000051],[8.822860718000072,11.09949970200006],[8.810353279000083,11.090550423000082],[8.795992851000051,11.067930222000086],[8.780117035000046,11.021960258000092],[8.780174255000077,10.987000465000051],[8.788697243000058,10.942250252000065],[8.766937256000062,10.965589523000062],[8.75070381200004,10.996529579000082],[8.717374802000052,11.016420364000055],[8.709615707000069,11.038310051000053],[8.707352638000089,11.069700241000078],[8.679680824000059,11.094440460000044],[8.664978027000075,11.114939690000085],[8.659507751000092,11.13807010700009],[8.662023544000078,11.16613006600005],[8.646978378000085,11.229740143000072],[8.628148079000084,11.234950066000067],[8.592995644000041,11.206999779000057],[8.56274318700008,11.172209740000085],[8.531605721000062,11.156662941000093],[8.506288528000084,11.15262699100009],[8.482618332000072,11.16376972200004],[8.470081329000038,11.189000130000068],[8.434016228000075,11.22045993800009],[8.41502285000007,11.230330467000044],[8.373397827000076,11.22080993700007],[8.359346390000042,11.222680092000076],[8.337553024000044,11.212650299000074],[8.321091652000064,11.216770172000054],[8.273490906000063,11.27816009500009],[8.276168823000091,11.301549911000052],[8.30482578300007,11.315309525000089],[8.364019394000081,11.355699539000057],[8.372884750000082,11.368809700000043],[8.408160210000062,11.393269539000073],[8.418062210000073,11.410079956000061],[8.485012054000038,11.361980438000046],[8.515565872000082,11.354820251000092],[8.544075966000037,11.339429855000049],[8.593296051000038,11.331720352000048],[8.688091278000059,11.387260437000066],[8.725247383000067,11.424599648000083],[8.747040749000064,11.43463993100005],[8.76039028200006,11.462109566000038]]]}},{"type":"Feature","properties":{"CNTRY_NAME":"Nigeria","CNTRY_CODE":"NGA","ADM1_NAME":"Kano","ADM1_CODE":"NGA020","ADM2_NAME":"Ungogo","ADM2_CODE":"NGA020042","HRname":"Ungogo","HRpcode":"NG020042","HRparent":"NG020","Shape_Leng":0.720572579806,"Shape_Area":0.0169835743307,"ADM2_New":"Ungogo","id":"NG-KN-UNGOGO","name":"Ungogo","parentId":"NG-KN","stateName":"Kano","regionId":"NG-NW","fillColor":"#C4A574"},"geometry":{"type":"Polygon","coordinates":[[[8.516518593000058,12.127579689000072],[8.54694938700004,12.12390995000004],[8.580889702000093,12.086560249000058],[8.601128578000043,12.074399948000064],[8.65650177000009,12.09348964700007],[8.66278839100005,12.077569962000041],[8.664970398000037,12.048509598000066],[8.65365409900005,12.03880977600005],[8.612070084000038,12.028129578000062],[8.605629921000059,12.012310028000059],[8.59372806500005,12.019379616000037],[8.549366951000081,12.021419525000056],[8.521858215000066,12.041509628000085],[8.51021671300009,12.04113006600005],[8.490751266000075,12.031169891000047],[8.464911461000042,12.003520012000081],[8.471872330000053,11.971110344000067],[8.438192368000045,11.967679977000046],[8.433666229000039,12.030469894000078],[8.442084312000077,12.056389809000052],[8.46829032900007,12.07355976100007],[8.497052193000059,12.117620468000041],[8.516518593000058,12.127579689000072]]]}},{"type":"Feature","properties":{"CNTRY_NAME":"Nigeria","CNTRY_CODE":"NGA","ADM1_NAME":"Kano","ADM1_CODE":"NGA020","ADM2_NAME":"Warawa","ADM2_CODE":"NGA020043","HRname":"Warawa","HRpcode":"NG020043","HRparent":"NG020","Shape_Leng":0.830515219133,"Shape_Area":0.0298929147895,"ADM2_New":"Warawa","id":"NG-KN-WARAWA","name":"Warawa","parentId":"NG-KN","stateName":"Kano","regionId":"NG-NW","fillColor":"#5B8FA8"},"geometry":{"type":"Polygon","coordinates":[[[8.837242126000092,11.979829788000075],[8.849226952000038,11.978759766000053],[8.866278648000048,11.969340324000086],[8.85855674700008,11.945269585000062],[8.86848068200004,11.928110123000067],[8.871786118000045,11.900239944000077],[8.866144180000049,11.861599922000039],[8.862936974000093,11.853340149000076],[8.845758438000075,11.844619751000039],[8.842201233000083,11.813030243000071],[8.834500313000092,11.799960136000038],[8.804622650000056,11.821129799000062],[8.742839813000046,11.821439743000042],[8.728706360000047,11.825650215000053],[8.70042419400005,11.867850304000058],[8.665849686000058,11.890029907000041],[8.641467094000063,11.920700073000091],[8.631223679000072,11.927169800000058],[8.627765656000065,11.945890427000052],[8.594652176000068,11.960180283000057],[8.613616943000068,11.983889580000039],[8.632935524000061,11.964710236000087],[8.66099739100008,11.962129593000043],[8.688245773000062,11.98283004800004],[8.715982437000093,11.989569664000044],[8.726622581000072,11.985250473000065],[8.75911426500005,11.956009865000055],[8.770877838000047,11.952899933000083],[8.81321907000006,11.97525978100009],[8.837242126000092,11.979829788000075]]]}},{"type":"Feature","properties":{"CNTRY_NAME":"Nigeria","CNTRY_CODE":"NGA","ADM1_NAME":"Kano","ADM1_CODE":"NGA020","ADM2_NAME":"Wudil","ADM2_CODE":"NGA020044","HRname":"Wudil","HRpcode":"NG020044","HRparent":"NG020","Shape_Leng":1.06850518335,"Shape_Area":0.0300224423475,"ADM2_New":"Wudil","id":"NG-KN-WUDIL","name":"Wudil","parentId":"NG-KN","stateName":"Kano","regionId":"NG-NW","fillColor":"#A8BF7A"},"geometry":{"type":"Polygon","coordinates":[[[8.871786118000045,11.900239944000077],[8.882101059000092,11.90524005900005],[8.893172264000043,11.921919823000053],[8.901281357000073,11.923350334000077],[8.90726470900006,11.918889999000044],[8.915023804000043,11.89698982200008],[8.925663948000079,11.892680168000084],[8.950111389000085,11.893480301000068],[8.958911896000075,11.875120163000076],[8.950127602000066,11.85968017600004],[8.922920227000077,11.837809563000064],[8.899408340000093,11.810239792000061],[8.894360542000072,11.787929535000046],[8.920722008000041,11.734009743000058],[8.970488548000048,11.677359581000076],[8.972303391000082,11.658769608000057],[8.966768265000042,11.650429726000084],[8.94826316800004,11.646329880000053],[8.942849159000048,11.634499550000044],[8.947033882000085,11.614819527000066],[8.953956604000041,11.605719566000062],[8.901077271000077,11.59584045400004],[8.878754616000037,11.600939751000055],[8.874937057000068,11.610139847000085],[8.903226852000046,11.634369850000041],[8.88346004500005,11.666359901000078],[8.877557755000055,11.668499947000043],[8.880374908000078,11.654600143000039],[8.879454613000064,11.647580147000042],[8.874797821000072,11.647430420000092],[8.855398178000087,11.668939590000036],[8.832196236000073,11.665849686000058],[8.81367492700008,11.695549965000055],[8.792679787000054,11.696029663000047],[8.784041405000039,11.709739685000045],[8.763208389000056,11.70555973100005],[8.757266045000051,11.70886039700008],[8.765521049000085,11.739430428000048],[8.803042412000082,11.766300201000092],[8.837870598000052,11.803569794000055],[8.845758438000075,11.844619751000039],[8.862936974000093,11.853340149000076],[8.866144180000049,11.861599922000039],[8.871786118000045,11.900239944000077]]]}}]}