{"type":"FeatureCollection","features":[{"type":"Feature","properties":{"CNTRY_NAME":"Nigeria","CNTRY_CODE":"NGA","ADM1_NAME":"Katsina","ADM1_CODE":"NGA021","ADM2_NAME":"Bakori","ADM2_CODE":"NGA021001","HRname":"Bakori","HRpcode":"NG021001","HRparent":"NG021","Shape_Leng":1.28174067847,"Shape_Area":0.0562899248079,"ADM2_New":"Bakori","id":"NG-KT-BAKORI","name":"Bakori","parentId":"NG-KT","stateName":"Katsina","regionId":"NG-NW","fillColor":"#6BA368"},"geometry":{"type":"Polygon","coordinates":[[[7.299723148000055,11.809009552000077],[7.342070103000083,11.810259819000066],[7.387914181000042,11.818449974000089],[7.394989014000089,11.814999580000062],[7.400887012000055,11.811550140000065],[7.411660194000092,11.772310257000072],[7.422329903000048,11.755020142000092],[7.431785107000053,11.745800018000068],[7.454181194000057,11.736619949000044],[7.467214108000064,11.717009544000064],[7.482563019000054,11.705499649000046],[7.493254185000069,11.683589935000043],[7.51448488200009,11.672089577000065],[7.538416862000076,11.68645954100009],[7.539185047000046,11.673299789000055],[7.527605057000073,11.634010315000069],[7.531188965000069,11.622469902000091],[7.524239063000039,11.599360466000064],[7.55139493900009,11.578639984000063],[7.563279152000064,11.553259850000074],[7.573915958000043,11.542900085000042],[7.555332184000065,11.492050171000074],[7.575462818000062,11.434690475000082],[7.566203117000043,11.432020187000091],[7.539116859000046,11.43774032600004],[7.5013780590000465,11.45728015900005],[7.4930720330000895,11.472270012000081],[7.504723072000047,11.496549606000087],[7.4928169250000565,11.526539803000048],[7.485731125000086,11.532299995000074],[7.469254971000055,11.533419609000077],[7.43518590900004,11.522950172000037],[7.380370140000082,11.480299950000074],[7.367098808000037,11.491609573000062],[7.351653099000089,11.523909569000068],[7.349000931000091,11.587409973000092],[7.32055902500008,11.631230354000081],[7.328626156000041,11.667039871000043],[7.328371048000065,11.721309662000067],[7.304673195000078,11.757060051000053],[7.283442020000052,11.768549919000066],[7.299723148000055,11.809009552000077]]]}},{"type":"Feature","properties":{"CNTRY_NAME":"Nigeria","CNTRY_CODE":"NGA","ADM1_NAME":"Katsina","ADM1_CODE":"NGA021","ADM2_NAME":"Batagarawa","ADM2_CODE":"NGA021002","HRname":"Batagarawa","HRpcode":"NG021002","HRparent":"NG021","Shape_Leng":1.45570693079,"Shape_Area":0.0360361196029,"ADM2_New":"Batagarawa","id":"NG-KT-BATAGARAWA","name":"Batagarawa","parentId":"NG-KT","stateName":"Katsina","regionId":"NG-NW","fillColor":"#C4A574"},"geometry":{"type":"Polygon","coordinates":[[[7.681055069000081,13.025819778000084],[7.702237129000082,13.024720192000075],[7.7248001100000465,13.048230171000057],[7.7280759810000745,13.03400993300005],[7.712858200000085,13.017809868000086],[7.711747169000091,13.00395011900008],[7.755356789000075,12.986729622000041],[7.7648172380000915,12.976360321000072],[7.763673782000069,12.969429970000078],[7.736740112000064,12.942810059000067],[7.659327984000072,12.892979622000041],[7.639414787000078,12.87446022000006],[7.6137280460000625,12.832830429000069],[7.578608036000048,12.795789719000084],[7.575177193000059,12.774999619000084],[7.551858902000049,12.729909897000084],[7.533139229000085,12.707929611000054],[7.514331818000073,12.704420090000042],[7.507218838000085,12.715950012000064],[7.507143021000047,12.732119560000058],[7.549141884000051,12.807270050000056],[7.578433990000065,12.832739830000037],[7.583047867000062,12.852390289000084],[7.579452991000039,12.866230011000084],[7.565280914000084,12.877750397000057],[7.5476241110000615,12.880020142000092],[7.515923977000057,12.86608982100006],[7.486539841000081,12.860250473000065],[7.451334000000088,12.841690063000044],[7.424270153000066,12.84278011300006],[7.405425072000071,12.847359657000084],[7.390065193000055,12.861180305000062],[7.36969709400006,12.856129646000056],[7.364133835000075,12.871509552000077],[7.365119934000063,12.911930084000062],[7.383997917000045,12.900420189000045],[7.4216561320000665,12.898200035000059],[7.458055019000085,12.913299561000088],[7.466251850000049,12.921400070000061],[7.481530190000058,12.92490005500008],[7.520216942000047,12.95386028300004],[7.553691864000086,12.970687866000048],[7.559045792000063,12.952790260000086],[7.5755710600000725,12.941280365000068],[7.615575790000037,12.94021987900004],[7.627291203000084,12.950639725000087],[7.634235859000057,12.974909782000054],[7.66238403300008,12.99345016500007],[7.67408323300009,13.00732994100008],[7.681055069000081,13.025819778000084]]]}},{"type":"Feature","properties":{"CNTRY_NAME":"Nigeria","CNTRY_CODE":"NGA","ADM1_NAME":"Katsina","ADM1_CODE":"NGA021","ADM2_NAME":"Batsari","ADM2_CODE":"NGA021003","HRname":"Batsari","HRpcode":"NG021003","HRparent":"NG021","Shape_Leng":1.51475635531,"Shape_Area":0.0921621384245,"ADM2_New":"Batsari","id":"NG-KT-BATSARI","name":"Batsari","parentId":"NG-KT","stateName":"Katsina","regionId":"NG-NW","fillColor":"#5B8FA8"},"geometry":{"type":"Polygon","coordinates":[[[7.365108967000083,12.91423988300005],[7.364133835000075,12.871509552000077],[7.371284962000061,12.85190010100007],[7.386643887000048,12.838080406000074],[7.424339771000064,12.82777023300008],[7.432656765000047,12.810469627000089],[7.432775974000037,12.785059929000056],[7.41991710700006,12.767709732000071],[7.421136856000089,12.758480072000054],[7.403657913000075,12.722640038000065],[7.408544064000068,12.684550285000057],[7.402698994000048,12.676449776000084],[7.3850960730000565,12.667169571000045],[7.356828213000085,12.674030304000041],[7.338054180000086,12.663599968000085],[7.327455044000089,12.665880203000086],[7.272285938000039,12.639200211000059],[7.245233059000043,12.63798046100004],[7.1651139260000605,12.663200378000056],[7.125131130000057,12.659640312000079],[7.085213184000054,12.642230034000079],[7.076972008000041,12.643360138000048],[7.05439567600007,12.634435654000072],[7.047209740000085,12.63767147100009],[7.028411865000066,12.787982941000053],[7.084409237000045,12.813130379000086],[7.11940908400004,12.875559807000059],[7.132193089000054,12.909079552000037],[7.1521649360000765,12.914899826000067],[7.246520996000072,12.864310265000086],[7.259450912000091,12.866649628000062],[7.264119148000077,12.87473964700007],[7.266363144000081,12.897839546000057],[7.2615981100000795,12.910530090000066],[7.25095510500006,12.922060013000078],[7.246179104000078,12.937060356000075],[7.232000828000082,12.949729919000049],[7.21297693300005,12.992409706000046],[7.210543156000085,13.009719849000078],[7.2187290190000795,13.020139694000079],[7.268232822000073,13.000619888000074],[7.28122806500005,12.989100456000074],[7.2941689490000385,12.989130020000061],[7.310682774000043,12.97992992400009],[7.318951130000073,12.973019600000043],[7.339140892000046,12.932649612000091],[7.359172821000072,12.925769806000062],[7.365108967000083,12.91423988300005]]]}},{"type":"Feature","properties":{"CNTRY_NAME":"Nigeria","CNTRY_CODE":"NGA","ADM1_NAME":"Katsina","ADM1_CODE":"NGA021","ADM2_NAME":"Bindawa","ADM2_CODE":"NGA021005","HRname":"Bindawa","HRpcode":"NG021005","HRparent":"NG021","Shape_Leng":0.982241632196,"Shape_Area":0.0331483824773,"ADM2_New":"Bindawa","id":"NG-KT-BINDAWA","name":"Bindawa","parentId":"NG-KT","stateName":"Katsina","regionId":"NG-NW","fillColor":"#B8956B"},"geometry":{"type":"Polygon","coordinates":[[[7.771546841000088,12.796239853000088],[7.814983845000086,12.815970421000088],[7.876142979000065,12.819580078000058],[7.914912224000091,12.831210136000038],[7.923163891000058,12.82777023300008],[7.937363148000088,12.810480118000044],[7.975101948000088,12.79094028500009],[7.978702068000075,12.775930405000054],[7.970626831000061,12.741959572000042],[7.957684040000061,12.742400169000064],[7.931703091000088,12.763119698000082],[7.915237904000037,12.76193046600008],[7.887497902000064,12.656780243000071],[7.88869619400009,12.652170181000088],[7.904016972000079,12.646430016000068],[7.932258129000047,12.645339966000051],[7.947621822000087,12.63035965000006],[7.960514069000055,12.572549820000063],[7.944354057000055,12.574930191000078],[7.933712006000064,12.586449623000078],[7.904244900000037,12.59792995500004],[7.897131920000049,12.609459877000063],[7.815896988000077,12.621979713000087],[7.802913189000037,12.631179810000049],[7.789856911000072,12.65540027600008],[7.775706768000077,12.662300110000047],[7.75451993900009,12.664560318000042],[7.742718220000086,12.67261982000008],[7.740287781000063,12.68877983100009],[7.756682873000045,12.704979897000044],[7.76952123600006,12.726949692000062],[7.771546841000088,12.796239853000088]]]}},{"type":"Feature","properties":{"CNTRY_NAME":"Nigeria","CNTRY_CODE":"NGA","ADM1_NAME":"Katsina","ADM1_CODE":"NGA021","ADM2_NAME":"Charanchi","ADM2_CODE":"NGA021006","HRname":"Charanchi","HRpcode":"NG021006","HRparent":"NG021","Shape_Leng":1.04898225483,"Shape_Area":0.0391781133835,"ADM2_New":"Charanchi","id":"NG-KT-CHARANCHI","name":"Charanchi","parentId":"NG-KT","stateName":"Katsina","regionId":"NG-NW","fillColor":"#6AADA3"},"geometry":{"type":"Polygon","coordinates":[[[7.541327000000081,12.718342781000047],[7.5552330020000795,12.736669540000037],[7.646029949000081,12.718580246000045],[7.689565182000081,12.717530251000085],[7.714324951000037,12.706040382000083],[7.733131886000081,12.709549904000085],[7.75086641300004,12.699589729000081],[7.740287781000063,12.68877983100009],[7.74744510700009,12.66800975800004],[7.775706768000077,12.662300110000047],[7.798136234000083,12.646180153000046],[7.800551891000055,12.63271999400007],[7.791327000000081,12.593050003000087],[7.760787964000087,12.582590103000086],[7.758468151000045,12.575650215000053],[7.7361750600000505,12.562899590000086],[7.720979214000067,12.542079926000042],[7.719857216000037,12.530529976000082],[7.72939920400006,12.50284004200006],[7.714153767000084,12.492409706000046],[7.700139999000044,12.470439911000085],[7.711997032000056,12.45083999600007],[7.700366974000076,12.421939850000058],[7.693336010000053,12.416150093000056],[7.675694942000064,12.414959908000071],[7.667427063000048,12.42187023200006],[7.663755894000076,12.451880455000037],[7.657835960000057,12.45995044700004],[7.64485693000006,12.468000412000038],[7.62012386300006,12.47371959700007],[7.636513233000073,12.491080284000077],[7.624515057000053,12.540699959000051],[7.627989769000067,12.55226039900009],[7.618517876000055,12.564940453000077],[7.613730907000047,12.58224964100009],[7.624151230000052,12.618069649000063],[7.618218899000055,12.628450394000083],[7.586406231000069,12.63877010300007],[7.586368084000071,12.646849632000055],[7.5745491980000565,12.658370018000085],[7.557860851000044,12.704520226000056],[7.541327000000081,12.718342781000047]]]}},{"type":"Feature","properties":{"CNTRY_NAME":"Nigeria","CNTRY_CODE":"NGA","ADM1_NAME":"Katsina","ADM1_CODE":"NGA021","ADM2_NAME":"Dan Musa","ADM2_CODE":"NGA021007","HRname":"Dan Musa","HRpcode":"NG021007","HRparent":"NG021","Shape_Leng":1.14422078789,"Shape_Area":0.0657692313205,"ADM2_New":"Dan Musa","id":"NG-KT-DAN-MUSA","name":"Dan Musa","parentId":"NG-KT","stateName":"Katsina","regionId":"NG-NW","fillColor":"#8FAF6E"},"geometry":{"type":"Polygon","coordinates":[[[7.104723454000066,12.295072556000036],[7.163183212000092,12.323699951000037],[7.177235126000085,12.33759021800006],[7.207752228000061,12.352669716000037],[7.22069311100006,12.352700233000064],[7.246630192000055,12.341219902000091],[7.325473785000042,12.336779594000063],[7.3408169750000525,12.326419830000077],[7.349123001000066,12.311429977000046],[7.38798999800008,12.302280426000038],[7.396256924000056,12.29537010200005],[7.444498062000093,12.294329643000083],[7.4528679850000685,12.265480042000092],[7.461142063000068,12.257419586000083],[7.5150241850000725,12.257539749000046],[7.52148294400007,12.184809685000062],[7.545679092000057,12.150389671000084],[7.509924889000047,12.14089965800008],[7.4536290170000825,12.103819847000068],[7.431250095000053,12.109539986000073],[7.366532803000041,12.111700058000054],[7.3464522360000615,12.128979683000068],[7.307559013000059,12.143899918000045],[7.235805988000038,12.141420364000055],[7.207445145000065,12.167920113000037],[7.18966817900008,12.195590019000065],[7.181313992000071,12.220970154000042],[7.162517548000039,12.235993385000086],[7.129436970000086,12.250059128000089],[7.104723454000066,12.295072556000036]]]}},{"type":"Feature","properties":{"CNTRY_NAME":"Nigeria","CNTRY_CODE":"NGA","ADM1_NAME":"Katsina","ADM1_CODE":"NGA021","ADM2_NAME":"Dandume","ADM2_CODE":"NGA021008","HRname":"Dandume","HRpcode":"NG021008","HRparent":"NG021","Shape_Leng":0.862094115794,"Shape_Area":0.0349991773737,"ADM2_New":"Dandume","id":"NG-KT-DANDUME","name":"Dandume","parentId":"NG-KT","stateName":"Katsina","regionId":"NG-NW","fillColor":"#D4C4A0"},"geometry":{"type":"Polygon","coordinates":[[[7.086891174000073,11.485650063000037],[7.087058067000044,11.500200272000086],[7.103371143000061,11.533729553000057],[7.130352974000061,11.549960136000038],[7.144482136000079,11.547679901000038],[7.155113220000089,11.53845977800006],[7.167007923000085,11.51078033400006],[7.210532188000059,11.512029648000066],[7.227024078000056,11.507450104000043],[7.232938766000075,11.500539780000054],[7.234179974000085,11.486680031000049],[7.2838850020000905,11.424440384000093],[7.291058064000083,11.400210381000079],[7.2864718440000615,11.374799728000085],[7.292500973000074,11.343629837000037],[7.299613953000062,11.332099915000072],[7.3149461750000455,11.324049950000074],[7.324418068000057,11.311369896000087],[7.3281040190000795,11.277890205000062],[7.275116920000073,11.30029010800007],[7.232869148000077,11.29769039200005],[7.209434032000047,11.28474426300005],[7.197327137000059,11.31801033000005],[7.161920071000054,11.342180252000048],[7.141735077000078,11.381389618000071],[7.108668804000047,11.407870293000087],[7.08498811700008,11.440150261000042],[7.084911823000084,11.456319809000092],[7.091899872000056,11.471340179000038],[7.091856003000089,11.480580330000066],[7.086891174000073,11.485650063000037]]]}},{"type":"Feature","properties":{"CNTRY_NAME":"Nigeria","CNTRY_CODE":"NGA","ADM1_NAME":"Katsina","ADM1_CODE":"NGA021","ADM2_NAME":"Danja","ADM2_CODE":"NGA021009","HRname":"Danja","HRpcode":"NG021009","HRparent":"NG021","Shape_Leng":1.12667976063,"Shape_Area":0.0415140841265,"ADM2_New":"Danja","id":"NG-KT-DANJA","name":"Danja","parentId":"NG-KT","stateName":"Katsina","regionId":"NG-NW","fillColor":"#688EB5"},"geometry":{"type":"Polygon","coordinates":[[[7.380370140000082,11.480299950000074],[7.43518590900004,11.522950172000037],[7.469254971000055,11.533419609000077],[7.485731125000086,11.532299995000074],[7.4928169250000565,11.526539803000048],[7.504723072000047,11.496549606000087],[7.493087769000056,11.468810081000072],[7.504922867000062,11.453820229000087],[7.520260811000071,11.444620132000068],[7.554432869000038,11.43315029100006],[7.575462818000062,11.434690475000082],[7.6474161150000555,11.424130440000056],[7.668564796000055,11.429949760000056],[7.708590984000068,11.42606449100009],[7.7370681760000934,11.386520386000086],[7.751364231000082,11.377670288000047],[7.777465820000089,11.371832848000054],[7.7528209690000836,11.352942467000048],[7.753345490000072,11.328433037000082],[7.746638775000065,11.317387581000048],[7.710855007000077,11.313623428000085],[7.6565237050000405,11.28652954100005],[7.634716034000064,11.281574249000073],[7.623437405000061,11.287673950000055],[7.600243568000053,11.320705414000088],[7.57757425300008,11.32922744800004],[7.550295830000039,11.35367107400009],[7.530137062000051,11.360974312000053],[7.507055759000082,11.356015205000062],[7.489668846000086,11.400850296000044],[7.47791290300006,11.408829689000072],[7.439185143000088,11.40740966800007],[7.402882099000067,11.387769699000046],[7.391003132000037,11.411990166000066],[7.374455929000078,11.42811965900006],[7.363770008000074,11.448880196000061],[7.3637270930000795,11.458120346000044],[7.380370140000082,11.480299950000074]]]}},{"type":"Feature","properties":{"CNTRY_NAME":"Nigeria","CNTRY_CODE":"NGA","ADM1_NAME":"Katsina","ADM1_CODE":"NGA021","ADM2_NAME":"Daura","ADM2_CODE":"NGA021010","HRname":"Daura","HRpcode":"NG021010","HRparent":"NG021","Shape_Leng":0.686011047189,"Shape_Area":0.026346756074,"ADM2_New":"Daura","id":"NG-KT-DAURA","name":"Daura","parentId":"NG-KT","stateName":"Katsina","regionId":"NG-NW","fillColor":"#7CB087"},"geometry":{"type":"Polygon","coordinates":[[[8.16494369500009,13.035348892000059],[8.149726868000073,13.048489571000061],[8.15152454400004,13.051159859000052],[8.20312023200006,13.087070465000068],[8.217226982000057,13.089420319000055],[8.234889984000063,13.08598995200009],[8.271501541000077,13.056050301000084],[8.31980705300009,13.041150093000056],[8.345700264000072,13.038909912000065],[8.351604462000068,13.034299850000082],[8.357611656000074,13.007749557000068],[8.350617409000051,12.99388027200007],[8.318972588000065,12.968400002000067],[8.319147110000074,12.931449890000067],[8.306320190000065,12.90717029600006],[8.280491829000084,12.895569801000079],[8.269952774000046,12.885149956000078],[8.227464676000068,12.866796494000084],[8.20505714400008,12.925419807000083],[8.188446045000092,12.95540046700006],[8.175439835000077,12.96922969800005],[8.170477867000045,13.02348995200009],[8.16494369500009,13.035348892000059]]]}},{"type":"Feature","properties":{"CNTRY_NAME":"Nigeria","CNTRY_CODE":"NGA","ADM1_NAME":"Katsina","ADM1_CODE":"NGA021","ADM2_NAME":"Dutsi","ADM2_CODE":"NGA021011","HRname":"Dutsi","HRpcode":"NG021011","HRparent":"NG021","Shape_Leng":0.763892110709,"Shape_Area":0.0235799679527,"ADM2_New":"Dutsi","id":"NG-KT-DUTSI","name":"Dutsi","parentId":"NG-KT","stateName":"Katsina","regionId":"NG-NW","fillColor":"#C9B896"},"geometry":{"type":"Polygon","coordinates":[[[8.04831409500008,13.003299713000047],[8.058801651000067,13.004759789000047],[8.078872681000064,12.989789963000078],[8.091813087000048,12.989819527000066],[8.102368355000067,12.996769905000065],[8.105833054000072,13.010640144000092],[8.112858772000038,13.017580032000069],[8.149291039000047,13.025750160000086],[8.16494369500009,13.035348892000059],[8.170477867000045,13.02348995200009],[8.175439835000077,12.96922969800005],[8.188446045000092,12.95540046700006],[8.20505714400008,12.925419807000083],[8.238273621000076,12.839650154000083],[8.184647560000087,12.83998966200005],[8.171748161000039,12.835289955000064],[8.162396431000047,12.819089890000043],[8.16792392700006,12.804061890000071],[8.161568642000077,12.80298328400005],[8.085575104000043,12.815440178000074],[8.073674202000063,12.844280243000071],[8.094703674000073,12.875510216000066],[8.10164356200005,12.900930405000054],[8.09325027500006,12.934399605000067],[8.04831409500008,13.003299713000047]]]}},{"type":"Feature","properties":{"CNTRY_NAME":"Nigeria","CNTRY_CODE":"NGA","ADM1_NAME":"Katsina","ADM1_CODE":"NGA021","ADM2_NAME":"Dutsin-Ma","ADM2_CODE":"NGA021012","HRname":"Dutsin-Ma","HRpcode":"NG021012","HRparent":"NG021","Shape_Leng":1.0986199591,"Shape_Area":0.0438027864094,"ADM2_New":"Dutsin-Ma","id":"NG-KT-DUTSIN-MA","name":"Dutsin-Ma","parentId":"NG-KT","stateName":"Katsina","regionId":"NG-NW","fillColor":"#5E9E78"},"geometry":{"type":"Polygon","coordinates":[[[7.402039051000088,12.566749573000038],[7.433764935000056,12.574899673000061],[7.453764915000079,12.574950218000083],[7.493834972000059,12.560029984000039],[7.550311089000047,12.559009552000077],[7.616028786000072,12.59379959100005],[7.613730907000047,12.58224964100009],[7.618517876000055,12.564940453000077],[7.627989769000067,12.55226039900009],[7.624504089000084,12.54300975800004],[7.636513233000073,12.491080284000077],[7.622449875000086,12.47949981700009],[7.621307850000051,12.471989632000088],[7.600200176000044,12.457509995000066],[7.582695007000041,12.427439690000085],[7.587634087000083,12.37779998800005],[7.597146988000077,12.355884552000077],[7.580673218000072,12.357000351000067],[7.545309067000062,12.371930122000037],[7.528854847000048,12.368430138000065],[7.52906703900004,12.323390007000057],[7.515008926000064,12.310660362000078],[7.5150241850000725,12.257539749000046],[7.4682121280000615,12.25512027700006],[7.4528679850000685,12.265480042000092],[7.4336972240000705,12.339340210000046],[7.441808224000056,12.365920067000047],[7.457004070000039,12.386739731000091],[7.462722778000057,12.421389580000039],[7.42234277700004,12.502129555000067],[7.402039051000088,12.566749573000038]]]}},{"type":"Feature","properties":{"CNTRY_NAME":"Nigeria","CNTRY_CODE":"NGA","ADM1_NAME":"Katsina","ADM1_CODE":"NGA021","ADM2_NAME":"Faskari","ADM2_CODE":"NGA021013","HRname":"Faskari","HRpcode":"NG021013","HRparent":"NG021","Shape_Leng":1.82093394822,"Shape_Area":0.145083478739,"ADM2_New":"Faskari","id":"NG-KT-FASKARI","name":"Faskari","parentId":"NG-KT","stateName":"Katsina","regionId":"NG-NW","fillColor":"#94B86A"},"geometry":{"type":"Polygon","coordinates":[[[7.235048771000038,11.927378654000051],[7.272273064000046,11.892080307000072],[7.286541939000074,11.859780312000055],[7.290228844000069,11.82631015800007],[7.299723148000055,11.809009552000077],[7.283442020000052,11.768549919000066],[7.304673195000078,11.757060051000053],[7.328371048000065,11.721309662000067],[7.328626156000041,11.667039871000043],[7.32055902500008,11.631230354000081],[7.340700150000089,11.601249695000092],[7.292481899000052,11.597669601000064],[7.272466183000063,11.601090431000046],[7.258369923000089,11.596440315000052],[7.232466221000038,11.60099983200007],[7.212553024000044,11.582480431000079],[7.172614098000054,11.569680214000073],[7.149170876000085,11.551150322000069],[7.11743402500008,11.545310020000045],[7.098698139000078,11.52678966500008],[7.085940838000056,11.487500191000038],[7.078915119000044,11.48054981200005],[7.063626766000084,11.479359627000065],[7.047211170000082,11.46778011300006],[7.007188797000083,11.472299576000069],[6.981361866000043,11.460700035000059],[6.938066006000042,11.41094017000006],[6.929837227000064,11.409770012000081],[6.8936510090000525,11.379879951000078],[6.888557911000078,11.380746841000075],[6.886931419000064,11.431178093000085],[6.907266617000062,11.475102425000046],[6.895878792000076,11.505198479000057],[6.907266617000062,11.529600143000039],[6.904012680000051,11.553189278000048],[6.856834888000037,11.588979721000044],[6.851954460000059,11.620701790000055],[6.8552083970000695,11.641850471000055],[6.888473511000086,11.724150658000042],[6.89018487900006,11.779316902000062],[6.896692276000067,11.794771194000077],[6.95363044700008,11.814292908000084],[7.000390530000061,11.82048130000004],[7.016263008000067,11.817546844000049],[7.021888256000068,11.809108734000063],[7.046242237000058,11.801010132000044],[7.062627316000089,11.80453205100008],[7.1396818160000635,11.87674045600005],[7.14356136300006,11.911088943000038],[7.154949188000046,11.917595863000088],[7.164710045000049,11.911902428000076],[7.19968652700004,11.906208038000045],[7.235048771000038,11.927378654000051]]]}},{"type":"Feature","properties":{"CNTRY_NAME":"Nigeria","CNTRY_CODE":"NGA","ADM1_NAME":"Katsina","ADM1_CODE":"NGA021","ADM2_NAME":"Funtua","ADM2_CODE":"NGA021014","HRname":"Funtua","HRpcode":"NG021014","HRparent":"NG021","Shape_Leng":1.0150592715,"Shape_Area":0.0371568757245,"ADM2_New":"Funtua","id":"NG-KT-FUNTUA","name":"Funtua","parentId":"NG-KT","stateName":"Katsina","regionId":"NG-NW","fillColor":"#C2A882"},"geometry":{"type":"Polygon","coordinates":[[[7.136590004000084,11.548848152000062],[7.149170876000085,11.551150322000069],[7.170259953000084,11.569680214000073],[7.212553024000044,11.582480431000079],[7.232466221000038,11.60099983200007],[7.258369923000089,11.596440315000052],[7.272466183000063,11.601090431000046],[7.292481899000052,11.597669601000064],[7.340700150000089,11.601249695000092],[7.35141277300005,11.574709892000044],[7.349206924000043,11.54353046400007],[7.352850914000044,11.519289970000045],[7.367098808000037,11.491609573000062],[7.380370140000082,11.480299950000074],[7.363716125000053,11.460419655000067],[7.363770008000074,11.448880196000061],[7.374455929000078,11.42811965900006],[7.393372059000058,11.408530235000057],[7.402882099000067,11.387769699000046],[7.3934760090000395,11.379449844000078],[7.370110035000039,11.333200455000053],[7.358510971000044,11.274370193000038],[7.3281040190000795,11.277890205000062],[7.324418068000057,11.311369896000087],[7.3149461750000455,11.324049950000074],[7.299613953000062,11.332099915000072],[7.292500973000074,11.343629837000037],[7.2864561080000385,11.378259659000037],[7.291069031000063,11.397899628000062],[7.2838850020000905,11.424440384000093],[7.234179974000085,11.486680031000049],[7.230569839000054,11.503999710000073],[7.22112608000009,11.51089954400004],[7.167007923000085,11.51078033400006],[7.152750015000038,11.540769577000049],[7.136590004000084,11.548848152000062]]]}},{"type":"Feature","properties":{"CNTRY_NAME":"Nigeria","CNTRY_CODE":"NGA","ADM1_NAME":"Katsina","ADM1_CODE":"NGA021","ADM2_NAME":"Ingawa","ADM2_CODE":"NGA021015","HRname":"Ingawa","HRpcode":"NG021015","HRparent":"NG021","Shape_Leng":1.52294935659,"Shape_Area":0.0742930317383,"ADM2_New":"Ingawa","id":"NG-KT-INGAWA","name":"Ingawa","parentId":"NG-KT","stateName":"Katsina","regionId":"NG-NW","fillColor":"#72A898"},"geometry":{"type":"Polygon","coordinates":[[[8.094991684000092,12.814310074000048],[8.150631905000068,12.802612305000082],[8.16792392700006,12.804061890000071],[8.173015594000049,12.794969559000037],[8.173488617000089,12.760299683000085],[8.16712665600005,12.754976273000068],[8.166095734000066,12.743080139000085],[8.15085601800007,12.716889381000044],[8.142413139000041,12.670070648000092],[8.14640903500009,12.663249969000049],[8.193304062000038,12.65225982700008],[8.206247330000053,12.638520241000037],[8.236741066000093,12.647950172000037],[8.24495697000009,12.648010254000042],[8.252026558000068,12.63652992200008],[8.26024818400009,12.634289742000078],[8.276662827000052,12.641309738000075],[8.286055565000083,12.64023017900007],[8.29200744600007,12.604550362000055],[8.28499794000004,12.590680122000037],[8.273418427000081,12.583386421000057],[8.233366966000062,12.585709572000042],[8.214612007000085,12.575220108000053],[8.207610130000091,12.557889938000073],[8.209920883000052,12.540487289000055],[8.197299004000058,12.52392005900009],[8.188990593000085,12.489789963000078],[8.179628372000082,12.478199959000051],[8.180137634000062,12.47150421100008],[8.167934418000073,12.459690094000052],[8.160938263000048,12.440050125000084],[8.133535385000073,12.412210464000054],[8.09412765500008,12.401570320000076],[8.089867592000076,12.403209686000082],[8.075592995000079,12.436659813000063],[8.076655388000063,12.460920334000036],[8.052995682000073,12.48857021300006],[8.056427002000078,12.509369850000041],[8.046938896000086,12.525509834000047],[8.048012733000064,12.547450066000067],[8.039722443000073,12.55897998800009],[8.032626152000091,12.567049980000093],[8.000790596000058,12.581990242000074],[7.987861156000065,12.57964992500007],[7.976150990000065,12.568070412000054],[7.962021828000047,12.570349693000082],[7.947621822000087,12.63035965000006],[7.932258129000047,12.645339966000051],[7.904016972000079,12.646430016000068],[7.887497902000064,12.656780243000071],[7.915237904000037,12.76193046600008],[7.931703091000088,12.763119698000082],[7.957684040000061,12.742400169000064],[7.970626831000061,12.741959572000042],[7.977769852000051,12.723970413000075],[7.998983860000067,12.71592998500006],[8.03653907800009,12.735650063000037],[8.055242538000073,12.76109981500008],[8.089229584000066,12.78888988500006],[8.094991684000092,12.814310074000048]]]}},{"type":"Feature","properties":{"CNTRY_NAME":"Nigeria","CNTRY_CODE":"NGA","ADM1_NAME":"Katsina","ADM1_CODE":"NGA021","ADM2_NAME":"Kafur","ADM2_CODE":"NGA021017","HRname":"Kafur","HRpcode":"NG021017","HRparent":"NG021","Shape_Leng":1.46117202218,"Shape_Area":0.0917606636722,"ADM2_New":"Kafur","id":"NG-KT-KAFUR","name":"Kafur","parentId":"NG-KT","stateName":"Katsina","regionId":"NG-NW","fillColor":"#9B8B72"},"geometry":{"type":"Polygon","coordinates":[[[7.846403122000083,11.898014069000055],[7.870247841000037,11.844249725000054],[7.873161793000065,11.79423046100004],[7.88293886200006,11.747929573000079],[7.8814249040000846,11.724570274000087],[7.909911156000078,11.676549911000052],[7.90917778000005,11.653900146000069],[7.906189919000042,11.64962005600006],[7.884029865000059,11.650059700000043],[7.79749107400005,11.62508964500006],[7.771039963000078,11.61491012600004],[7.72890186300009,11.586720467000077],[7.72485590000008,11.569109917000048],[7.699179173000061,11.53680038500005],[7.6893939970000815,11.516670227000077],[7.685876846000042,11.483920097000066],[7.699106216000075,11.438899994000053],[7.708590984000068,11.42606449100009],[7.668564796000055,11.429949760000056],[7.6474161150000555,11.424130440000056],[7.577950954000073,11.435520172000054],[7.567292213000087,11.450499535000063],[7.555332184000065,11.492050171000074],[7.573915958000043,11.542900085000042],[7.563279152000064,11.553259850000074],[7.55139493900009,11.578639984000063],[7.532516956000052,11.59014987900008],[7.523040771000069,11.60398006400004],[7.531188965000069,11.622469902000091],[7.527605057000073,11.634010315000069],[7.539135933000068,11.683690071000058],[7.5507478710000555,11.716050148000079],[7.562475204000066,11.724160194000092],[7.595398903000046,11.727700233000064],[7.6094570160000785,11.740440369000055],[7.669342995000079,11.764829636000059],[7.681046963000085,11.777549744000055],[7.697353840000062,11.812230110000087],[7.7525401120000765,11.835459709000077],[7.784190178000074,11.859780312000055],[7.821743965000053,11.879500389000043],[7.846514225000078,11.88488006600005],[7.846403122000083,11.898014069000055]]]}},{"type":"Feature","properties":{"CNTRY_NAME":"Nigeria","CNTRY_CODE":"NGA","ADM1_NAME":"Katsina","ADM1_CODE":"NGA021","ADM2_NAME":"Kankara","ADM2_CODE":"NGA021019","HRname":"Kankara","HRpcode":"NG021019","HRparent":"NG021","Shape_Leng":1.95641516241,"Shape_Area":0.121377899446,"ADM2_New":"Kankara","id":"NG-KT-KANKARA","name":"Kankara","parentId":"NG-KT","stateName":"Katsina","regionId":"NG-NW","fillColor":"#8AAB76"},"geometry":{"type":"Polygon","coordinates":[[[7.129436970000086,12.250059128000089],[7.162517548000039,12.235993385000086],[7.181313992000071,12.220970154000042],[7.18966817900008,12.195590019000065],[7.207445145000065,12.167920113000037],[7.235805988000038,12.141420364000055],[7.307559013000059,12.143899918000045],[7.3464522360000615,12.128979683000068],[7.366532803000041,12.111700058000054],[7.431250095000053,12.109539986000073],[7.448924065000085,12.103810310000085],[7.460282803000041,12.106530190000058],[7.472496986000067,12.094630241000061],[7.532619953000051,12.068200111000067],[7.552800179000087,12.030150414000047],[7.555240154000046,12.011670113000037],[7.548230171000057,12.00127029400005],[7.516573906000076,11.978099823000036],[7.473136902000078,11.958370209000066],[7.4743580820000375,11.949130058000037],[7.490817070000048,11.951479912000082],[7.496720791000087,11.946869850000041],[7.509662151000043,11.946909904000051],[7.52269506500005,11.927300453000043],[7.540319920000059,11.931960106000076],[7.582105637000041,11.959710121000057],[7.58375215500007,11.95285034200009],[7.606121063000046,11.949440002000074],[7.616752148000046,11.94021987900004],[7.615656853000075,11.922900200000072],[7.587557793000087,11.893969536000043],[7.556077003000041,11.833849907000058],[7.524432182000055,11.808369637000055],[7.5010547640000595,11.775979996000046],[7.495443821000038,11.718239784000048],[7.487307072000078,11.697429657000043],[7.454181194000057,11.736619949000044],[7.431785107000053,11.745800018000068],[7.422329903000048,11.755020142000092],[7.411660194000092,11.772310257000072],[7.400887012000055,11.811550140000065],[7.387914181000042,11.818449974000089],[7.342070103000083,11.810259819000066],[7.299723148000055,11.809009552000077],[7.291417122000041,11.824000359000081],[7.287730217000046,11.85748004900006],[7.272273064000046,11.892080307000072],[7.236826897000071,11.924329758000056],[7.235048771000038,11.927378654000051],[7.241857052000057,11.93330955500005],[7.239543438000055,11.94118499800004],[7.2265291210000555,11.94606494900006],[7.216767788000084,11.958266258000037],[7.209447384000043,11.985108376000085],[7.14356136300006,12.01520443000004],[7.10614442800005,12.045301437000091],[7.090689659000077,12.06400966600006],[7.115662098000087,12.091333389000056],[7.150068760000067,12.15917778000005],[7.1525087360000725,12.184393883000041],[7.141527653000082,12.225877762000039],[7.129436970000086,12.250059128000089]]]}},{"type":"Feature","properties":{"CNTRY_NAME":"Nigeria","CNTRY_CODE":"NGA","ADM1_NAME":"Katsina","ADM1_CODE":"NGA021","ADM2_NAME":"Kankia","ADM2_CODE":"NGA021020","HRname":"Kankia","HRpcode":"NG021020","HRparent":"NG021","Shape_Leng":1.37942319549,"Shape_Area":0.0685340054357,"ADM2_New":"Kankia","id":"NG-KT-KANKIA","name":"Kankia","parentId":"NG-KT","stateName":"Katsina","regionId":"NG-NW","fillColor":"#BFA882"},"geometry":{"type":"Polygon","coordinates":[[[7.800551891000055,12.63271999400007],[7.820608139000058,12.620829582000056],[7.897131920000049,12.609459877000063],[7.900704861000065,12.600230217000046],[7.933712006000064,12.586449623000078],[7.940406799000073,12.578069687000038],[7.934947014000045,12.573749542000087],[7.929158211000072,12.554109573000062],[7.937533855000083,12.524109840000051],[7.931787014000065,12.495220184000061],[7.890704155000037,12.475500107000073],[7.87664079700005,12.463919640000086],[7.88031721100009,12.432749748000049],[7.898159981000049,12.391220093000072],[7.908850193000092,12.340959549000047],[7.878327847000037,12.332110405000037],[7.859541893000085,12.317090034000046],[7.842838287000063,12.297245026000041],[7.83125209800005,12.264719009000089],[7.808136940000054,12.270919800000058],[7.753846169000042,12.307749748000049],[7.72087812400008,12.313440323000066],[7.692448139000078,12.354949951000037],[7.677103996000085,12.365300179000087],[7.632389069000055,12.36750984200006],[7.597146988000077,12.355884552000077],[7.586435795000057,12.382419586000083],[7.587535858000081,12.398590088000049],[7.58155107500005,12.420510292000074],[7.590843201000041,12.445940018000044],[7.621307850000051,12.471989632000088],[7.642498016000047,12.469149590000086],[7.661382198000069,12.456489563000048],[7.666240215000073,12.424169540000037],[7.67333698300007,12.416110039000046],[7.699202061000051,12.41963005100007],[7.711997032000056,12.45083999600007],[7.700139999000044,12.470439911000085],[7.714153767000084,12.492409706000046],[7.72939920400006,12.50284004200006],[7.719857216000037,12.530529976000082],[7.720979214000067,12.542079926000042],[7.738516808000043,12.56521987900004],[7.758479118000082,12.573349953000047],[7.760787964000087,12.582590103000086],[7.791327000000081,12.593050003000087],[7.800551891000055,12.63271999400007]]]}},{"type":"Feature","properties":{"CNTRY_NAME":"Nigeria","CNTRY_CODE":"NGA","ADM1_NAME":"Katsina","ADM1_CODE":"NGA021","ADM2_NAME":"Katsina","ADM2_CODE":"NGA021021","HRname":"Katsina","HRpcode":"NG021021","HRparent":"NG021","Shape_Leng":0.427139834205,"Shape_Area":0.0118403946863,"ADM2_New":"Katsina","id":"NG-KT-KATSINA","name":"Katsina","parentId":"NG-KT","stateName":"Katsina","regionId":"NG-NW","fillColor":"#6BA368"},"geometry":{"type":"Polygon","coordinates":[[[7.548148155000092,13.018589973000076],[7.5622382160000825,13.02439022100009],[7.584423065000067,13.060239792000061],[7.598474979000059,13.074130058000037],[7.622010231000047,13.073030472000085],[7.643218994000051,13.066149712000083],[7.658572197000069,13.053480148000062],[7.682248116000039,13.022359848000065],[7.66238403300008,12.99345016500007],[7.634235859000057,12.974909782000054],[7.6226072310000745,12.946009636000042],[7.607350826000072,12.937890053000046],[7.5755710600000725,12.941280365000068],[7.559045792000063,12.952790260000086],[7.553691864000086,12.970687866000048],[7.555315018000044,12.995510101000036],[7.548148155000092,13.018589973000076]]]}},{"type":"Feature","properties":{"CNTRY_NAME":"Nigeria","CNTRY_CODE":"NGA","ADM1_NAME":"Katsina","ADM1_CODE":"NGA021","ADM2_NAME":"Kurfi","ADM2_CODE":"NGA021022","HRname":"Kurfi","HRpcode":"NG021022","HRparent":"NG021","Shape_Leng":1.23590414759,"Shape_Area":0.0476109369648,"ADM2_New":"Kurfi","id":"NG-KT-KURFI","name":"Kurfi","parentId":"NG-KT","stateName":"Katsina","regionId":"NG-NW","fillColor":"#C4A574"},"geometry":{"type":"Polygon","coordinates":[[[7.36969709400006,12.856129646000056],[7.390065193000055,12.861180305000062],[7.405425072000071,12.847359657000084],[7.451334000000088,12.841690063000044],[7.486539841000081,12.860250473000065],[7.515923977000057,12.86608982100006],[7.5476241110000615,12.880020142000092],[7.565280914000084,12.877750397000057],[7.579452991000039,12.866230011000084],[7.583047867000062,12.852390289000084],[7.579599857000062,12.835060120000037],[7.559670925000091,12.819999695000092],[7.54330301300007,12.798020363000091],[7.508308887000055,12.734430313000075],[7.507218838000085,12.715950012000064],[7.5178670880000595,12.703269958000078],[7.529621124000073,12.705610275000083],[7.541327000000081,12.718342781000047],[7.5531229970000595,12.711440086000039],[7.5745491980000565,12.658370018000085],[7.586368084000071,12.646849632000055],[7.586406231000069,12.63877010300007],[7.618218899000055,12.628450394000083],[7.624151230000052,12.618069649000063],[7.61838197700007,12.593810081000072],[7.546786785000052,12.557849884000063],[7.493834972000059,12.560029984000039],[7.453764915000079,12.574950218000083],[7.433764935000056,12.574899673000061],[7.402039051000088,12.566749573000038],[7.381789207000054,12.61981964100005],[7.368751049000082,12.640569687000038],[7.378653049000093,12.668789864000075],[7.390966892000051,12.669489861000045],[7.408544064000068,12.684550285000057],[7.403760910000074,12.700699806000046],[7.404801846000055,12.72957038900006],[7.421136856000089,12.758480072000054],[7.418762207000043,12.763090134000038],[7.424579144000063,12.776960373000065],[7.432775974000037,12.785059929000056],[7.432656765000047,12.810469627000089],[7.424339771000064,12.82777023300008],[7.386643887000048,12.838080406000074],[7.36969709400006,12.856129646000056]]]}},{"type":"Feature","properties":{"CNTRY_NAME":"Nigeria","CNTRY_CODE":"NGA","ADM1_NAME":"Katsina","ADM1_CODE":"NGA021","ADM2_NAME":"Kusada","ADM2_CODE":"NGA021023","HRname":"Kusada","HRpcode":"NG021023","HRparent":"NG021","Shape_Leng":0.778337441312,"Shape_Area":0.0324473733034,"ADM2_New":"Kusada","id":"NG-KT-KUSADA","name":"Kusada","parentId":"NG-KT","stateName":"Katsina","regionId":"NG-NW","fillColor":"#5B8FA8"},"geometry":{"type":"Polygon","coordinates":[[[7.940406799000073,12.578069687000038],[7.973803043000089,12.566909790000068],[7.987861156000065,12.57964992500007],[8.000790596000058,12.581990242000074],[8.038536072000056,12.561289787000078],[8.048012733000064,12.547450066000067],[8.046928406000063,12.527819633000092],[8.056427002000078,12.509369850000041],[8.052995682000073,12.48857021300006],[8.076655388000063,12.460920334000036],[8.075592995000079,12.436659813000063],[8.091573715000038,12.400719643000059],[8.028921127000046,12.37504386900008],[7.9404830930000685,12.354430199000092],[7.9139666560000705,12.339818954000066],[7.908850193000092,12.340959549000047],[7.89458704000009,12.400449753000089],[7.88031721100009,12.432749748000049],[7.87664079700005,12.463919640000086],[7.890704155000037,12.475500107000073],[7.931787014000065,12.495220184000061],[7.937533855000083,12.524109840000051],[7.929158211000072,12.554109573000062],[7.934947014000045,12.573749542000087],[7.940406799000073,12.578069687000038]]]}},{"type":"Feature","properties":{"CNTRY_NAME":"Nigeria","CNTRY_CODE":"NGA","ADM1_NAME":"Katsina","ADM1_CODE":"NGA021","ADM2_NAME":"Malumfashi","ADM2_CODE":"NGA021025","HRname":"Malumfashi","HRpcode":"NG021025","HRparent":"NG021","Shape_Leng":1.20654191252,"Shape_Area":0.0559363402505,"ADM2_New":"Malumfashi","id":"NG-KT-MALUMFASHI","name":"Malumfashi","parentId":"NG-KT","stateName":"Katsina","regionId":"NG-NW","fillColor":"#B8956B"},"geometry":{"type":"Polygon","coordinates":[[[7.582105637000041,11.959710121000057],[7.574210167000047,11.980540276000056],[7.5859198570000785,11.992119789000071],[7.61291790000007,12.004879951000078],[7.640008926000064,11.998009682000088],[7.725852966000048,12.006299973000068],[7.74472522700006,11.995949745000075],[7.754304886000057,11.960169792000045],[7.769609928000079,11.957900047000066],[7.811930180000047,11.964920044000053],[7.8308072090000564,11.961700439000083],[7.8336949350000395,11.965359688000092],[7.846514225000078,11.88488006600005],[7.821743965000053,11.879500389000043],[7.7525401120000765,11.835459709000077],[7.700872898000057,11.814550400000087],[7.688007832000039,11.79835987100006],[7.674032211000053,11.768300056000044],[7.611804008000092,11.741600037000069],[7.595398903000046,11.727700233000064],[7.557779789000051,11.721839905000081],[7.5507478710000555,11.716050148000079],[7.5402908330000855,11.688320160000046],[7.52857494400007,11.677900314000055],[7.510954857000058,11.672080040000083],[7.4944419860000835,11.681280136000055],[7.487307072000078,11.697429657000043],[7.495443821000038,11.718239784000048],[7.499888897000062,11.773670197000058],[7.524432182000055,11.808369637000055],[7.550231934000067,11.825750351000067],[7.587557793000087,11.893969536000043],[7.615656853000075,11.922900200000072],[7.619143009000084,11.932149887000037],[7.61083698300007,11.947139740000068],[7.58375215500007,11.95285034200009],[7.582105637000041,11.959710121000057]]]}},{"type":"Feature","properties":{"CNTRY_NAME":"Nigeria","CNTRY_CODE":"NGA","ADM1_NAME":"Katsina","ADM1_CODE":"NGA021","ADM2_NAME":"Mani","ADM2_CODE":"NGA021026","HRname":"Mani","HRpcode":"NG021026","HRparent":"NG021","Shape_Leng":1.47011929935,"Shape_Area":0.0653630056791,"ADM2_New":"Mani","id":"NG-KT-MANI","name":"Mani","parentId":"NG-KT","stateName":"Katsina","regionId":"NG-NW","fillColor":"#6AADA3"},"geometry":{"type":"Polygon","coordinates":[[[7.773941040000068,13.037579536000067],[7.7951450350000755,13.03186035200008],[7.815112114000044,13.038829803000056],[7.84422397600008,13.102410316000089],[7.850073814000041,13.109350204000066],[7.857904911000048,13.10929966000009],[7.8572521210000446,13.083970070000078],[7.8809719090000385,13.043600082000069],[7.881140232000064,13.007809639000072],[7.909608841000079,12.958219528000086],[7.9332628250000425,12.931719780000037],[7.9426960950000876,12.927120209000066],[7.956809044000067,12.92831039400005],[7.970811844000082,12.952589989000046],[7.976687908000088,12.953760147000082],[8.006187439000087,12.935350418000041],[8.017919540000037,12.942299843000058],[8.02844715100008,12.955030441000076],[8.037669182000059,12.995470047000083],[8.04831409500008,13.003299713000047],[8.09325027500006,12.934399605000067],[8.10164356200005,12.900930405000054],[8.094703674000073,12.875510216000066],[8.073674202000063,12.844280243000071],[8.082029343000045,12.818900108000037],[8.095013618000053,12.809690475000082],[8.089229584000066,12.78888988500006],[8.055242538000073,12.76109981500008],[8.033025742000063,12.732179642000062],[7.998983860000067,12.71592998500006],[7.988390923000054,12.717060089000086],[7.971844196000063,12.733189583000069],[7.971756935000087,12.75166988400008],[7.978702068000075,12.775930405000054],[7.975101948000088,12.79094028500009],[7.937363148000088,12.810480118000044],[7.919622898000057,12.830069542000047],[7.90785408000005,12.831199646000073],[7.876142979000065,12.819580078000058],[7.814983845000086,12.815970421000088],[7.771546841000088,12.796239853000088],[7.75376510600006,12.825070381000046],[7.760735989000068,12.84356021900004],[7.759494781000058,12.857410431000062],[7.781336784000075,12.966010094000069],[7.781243801000073,12.985639572000082],[7.772868156000072,13.015640259000065],[7.773941040000068,13.037579536000067]]]}},{"type":"Feature","properties":{"CNTRY_NAME":"Nigeria","CNTRY_CODE":"NGA","ADM1_NAME":"Katsina","ADM1_CODE":"NGA021","ADM2_NAME":"Matazuu","ADM2_CODE":"NGA021028","HRname":"Matazuu","HRpcode":"NG021028","HRparent":"NG021","Shape_Leng":0.829750070644,"Shape_Area":0.0418222198147,"ADM2_New":"Matazu","id":"NG-KT-MATAZUU","name":"Matazuu","parentId":"NG-KT","stateName":"Katsina","regionId":"NG-NW","fillColor":"#D4C4A0"},"geometry":{"type":"Polygon","coordinates":[[[7.597146988000077,12.355884552000077],[7.632389069000055,12.36750984200006],[7.677103996000085,12.365300179000087],[7.692448139000078,12.354949951000037],[7.72087812400008,12.313440323000066],[7.753846169000042,12.307749748000049],[7.765666008000039,12.296230316000049],[7.7798099520000505,12.290479660000074],[7.763474941000084,12.261580467000044],[7.743563175000077,12.24306011200008],[7.738955021000038,12.222260475000041],[7.719030857000064,12.206049919000066],[7.707353115000046,12.18754959100005],[7.575753212000052,12.152600288000087],[7.545679092000057,12.150389671000084],[7.52148294400007,12.184809685000062],[7.516657829000053,12.210200310000062],[7.515008926000064,12.310660362000078],[7.52906703900004,12.323390007000057],[7.526524067000082,12.363800049000076],[7.532368183000074,12.371899605000067],[7.545309067000062,12.371930122000037],[7.580673218000072,12.357000351000067],[7.597146988000077,12.355884552000077]]]}},{"type":"Feature","properties":{"CNTRY_NAME":"Nigeria","CNTRY_CODE":"NGA","ADM1_NAME":"Katsina","ADM1_CODE":"NGA021","ADM2_NAME":"Musawa","ADM2_CODE":"NGA021029","HRname":"Musawa","HRpcode":"NG021029","HRparent":"NG021","Shape_Leng":1.49020866923,"Shape_Area":0.0704875516124,"ADM2_New":"Musawa","id":"NG-KT-MUSAWA","name":"Musawa","parentId":"NG-KT","stateName":"Katsina","regionId":"NG-NW","fillColor":"#688EB5"},"geometry":{"type":"Polygon","coordinates":[[[7.7798099520000505,12.290479660000074],[7.808136940000054,12.270919800000058],[7.83125209800005,12.264719009000089],[7.82231283200008,12.194620132000068],[7.830353737000053,12.145118713000045],[7.838901043000078,12.127920151000069],[7.835870266000086,12.11838722200008],[7.841379166000081,12.072640419000038],[7.836308002000067,12.048270226000056],[7.841492176000088,12.024250031000065],[7.835505486000045,12.009267807000072],[7.837193012000057,11.987156868000056],[7.8308072090000564,11.961700439000083],[7.811930180000047,11.964920044000053],[7.769609928000079,11.957900047000066],[7.754304886000057,11.960169792000045],[7.74472522700006,11.995949745000075],[7.725852966000048,12.006299973000068],[7.709376812000073,12.007410049000043],[7.672945023000068,11.999239922000072],[7.652928829000075,12.002659798000082],[7.640008926000064,11.998009682000088],[7.61291790000007,12.004879951000078],[7.582400799000084,11.989800453000043],[7.574210167000047,11.980540276000056],[7.583707809000089,11.96208953900009],[7.540319920000059,11.931960106000076],[7.52269506500005,11.927300453000043],[7.509662151000043,11.946909904000051],[7.496720791000087,11.946869850000041],[7.490817070000048,11.951479912000082],[7.4743580820000375,11.949130058000037],[7.473147869000059,11.956060410000077],[7.479002953000077,11.96185016600009],[7.520092010000042,11.980420113000037],[7.548230171000057,12.00127029400005],[7.556384087000083,12.01861000100007],[7.532619953000051,12.068200111000067],[7.499592781000047,12.086600304000058],[7.474853992000078,12.093480110000087],[7.460282803000041,12.106530190000058],[7.522839069000042,12.146699905000048],[7.575753212000052,12.152600288000087],[7.707353115000046,12.18754959100005],[7.719030857000064,12.206049919000066],[7.738955021000038,12.222260475000041],[7.743563175000077,12.24306011200008],[7.763474941000084,12.261580467000044],[7.7798099520000505,12.290479660000074]]]}},{"type":"Feature","properties":{"CNTRY_NAME":"Nigeria","CNTRY_CODE":"NGA","ADM1_NAME":"Katsina","ADM1_CODE":"NGA021","ADM2_NAME":"Rimi","ADM2_CODE":"NGA021030","HRname":"Rimi","HRpcode":"NG021030","HRparent":"NG021","Shape_Leng":1.06845222154,"Shape_Area":0.0376639505349,"ADM2_New":"Rimi","id":"NG-KT-RIMI","name":"Rimi","parentId":"NG-KT","stateName":"Katsina","regionId":"NG-NW","fillColor":"#7CB087"},"geometry":{"type":"Polygon","coordinates":[[[7.7248001100000465,13.048230171000057],[7.74916982700006,13.05138015700004],[7.773941040000068,13.037579536000067],[7.772868156000072,13.015640259000065],[7.781243801000073,12.985639572000082],[7.77448988000009,12.920960426000079],[7.759494781000058,12.857410431000062],[7.761901855000076,12.845870018000085],[7.75376510600006,12.825070381000046],[7.771546841000088,12.796239853000088],[7.768365860000074,12.72233009300004],[7.753174782000087,12.700349808000055],[7.733131886000081,12.709549904000085],[7.714324951000037,12.706040382000083],[7.689565182000081,12.717530251000085],[7.646029949000081,12.718580246000045],[7.55771493900005,12.735699654000086],[7.580945015000054,12.799260139000069],[7.6137280460000625,12.832830429000069],[7.642928123000047,12.877929687000062],[7.73439312000005,12.941650391000053],[7.763673782000069,12.969429970000078],[7.7648172380000915,12.976360321000072],[7.755356789000075,12.986729622000041],[7.711747169000091,13.00395011900008],[7.711691856000073,13.01550006900004],[7.7280759810000745,13.03400993300005],[7.7248001100000465,13.048230171000057]]]}},{"type":"Feature","properties":{"CNTRY_NAME":"Nigeria","CNTRY_CODE":"NGA","ADM1_NAME":"Katsina","ADM1_CODE":"NGA021","ADM2_NAME":"Sabuwa","ADM2_CODE":"NGA021031","HRname":"Sabuwa","HRpcode":"NG021031","HRparent":"NG021","Shape_Leng":1.1995994916,"Shape_Area":0.0531647438806,"ADM2_New":"Sabuwa","id":"NG-KT-SABUWA","name":"Sabuwa","parentId":"NG-KT","stateName":"Katsina","regionId":"NG-NW","fillColor":"#C9B896"},"geometry":{"type":"Polygon","coordinates":[[[6.8936510090000525,11.379879951000078],[6.901693821000038,11.390069962000041],[6.942749977000062,11.415570259000049],[6.981361866000043,11.460700035000059],[7.007188797000083,11.472299576000069],[7.047211170000082,11.46778011300006],[7.063626766000084,11.479359627000065],[7.086891174000073,11.485650063000037],[7.091856003000089,11.480580330000066],[7.091899872000056,11.471340179000038],[7.084911823000084,11.456319809000092],[7.08498811700008,11.440150261000042],[7.0992078780000725,11.418239594000056],[7.141735077000078,11.381389618000071],[7.161920071000054,11.342180252000048],[7.197327137000059,11.31801033000005],[7.206881046000092,11.288009644000056],[7.198654175000058,11.271747589000086],[7.198932171000081,11.254830360000085],[7.229557037000063,11.208959579000066],[7.235478878000038,11.185959816000093],[7.176891804000093,11.14408016200008],[7.158125877000089,11.138190269000063],[7.146380901000043,11.141570091000062],[7.0734400750000646,11.21479034400005],[7.044062138000072,11.22957038900006],[7.035851955000055,11.22721004500005],[7.004116058000079,11.246569633000092],[6.973610878000045,11.241749763000087],[6.967733860000067,11.245169640000086],[6.9782538410000825,11.263669968000045],[7.008699894000074,11.293840408000051],[7.02156209900005,11.314669609000077],[7.023858070000074,11.336569786000041],[7.010892868000042,11.359519958000078],[6.961600780000083,11.358030319000079],[6.919289112000058,11.383079529000042],[6.8936510090000525,11.379879951000078]]]}},{"type":"Feature","properties":{"CNTRY_NAME":"Nigeria","CNTRY_CODE":"NGA","ADM1_NAME":"Katsina","ADM1_CODE":"NGA021","ADM2_NAME":"Safana","ADM2_CODE":"NGA021032","HRname":"Safana","HRpcode":"NG021032","HRparent":"NG021","Shape_Leng":0.708180490245,"Shape_Area":0.0234627066461,"ADM2_New":"Safana","id":"NG-KT-SAFANA","name":"Safana","parentId":"NG-KT","stateName":"Katsina","regionId":"NG-NW","fillColor":"#5E9E78"},"geometry":{"type":"Polygon","coordinates":[[[8.354790688000037,12.995940208000093],[8.370644569000092,12.988149643000042],[8.40118885000004,12.997460365000052],[8.404772758000092,12.985919952000074],[8.430752754000082,12.965200424000045],[8.436705589000042,12.950200081000048],[8.440582275000054,12.87631034900005],[8.450146675000042,12.843999863000079],[8.46109294900009,12.830809593000083],[8.420649529000059,12.821904182000083],[8.39958095600008,12.82716941800004],[8.37717056300005,12.825189590000036],[8.33017635300007,12.844449997000083],[8.24098777800009,12.839220047000083],[8.227464676000068,12.866796494000084],[8.269952774000046,12.885149956000078],[8.27814483600008,12.894410133000065],[8.301630020000061,12.903699875000086],[8.309826851000082,12.91180038500005],[8.319147110000074,12.931449890000067],[8.31666374200006,12.959159851000038],[8.323645592000048,12.975339890000043],[8.354790688000037,12.995940208000093]]]}},{"type":"Feature","properties":{"CNTRY_NAME":"Nigeria","CNTRY_CODE":"NGA","ADM1_NAME":"Katsina","ADM1_CODE":"NGA021","ADM2_NAME":"Sandamu","ADM2_CODE":"NGA021033","HRname":"Sandamu","HRpcode":"NG021033","HRparent":"NG021","Shape_Leng":1.49622068812,"Shape_Area":0.117954052537,"ADM2_New":"Sandamu","id":"NG-KT-SANDAMU","name":"Sandamu","parentId":"NG-KT","stateName":"Katsina","regionId":"NG-NW","fillColor":"#94B86A"},"geometry":{"type":"Polygon","coordinates":[[[7.047209740000085,12.63767147100009],[7.05439567600007,12.634435654000072],[7.085213184000054,12.642230034000079],[7.125131130000057,12.659640312000079],[7.1357297900000844,12.657360077000078],[7.1651139260000605,12.663200378000056],[7.245233059000043,12.63798046100004],[7.272285938000039,12.639200211000059],[7.327455044000089,12.665880203000086],[7.338054180000086,12.663599968000085],[7.356828213000085,12.674030304000041],[7.378653049000093,12.668789864000075],[7.368751049000082,12.640569687000038],[7.393679142000053,12.59329032900007],[7.42234277700004,12.502129555000067],[7.462722778000057,12.421389580000039],[7.457004070000039,12.386739731000091],[7.441808224000056,12.365920067000047],[7.4336972240000705,12.339340210000046],[7.444498062000093,12.294329643000083],[7.396256924000056,12.29537010200005],[7.38798999800008,12.302280426000038],[7.349123001000066,12.311429977000046],[7.3408169750000525,12.326419830000077],[7.325473785000042,12.336779594000063],[7.2489829060000375,12.341219902000091],[7.215981960000079,12.353850365000085],[7.1983571050000705,12.34918975800008],[7.177235126000085,12.33759021800006],[7.163183212000092,12.323699951000037],[7.104324341000051,12.297334671000044],[7.0932688710000775,12.35783863100005],[7.068321228000059,12.411334038000064],[7.051239491000047,12.539853096000058],[7.047209740000085,12.63767147100009]]]}},{"type":"Feature","properties":{"CNTRY_NAME":"Nigeria","CNTRY_CODE":"NGA","ADM1_NAME":"Katsina","ADM1_CODE":"NGA021","ADM2_NAME":"kaita","ADM2_CODE":"NGA021018","HRname":"kaita","HRpcode":"NG021018","HRparent":"NG021","Shape_Leng":1.26485526857,"Shape_Area":0.080150580735,"ADM2_New":"kaita","id":"NG-KT-KAITA","name":"kaita","parentId":"NG-KT","stateName":"Katsina","regionId":"NG-NW","fillColor":"#A3C986"},"geometry":{"type":"Polygon","coordinates":[[[7.8768922520000615,13.33164521100008],[7.882177830000046,13.287260056000036],[7.894100189000085,13.253800392000073],[7.905945778000046,13.236499786000081],[7.911948204000055,13.211110115000054],[7.89340210000006,13.15217971800007],[7.858297825000079,13.111680031000049],[7.84422397600008,13.102410316000089],[7.815112114000044,13.038829803000056],[7.784555912000087,13.031829834000064],[7.739752769000063,13.052519798000048],[7.717439175000038,13.044380188000048],[7.702237129000082,13.024720192000075],[7.681055069000081,13.025819778000084],[7.643218994000051,13.066149712000083],[7.600828171000046,13.074139595000076],[7.587930202000052,13.06486988100005],[7.5622382160000825,13.02439022100009],[7.548148155000092,13.018589973000076],[7.537539005000042,13.023180008000054],[7.516214848000061,13.054309845000091],[7.496122837000087,13.073889732000055],[7.49485397300009,13.09352016400004],[7.499516010000093,13.102769852000051],[7.53574093800006,13.144320605000075],[7.52438845000006,13.166378911000038],[7.804100000000062,13.33424000000008],[7.824879999000075,13.339570000000037],[7.8768922520000615,13.33164521100008]]]}},{"type":"Feature","properties":{"CNTRY_NAME":"Nigeria","CNTRY_CODE":"NGA","ADM1_NAME":"Katsina","ADM1_CODE":"NGA021","ADM2_NAME":"Jibia","ADM2_CODE":"NGA021016","HRname":"Jibia","HRpcode":"NG021016","HRparent":"NG021","Shape_Leng":1.9043216737,"Shape_Area":0.0867869428374,"ADM2_New":"Jibia","id":"NG-KT-JIBIA","name":"Jibia","parentId":"NG-KT","stateName":"Katsina","regionId":"NG-NW","fillColor":"#D4896A"},"geometry":{"type":"Polygon","coordinates":[[[7.548148155000092,13.018589973000076],[7.557734013000072,12.98165988900007],[7.553691864000086,12.970687866000048],[7.458055019000085,12.913299561000088],[7.4216561320000665,12.898200035000059],[7.400479794000091,12.898150444000066],[7.383997917000045,12.900420189000045],[7.362740993000045,12.91769981400006],[7.359172821000072,12.925769806000062],[7.339140892000046,12.932649612000091],[7.318951130000073,12.973019600000043],[7.310682774000043,12.97992992400009],[7.2941689490000385,12.989130020000061],[7.288298130000044,12.98680973100005],[7.27415323300005,12.992549896000071],[7.258793831000048,13.006369591000066],[7.249382019000052,13.006349564000061],[7.2187290190000795,13.020139694000079],[7.210543156000085,13.009719849000078],[7.215363026000091,12.985489845000075],[7.227258205000055,12.957799911000052],[7.246179104000078,12.937060356000075],[7.265175819000092,12.900150299000074],[7.264119148000077,12.87473964700007],[7.259450912000091,12.866649628000062],[7.246520996000072,12.864310265000086],[7.154518127000074,12.914910316000089],[7.1404061320000665,12.913720131000048],[7.132193089000054,12.909079552000037],[7.11940908400004,12.875559807000059],[7.084409237000045,12.813130379000086],[7.028411865000066,12.787982941000053],[7.028871059000039,12.81722450300009],[7.0231771470000695,12.831866264000041],[7.0398516650000715,12.948996544000067],[7.032051989000081,12.995428771000093],[7.136390000000063,13.023160000000075],[7.151629999000079,13.032300000000077],[7.22788999900007,13.110930000000053],[7.370749999000054,13.098500000000058],[7.400720000000092,13.101790000000051],[7.457820000000083,13.126700000000085],[7.524261139000089,13.166621691000046],[7.53563801100006,13.144714148000048],[7.499516010000093,13.102769852000051],[7.49374914200007,13.07851028400006],[7.537539005000042,13.023180008000054],[7.548148155000092,13.018589973000076]]]}},{"type":"Feature","properties":{"CNTRY_NAME":"Nigeria","CNTRY_CODE":"NGA","ADM1_NAME":"Katsina","ADM1_CODE":"NGA021","ADM2_NAME":"Mashi","ADM2_CODE":"NGA021027","HRname":"Mashi","HRpcode":"NG021027","HRparent":"NG021","Shape_Leng":1.27932388603,"Shape_Area":0.075864054036,"ADM2_New":"Mashi","id":"NG-KT-MASHI","name":"Mashi","parentId":"NG-KT","stateName":"Katsina","regionId":"NG-NW","fillColor":"#8FAF6E"},"geometry":{"type":"Polygon","coordinates":[[[8.064965782000058,13.302969489000077],[8.062300682000057,13.261110306000091],[8.075377464000042,13.232279778000077],[8.080301285000075,13.18610000600006],[8.093313217000059,13.171119690000069],[8.098099709000053,13.153809547000037],[8.113503456000046,13.13074970200006],[8.11958026900004,13.089189529000066],[8.12908458700008,13.069580078000058],[8.144481659000064,13.047679901000038],[8.149726868000073,13.048489571000061],[8.164530754000054,13.037329674000091],[8.149291039000047,13.025750160000086],[8.112858772000038,13.017580032000069],[8.105833054000072,13.010640144000092],[8.102368355000067,12.996769905000065],[8.091813087000048,12.989819527000066],[8.078872681000064,12.989789963000078],[8.065871239000046,13.002459526000052],[8.052913666000052,13.00590038300004],[8.037669182000059,12.995470047000083],[8.02844715100008,12.955030441000076],[8.017919540000037,12.942299843000058],[8.001476288000049,12.93649005900005],[7.973158836000039,12.95374965700006],[7.9532899860000725,12.92599010500004],[7.9426960950000876,12.927120209000066],[7.910796165000079,12.955909729000041],[7.881140232000064,13.007809639000072],[7.8809719090000385,13.043600082000069],[7.8572521210000446,13.083970070000078],[7.859457970000051,13.11515045200008],[7.89340210000006,13.15217971800007],[7.911948204000055,13.211110115000054],[7.905945778000046,13.236499786000081],[7.895287991000089,13.251489639000056],[7.882177830000046,13.287260056000036],[7.8768922520000615,13.33164521100008],[8.064965782000058,13.302969489000077]]]}},{"type":"Feature","properties":{"CNTRY_NAME":"Nigeria","CNTRY_CODE":"NGA","ADM1_NAME":"Katsina","ADM1_CODE":"NGA021","ADM2_NAME":"Mai'Adua","ADM2_CODE":"NGA021024","HRname":"Mai'Adua","HRpcode":"NG021024","HRparent":"NG021","Shape_Leng":1.10951023296,"Shape_Area":0.0450100695262,"ADM2_New":"Mai'adua","id":"NG-KT-MAIADUA","name":"Mai'Adua","parentId":"NG-KT","stateName":"Katsina","regionId":"NG-NW","fillColor":"#A8BF7A"},"geometry":{"type":"Polygon","coordinates":[[[8.401471019000041,13.069417595000061],[8.40572643300004,13.03326988200007],[8.403545380000082,12.996700287000067],[8.370644569000092,12.988149643000042],[8.355323792000092,12.993889809000052],[8.357611656000074,13.007749557000068],[8.349240303000045,13.036600113000077],[8.271501541000077,13.056050301000084],[8.234889984000063,13.08598995200009],[8.20312023200006,13.087070465000068],[8.144481659000064,13.047679901000038],[8.11958026900004,13.089189529000066],[8.113503456000046,13.13074970200006],[8.098099709000053,13.153809547000037],[8.094500542000048,13.16880989100008],[8.080301285000075,13.18610000600006],[8.075377464000042,13.232279778000077],[8.062300682000057,13.261110306000091],[8.064965782000058,13.302969489000077],[8.145410000000084,13.271340000000066],[8.211730000000045,13.218990000000076],[8.25592000000006,13.207560000000058],[8.287529999000071,13.171680000000038],[8.307509999000047,13.161080000000084],[8.327900000000056,13.13277000000005],[8.356259999000088,13.114530000000059],[8.365810000000067,13.097710000000063],[8.401471019000041,13.069417595000061]]]}},{"type":"Feature","properties":{"CNTRY_NAME":"Nigeria","CNTRY_CODE":"NGA","ADM1_NAME":"Katsina","ADM1_CODE":"NGA021","ADM2_NAME":"Zango","ADM2_CODE":"NGA021034","HRname":"Zango","HRpcode":"NG021034","HRparent":"NG021","Shape_Leng":0.998737314798,"Shape_Area":0.0502159872676,"ADM2_New":"Zango","id":"NG-KT-ZANGO","name":"Zango","parentId":"NG-KT","stateName":"Katsina","regionId":"NG-NW","fillColor":"#C2A882"},"geometry":{"type":"Polygon","coordinates":[[[8.710176126000079,12.91518149500007],[8.725307465000071,12.872340202000089],[8.718335152000066,12.853850365000085],[8.664229393000085,12.851420403000077],[8.644197464000058,12.858300209000049],[8.625460625000073,12.839779854000085],[8.620749474000093,12.84092998500006],[8.620781898000075,12.833999634000065],[8.59374523200006,12.829319954000084],[8.583806992000063,12.816209793000041],[8.556736946000058,12.829890251000052],[8.535599709000053,12.834349632000055],[8.488647461000085,12.836330414000088],[8.46109294900009,12.830809593000083],[8.446578979000037,12.852069855000082],[8.439378738000073,12.882080078000058],[8.441639900000041,12.90170955700006],[8.436705589000042,12.950200081000048],[8.424838066000063,12.972109795000051],[8.404772758000092,12.985919952000074],[8.40146629700007,13.069405883000059],[8.415629999000089,13.054850000000044],[8.486420000000066,13.06973000000005],[8.531079999000042,13.056650000000047],[8.564820000000054,13.038270000000068],[8.601829999000074,13.010520000000042],[8.631669999000053,12.977100000000064],[8.644579999000086,12.955740000000048],[8.648480000000063,12.938560000000052],[8.696350000000052,12.916780000000074],[8.710176126000079,12.91518149500007]]]}},{"type":"Feature","properties":{"CNTRY_NAME":"Nigeria","CNTRY_CODE":"NGA","ADM1_NAME":"Katsina","ADM1_CODE":"NGA021","ADM2_NAME":"Baure","ADM2_CODE":"NGA021004","HRname":"Baure","HRpcode":"NG021004","HRparent":"NG021","Shape_Leng":1.25370604323,"Shape_Area":0.0591639771692,"ADM2_New":"Baure","id":"NG-KT-BAURE","name":"Baure","parentId":"NG-KT","stateName":"Katsina","regionId":"NG-NW","fillColor":"#A8BF7A"},"geometry":{"type":"Polygon","coordinates":[[[9.045212837000065,12.838052173000051],[9.049713135000047,12.821769714000084],[9.041513443000042,12.814800262000063],[8.991031647000057,12.820210457000087],[8.97733783700005,12.81723022500006],[8.967593193000084,12.805080414000088],[8.95690631900004,12.755949974000089],[8.94311618800009,12.732330322000053],[8.931398392000062,12.724180222000086],[8.871588707000058,12.703029633000085],[8.835723877000078,12.699219704000086],[8.824665070000037,12.692339897000068],[8.815869331000044,12.694379807000075],[8.80941772500006,12.687620163000076],[8.782412529000055,12.692040443000053],[8.75896358500006,12.681509972000072],[8.754262924000045,12.683790207000072],[8.751450539000075,12.695899963000045],[8.73974227900004,12.695759773000077],[8.702130318000059,12.709119797000085],[8.68263244600007,12.698269844000038],[8.650867462000065,12.73031044000004],[8.612127304000069,12.733489990000066],[8.607416153000088,12.740369797000085],[8.609733582000047,12.753060341000037],[8.599143982000044,12.764510155000039],[8.60496902500006,12.782979965000038],[8.595565796000074,12.788680077000038],[8.593174934000047,12.807100296000044],[8.583806992000063,12.816209793000041],[8.59374523200006,12.829319954000084],[8.620781898000075,12.833999634000065],[8.620749474000093,12.84092998500006],[8.625460625000073,12.839779854000085],[8.644197464000058,12.858300209000049],[8.687768936000055,12.849160194000092],[8.718335152000066,12.853850365000085],[8.725307465000071,12.872340202000089],[8.710176126000079,12.91518149500007],[8.870720000000063,12.870420000000081],[8.969790000000046,12.833050000000071],[8.997540000000072,12.840730000000065],[9.045212837000065,12.838052173000051]]]}}]}