{"type":"FeatureCollection","features":[{"type":"Feature","properties":{"CNTRY_NAME":"Nigeria","CNTRY_CODE":"NGA","ADM1_NAME":"Kebbi","ADM1_CODE":"NGA022","ADM2_NAME":"Aleiro","ADM2_CODE":"NGA022001","HRname":"Aleiro","HRpcode":"NG022001","HRparent":"NG022","Shape_Leng":0.6997800536,"Shape_Area":0.0290006463617,"ADM2_New":"Aleiro","id":"NG-KE-ALEIRO","name":"Aleiro","parentId":"NG-KE","stateName":"Kebbi","regionId":"NG-NW","fillColor":"#7cb87c"},"geometry":{"type":"Polygon","coordinates":[[[4.330224514000065,12.312222481000049],[4.350078106000069,12.358199120000052],[4.379335880000042,12.39581680300006],[4.408594131000086,12.41357994100008],[4.438896656000054,12.415670395000063],[4.449346066000089,12.420894623000038],[4.467109680000078,12.418805122000037],[4.48902511600005,12.392568588000074],[4.486963272000082,12.348794937000036],[4.50159215900004,12.31326675400004],[4.525625706000085,12.287143707000041],[4.51935625100009,12.242212296000048],[4.531864643000063,12.194152832000043],[4.474424362000093,12.21922397600008],[4.436807156000043,12.224448204000055],[4.354257584000038,12.24743652300009],[4.34485340100008,12.256840706000048],[4.33649396900006,12.276694298000052],[4.330224514000065,12.312222481000049]]]}},{"type":"Feature","properties":{"CNTRY_NAME":"Nigeria","CNTRY_CODE":"NGA","ADM1_NAME":"Kebbi","ADM1_CODE":"NGA022","ADM2_NAME":"Argungu","ADM2_CODE":"NGA022003","HRname":"Argungu","HRpcode":"NG022003","HRparent":"NG022","Shape_Leng":1.55657269274,"Shape_Area":0.107354091094,"ADM2_New":"Argungu","id":"NG-KE-ARGUNGU","name":"Argungu","parentId":"NG-KE","stateName":"Kebbi","regionId":"NG-NW","fillColor":"#8fbc8f"},"geometry":{"type":"Polygon","coordinates":[[[4.363136768000061,12.876535416000081],[4.39404869100008,12.843624115000068],[4.411221027000067,12.832696915000042],[4.490839005000055,12.828013420000048],[4.51659727100008,12.818646431000047],[4.546258926000064,12.772593498000049],[4.582945347000077,12.76869010900009],[4.617290497000056,12.758543015000043],[4.627437592000092,12.747614861000045],[4.679735661000052,12.724978447000069],[4.7531085010000425,12.728881836000085],[4.7852549550000845,12.719123840000066],[4.776453495000055,12.690052986000069],[4.675825119000081,12.664764404000039],[4.642081261000044,12.660546303000046],[4.575798988000088,12.628610611000056],[4.545670509000047,12.605712891000053],[4.502285957000083,12.595469475000073],[4.481060505000073,12.57761669200005],[4.458750248000058,12.57658863100005],[4.4378519060000485,12.566139221000071],[4.41904306400005,12.56300449400004],[4.3981447220000405,12.550465584000051],[4.361572266000053,12.554645538000045],[4.345898151000085,12.550465584000051],[4.229911327000082,12.56091499300004],[4.210057735000078,12.583903313000064],[4.198563576000083,12.641373634000047],[4.189159393000068,12.650778770000045],[4.152597904000061,12.664358139000058],[4.16846561400007,12.680486679000069],[4.187979698000049,12.689852715000086],[4.226227283000071,12.757761955000092],[4.2371554370000695,12.78742408800008],[4.298820019000061,12.807718277000049],[4.309747696000045,12.81708526600005],[4.320675850000043,12.838940620000074],[4.363136768000061,12.876535416000081]]]}},{"type":"Feature","properties":{"CNTRY_NAME":"Nigeria","CNTRY_CODE":"NGA","ADM1_NAME":"Kebbi","ADM1_CODE":"NGA022","ADM2_NAME":"Augie","ADM2_CODE":"NGA022004","HRname":"Augie","HRpcode":"NG022004","HRparent":"NG022","Shape_Leng":1.54901796669,"Shape_Area":0.0983453676982,"ADM2_New":"Augie","id":"NG-KE-AUGIE","name":"Augie","parentId":"NG-KE","stateName":"Kebbi","regionId":"NG-NW","fillColor":"#a8c686"},"geometry":{"type":"Polygon","coordinates":[[[4.708420277000073,13.15612506900004],[4.691870689000041,13.106127739000044],[4.682274342000085,13.05116748800009],[4.668098450000059,13.027176857000086],[4.6445441250000385,13.003186226000082],[4.638437271000043,12.984866142000044],[4.723494530000039,12.879307747000041],[4.774092674000087,12.857062340000084],[4.789359570000045,12.843104362000076],[4.816334248000089,12.774154663000047],[4.81140232100006,12.753943443000082],[4.793325424000045,12.735264778000044],[4.7852549550000845,12.719123840000066],[4.7531085010000425,12.728881836000085],[4.722666740000079,12.72419834100009],[4.679735661000052,12.724978447000069],[4.627437592000092,12.747614861000045],[4.617290497000056,12.758543015000043],[4.582945347000077,12.76869010900009],[4.546258926000064,12.772593498000049],[4.51659727100008,12.818646431000047],[4.490839005000055,12.828013420000048],[4.411221027000067,12.832696915000042],[4.39404869100008,12.843624115000068],[4.365168095000058,12.873286247000067],[4.363136768000061,12.876535416000081],[4.431515694000041,12.96929550200008],[4.444005013000037,13.009884834000047],[4.464299679000078,13.02549648300004],[4.484594345000062,13.058279991000063],[4.530647755000075,13.097308159000079],[4.552503586000057,13.11526107800006],[4.570456505000038,13.10511398300008],[4.618851662000054,13.091844559000037],[4.629779339000038,13.098869324000077],[4.654757500000073,13.147264481000036],[4.6703686710000625,13.165997505000064],[4.696907997000039,13.16990089400008],[4.708420277000073,13.15612506900004]]]}},{"type":"Feature","properties":{"CNTRY_NAME":"Nigeria","CNTRY_CODE":"NGA","ADM1_NAME":"Kebbi","ADM1_CODE":"NGA022","ADM2_NAME":"Birnin Kebbi","ADM2_CODE":"NGA022006","HRname":"Birnin Kebbi","HRpcode":"NG022006","HRparent":"NG022","Shape_Leng":1.62528404994,"Shape_Area":0.109830950051,"ADM2_New":"Birnin Kebbi","id":"NG-KE-BIRNIN-KEBBI","name":"Birnin Kebbi","parentId":"NG-KE","stateName":"Kebbi","regionId":"NG-NW","fillColor":"#c2b280"},"geometry":{"type":"Polygon","coordinates":[[[4.152597904000061,12.664358139000058],[4.189159393000068,12.650778770000045],[4.198563576000083,12.641373634000047],[4.210057735000078,12.583903313000064],[4.229911327000082,12.56091499300004],[4.24140596400008,12.557780266000066],[4.3981447220000405,12.550465584000051],[4.41904306400005,12.56300449400004],[4.4378519060000485,12.566139221000071],[4.458750248000058,12.57658863100005],[4.500547409000092,12.57449913000005],[4.5318951610000795,12.555689812000082],[4.540254593000043,12.538970947000053],[4.548614025000063,12.501354218000074],[4.570557594000093,12.486724854000045],[4.585186481000051,12.468960762000052],[4.591455936000045,12.458512306000046],[4.589366436000091,12.450152397000068],[4.576827049000087,12.438658714000042],[4.541299820000063,12.437613487000078],[4.525625706000085,12.429253578000043],[4.506816864000086,12.41357994100008],[4.496367931000066,12.393726349000076],[4.48902511600005,12.392568588000074],[4.467109680000078,12.418805122000037],[4.449346066000089,12.420894623000038],[4.438896656000054,12.415670395000063],[4.408594131000086,12.41357994100008],[4.379335880000042,12.39581680300006],[4.366796970000053,12.38223266600005],[4.350078106000069,12.358199120000052],[4.330224514000065,12.312222481000049],[4.2696189880000475,12.292368889000045],[4.250810146000049,12.29968357100006],[4.220507145000056,12.323716164000075],[4.207968235000067,12.339390755000068],[4.2048335080000925,12.356109619000051],[4.188114643000063,12.370738029000051],[4.158856392000075,12.38223266600005],[4.090936184000043,12.386411667000061],[4.05331897700006,12.40104103100009],[4.021971226000062,12.425074577000089],[4.0010728840000525,12.479410172000087],[3.9891233440000633,12.49464607200008],[4.008840084000042,12.529837608000037],[4.036940098000059,12.540765762000092],[4.070504665000044,12.575110435000056],[4.108752251000055,12.592282295000075],[4.129827499000044,12.617260933000068],[4.1372427940000875,12.646142006000048],[4.152597904000061,12.664358139000058]]]}},{"type":"Feature","properties":{"CNTRY_NAME":"Nigeria","CNTRY_CODE":"NGA","ADM1_NAME":"Kebbi","ADM1_CODE":"NGA022","ADM2_NAME":"Bunza","ADM2_CODE":"NGA022007","HRname":"Bunza","HRpcode":"NG022007","HRparent":"NG022","Shape_Leng":1.0817454561,"Shape_Area":0.0723830302677,"ADM2_New":"Bunza","id":"NG-KE-BUNZA","name":"Bunza","parentId":"NG-KE","stateName":"Kebbi","regionId":"NG-NW","fillColor":"#9bb898"},"geometry":{"type":"Polygon","coordinates":[[[3.747124195000083,12.156104088000063],[3.753205061000074,12.166093826000065],[3.750863314000071,12.201999664000084],[3.775060892000056,12.255078316000038],[3.8008193970000548,12.293326378000074],[3.8496747020000726,12.31705379500005],[3.932734966000055,12.303473473000054],[3.963957548000053,12.289422989000059],[4.001424789000055,12.230880737000064],[4.043575287000067,12.219172478000075],[4.063869953000051,12.19965839400004],[4.094311714000071,12.147360802000037],[4.08572578400009,12.124724388000061],[4.097434044000067,12.077890396000043],[4.0935311320000665,12.072426796000059],[4.084945202000085,12.073987007000085],[4.0810422900000844,12.066182137000055],[4.056844711000053,12.058376312000064],[4.0084495540000376,12.031056404000083],[3.9850327970000876,12.024031639000043],[3.973324299000069,12.00763988500006],[3.949126720000038,11.99905300100005],[3.938027620000071,11.988734245000046],[3.920245886000089,11.999834061000058],[3.9085373880000702,12.041984558000081],[3.8960483070000578,12.06227874800004],[3.771157980000055,12.101306915000066],[3.753205061000074,12.127846718000058],[3.750863314000071,12.156727791000037],[3.747124195000083,12.156104088000063]]]}},{"type":"Feature","properties":{"CNTRY_NAME":"Nigeria","CNTRY_CODE":"NGA","ADM1_NAME":"Kebbi","ADM1_CODE":"NGA022","ADM2_NAME":"Fakai","ADM2_CODE":"NGA022009","HRname":"Fakai","HRpcode":"NG022009","HRparent":"NG022","Shape_Leng":2.31812579509,"Shape_Area":0.185573992706,"ADM2_New":"Fakai","id":"NG-KE-FAKAI","name":"Fakai","parentId":"NG-KE","stateName":"Kebbi","regionId":"NG-NW","fillColor":"#6ba3be"},"geometry":{"type":"Polygon","coordinates":[[[5.010774136000066,11.735149384000067],[5.024580956000079,11.717507362000049],[5.045290947000069,11.71137142200007],[5.054111958000078,11.70063304900009],[5.058714390000091,11.64387130700004],[5.092464447000054,11.577905655000052],[5.112407684000061,11.55719471000009],[5.160347939000076,11.532649994000053],[5.188728809000054,11.503501892000088],[5.187961578000056,11.491229057000055],[5.17338800400006,11.47818946800004],[5.166484356000069,11.463615417000085],[5.17338800400006,11.439069748000065],[5.153444767000053,11.39841651900008],[5.154251099000078,11.346612930000049],[5.117887497000083,11.355626106000045],[5.105036259000087,11.352413177000074],[5.1002173420000645,11.345987320000063],[5.105839252000067,11.31466293300008],[5.1002173420000645,11.279322624000088],[5.080137253000089,11.255227089000073],[5.071302414000058,11.237557411000068],[5.071302414000058,11.22711563100006],[5.057648182000094,11.20462608300005],[5.048813343000063,11.21105194100005],[5.048813343000063,11.227918625000086],[5.064877033000073,11.254424095000047],[5.058451653000077,11.270487785000057],[5.045600414000091,11.27289772000006],[5.016685486000085,11.251211166000076],[5.0054411890000665,11.257637024000076],[5.011063576000083,11.270487785000057],[5.00865364100008,11.279322624000088],[4.9909834860000615,11.286551476000056],[4.970903873000054,11.353216171000042],[4.958856106000042,11.369279861000052],[4.952430725000056,11.369279861000052],[4.9427924160000885,11.35723209400004],[4.933957577000058,11.354019165000068],[4.917893887000048,11.370885849000047],[4.890585423000061,11.370885849000047],[4.87130880400008,11.353216171000042],[4.76594209700005,11.305951118000053],[4.7606592180000575,11.32419776900008],[4.78090715400009,11.363297462000048],[4.7781143190000535,11.37446880300007],[4.755771637000066,11.39262199400008],[4.759961128000043,11.406585693000068],[4.755771637000066,11.419154167000045],[4.711784840000064,11.43800544700008],[4.674081802000046,11.482690811000055],[4.631491184000083,11.511317253000072],[4.622414589000073,11.525979042000074],[4.60356283200008,11.537848473000054],[4.567954540000073,11.544830322000053],[4.553990364000072,11.542037964000087],[4.541575432000059,11.533056259000091],[4.511914253000043,11.536178589000087],[4.487577915000088,11.583100319000039],[4.505674362000093,11.585576057000083],[4.544026375000044,11.62009239200006],[4.548628807000057,11.633899689000089],[4.577776432000064,11.660746574000086],[4.620730877000085,11.656910896000056],[4.628401756000073,11.666882515000054],[4.645276546000048,11.67225170100005],[4.689765453000064,11.656910896000056],[4.7281174660000715,11.67608737900008],[4.754197121000061,11.675319672000057],[4.764935970000067,11.689893723000068],[4.783344746000068,11.698331833000054],[4.795617580000055,11.725177765000069],[4.804821968000056,11.727478981000047],[4.8239984510000795,11.722876549000091],[4.840106487000071,11.710604668000087],[4.8746232990000635,11.729013443000042],[4.887663364000048,11.725945473000081],[4.893799305000073,11.71137142200007],[4.912208557000042,11.719808578000084],[4.932535172000087,11.719808578000084],[4.942946379000091,11.732523779000076],[4.977024078000056,11.741286278000075],[5.010774136000066,11.735149384000067]]]}},{"type":"Feature","properties":{"CNTRY_NAME":"Nigeria","CNTRY_CODE":"NGA","ADM1_NAME":"Kebbi","ADM1_CODE":"NGA022","ADM2_NAME":"Gwandu","ADM2_CODE":"NGA022010","HRname":"Gwandu","HRpcode":"NG022010","HRparent":"NG022","Shape_Leng":1.63643802419,"Shape_Area":0.0843687717572,"ADM2_New":"Gwandu","id":"NG-KE-GWANDU","name":"Gwandu","parentId":"NG-KE","stateName":"Kebbi","regionId":"NG-NW","fillColor":"#89a96d"},"geometry":{"type":"Polygon","coordinates":[[[4.481060505000073,12.57761669200005],[4.502285957000083,12.595469475000073],[4.545670509000047,12.605712891000053],[4.575798988000088,12.628610611000056],[4.642081261000044,12.660546303000046],[4.675825119000081,12.664764404000039],[4.776453495000055,12.690052986000069],[4.7794661520000545,12.640058517000057],[4.787902355000085,12.620174408000082],[4.802363873000047,12.598482132000072],[4.869248867000067,12.54244327500004],[4.868043423000074,12.514724731000058],[4.851774216000081,12.480379105000054],[4.827068806000057,12.453866005000066],[4.795133114000066,12.435789108000051],[4.78308153200004,12.415301323000051],[4.782479286000068,12.352032661000067],[4.776453495000055,12.329134941000063],[4.752953529000081,12.312262535000059],[4.736081600000091,12.315877914000055],[4.7240300180000645,12.324916840000071],[4.710773945000085,12.40807056400007],[4.6893106600000465,12.421110227000042],[4.666125393000073,12.443290983000054],[4.645030668000061,12.448313537000047],[4.623935943000049,12.446304516000055],[4.61288632600008,12.422196258000042],[4.608868283000049,12.365187894000087],[4.599901676000059,12.341788292000047],[4.540247440000087,12.305634499000064],[4.525625706000085,12.287143707000041],[4.50159215900004,12.31326675400004],[4.486963272000082,12.348794937000036],[4.48902511600005,12.392568588000074],[4.496367931000066,12.393726349000076],[4.506816864000086,12.41357994100008],[4.525625706000085,12.429253578000043],[4.541299820000063,12.437613487000078],[4.576827049000087,12.438658714000042],[4.589366436000091,12.450152397000068],[4.591455936000045,12.458512306000046],[4.570557594000093,12.486724854000045],[4.548614025000063,12.501354218000074],[4.540254593000043,12.538970947000053],[4.5318951610000795,12.555689812000082],[4.500547409000092,12.57449913000005],[4.481060505000073,12.57761669200005]]]}},{"type":"Feature","properties":{"CNTRY_NAME":"Nigeria","CNTRY_CODE":"NGA","ADM1_NAME":"Kebbi","ADM1_CODE":"NGA022","ADM2_NAME":"Jega","ADM2_CODE":"NGA022011","HRname":"Jega","HRpcode":"NG022011","HRparent":"NG022","Shape_Leng":1.26136119478,"Shape_Area":0.0736680595915,"ADM2_New":"Jega","id":"NG-KE-JEGA","name":"Jega","parentId":"NG-KE","stateName":"Kebbi","regionId":"NG-NW","fillColor":"#b5c99a"},"geometry":{"type":"Polygon","coordinates":[[[4.266483784000059,12.293413162000093],[4.319775105000076,12.305953026000054],[4.330224514000065,12.312222481000049],[4.33649396900006,12.276694298000052],[4.34485340100008,12.256840706000048],[4.354257584000038,12.24743652300009],[4.436807156000043,12.224448204000055],[4.474424362000093,12.21922397600008],[4.531864643000063,12.194152832000043],[4.5496587750000685,12.127270699000064],[4.562198162000072,11.978890419000038],[4.556973457000083,11.898431778000088],[4.535121441000058,11.863444328000071],[4.480691433000061,11.893676758000083],[4.4705443380000816,11.894457817000045],[4.427613258000065,11.91631317100007],[4.378437519000045,11.92646026600005],[4.365948677000063,11.938949585000046],[4.344873428000085,11.981881142000077],[4.337067604000083,12.018567085000086],[4.361265182000068,12.036520004000067],[4.365948677000063,12.047448158000066],[4.364387512000064,12.06149864200006],[4.34018993400008,12.098184586000059],[4.321865082000045,12.163843155000052],[4.290517330000057,12.20459461200005],[4.266483784000059,12.293413162000093]]]}},{"type":"Feature","properties":{"CNTRY_NAME":"Nigeria","CNTRY_CODE":"NGA","ADM1_NAME":"Kebbi","ADM1_CODE":"NGA022","ADM2_NAME":"Kalgo","ADM2_CODE":"NGA022012","HRname":"Kalgo","HRpcode":"NG022012","HRparent":"NG022","Shape_Leng":1.49483927798,"Shape_Area":0.0969913564284,"ADM2_New":"Kalgo","id":"NG-KE-KALGO","name":"Kalgo","parentId":"NG-KE","stateName":"Kebbi","regionId":"NG-NW","fillColor":"#d4a574"},"geometry":{"type":"Polygon","coordinates":[[[3.8496747020000726,12.31705379500005],[3.859361887000091,12.337818146000075],[3.859361887000091,12.350307465000071],[3.8449213500000496,12.383090973000037],[3.8449213500000496,12.39558029200009],[3.8527269360000673,12.40963077500004],[3.8753633500000433,12.413533211000072],[3.9081470970000396,12.40494728100009],[3.9682505130000436,12.454903603000048],[3.973714590000043,12.472075462000078],[3.9891233440000633,12.49464607200008],[4.0010728840000525,12.479410172000087],[4.021971226000062,12.425074577000089],[4.05331897700006,12.40104103100009],[4.090936184000043,12.386411667000061],[4.158856392000075,12.38223266600005],[4.188114643000063,12.370738029000051],[4.2048335080000925,12.356109619000051],[4.207968235000067,12.339390755000068],[4.230956554000045,12.312222481000049],[4.266483784000059,12.293413162000093],[4.290517330000057,12.20459461200005],[4.321865082000045,12.163843155000052],[4.3291797640000595,12.146079063000059],[4.3323955540000725,12.11843586000009],[4.299600601000066,12.095843315000081],[4.241057873000045,12.07086563100006],[4.170367241000065,12.051180840000086],[4.138803959000086,12.059937477000062],[4.098333359000094,12.082836151000038],[4.08572578400009,12.124724388000061],[4.094311714000071,12.147360802000037],[4.054502964000051,12.212147713000093],[4.001424789000055,12.230880737000064],[3.9709825520000663,12.280837059000078],[3.9538102150000896,12.29644870800007],[3.8496747020000726,12.31705379500005]]]}},{"type":"Feature","properties":{"CNTRY_NAME":"Nigeria","CNTRY_CODE":"NGA","ADM1_NAME":"Kebbi","ADM1_CODE":"NGA022","ADM2_NAME":"Koko/Besse","ADM2_CODE":"NGA022013","HRname":"Koko/Besse","HRpcode":"NG022013","HRparent":"NG022","Shape_Leng":1.80771381693,"Shape_Area":0.107150398233,"ADM2_New":"Koko/Besse","id":"NG-KE-KOKO-BESSE","name":"Koko/Besse","parentId":"NG-KE","stateName":"Kebbi","regionId":"NG-NW","fillColor":"#5a9e6f"},"geometry":{"type":"Polygon","coordinates":[[[4.240277290000051,11.664971352000066],[4.253547192000042,11.660287857000071],[4.266816616000085,11.700877190000085],[4.285550117000071,11.701658249000047],[4.3027224540000475,11.71570777900007],[4.310528278000049,11.71570777900007],[4.329261780000081,11.700097084000049],[4.3440928460000805,11.70946407300005],[4.361265182000068,11.711805344000084],[4.3862433430000465,11.681363106000049],[4.398732185000085,11.67980194100005],[4.4096598630000585,11.656385422000085],[4.4705443380000816,11.593939781000074],[4.487577915000088,11.583100319000039],[4.511914253000043,11.536178589000087],[4.541575432000059,11.533056259000091],[4.550942421000059,11.538990021000075],[4.560308933000044,11.443290710000042],[4.540794849000065,11.405043602000092],[4.484594345000062,11.36133194000007],[4.4674220090000745,11.303569794000055],[4.4869360920000645,11.20912170400004],[4.489277840000057,11.173215866000078],[4.475227356000062,11.183362961000057],[4.412001610000061,11.20912170400004],[4.400293350000084,11.20677948000008],[4.389365196000085,11.210682869000038],[4.381254196000043,11.222357750000072],[4.357935429000065,11.225688934000061],[4.336520195000048,11.24282074000007],[4.311773777000042,11.24282074000007],[4.29321432100005,11.248531342000092],[4.263709068000082,11.267091751000066],[4.225637436000056,11.275657654000042],[4.221354485000063,11.28089237200004],[4.256094456000085,11.313728333000086],[4.293690205000075,11.337523460000057],[4.315105438000046,11.377974510000058],[4.3319993020000425,11.394154549000064],[4.334378719000085,11.404148102000079],[4.351035118000084,11.423660278000057],[4.355793953000045,11.44174385100007],[4.346752167000091,11.47457981100007],[4.321529865000059,11.490284920000079],[4.3153433800000585,11.507892609000066],[4.306777000000068,11.516934395000078],[4.287265301000048,11.525024414000086],[4.249737263000043,11.524517059000061],[4.2280235290000405,11.531842232000088],[4.218866825000077,11.54021358500006],[4.220174789000055,11.554340363000051],[4.199507236000045,11.570560455000077],[4.193276882000077,11.607354164000071],[4.173765182000068,11.614492416000076],[4.178048134000051,11.620678902000066],[4.16567516300006,11.636384010000086],[4.168530464000071,11.643046379000054],[4.18251562100005,11.64233493800009],[4.197346210000092,11.649359703000073],[4.196565628000087,11.659507751000092],[4.203590870000085,11.66106891600009],[4.209054947000084,11.67121601100007],[4.213738441000089,11.67043495200005],[4.215299606000087,11.657946587000083],[4.237936020000063,11.655604362000076],[4.240277290000051,11.664971352000066]]]}},{"type":"Feature","properties":{"CNTRY_NAME":"Nigeria","CNTRY_CODE":"NGA","ADM1_NAME":"Kebbi","ADM1_CODE":"NGA022","ADM2_NAME":"Maiyama","ADM2_CODE":"NGA022014","HRname":"Maiyama","HRpcode":"NG022014","HRparent":"NG022","Shape_Leng":1.46316967808,"Shape_Area":0.0848892705803,"ADM2_New":"Maiyama","id":"NG-KE-MAIYAMA","name":"Maiyama","parentId":"NG-KE","stateName":"Kebbi","regionId":"NG-NW","fillColor":"#84b882"},"geometry":{"type":"Polygon","coordinates":[[[4.170367241000065,12.051180840000086],[4.241057873000045,12.07086563100006],[4.299600601000066,12.095843315000081],[4.3323955540000725,12.11843586000009],[4.34018993400008,12.098184586000059],[4.364387512000064,12.06149864200006],[4.365948677000063,12.047448158000066],[4.361265182000068,12.036520004000067],[4.337067604000083,12.018567085000086],[4.344873428000085,11.981881142000077],[4.359704018000059,11.949096680000082],[4.378437519000045,11.92646026600005],[4.427613258000065,11.91631317100007],[4.4705443380000816,11.894457817000045],[4.480691433000061,11.893676758000083],[4.535121441000058,11.863444328000071],[4.538453102000062,11.817961693000086],[4.531428337000079,11.792203903000086],[4.521280766000075,11.776592255000082],[4.502547264000043,11.768786430000091],[4.47678852100006,11.746150017000048],[4.458055019000085,11.738344193000046],[4.433857441000043,11.719611168000085],[4.406538010000077,11.696974754000053],[4.398732185000085,11.67980194100005],[4.3862433430000465,11.681363106000049],[4.361265182000068,11.711805344000084],[4.3440928460000805,11.70946407300005],[4.329261780000081,11.700097084000049],[4.310528278000049,11.71570777900007],[4.3027224540000475,11.71570777900007],[4.285550117000071,11.701658249000047],[4.266816616000085,11.700877190000085],[4.253547192000042,11.660287857000071],[4.240277290000051,11.664971352000066],[4.224666119000062,11.704780579000044],[4.223104954000064,11.722733498000082],[4.230910778000066,11.810156822000067],[4.226227283000071,11.821084023000083],[4.229349613000068,11.831232071000045],[4.219202042000063,11.964708328000086],[4.210616112000082,11.987344742000062],[4.202029705000086,11.995930672000043],[4.186418533000051,12.04276466400006],[4.170367241000065,12.051180840000086]]]}},{"type":"Feature","properties":{"CNTRY_NAME":"Nigeria","CNTRY_CODE":"NGA","ADM1_NAME":"Kebbi","ADM1_CODE":"NGA022","ADM2_NAME":"Ngaski","ADM2_CODE":"NGA022015","HRname":"Ngaski","HRpcode":"NG022015","HRparent":"NG022","Shape_Leng":2.99593836318,"Shape_Area":0.216717049928,"ADM2_New":"Ngaski","id":"NG-KE-NGASKI","name":"Ngaski","parentId":"NG-KE","stateName":"Kebbi","regionId":"NG-NW","fillColor":"#c9b896"},"geometry":{"type":"Polygon","coordinates":[[[4.873657703000049,10.943828583000084],[4.914067745000068,10.968070984000065],[4.950038433000088,10.998186111000052],[5.0406398770000465,11.051897049000047],[5.062970161000067,11.012407303000089],[5.0813736920000565,10.95050430300006],[5.082210064000037,10.927081108000039],[5.075517654000066,10.915369987000076],[5.034527779000086,10.899476051000079],[5.02532625200007,10.890274048000038],[5.028672218000054,10.85932254800008],[5.047075748000054,10.825024605000067],[5.083883286000059,10.817496300000073],[5.099777222000057,10.808294296000042],[5.108979225000041,10.79574585000006],[5.100878716000068,10.759829521000086],[5.079700470000091,10.755593300000044],[5.0746812820000855,10.748900414000047],[5.049585342000057,10.738025665000066],[5.040383816000087,10.737189293000085],[5.026998997000078,10.748064041000077],[5.020307064000065,10.74639129600007],[5.008595467000077,10.733842850000087],[5.008595467000077,10.721295357000088],[4.979317188000039,10.717112541000063],[4.973461151000038,10.710420609000039],[4.948365211000066,10.701218605000065],[4.941673279000042,10.688670158000093],[4.931634903000088,10.687833786000056],[4.923269749000042,10.693689346000042],[4.909048557000062,10.687833786000056],[4.893990993000045,10.693689346000042],[4.890645027000062,10.701218605000065],[4.868058681000093,10.700382233000084],[4.86220312100005,10.707074165000051],[4.84714555700009,10.70456409500008],[4.843799114000092,10.699544907000075],[4.814520836000042,10.70456409500008],[4.806992054000091,10.692852974000061],[4.814520836000042,10.674449921000075],[4.81201124200004,10.661901474000047],[4.802809238000066,10.652699471000062],[4.796117306000042,10.629277229000081],[4.801972866000085,10.613383293000084],[4.8237223630000585,10.594979286000068],[4.827905178000037,10.569883347000086],[4.822049618000051,10.559008598000048],[4.818703175000053,10.507143974000087],[4.845054150000067,10.47870159100006],[4.853419304000056,10.460297585000092],[4.844217300000082,10.389192581000088],[4.828323364000084,10.315578461000086],[4.804064274000041,10.296338081000044],[4.776458740000066,10.295501709000064],[4.731286049000062,10.31474208800006],[4.712882519000061,10.31055927300008],[4.705353737000053,10.302193642000077],[4.702007771000069,10.293828964000056],[4.705353737000053,10.252839088000087],[4.6969885830000635,10.240290642000048],[4.669383049000089,10.226069450000068],[4.678584576000048,10.197628021000071],[4.712882519000061,10.16165733300005],[4.710791111000049,10.131542206000063],[4.699916363000057,10.119830132000061],[4.689877987000045,10.113974571000085],[4.668128014000047,10.113138199000048],[4.610407829000053,10.135725021000042],[4.57945585300007,10.132378578000043],[4.526921272000038,10.114263535000077],[4.527485371000068,10.143033981000087],[4.567442417000052,10.222948074000044],[4.568690777000086,10.246047974000078],[4.559996605000038,10.268087387000037],[4.541819572000065,10.287129402000062],[4.490751266000075,10.31396198300007],[4.482961178000039,10.328677177000088],[4.486423492000085,10.368493080000064],[4.47949886300006,10.421292305000065],[4.485558033000075,10.46976470900006],[4.498541355000043,10.517370224000047],[4.510058403000073,10.535167694000052],[4.606965065000054,10.575974464000069],[4.6891913410000825,10.642358780000052],[4.697489738000058,10.667253494000079],[4.699518204000071,10.693626404000042],[4.712464333000071,10.689507484000046],[4.734213829000055,10.701218605000065],[4.744252205000066,10.767304420000073],[4.745088577000047,10.819169044000091],[4.795280457000047,10.87354373900007],[4.801136494000048,10.901148796000086],[4.814520836000042,10.926244736000058],[4.841289520000089,10.929591179000056],[4.873657703000049,10.943828583000084]]]}},{"type":"Feature","properties":{"CNTRY_NAME":"Nigeria","CNTRY_CODE":"NGA","ADM1_NAME":"Kebbi","ADM1_CODE":"NGA022","ADM2_NAME":"Sakaba","ADM2_CODE":"NGA022016","HRname":"Sakaba","HRpcode":"NG022016","HRparent":"NG022","Shape_Leng":1.56259011511,"Shape_Area":0.104049150297,"ADM2_New":"Sakaba","id":"NG-KE-SAKABA","name":"Sakaba","parentId":"NG-KE","stateName":"Kebbi","regionId":"NG-NW","fillColor":"#7eb09a"},"geometry":{"type":"Polygon","coordinates":[[[5.329850674000056,11.362885475000041],[5.351534367000056,11.395348549000062],[5.37550449400004,11.41072368600004],[5.3869819640000856,11.385252953000077],[5.409580708000078,11.35418033600007],[5.449129105000054,11.324235916000077],[5.526530266000066,11.285818100000085],[5.617490768000039,11.231016159000092],[5.654778957000076,11.221976280000092],[5.690372467000088,11.22367095900006],[5.698281765000047,11.218021393000072],[5.710711479000054,11.19372749300004],[5.711276054000052,11.160394669000084],[5.700541973000043,11.131015778000062],[5.701671600000054,11.113501549000091],[5.7073216440000465,11.11067676500005],[5.732180119000077,11.11463165300006],[5.749129295000046,11.107286453000086],[5.7559089660000495,11.09711742400009],[5.7632536890000665,11.05869960800004],[5.796586990000037,11.05304908800008],[5.807427883000059,11.045851707000054],[5.765256405000059,11.028728485000045],[5.74196386300008,11.003829956000061],[5.704214096000044,10.990175247000082],[5.680118561000086,10.975718498000049],[5.664054871000076,10.973308563000046],[5.65682601900005,10.966882706000092],[5.636746407000089,10.96206378900007],[5.5749006270000905,10.965276718000041],[5.514661789000058,10.96206378900007],[5.458438873000091,10.953228951000085],[5.452816486000074,10.956441879000067],[5.42999029200007,11.016810417000045],[5.429523945000085,11.060052872000085],[5.4423747060000665,11.10422802000005],[5.4423747060000665,11.138765335000073],[5.42149210000008,11.16607379900006],[5.374104023000086,11.191775322000069],[5.358040333000076,11.22711563100006],[5.350811481000051,11.296190262000039],[5.329850674000056,11.362885475000041]]]}},{"type":"Feature","properties":{"CNTRY_NAME":"Nigeria","CNTRY_CODE":"NGA","ADM1_NAME":"Kebbi","ADM1_CODE":"NGA022","ADM2_NAME":"Shanga","ADM2_CODE":"NGA022017","HRname":"Shanga","HRpcode":"NG022017","HRparent":"NG022","Shape_Leng":1.99989782651,"Shape_Area":0.135411765505,"ADM2_New":"Shanga","id":"NG-KE-SHANGA","name":"Shanga","parentId":"NG-KE","stateName":"Kebbi","regionId":"NG-NW","fillColor":"#a4c4a0"},"geometry":{"type":"Polygon","coordinates":[[[4.550942421000059,11.538990021000075],[4.567954540000073,11.544830322000053],[4.584711552000044,11.54343414300007],[4.622414589000073,11.525979042000074],[4.631491184000083,11.511317253000072],[4.674081802000046,11.482690811000055],[4.711784840000064,11.43800544700008],[4.755771637000066,11.419154167000045],[4.759961128000043,11.406585693000068],[4.755771637000066,11.39262199400008],[4.7781143190000535,11.37446880300007],[4.78090715400009,11.363297462000048],[4.7606592180000575,11.32419776900008],[4.767641544000071,11.30255317700005],[4.764848709000091,11.276021004000086],[4.7529788020000865,11.259264946000087],[4.69921731900007,11.222259521000069],[4.702010155000039,11.192236900000069],[4.710388184000067,11.180367470000078],[4.721585274000063,11.176336288000073],[4.746122360000072,11.147592545000066],[4.77943182000007,11.131420135000042],[4.788587570000061,11.118925095000066],[4.802551746000063,11.114037514000074],[4.817800522000084,11.119511604000081],[4.839656353000066,11.113859177000052],[4.87656164200007,11.091694832000087],[4.908679008000092,11.081920624000077],[4.979896069000063,11.080523491000065],[4.991765499000053,11.070050240000057],[4.995954514000061,11.053992271000084],[5.0406398770000465,11.051897049000047],[4.950038433000088,10.998186111000052],[4.914067745000068,10.968070984000065],[4.873657703000049,10.943828583000084],[4.853021145000071,10.956218719000049],[4.821017742000038,10.966365814000085],[4.77652549700008,10.974171638000087],[4.727350235000074,11.003832817000045],[4.682077408000055,11.010857582000085],[4.665685177000057,11.028030396000077],[4.614948750000053,11.064717293000058],[4.571237087000043,11.115453720000062],[4.538453102000062,11.14355373400008],[4.489277840000057,11.173215866000078],[4.4869360920000645,11.20912170400004],[4.4674220090000745,11.303569794000055],[4.484594345000062,11.36133194000007],[4.540794849000065,11.405043602000092],[4.560308933000044,11.443290710000042],[4.550942421000059,11.538990021000075]]]}},{"type":"Feature","properties":{"CNTRY_NAME":"Nigeria","CNTRY_CODE":"NGA","ADM1_NAME":"Kebbi","ADM1_CODE":"NGA022","ADM2_NAME":"Suru","ADM2_CODE":"NGA022018","HRname":"Suru","HRpcode":"NG022018","HRparent":"NG022","Shape_Leng":1.85834666305,"Shape_Area":0.111554066765,"ADM2_New":"Suru","id":"NG-KE-SURU","name":"Suru","parentId":"NG-KE","stateName":"Kebbi","regionId":"NG-NW","fillColor":"#96b57c"},"geometry":{"type":"Polygon","coordinates":[[[4.098333359000094,12.082836151000038],[4.12319278700005,12.066962242000045],[4.162220955000066,12.055253983000057],[4.186418533000051,12.04276466400006],[4.202029705000086,11.995930672000043],[4.210616112000082,11.987344742000062],[4.219202042000063,11.964708328000086],[4.229349613000068,11.831232071000045],[4.226227283000071,11.821084023000083],[4.230910778000066,11.810156822000067],[4.223104954000064,11.722733498000082],[4.224666119000062,11.704780579000044],[4.240277290000051,11.664971352000066],[4.237936020000063,11.655604362000076],[4.215299606000087,11.657946587000083],[4.213738441000089,11.67043495200005],[4.209054947000084,11.67121601100007],[4.203590870000085,11.66106891600009],[4.196565628000087,11.659507751000092],[4.197346210000092,11.649359703000073],[4.18251562100005,11.64233493800009],[4.168530464000071,11.643046379000054],[4.161392212000067,11.650660515000084],[4.147115231000043,11.654943466000077],[4.122844696000072,11.653515816000038],[4.1047606470000915,11.644949913000062],[4.056591511000079,11.57742023500009],[4.034328938000044,11.57594490100007],[4.012437820000059,11.591650009000091],[3.9862637520000703,11.593077660000063],[3.96389675100005,11.570710182000084],[3.9624691010000674,11.554054260000044],[3.951999426000043,11.531211853000059],[3.9539029600000504,11.520265579000068],[3.9381985660000396,11.509796143000074],[3.9215424060000714,11.507416725000041],[3.8358817100000806,11.56975841500008],[3.817797899000084,11.570234299000049],[3.8101179600000705,11.579428673000052],[3.826578140000038,11.590817451000078],[3.867167473000052,11.592378616000076],[3.8765342240000678,11.58769512200007],[3.8968288900000516,11.591598511000086],[3.910879135000073,11.600965500000086],[3.954590797000037,11.60720920600005],[3.9904966350000564,11.630626678000056],[4.006107807000092,11.67121601100007],[4.006107807000092,11.70946407300005],[4.013913631000094,11.732880592000072],[4.0107913020000865,11.758639336000044],[3.9904966350000564,11.811717987000065],[3.973324299000069,11.883529663000047],[3.962396383000055,11.901482582000085],[3.946004629000072,11.977977753000062],[3.938027620000071,11.988734245000046],[3.949126720000038,11.99905300100005],[3.973324299000069,12.00763988500006],[3.9850327970000876,12.024031639000043],[4.0810422900000844,12.066182137000055],[4.084945202000085,12.073987007000085],[4.0935311320000665,12.072426796000059],[4.098333359000094,12.082836151000038]]]}},{"type":"Feature","properties":{"CNTRY_NAME":"Nigeria","CNTRY_CODE":"NGA","ADM1_NAME":"Kebbi","ADM1_CODE":"NGA022","ADM2_NAME":"Wasagu/Danko","ADM2_CODE":"NGA022019","HRname":"Wasagu/Danko","HRpcode":"NG022019","HRparent":"NG022","Shape_Leng":3.34681978053,"Shape_Area":0.332071236886,"ADM2_New":"Wasagu/Danko","id":"NG-KE-WASAGU-DANKO","name":"Wasagu/Danko","parentId":"NG-KE","stateName":"Kebbi","regionId":"NG-NW","fillColor":"#7cb87c"},"geometry":{"type":"MultiPolygon","coordinates":[[[[5.0476598740000895,11.71009540600005],[5.055262566000067,11.706002235000085],[5.075205803000074,11.723644257000046],[5.099751472000094,11.72824668900006],[5.117393494000055,11.719808578000084],[5.138870716000042,11.722109795000051],[5.14884233500004,11.733615875000055],[5.171086788000082,11.741286278000075],[5.17492198900004,11.758161545000064],[5.163416386000051,11.772734642000046],[5.172620773000062,11.783473969000056],[5.204836845000045,11.770433426000068],[5.20943880100009,11.76046180700007],[5.221711636000066,11.754325867000091],[5.23475170100005,11.769666672000085],[5.280007362000049,11.770433426000068],[5.298416615000065,11.786541939000074],[5.304690361000041,11.784260750000044],[5.310688972000094,11.770433426000068],[5.322194576000072,11.761996269000065],[5.33063221000009,11.73898506200004],[5.341371059000039,11.729013443000042],[5.345973015000084,11.712138176000053],[5.352876663000075,11.70446777300009],[5.362848282000073,11.709836960000075],[5.372370243000091,11.705756187000077],[5.360547066000038,11.630064011000059],[5.336768627000083,11.561797142000046],[5.328330994000055,11.548757553000087],[5.290745735000087,11.533416748000093],[5.2493252750000465,11.534183502000076],[5.227081299000076,11.551825523000048],[5.158813953000049,11.547223091000092],[5.149609566000038,11.552592278000077],[5.112407684000061,11.55719471000009],[5.092464447000054,11.577905655000052],[5.058714390000091,11.64387130700004],[5.054111958000078,11.70063304900009],[5.0476598740000895,11.71009540600005]]],[[[5.461813450000079,11.665992737000067],[5.502258778000055,11.66956710800008],[5.524311543000067,11.662856102000092],[5.5415701870000476,11.66573238400008],[5.545405388000063,11.672443390000069],[5.554993153000055,11.675319672000057],[5.55978727300004,11.685867310000049],[5.593345642000088,11.66956710800008],[5.639368534000084,11.662856102000092],[5.6585445400000935,11.668608665000079],[5.671967983000059,11.659978867000063],[5.692102909000084,11.667649269000037],[5.7112789150000935,11.682031631000086],[5.724702358000059,11.684907913000075],[5.724702358000059,11.691619873000093],[5.730454922000092,11.694496155000081],[5.744837284000084,11.681073189000074],[5.75730180700009,11.682031631000086],[5.75730180700009,11.687784195000063],[5.76593112900008,11.69353771200008],[5.819306850000089,11.649385452000047],[5.856059074000086,11.64080333700008],[5.876194000000055,11.620668411000054],[5.884823322000045,11.599574089000043],[5.906875610000043,11.576562881000086],[5.921257973000081,11.553551674000062],[5.956733704000044,11.519992828000056],[6.001797676000081,11.491229057000055],[6.019056320000061,11.473011971000062],[6.034397125000055,11.446165085000075],[6.049737930000049,11.393430710000075],[6.051655769000092,11.367543221000062],[6.04686164900005,11.333984375000057],[6.031520844000056,11.323437691000038],[6.012344360000043,11.32056140900005],[5.989333153000075,11.321519852000051],[5.962486744000046,11.330149651000056],[5.937557697000045,11.330149651000056],[5.931804657000043,11.32056140900005],[5.956733704000044,11.294673920000037],[5.969198227000049,11.259197235000045],[5.944269180000049,11.212216377000061],[5.9548163410000825,11.130717278000077],[5.960175037000056,11.117856979000067],[5.921074390000058,11.070494652000093],[5.91143608100009,11.064871788000062],[5.831117630000051,11.056036949000088],[5.807427883000059,11.045851707000054],[5.796586990000037,11.05304908800008],[5.7632536890000665,11.05869960800004],[5.7559089660000495,11.09711742400009],[5.749129295000046,11.107286453000086],[5.732180119000077,11.11463165300006],[5.7073216440000465,11.11067676500005],[5.701671600000054,11.113501549000091],[5.700541973000043,11.131015778000062],[5.711276054000052,11.160394669000084],[5.710711479000054,11.19372749300004],[5.698281765000047,11.218021393000072],[5.690372467000088,11.22367095900006],[5.654778957000076,11.221976280000092],[5.617490768000039,11.231016159000092],[5.526530266000066,11.285818100000085],[5.449129105000054,11.324235916000077],[5.409580708000078,11.35418033600007],[5.3869819640000856,11.385252953000077],[5.377942562000044,11.408982277000064],[5.370710373000065,11.489311218000068],[5.374545574000081,11.50752925900008],[5.387969017000046,11.522870064000074],[5.4058027270000935,11.558729172000085],[5.427279949000081,11.578672409000092],[5.447990417000085,11.634666443000071],[5.464098454000066,11.662280083000041],[5.461813450000079,11.665992737000067]]]]}},{"type":"Feature","properties":{"CNTRY_NAME":"Nigeria","CNTRY_CODE":"NGA","ADM1_NAME":"Kebbi","ADM1_CODE":"NGA022","ADM2_NAME":"Yauri","ADM2_CODE":"NGA022020","HRname":"Yauri","HRpcode":"NG022020","HRparent":"NG022","Shape_Leng":2.06194229168,"Shape_Area":0.114428786744,"ADM2_New":"Yauri","id":"NG-KE-YAURI","name":"Yauri","parentId":"NG-KE","stateName":"Kebbi","regionId":"NG-NW","fillColor":"#8fbc8f"},"geometry":{"type":"Polygon","coordinates":[[[4.381254196000043,11.222357750000072],[4.389365196000085,11.210682869000038],[4.400293350000084,11.20677948000008],[4.412001610000061,11.20912170400004],[4.475227356000062,11.183362961000057],[4.538453102000062,11.14355373400008],[4.571237087000043,11.115453720000062],[4.614948750000053,11.064717293000058],[4.665685177000057,11.028030396000077],[4.682077408000055,11.010857582000085],[4.727350235000074,11.003832817000045],[4.77652549700008,10.974171638000087],[4.821017742000038,10.966365814000085],[4.853021145000071,10.956218719000049],[4.873657703000049,10.943828583000084],[4.841289520000089,10.929591179000056],[4.814520836000042,10.926244736000058],[4.801136494000048,10.901148796000086],[4.795280457000047,10.87354373900007],[4.745088577000047,10.819169044000091],[4.73839664500008,10.722131729000068],[4.734213829000055,10.701218605000065],[4.725848675000066,10.694525719000069],[4.712464333000071,10.689507484000046],[4.699518204000071,10.693626404000042],[4.720120430000065,10.815863609000075],[4.737471104000065,10.850564957000074],[4.741997242000082,10.873195648000092],[4.7321906090000425,10.897336006000046],[4.716348648000064,10.916194916000052],[4.707637787000067,10.918297768000059],[4.683156490000044,10.953159332000041],[4.656753540000068,10.955422401000078],[4.62657880800009,10.915440559000047],[4.587351799000089,10.90638828300007],[4.568492413000058,10.90865135200005],[4.539826393000055,10.919966698000053],[4.492300987000078,10.910914421000086],[4.463634968000065,10.900353432000088],[4.419881821000047,10.89431858100005],[4.370847702000049,10.900353432000088],[4.341008186000067,10.915531158000078],[4.319368839000049,10.914666176000082],[4.288208485000041,10.928515434000076],[4.283880711000052,10.937170982000055],[4.288208485000041,10.980448723000052],[4.277821541000037,10.986508369000092],[4.263107300000058,10.982180595000045],[4.25618267100009,10.985642433000066],[4.226610661000052,11.018696785000088],[4.232775688000061,11.032952309000052],[4.234679222000068,11.057698250000044],[4.245625019000045,11.074831009000093],[4.261329174000082,11.084824562000051],[4.271323204000055,11.107191086000057],[4.302731991000087,11.11480617500007],[4.319864273000064,11.152876854000056],[4.340803623000056,11.184762001000081],[4.368881226000042,11.206176758000083],[4.381254196000043,11.222357750000072]]]}},{"type":"Feature","properties":{"CNTRY_NAME":"Nigeria","CNTRY_CODE":"NGA","ADM1_NAME":"Kebbi","ADM1_CODE":"NGA022","ADM2_NAME":"Zuru","ADM2_CODE":"NGA022021","HRname":"Zuru","HRpcode":"NG022021","HRparent":"NG022","Shape_Leng":1.44333319716,"Shape_Area":0.0539803841877,"ADM2_New":"Zuru","id":"NG-KE-ZURU","name":"Zuru","parentId":"NG-KE","stateName":"Kebbi","regionId":"NG-NW","fillColor":"#a8c686"},"geometry":{"type":"Polygon","coordinates":[[[5.372370243000091,11.705756187000077],[5.443387985000072,11.702934265000067],[5.4502916340000525,11.697564125000042],[5.464098454000066,11.662280083000041],[5.447990417000085,11.634666443000071],[5.427279949000081,11.578672409000092],[5.4058027270000935,11.558729172000085],[5.387969017000046,11.522870064000074],[5.374545574000081,11.50752925900008],[5.370710373000065,11.470135689000074],[5.37550449400004,11.41072368600004],[5.351534367000056,11.395348549000062],[5.329850674000056,11.362885475000041],[5.317881107000062,11.367673874000047],[5.279327869000042,11.36365795100005],[5.2584452630000555,11.35642910000007],[5.228727341000081,11.333136559000081],[5.227120876000072,11.310647011000071],[5.238365173000091,11.28896141100006],[5.238365173000091,11.271290779000083],[5.236759186000086,11.262455940000052],[5.227120876000072,11.26004600500005],[5.215876102000038,11.273700714000086],[5.216679096000064,11.299402237000038],[5.203025341000057,11.330726624000079],[5.154251099000078,11.346612930000049],[5.153444767000053,11.39841651900008],[5.17338800400006,11.439069748000065],[5.166484356000069,11.463615417000085],[5.17338800400006,11.47818946800004],[5.187961578000056,11.491229057000055],[5.188728809000054,11.503501892000088],[5.160347939000076,11.532649994000053],[5.119229317000077,11.555005074000064],[5.149609566000038,11.552592278000077],[5.158813953000049,11.547223091000092],[5.227081299000076,11.551825523000048],[5.2493252750000465,11.534183502000076],[5.271569729000078,11.533416748000093],[5.303018570000063,11.536484718000054],[5.328330994000055,11.548757553000087],[5.336768627000083,11.561797142000046],[5.360547066000038,11.630064011000059],[5.372370243000091,11.705756187000077]]]}},{"type":"Feature","properties":{"CNTRY_NAME":"Nigeria","CNTRY_CODE":"NGA","ADM1_NAME":"Kebbi","ADM1_CODE":"NGA022","ADM2_NAME":"Bagudo","ADM2_CODE":"NGA022005","HRname":"Bagudo","HRpcode":"NG022005","HRparent":"NG022","Shape_Leng":2.98793732271,"Shape_Area":0.391308205296,"ADM2_New":"Bagudo","id":"NG-KE-BAGUDO","name":"Bagudo","parentId":"NG-KE","stateName":"Kebbi","regionId":"NG-NW","fillColor":"#c2b280"},"geometry":{"type":"Polygon","coordinates":[[[3.8101179600000705,11.579428673000052],[3.817797899000084,11.570234299000049],[3.8358817100000806,11.56975841500008],[3.908693314000061,11.513603210000042],[3.9215424060000714,11.507416725000041],[3.9381985660000396,11.509796143000074],[3.9539029600000504,11.520265579000068],[3.951999426000043,11.531211853000059],[3.9624691010000674,11.554054260000044],[3.96389675100005,11.570710182000084],[3.9862637520000703,11.593077660000063],[4.012437820000059,11.591650009000091],[4.034328938000044,11.57594490100007],[4.056591511000079,11.57742023500009],[4.1047606470000915,11.644949913000062],[4.122844696000072,11.653515816000038],[4.147115231000043,11.654943466000077],[4.161392212000067,11.650660515000084],[4.168530464000071,11.643046379000054],[4.16567516300006,11.636384010000086],[4.178048134000051,11.620678902000066],[4.173765182000068,11.614492416000076],[4.193276882000077,11.607354164000071],[4.199507236000045,11.570560455000077],[4.220174789000055,11.554340363000051],[4.218866825000077,11.54021358500006],[4.2280235290000405,11.531842232000088],[4.249737263000043,11.524517059000061],[4.287265301000048,11.525024414000086],[4.306777000000068,11.516934395000078],[4.3153433800000585,11.507892609000066],[4.321529865000059,11.490284920000079],[4.346752167000091,11.47457981100007],[4.355793953000045,11.44174385100007],[4.351035118000084,11.423660278000057],[4.334378719000085,11.404148102000079],[4.3319993020000425,11.394154549000064],[4.315105438000046,11.377974510000058],[4.293690205000075,11.337523460000057],[4.256094456000085,11.313728333000086],[4.221354485000063,11.28089237200004],[4.225637436000056,11.275657654000042],[4.263709068000082,11.267091751000066],[4.29321432100005,11.248531342000092],[4.311773777000042,11.24282074000007],[4.336520195000048,11.24282074000007],[4.357935429000065,11.225688934000061],[4.381254196000043,11.222357750000072],[4.368881226000042,11.206176758000083],[4.340803623000056,11.184762001000081],[4.319864273000064,11.152876854000056],[4.302731991000087,11.11480617500007],[4.271323204000055,11.107191086000057],[4.261329174000082,11.084824562000051],[4.245625019000045,11.074831009000093],[4.234679222000068,11.057698250000044],[4.232775688000061,11.032952309000052],[4.226610661000052,11.018696785000088],[4.213769913000078,11.030652046000057],[4.186071396000045,11.032382965000068],[4.1670289040000625,11.024593353000057],[4.100380421000068,11.026324272000068],[3.993915796000067,11.017668724000089],[3.8909132480000608,11.054022789000044],[3.7939696310000386,11.112880707000045],[3.7515568730000837,11.127595901000063],[3.6919300000000703,11.128140000000087],[3.4711300000000733,11.448570000000075],[3.5579600000000937,11.63188000000008],[3.6085644130000674,11.699950902000069],[3.6195888520000494,11.691111565000085],[3.6210165020000886,11.682068825000044],[3.6153056620000825,11.671123505000082],[3.6181609630000935,11.661605835000046],[3.643383265000068,11.652088165000066],[3.6605155470000454,11.62781715400007],[3.7062010770000597,11.60449886300006],[3.7899582390000432,11.587842941000076],[3.8101179600000705,11.579428673000052]]]}},{"type":"Feature","properties":{"CNTRY_NAME":"Nigeria","CNTRY_CODE":"NGA","ADM1_NAME":"Kebbi","ADM1_CODE":"NGA022","ADM2_NAME":"Dandi","ADM2_CODE":"NGA022008","HRname":"Dandi","HRpcode":"NG022008","HRparent":"NG022","Shape_Leng":1.73204476068,"Shape_Area":0.16271379304,"ADM2_New":"Dandi","id":"NG-KE-DANDI","name":"Dandi","parentId":"NG-KE","stateName":"Kebbi","regionId":"NG-NW","fillColor":"#9bb898"},"geometry":{"type":"Polygon","coordinates":[[[3.938027620000071,11.988734245000046],[3.946004629000072,11.977977753000062],[3.962396383000055,11.901482582000085],[3.973324299000069,11.883529663000047],[3.9904966350000564,11.811717987000065],[4.0107913020000865,11.758639336000044],[4.013913631000094,11.732880592000072],[4.006107807000092,11.70946407300005],[4.006107807000092,11.67121601100007],[3.9904966350000564,11.630626678000056],[3.954590797000037,11.60720920600005],[3.910879135000073,11.600965500000086],[3.8968288900000516,11.591598511000086],[3.8765342240000678,11.58769512200007],[3.867167473000052,11.592378616000076],[3.826578140000038,11.590817451000078],[3.8101179600000705,11.579428673000052],[3.7899582390000432,11.587842941000076],[3.7062010770000597,11.60449886300006],[3.6605155470000454,11.62781715400007],[3.635293245000071,11.658274651000056],[3.6181609630000935,11.661605835000046],[3.6153056620000825,11.671123505000082],[3.6210165020000886,11.682068825000044],[3.6195888520000494,11.691111565000085],[3.609119177000082,11.699677467000072],[3.679200000000094,11.758450000000039],[3.665860000000066,11.810470000000066],[3.6341800000000717,11.831290000000081],[3.6225800000000845,11.852490000000046],[3.6193400000000793,11.92539000000005],[3.6667000000000485,11.97327000000007],[3.675428754000052,11.999834320000048],[3.64305591100009,12.109072573000049],[3.7024681570000553,12.137993813000037],[3.710273981000057,12.146579742000085],[3.750863314000071,12.156727791000037],[3.753205061000074,12.127846718000058],[3.771157980000055,12.101306915000066],[3.8960483070000578,12.06227874800004],[3.9085373880000702,12.041984558000081],[3.920245886000089,11.999834061000058],[3.938027620000071,11.988734245000046]]]}},{"type":"Feature","properties":{"CNTRY_NAME":"Nigeria","CNTRY_CODE":"NGA","ADM1_NAME":"Kebbi","ADM1_CODE":"NGA022","ADM2_NAME":"Arewa-Dandi","ADM2_CODE":"NGA022002","HRname":"Arewa-Dandi","HRpcode":"NG022002","HRparent":"NG022","Shape_Leng":3.31153741261,"Shape_Area":0.314343807687,"ADM2_New":"Arewa-Dandi","id":"NG-KE-AREWA-DANDI","name":"Arewa-Dandi","parentId":"NG-KE","stateName":"Kebbi","regionId":"NG-NW","fillColor":"#6ba3be"},"geometry":{"type":"Polygon","coordinates":[[[4.552503586000057,13.11526107800006],[4.484594345000062,13.058279991000063],[4.464299679000078,13.02549648300004],[4.444005013000037,13.009884834000047],[4.431515694000041,12.96929550200008],[4.422149181000066,12.953683853000086],[4.366728783000042,12.877188683000043],[4.358142853000061,12.875627518000044],[4.320675850000043,12.838940620000074],[4.309747696000045,12.81708526600005],[4.298820019000061,12.807718277000049],[4.2371554370000695,12.78742408800008],[4.226227283000071,12.757761955000092],[4.187979698000049,12.689852715000086],[4.16846561400007,12.680486679000069],[4.14895153000009,12.66097259500009],[4.1372427940000875,12.646142006000048],[4.129827499000044,12.617260933000068],[4.108752251000055,12.592282295000075],[4.070504665000044,12.575110435000056],[4.036940098000059,12.540765762000092],[4.008840084000042,12.529837608000037],[3.973714590000043,12.472075462000078],[3.9682505130000436,12.454903603000048],[3.9424920080000447,12.43460845900006],[3.9378085140000394,12.426022530000068],[3.9081470970000396,12.40494728100009],[3.8753633500000433,12.413533211000072],[3.8527269360000673,12.40963077500004],[3.8449213500000496,12.39558029200009],[3.8449213500000496,12.383090973000037],[3.859361887000091,12.350307465000071],[3.85545897500009,12.32610988600004],[3.8496747020000726,12.31705379500005],[3.8008193970000548,12.293326378000074],[3.7898914810000406,12.280837059000078],[3.750863314000071,12.201999664000084],[3.753205061000074,12.166093826000065],[3.747124195000083,12.156104088000063],[3.710273981000057,12.146579742000085],[3.7024681570000553,12.137993813000037],[3.64305591100009,12.109072573000049],[3.636916564000046,12.129789058000085],[3.6410634190000906,12.204252137000083],[3.6580114320000803,12.251670513000079],[3.6518812980000916,12.276371341000072],[3.6497177230000375,12.329198658000053],[3.657470538000041,12.519953953000083],[3.66414156400009,12.53023094000008],[3.7791716940000697,12.626870673000042],[3.9347688780000567,12.746588552000048],[4.017886260000068,12.868109411000091],[4.030867717000092,12.876583418000052],[4.0454718550000734,12.896235901000068],[4.056830630000093,12.92418209200008],[4.094332616000088,12.976829111000086],[4.102085431000091,12.998104277000039],[4.134358774000077,13.165420830000073],[4.134191007000084,13.260656968000092],[4.152073860000087,13.25264072400006],[4.184076786000048,13.25185966500004],[4.212957859000085,13.267471313000044],[4.232471943000064,13.269812584000078],[4.266816616000085,13.251079559000061],[4.287891865000063,13.230004311000073],[4.315211773000044,13.229223251000064],[4.345653534000064,13.213612556000044],[4.355020523000064,13.183950424000045],[4.365168095000058,13.173803329000066],[4.426052094000056,13.162875175000067],[4.504108429000041,13.14179992700008],[4.526744843000074,13.140238762000081],[4.552503586000057,13.11526107800006]]]}}]}