{"type":"FeatureCollection","features":[{"type":"Feature","properties":{"CNTRY_NAME":"Nigeria","CNTRY_CODE":"NGA","ADM1_NAME":"Lagos","ADM1_CODE":"NGA025","ADM2_NAME":"Agege","ADM2_CODE":"NGA025001","HRname":"Agege","HRpcode":"NG025001","HRparent":"NG025","Shape_Leng":0.140388887024,"Shape_Area":0.000908827013773,"ADM2_New":"Agege","id":"NG-LA-AGEGE","name":"Agege","parentId":"NG-LA","stateName":"Lagos","regionId":"NG-SW","fillColor":"#6BA368"},"geometry":{"type":"Polygon","coordinates":[[[3.3071913720000907,6.647377014000085],[3.3147568700000534,6.647460937000062],[3.3256356720000895,6.621448040000075],[3.332996130000083,6.623772621000057],[3.3376448150000897,6.617187023000042],[3.32989692700005,6.612344265000047],[3.331357002000061,6.605445385000053],[3.312173605000055,6.606339931000093],[3.2988085750000664,6.622997761000079],[3.3071913720000907,6.647377014000085]]]}},{"type":"Feature","properties":{"CNTRY_NAME":"Nigeria","CNTRY_CODE":"NGA","ADM1_NAME":"Lagos","ADM1_CODE":"NGA025","ADM2_NAME":"Ajeromi-Ifelodun","ADM2_CODE":"NGA025002","HRname":"Ajeromi-Ifelodun","HRpcode":"NG025002","HRparent":"NG025","Shape_Leng":0.132358262567,"Shape_Area":0.00100053402255,"ADM2_New":"Ajeromi-Ifelodun","id":"NG-LA-AJEROMI-IFELODUN","name":"Ajeromi-Ifelodun","parentId":"NG-LA","stateName":"Lagos","regionId":"NG-SW","fillColor":"#C4A574"},"geometry":{"type":"Polygon","coordinates":[[[3.3164589410000644,6.459038258000078],[3.3398005960000887,6.473393440000052],[3.3489122390000716,6.462054253000076],[3.3569254880000585,6.462530136000055],[3.3569254880000585,6.4525332450000406],[3.3524031640000658,6.451898575000087],[3.349784851000038,6.435396194000077],[3.3451039790000436,6.434920311000042],[3.3232090470000912,6.441253662000065],[3.3164589410000644,6.459038258000078]]]}},{"type":"Feature","properties":{"CNTRY_NAME":"Nigeria","CNTRY_CODE":"NGA","ADM1_NAME":"Lagos","ADM1_CODE":"NGA025","ADM2_NAME":"Alimosho","ADM2_CODE":"NGA025003","HRname":"Alimosho","HRpcode":"NG025003","HRparent":"NG025","Shape_Leng":0.59078874387,"Shape_Area":0.0150258407268,"ADM2_New":"Alimosho","id":"NG-LA-ALIMOSHO","name":"Alimosho","parentId":"NG-LA","stateName":"Lagos","regionId":"NG-SW","fillColor":"#5B8FA8"},"geometry":{"type":"Polygon","coordinates":[[[3.2598617080000736,6.6909341810000456],[3.270625591000055,6.680138588000091],[3.2735309600000733,6.670259953000084],[3.2909638880000784,6.662318230000039],[3.3071913720000907,6.647377014000085],[3.2988085750000664,6.622997761000079],[3.3199214940000843,6.5966548920000605],[3.313536882000051,6.550331593000067],[3.3048131470000612,6.562370777000069],[3.287574053000071,6.556172371000059],[3.2877678870000864,6.526149273000044],[3.2838938240000743,6.51878881500005],[3.2909128670000882,6.495656967000059],[3.284478426000078,6.486591816000043],[3.252965212000049,6.478459358000066],[3.2404615880000733,6.486998081000081],[3.2195208070000376,6.491877556000077],[3.2069153790000655,6.517291546000081],[3.1963772770000674,6.570621014000039],[3.199406862000046,6.580310822000058],[3.2297241690000646,6.60104227100004],[3.240007639000055,6.616025448000073],[3.24184107800005,6.659866333000082],[3.2598617080000736,6.6909341810000456]]]}},{"type":"Feature","properties":{"CNTRY_NAME":"Nigeria","CNTRY_CODE":"NGA","ADM1_NAME":"Lagos","ADM1_CODE":"NGA025","ADM2_NAME":"Apapa","ADM2_CODE":"NGA025005","HRname":"Apapa","HRpcode":"NG025005","HRparent":"NG025","Shape_Leng":0.307965763645,"Shape_Area":0.00216318360466,"ADM2_New":"Apapa","id":"NG-LA-APAPA","name":"Apapa","parentId":"NG-LA","stateName":"Lagos","regionId":"NG-SW","fillColor":"#B8956B"},"geometry":{"type":"Polygon","coordinates":[[[3.3416924480000603,6.47490692100007],[3.357798100000082,6.478556633000039],[3.36303448700005,6.476493835000042],[3.3647005560000594,6.466953278000062],[3.3792788980000523,6.4665565490000745],[3.3768827920000604,6.452232361000085],[3.3988404270000387,6.43678045300004],[3.3959939480000685,6.431901455000059],[3.381558895000069,6.4288516040000445],[3.3809490200000596,6.418076038000038],[3.3730199340000695,6.420922279000081],[3.3504524230000925,6.4087238310000885],[3.338457108000057,6.4131965640000885],[3.339880466000068,6.419906139000091],[3.354722023000079,6.426818371000081],[3.3358142380000686,6.428444862000049],[3.3313412670000844,6.434137821000093],[3.349784851000038,6.435396194000077],[3.3572428230000924,6.456897259000073],[3.3569254880000585,6.462530136000055],[3.3489122390000716,6.462054253000076],[3.3416924480000603,6.47490692100007]]]}},{"type":"Feature","properties":{"CNTRY_NAME":"Nigeria","CNTRY_CODE":"NGA","ADM1_NAME":"Lagos","ADM1_CODE":"NGA025","ADM2_NAME":"Ifako-Ijaye","ADM2_CODE":"NGA025010","HRname":"Ifako-Ijaye","HRpcode":"NG025010","HRparent":"NG025","Shape_Leng":0.26350895397,"Shape_Area":0.00215988440232,"ADM2_New":"Ifako-Ijaye","id":"NG-LA-IFAKO-IJAYE","name":"Ifako-Ijaye","parentId":"NG-LA","stateName":"Lagos","regionId":"NG-SW","fillColor":"#7CB087"},"geometry":{"type":"Polygon","coordinates":[[[3.2598617080000736,6.6909341810000456],[3.262877703000072,6.696602821000056],[3.2666492460000427,6.695483685000056],[3.2844986920000565,6.681293964000076],[3.3171129230000815,6.667160511000077],[3.3422155380000618,6.665897369000049],[3.35131573700005,6.657836914000086],[3.344230413000048,6.651858807000053],[3.3434557910000535,6.634038448000069],[3.3372573850000435,6.625322342000061],[3.3256356720000895,6.621448040000075],[3.3163380620000567,6.645660400000054],[3.3071913720000907,6.647377014000085],[3.2909638880000784,6.662318230000039],[3.2735309600000733,6.670259953000084],[3.270625591000055,6.680138588000091],[3.2598617080000736,6.6909341810000456]]]}},{"type":"Feature","properties":{"CNTRY_NAME":"Nigeria","CNTRY_CODE":"NGA","ADM1_NAME":"Lagos","ADM1_CODE":"NGA025","ADM2_NAME":"Ikeja","ADM2_CODE":"NGA025011","HRname":"Ikeja","HRpcode":"NG025011","HRparent":"NG025","Shape_Leng":0.373341722431,"Shape_Area":0.0037465130871,"ADM2_New":"Ikeja","id":"NG-LA-IKEJA","name":"Ikeja","parentId":"NG-LA","stateName":"Lagos","regionId":"NG-SW","fillColor":"#C9B896"},"geometry":{"type":"Polygon","coordinates":[[[3.35131573700005,6.657836914000086],[3.369888544000048,6.640619278000088],[3.3658113480000793,6.6174778940000465],[3.3840193750000935,6.592486382000061],[3.3674774170000887,6.567574024000066],[3.3688886170000387,6.557147980000082],[3.355331898000088,6.555920601000082],[3.338806868000063,6.5894880290000515],[3.3337707520000777,6.585807800000055],[3.334739447000061,6.571280479000052],[3.3221490380000773,6.564501286000052],[3.32369852100004,6.555009842000061],[3.313536882000051,6.550331593000067],[3.3199214940000843,6.5966548920000605],[3.316241264000041,6.604403019000074],[3.331357002000061,6.605445385000053],[3.32989692700005,6.612344265000047],[3.3368699550000542,6.613312721000057],[3.3351678850000894,6.624426842000048],[3.3446178440000836,6.638880730000039],[3.3422935010000856,6.65030908600005],[3.35131573700005,6.657836914000086]]]}},{"type":"Feature","properties":{"CNTRY_NAME":"Nigeria","CNTRY_CODE":"NGA","ADM1_NAME":"Lagos","ADM1_CODE":"NGA025","ADM2_NAME":"Mushin","ADM2_CODE":"NGA025016","HRname":"Mushin","HRpcode":"NG025016","HRparent":"NG025","Shape_Leng":0.179279102804,"Shape_Area":0.00141850346597,"ADM2_New":"Mushin","id":"NG-LA-MUSHIN","name":"Mushin","parentId":"NG-LA","stateName":"Lagos","regionId":"NG-SW","fillColor":"#D4896A"},"geometry":{"type":"Polygon","coordinates":[[[3.3525810240000737,6.554777622000074],[3.3688886170000387,6.557147980000082],[3.3683440690000452,6.518561840000075],[3.3632609840000782,6.518511295000053],[3.3587882520000676,6.510988712000085],[3.338457108000057,6.5101757050000515],[3.3289015290000634,6.498993397000049],[3.3243207930000835,6.50482988400006],[3.3364241120000884,6.518308163000086],[3.3380506040000455,6.545348167000043],[3.3525810240000737,6.554777622000074]]]}},{"type":"Feature","properties":{"CNTRY_NAME":"Nigeria","CNTRY_CODE":"NGA","ADM1_NAME":"Lagos","ADM1_CODE":"NGA025","ADM2_NAME":"Oshodi-Isolo","ADM2_CODE":"NGA025018","HRname":"Oshodi-Isolo","HRpcode":"NG025018","HRparent":"NG025","Shape_Leng":0.317250964673,"Shape_Area":0.00363174835898,"ADM2_New":"Oshodi-Isolo","id":"NG-LA-OSHODI-ISOLO","name":"Oshodi-Isolo","parentId":"NG-LA","stateName":"Lagos","regionId":"NG-SW","fillColor":"#A3C986"},"geometry":{"type":"Polygon","coordinates":[[[3.313536882000051,6.550331593000067],[3.321761608000088,6.554235458000051],[3.3221490380000773,6.564501286000052],[3.334739447000061,6.571280479000052],[3.336482525000065,6.588519573000042],[3.3525810240000737,6.554777622000074],[3.3392703530000745,6.5481948850000435],[3.3364241120000884,6.518308163000086],[3.3250386710000726,6.507532597000079],[3.3151781560000586,6.487811565000072],[3.291187525000055,6.481508732000066],[3.291060686000094,6.500387669000077],[3.2838938240000743,6.51878881500005],[3.288542509000081,6.5346717830000784],[3.286993027000051,6.554041386000051],[3.301907778000043,6.562370777000069],[3.313536882000051,6.550331593000067]]]}},{"type":"Feature","properties":{"CNTRY_NAME":"Nigeria","CNTRY_CODE":"NGA","ADM1_NAME":"Lagos","ADM1_CODE":"NGA025","ADM2_NAME":"Surulere","ADM2_CODE":"NGA025020","HRname":"Surulere","HRpcode":"NG025020","HRparent":"NG025","Shape_Leng":0.228336312917,"Shape_Area":0.00186626992191,"ADM2_New":"Surulere","id":"NG-LA-SURULERE","name":"Surulere","parentId":"NG-LA","stateName":"Lagos","regionId":"NG-SW","fillColor":"#BFA882"},"geometry":{"type":"Polygon","coordinates":[[[3.3233106140000928,6.501026630000069],[3.3243207930000835,6.50482988400006],[3.3289015290000634,6.498993397000049],[3.342320204000089,6.510785580000061],[3.3587882520000676,6.510988712000085],[3.3632609840000782,6.518511295000053],[3.3839402200000563,6.481531620000055],[3.367080688000044,6.479250431000082],[3.365105867000068,6.475426674000062],[3.347246170000062,6.477763176000053],[3.3164589410000644,6.459038258000078],[3.3282916550000436,6.477849483000057],[3.3233106140000928,6.501026630000069]]]}},{"type":"Feature","properties":{"CNTRY_NAME":"Nigeria","CNTRY_CODE":"NGA","ADM1_NAME":"Lagos","ADM1_CODE":"NGA025","ADM2_NAME":"Ikorodu","ADM2_CODE":"NGA025012","HRname":"Ikorodu","HRpcode":"NG025012","HRparent":"NG025","Shape_Leng":0.869918072117,"Shape_Area":0.0366879678639,"ADM2_New":"Ikorodu","id":"NG-LA-IKORODU","name":"Ikorodu","parentId":"NG-LA","stateName":"Lagos","regionId":"NG-SW","fillColor":"#5E9E78"},"geometry":{"type":"Polygon","coordinates":[[[3.444489241000042,6.664900303000081],[3.453234673000054,6.671268463000047],[3.465073347000043,6.664749622000045],[3.4679663180000375,6.6793308260000686],[3.4633374210000625,6.683959961000085],[3.6999621390000925,6.682374954000068],[3.6822817330000817,6.639965534000055],[3.6966340540000715,6.625878811000064],[3.7046592240000678,6.6048736570000415],[3.6683840750000627,6.56855392500006],[3.6482911110000487,6.557890892000046],[3.637239933000046,6.53706789000006],[3.616961252000067,6.541356351000047],[3.5952298070000666,6.538855431000059],[3.5299522570000477,6.502190030000065],[3.4874745530000837,6.50299149600005],[3.452116798000077,6.511090792000061],[3.4547613610000667,6.553697647000092],[3.4655094150000423,6.585466385000075],[3.4353318210000907,6.620542526000065],[3.4346907140000553,6.6391358380000725],[3.457663536000041,6.639433384000085],[3.444489241000042,6.664900303000081]]]}},{"type":"Feature","properties":{"CNTRY_NAME":"Nigeria","CNTRY_CODE":"NGA","ADM1_NAME":"Lagos","ADM1_CODE":"NGA025","ADM2_NAME":"Kosofe","ADM2_CODE":"NGA025013","HRname":"Kosofe","HRpcode":"NG025013","HRparent":"NG025","Shape_Leng":0.408633041913,"Shape_Area":0.00880326534742,"ADM2_New":"Kosofe","id":"NG-LA-KOSOFE","name":"Kosofe","parentId":"NG-LA","stateName":"Lagos","regionId":"NG-SW","fillColor":"#94B86A"},"geometry":{"type":"Polygon","coordinates":[[[3.3715417390000653,6.638493538000091],[3.4346907140000553,6.6391358380000725],[3.4399609570000393,6.610821724000061],[3.4575510030000487,6.599248886000055],[3.4655094150000423,6.585466385000075],[3.4547613610000667,6.553697647000092],[3.452116798000077,6.511090792000061],[3.414016279000066,6.52013637400006],[3.3976204400000825,6.549211025000091],[3.3842020030000413,6.546974659000057],[3.3688886170000387,6.557147980000082],[3.3674774170000887,6.567574024000066],[3.3840193750000935,6.592486382000061],[3.3658113480000793,6.6174778940000465],[3.3655731680000827,6.6287441250000825],[3.3715417390000653,6.638493538000091]]]}},{"type":"Feature","properties":{"CNTRY_NAME":"Nigeria","CNTRY_CODE":"NGA","ADM1_NAME":"Lagos","ADM1_CODE":"NGA025","ADM2_NAME":"Lagos Island","ADM2_CODE":"NGA025014","HRname":"Lagos Island","HRpcode":"NG025014","HRparent":"NG025","Shape_Leng":0.123776250394,"Shape_Area":0.000798209681376,"ADM2_New":"Lagos Island","id":"NG-LA-LAGOS-ISLAND","name":"Lagos Island","parentId":"NG-LA","stateName":"Lagos","regionId":"NG-SW","fillColor":"#C2A882"},"geometry":{"type":"Polygon","coordinates":[[[3.3940386770000828,6.468209743000045],[3.4099241400000437,6.4780114170000616],[3.4081926350000913,6.447149277000051],[3.4018900390000795,6.4361705780000875],[3.3799324040000442,6.449182510000071],[3.3750531670000896,6.456705093000039],[3.3940386770000828,6.468209743000045]]]}},{"type":"Feature","properties":{"CNTRY_NAME":"Nigeria","CNTRY_CODE":"NGA","ADM1_NAME":"Lagos","ADM1_CODE":"NGA025","ADM2_NAME":"Lagos Mainland","ADM2_CODE":"NGA025015","HRname":"Lagos Mainland","HRpcode":"NG025015","HRparent":"NG025","Shape_Leng":0.263576374915,"Shape_Area":0.00294876900914,"ADM2_New":"Lagos Mainland","id":"NG-LA-LAGOS-MAINLAND","name":"Lagos Mainland","parentId":"NG-LA","stateName":"Lagos","regionId":"NG-SW","fillColor":"#72A898"},"geometry":{"type":"Polygon","coordinates":[[[3.3683440690000452,6.518561840000075],[3.405478239000047,6.523253441000065],[3.452116798000077,6.511090792000061],[3.4247896420000643,6.4872897210000815],[3.3811626430000388,6.463217258000043],[3.374419451000051,6.46883726100009],[3.3647005560000594,6.466953278000062],[3.367080688000044,6.479250431000082],[3.3839402200000563,6.481531620000055],[3.3683440690000452,6.518561840000075]]]}},{"type":"Feature","properties":{"CNTRY_NAME":"Nigeria","CNTRY_CODE":"NGA","ADM1_NAME":"Lagos","ADM1_CODE":"NGA025","ADM2_NAME":"Shomolu","ADM2_CODE":"NGA025019","HRname":"Shomolu","HRpcode":"NG025019","HRparent":"NG025","Shape_Leng":0.152266904494,"Shape_Area":0.000955711252186,"ADM2_New":"Shomolu","id":"NG-LA-SHOMOLU","name":"Shomolu","parentId":"NG-LA","stateName":"Lagos","regionId":"NG-SW","fillColor":"#8AAB76"},"geometry":{"type":"Polygon","coordinates":[[[3.3688886170000387,6.557147980000082],[3.3842020030000413,6.546974659000057],[3.395587444000057,6.549617767000086],[3.414016279000066,6.52013637400006],[3.389691353000046,6.523797512000044],[3.3683440690000452,6.518561840000075],[3.3688886170000387,6.557147980000082]]]}},{"type":"Feature","properties":{"CNTRY_NAME":"Nigeria","CNTRY_CODE":"NGA","ADM1_NAME":"Lagos","ADM1_CODE":"NGA025","ADM2_NAME":"Epe","ADM2_CODE":"NGA025007","HRname":"Epe","HRpcode":"NG025007","HRparent":"NG025","Shape_Leng":2.40869590151,"Shape_Area":0.0964315342387,"ADM2_New":"Epe","id":"NG-LA-EPE","name":"Epe","parentId":"NG-LA","stateName":"Lagos","regionId":"NG-SW","fillColor":"#8FAF6E"},"geometry":{"type":"Polygon","coordinates":[[[3.9168367390000753,6.680704117000062],[4.091480732000093,6.6789927480000415],[4.0952310560000456,6.6515192990000855],[4.091480732000093,6.652583122000067],[4.081508160000055,6.637624264000067],[4.070426941000051,6.633191586000066],[4.061562538000089,6.636700630000064],[4.050481319000085,6.619155884000065],[4.066097736000074,6.575692654000079],[4.06493806800006,6.562396049000085],[4.083386898000072,6.558977604000063],[4.09064197500004,6.5618252750000465],[4.094737053000074,6.545981407000056],[4.100100040000086,6.545557022000082],[4.109479427000053,6.546896935000063],[4.116402626000081,6.563422680000087],[4.143002987000045,6.5750865940000836],[4.166342258000043,6.593373775000089],[4.186748505000082,6.584861279000052],[4.2117605210000875,6.581735134000041],[4.22873306300005,6.557616234000079],[4.222256660000085,6.537740707000069],[4.156153679000056,6.498784542000067],[4.16095447500004,6.476819038000087],[4.193742752000048,6.463196278000055],[4.217325687000084,6.463053226000056],[4.225829601000044,6.445616245000053],[4.2356915470000445,6.4447588920000385],[4.236883163000073,6.438172817000066],[4.249984264000091,6.433753490000072],[4.263808727000082,6.443560600000069],[4.295577049000087,6.4346113200000445],[4.3019399640000415,6.438798904000066],[4.337199211000041,6.439527988000066],[4.3508377080000855,6.427625179000074],[4.3508377080000855,6.371523829000068],[4.2402386500000375,6.383035418000077],[4.214948177000053,6.404563904000042],[4.204781532000084,6.4194421770000645],[4.195358276000093,6.423657894000087],[4.165353775000085,6.420186043000058],[4.144771576000039,6.433080673000063],[4.116244793000078,6.424272537000093],[4.089824200000066,6.435329914000079],[4.071949959000051,6.433693886000071],[4.050202847000094,6.45923090000008],[4.017417908000084,6.472049236000089],[4.00365686400005,6.490732193000042],[3.9971034530000793,6.490765095000086],[3.9971034530000793,6.425187111000071],[3.9590340060000813,6.426903149000054],[3.9599020480000604,6.499246597000081],[3.9341549870000563,6.5038285260000634],[3.872372627000061,6.55582761800008],[3.8567502500000614,6.562026978000063],[3.8183145520000608,6.556323528000064],[3.663826942000071,6.491602421000039],[3.6526215080000384,6.490876675000038],[3.642058134000081,6.479602337000074],[3.6194677350000575,6.489344120000055],[3.628766060000089,6.4992470740000385],[3.6270840170000724,6.51406908000007],[3.6425263880000784,6.550214767000057],[3.6683840750000627,6.56855392500006],[3.7046592240000678,6.6048736570000415],[3.6966340540000715,6.625878811000064],[3.6825475690000644,6.6377062800000886],[3.6999621390000925,6.682374954000068],[3.9168367390000753,6.680704117000062]]]}},{"type":"Feature","properties":{"CNTRY_NAME":"Nigeria","CNTRY_CODE":"NGA","ADM1_NAME":"Lagos","ADM1_CODE":"NGA025","ADM2_NAME":"Ojo","ADM2_CODE":"NGA025017","HRname":"Ojo","HRpcode":"NG025017","HRparent":"NG025","Shape_Leng":0.628932180613,"Shape_Area":0.0137250610513,"ADM2_New":"Ojo","id":"NG-LA-OJO","name":"Ojo","parentId":"NG-LA","stateName":"Lagos","regionId":"NG-SW","fillColor":"#9B8B72"},"geometry":{"type":"Polygon","coordinates":[[[3.2504770760000383,6.478355408000084],[3.2388350960000594,6.471953392000046],[3.238631964000092,6.457111835000092],[3.2319226260000846,6.4591445920000865],[3.22582340200006,6.449589252000067],[3.2128114700000765,6.4475560190000465],[3.220740557000056,6.4363741870000695],[3.2006127830000537,6.4316978450000875],[3.199189663000084,6.419702530000052],[3.206607019000046,6.396442948000072],[3.069524468000054,6.39081376300004],[3.08370947800006,6.4087238310000885],[3.106886864000046,6.409130573000084],[3.106683493000048,6.438000679000083],[3.0935976510000387,6.464630127000078],[3.113392830000066,6.470326900000089],[3.116645813000048,6.480288982000047],[3.103946209000071,6.499459267000077],[3.155649424000046,6.501806259000091],[3.1746132370000737,6.507490158000053],[3.2039604190000546,6.529477596000049],[3.2180974480000373,6.4935040470000445],[3.2404615880000733,6.486998081000081],[3.2504770760000383,6.478355408000084]]]}},{"type":"Feature","properties":{"CNTRY_NAME":"Nigeria","CNTRY_CODE":"NGA","ADM1_NAME":"Lagos","ADM1_CODE":"NGA025","ADM2_NAME":"Ibeju/Lekki","ADM2_CODE":"NGA025009","HRname":"Ibeju/Lekki","HRpcode":"NG025009","HRparent":"NG025","Shape_Leng":1.43690111425,"Shape_Area":0.0380905950172,"ADM2_New":"Ibeju/Lekki","id":"NG-LA-IBEJU-LEKKI","name":"Ibeju/Lekki","parentId":"NG-LA","stateName":"Lagos","regionId":"NG-SW","fillColor":"#688EB5"},"geometry":{"type":"MultiPolygon","coordinates":[[[[4.069912910000085,6.435690880000038],[4.087378025000078,6.436104774000057],[4.116244793000078,6.424272537000093],[4.144771576000039,6.433080673000063],[4.165353775000085,6.420186043000058],[4.195358276000093,6.423657894000087],[4.204781532000084,6.4194421770000645],[4.214948177000053,6.404563904000042],[4.2402386500000375,6.383035418000077],[4.162328243000047,6.394085884000049],[4.044345855000074,6.4199881550000555],[3.997096938000084,6.425094060000049],[3.9971034530000793,6.490765095000086],[4.008551121000039,6.489181995000081],[4.015380859000061,6.474044800000058],[4.050202847000094,6.45923090000008],[4.069912910000085,6.435690880000038]]],[[[3.946954966000078,6.499232769000059],[3.9599020480000604,6.499246597000081],[3.9590340060000813,6.426903149000054],[3.8129940030000853,6.435247898000057],[3.671506167000075,6.418295861000047],[3.6290566580000814,6.41909979400009],[3.6730370520000406,6.47564125100007],[3.6695835590000456,6.488032818000079],[3.663826942000071,6.491602421000039],[3.831705093000039,6.560291290000066],[3.8485672470000623,6.563018799000076],[3.872372627000061,6.55582761800008],[3.9341549870000563,6.5038285260000634],[3.946954966000078,6.499232769000059]]]]}},{"type":"Feature","properties":{"CNTRY_NAME":"Nigeria","CNTRY_CODE":"NGA","ADM1_NAME":"Lagos","ADM1_CODE":"NGA025","ADM2_NAME":"Amuwo-Odofin","ADM2_CODE":"NGA025004","HRname":"Amuwo-Odofin","HRpcode":"NG025004","HRparent":"NG025","Shape_Leng":0.69760271709,"Shape_Area":0.0113032378875,"ADM2_New":"Amuwo-Odofin","id":"NG-LA-AMUWO-ODOFIN","name":"Amuwo-Odofin","parentId":"NG-LA","stateName":"Lagos","regionId":"NG-SW","fillColor":"#A8BF7A"},"geometry":{"type":"Polygon","coordinates":[[[3.3164589410000644,6.459038258000078],[3.3232090470000912,6.441253662000065],[3.3388273720000825,6.436401367000087],[3.3313412670000844,6.434137821000093],[3.332357883000043,6.430071354000063],[3.3543155190000675,6.4288516040000445],[3.337440729000093,6.417263031000061],[3.3504524230000925,6.4087238310000885],[3.3677339550000625,6.4134001730000705],[3.3730199340000695,6.420922279000081],[3.3809490200000596,6.418076038000038],[3.381558895000069,6.4288516040000445],[3.3998804090000476,6.434388638000087],[3.4008872220000512,6.402715337000075],[3.3950052270000697,6.394197940000083],[3.3908610340000678,6.390985012000044],[3.3552191260000654,6.396335125000064],[3.2077910900000575,6.396563054000069],[3.2049789430000715,6.400849819000086],[3.199189663000084,6.419702530000052],[3.2006127830000537,6.4316978450000875],[3.220740557000056,6.4363741870000695],[3.2128114700000765,6.4475560190000465],[3.238631964000092,6.457111835000092],[3.242494822000083,6.47662925700007],[3.2818353180000486,6.4855751990000385],[3.2883412840000688,6.494114399000068],[3.291187525000055,6.481508732000066],[3.3151781560000586,6.487811565000072],[3.3233106140000928,6.501026630000069],[3.3282916550000436,6.477849483000057],[3.3164589410000644,6.459038258000078]]]}},{"type":"Feature","properties":{"CNTRY_NAME":"Nigeria","CNTRY_CODE":"NGA","ADM1_NAME":"Lagos","ADM1_CODE":"NGA025","ADM2_NAME":"Eti-Osa","ADM2_CODE":"NGA025008","HRname":"Eti-Osa","HRpcode":"NG025008","HRparent":"NG025","Shape_Leng":0.765934202087,"Shape_Area":0.0234003717543,"ADM2_New":"Eti-Osa","id":"NG-LA-ETI-OSA","name":"Eti-Osa","parentId":"NG-LA","stateName":"Lagos","regionId":"NG-SW","fillColor":"#D4C4A0"},"geometry":{"type":"Polygon","coordinates":[[[3.637239933000046,6.53706789000006],[3.6270840170000724,6.51406908000007],[3.628766060000089,6.495996475000084],[3.619997025000089,6.491611958000078],[3.6201481820000936,6.4870762830000785],[3.639722109000047,6.479196072000093],[3.6526215080000384,6.490876675000038],[3.663826942000071,6.491602421000039],[3.6695835590000456,6.488032818000079],[3.6730370520000406,6.47564125100007],[3.6290566580000814,6.41909979400009],[3.464725256000065,6.413629055000058],[3.409288168000046,6.4088940620000585],[3.4008872220000512,6.402715337000075],[3.398027182000078,6.406690598000068],[3.4029066560000842,6.42742824600009],[3.3998804090000476,6.434388638000087],[3.40920925100005,6.451622486000076],[3.406318188000057,6.464496136000093],[3.4099241400000437,6.4780114170000616],[3.443595427000048,6.500218698000083],[3.452116798000077,6.511090792000061],[3.4874745530000837,6.50299149600005],[3.5299522570000477,6.502190030000065],[3.5952298070000666,6.538855431000059],[3.616961252000067,6.541356351000047],[3.637239933000046,6.53706789000006]]]}},{"type":"Feature","properties":{"CNTRY_NAME":"Nigeria","CNTRY_CODE":"NGA","ADM1_NAME":"Lagos","ADM1_CODE":"NGA025","ADM2_NAME":"Badagry","ADM2_CODE":"NGA025006","HRname":"Badagry","HRpcode":"NG025006","HRparent":"NG025","Shape_Leng":1.07019905712,"Shape_Area":0.0365667352664,"ADM2_New":"Badagry","id":"NG-LA-BADAGRY","name":"Badagry","parentId":"NG-LA","stateName":"Lagos","regionId":"NG-SW","fillColor":"#6AADA3"},"geometry":{"type":"Polygon","coordinates":[[[3.103946209000071,6.499459267000077],[3.116645813000048,6.480288982000047],[3.1107497220000937,6.468903542000078],[3.0936715600000753,6.46707391700005],[3.106683493000048,6.438000679000083],[3.106886864000046,6.409130573000084],[3.0863525870000785,6.409740448000093],[3.072730780000086,6.399371624000082],[3.069524468000054,6.39081376300004],[2.9802742000000535,6.392884732000084],[2.8443880080000667,6.388271809000059],[2.7096040250000897,6.368820190000065],[2.7062800000000493,6.425610000000063],[2.7127908870000397,6.4582202520000465],[2.7326998710000794,6.457930565000083],[2.7444109920000415,6.44907522200009],[2.7841141220000623,6.452748775000089],[2.7992324830000825,6.460095882000076],[2.8421854970000595,6.4439888000000565],[2.8525507450000873,6.4499711990000606],[2.859586239000066,6.4677472110000735],[2.8799462320000657,6.469928265000078],[2.8930346970000755,6.480108261000055],[2.896670580000091,6.491742611000063],[2.892274857000075,6.501963139000054],[3.103946209000071,6.499459267000077]]]}}]}