{"type":"FeatureCollection","features":[{"type":"Feature","properties":{"CNTRY_NAME":"Nigeria","CNTRY_CODE":"NGA","ADM1_NAME":"Niger","ADM1_CODE":"NGA027","ADM2_NAME":"Agaie","ADM2_CODE":"NGA027001","HRname":"Agaie","HRpcode":"NG027001","HRparent":"NG027","Shape_Leng":1.82658158183,"Shape_Area":0.156384875799,"ADM2_New":"Agaie","id":"NG-NI-AGAIE","name":"Agaie","parentId":"NG-NI","stateName":"Niger","regionId":"NG-NC","fillColor":"#7cb87c"},"geometry":{"type":"Polygon","coordinates":[[[6.529179096000064,9.229965210000046],[6.54055261600007,9.208977699000059],[6.542718887000092,9.193813324000075],[6.531345844000043,9.138572693000071],[6.547051430000067,9.108243942000058],[6.567090034000046,9.082789421000086],[6.573589325000057,9.03675460800008],[6.606242180000038,8.991261482000084],[6.584962368000049,8.968514442000071],[6.579005241000061,8.932770729000083],[6.5871286390000705,8.879153252000037],[6.599043846000086,8.842867851000051],[6.591461658000071,8.835285187000068],[6.575755596000079,8.786542892000057],[6.544343472000037,8.76596260100007],[6.534595013000057,8.74863147700006],[6.532970428000056,8.735633850000056],[6.546510220000073,8.690682411000068],[6.545968533000064,8.665769577000049],[6.535678387000075,8.627859116000081],[6.501017094000076,8.587781906000089],[6.4863944050000555,8.579115868000088],[6.467980385000089,8.579115868000088],[6.439276218000089,8.59482193000008],[6.408037186000058,8.603014946000087],[6.398250580000081,8.629400253000085],[6.384096622000072,8.64426231400006],[6.392073154000059,8.657147408000071],[6.394596577000073,8.673970222000037],[6.387026310000067,8.691634178000072],[6.338240147000079,8.731367111000054],[6.353380680000043,8.775748253000074],[6.332352161000074,8.812758446000089],[6.328146458000049,8.854815483000039],[6.296183109000083,8.86827373500006],[6.286089420000053,8.887620926000068],[6.2902951240000675,8.914537430000053],[6.284407139000052,8.938089371000046],[6.286089420000053,8.96164131200004],[6.275154591000046,8.991922379000073],[6.271790028000055,9.043231964000086],[6.296183109000083,9.077718735000076],[6.317211628000052,9.090335846000073],[6.322258472000044,9.105476379000038],[6.29870653200004,9.146692276000067],[6.296183109000083,9.17024421700006],[6.307959080000046,9.191272736000087],[6.318893909000053,9.194637299000078],[6.34160471000007,9.225759506000088],[6.348333836000052,9.22071266200004],[6.390390873000058,9.250993729000072],[6.399643421000064,9.262769699000046],[6.3979611400000636,9.272863388000076],[6.403007984000055,9.280433655000081],[6.455158710000092,9.288003922000087],[6.467775822000078,9.282957077000049],[6.4719815250000465,9.272022247000052],[6.485439777000067,9.260246277000078],[6.48459863700009,9.24426460300009],[6.497215748000087,9.241741180000076],[6.506468296000037,9.229965210000046],[6.529179096000064,9.229965210000046]]]}},{"type":"Feature","properties":{"CNTRY_NAME":"Nigeria","CNTRY_CODE":"NGA","ADM1_NAME":"Niger","ADM1_CODE":"NGA027","ADM2_NAME":"Agwara","ADM2_CODE":"NGA027002","HRname":"Agwara","HRpcode":"NG027002","HRparent":"NG027","Shape_Leng":1.50890703424,"Shape_Area":0.126604835135,"ADM2_New":"Agwara","id":"NG-NI-AGWARA","name":"Agwara","parentId":"NG-NI","stateName":"Niger","regionId":"NG-NC","fillColor":"#8fbc8f"},"geometry":{"type":"Polygon","coordinates":[[[4.343673706000061,10.911533356000064],[4.355760098000076,10.91016006500007],[4.370847702000049,10.900353432000088],[4.419881821000047,10.89431858100005],[4.463634968000065,10.900353432000088],[4.492300987000078,10.910914421000086],[4.539826393000055,10.919966698000053],[4.568492413000058,10.90865135200005],[4.587351799000089,10.90638828300007],[4.62657880800009,10.915440559000047],[4.656753540000068,10.955422401000078],[4.683156490000044,10.953159332000041],[4.707637787000067,10.918297768000059],[4.716348648000064,10.916194916000052],[4.7321906090000425,10.897336006000046],[4.741997242000082,10.873195648000092],[4.737471104000065,10.850564957000074],[4.720120430000065,10.815863609000075],[4.697489738000058,10.667253494000079],[4.6891913410000825,10.642358780000052],[4.606965065000054,10.575974464000069],[4.510058403000073,10.535167694000052],[4.48036432300006,10.542471886000044],[4.405060291000041,10.543337822000069],[4.36005067800005,10.554590225000084],[4.335814953000067,10.555455208000069],[4.312444210000081,10.547665596000058],[4.3098478320000595,10.554590225000084],[4.324562550000053,10.582287788000087],[4.344470501000046,10.632491112000082],[4.353126049000082,10.670576096000048],[4.368706226000086,10.701736450000055],[4.373899460000075,10.740687370000046],[4.356588364000061,10.771847725000043],[4.352260590000071,10.796083450000083],[4.347932816000082,10.905144691000089],[4.343673706000061,10.911533356000064]]]}},{"type":"Feature","properties":{"CNTRY_NAME":"Nigeria","CNTRY_CODE":"NGA","ADM1_NAME":"Niger","ADM1_CODE":"NGA027","ADM2_NAME":"Bida","ADM2_CODE":"NGA027003","HRname":"Bida","HRpcode":"NG027003","HRparent":"NG027","Shape_Leng":0.254171336714,"Shape_Area":0.0041914809552,"ADM2_New":"Bida","id":"NG-NI-BIDA","name":"Bida","parentId":"NG-NI","stateName":"Niger","regionId":"NG-NC","fillColor":"#a8c686"},"geometry":{"type":"Polygon","coordinates":[[[5.9724559780000845,9.067770004000067],[5.995257378000076,9.124255180000091],[6.0269670490000635,9.137528419000091],[6.05886220900004,9.111569405000068],[6.049346924000076,9.082954407000045],[6.031061649000037,9.066192627000078],[5.993474960000071,9.06263732900004],[5.9724559780000845,9.067770004000067]]]}},{"type":"Feature","properties":{"CNTRY_NAME":"Nigeria","CNTRY_CODE":"NGA","ADM1_NAME":"Niger","ADM1_CODE":"NGA027","ADM2_NAME":"Bosso","ADM2_CODE":"NGA027005","HRname":"Bosso","HRpcode":"NG027005","HRparent":"NG027","Shape_Leng":1.93293563428,"Shape_Area":0.131045999664,"ADM2_New":"Bosso","id":"NG-NI-BOSSO","name":"Bosso","parentId":"NG-NI","stateName":"Niger","regionId":"NG-NC","fillColor":"#c2b280"},"geometry":{"type":"Polygon","coordinates":[[[6.227591038000071,9.768062592000092],[6.309641361000047,9.75567817700005],[6.340763569000046,9.761566162000065],[6.360109806000082,9.748949051000068],[6.371885777000045,9.756519318000073],[6.413942814000052,9.753154755000082],[6.486280918000091,9.810352325000053],[6.524973392000049,9.79857635500008],[6.553572178000081,9.796052933000055],[6.58805942500004,9.780912399000044],[6.609087944000066,9.758201599000074],[6.613293648000081,9.73128509500009],[6.620022774000063,9.72287368800005],[6.651144981000073,9.707733154000039],[6.682267189000072,9.677452087000063],[6.6780614850000575,9.67072296100008],[6.6780614850000575,9.621095657000069],[6.669650078000075,9.573150635000047],[6.651144981000073,9.55885124200006],[6.648762703000045,9.535008430000062],[6.629275322000069,9.533617020000065],[6.620022774000063,9.541187286000081],[6.5973119740000925,9.531934738000075],[6.558619022000073,9.536981583000056],[6.55020761500009,9.526887894000083],[6.535067081000079,9.52941131600005],[6.5216088290000584,9.52436447100007],[6.51740312600009,9.516794205000053],[6.502262592000079,9.517635345000087],[6.496374607000064,9.512588501000039],[6.4904866220000486,9.482307434000063],[6.477869511000051,9.478101730000049],[6.473663807000094,9.467166901000041],[6.480735779000042,9.42373561900007],[6.421513081000057,9.42763328600006],[6.403007984000055,9.416698456000063],[6.378614902000038,9.391464233000079],[6.365997791000041,9.388940811000055],[6.349174976000086,9.39651107800006],[6.270948887000088,9.405763626000066],[6.268425465000064,9.417539597000086],[6.272631168000089,9.432680130000051],[6.280201435000038,9.43940925600009],[6.276836872000047,9.452867508000054],[6.251602650000052,9.475578308000081],[6.213751316000071,9.49155998200007],[6.21206903500007,9.509223938000048],[6.229732990000059,9.536981583000056],[6.226368427000068,9.551280975000054],[6.20029306400005,9.579038620000063],[6.1977696420000825,9.594179153000084],[6.202816486000074,9.628665924000074],[6.1927227970000445,9.663993835000042],[6.1977696420000825,9.680816650000054],[6.221321583000076,9.709415436000086],[6.227591038000071,9.768062592000092]],[[6.542637348000085,9.580720901000063],[6.55946016300004,9.581562042000087],[6.590582848000054,9.597543716000075],[6.593106270000078,9.62614250200005],[6.567871571000069,9.658105850000084],[6.529179096000064,9.661470413000075],[6.511515141000075,9.651376724000045],[6.513197422000076,9.632030487000065],[6.4904866220000486,9.595861435000074],[6.504786015000093,9.586608887000068],[6.516561985000067,9.588291168000069],[6.542637348000085,9.580720901000063]]]}},{"type":"Feature","properties":{"CNTRY_NAME":"Nigeria","CNTRY_CODE":"NGA","ADM1_NAME":"Niger","ADM1_CODE":"NGA027","ADM2_NAME":"Chanchaga","ADM2_CODE":"NGA027006","HRname":"Chanchaga","HRpcode":"NG027006","HRparent":"NG027","Shape_Leng":0.304066199776,"Shape_Area":0.00595697964832,"ADM2_New":"Chanchaga","id":"NG-NI-CHANCHAGA","name":"Chanchaga","parentId":"NG-NI","stateName":"Niger","regionId":"NG-NC","fillColor":"#9bb898"},"geometry":{"type":"Polygon","coordinates":[[[6.542637348000085,9.580720901000063],[6.516561985000067,9.588291168000069],[6.504786015000093,9.586608887000068],[6.491327763000072,9.59333801300005],[6.513197422000076,9.632030487000065],[6.511515141000075,9.651376724000045],[6.529179096000064,9.661470413000075],[6.567871571000069,9.658105850000084],[6.593106270000078,9.62614250200005],[6.590582848000054,9.597543716000075],[6.55946016300004,9.581562042000087],[6.542637348000085,9.580720901000063]]]}},{"type":"Feature","properties":{"CNTRY_NAME":"Nigeria","CNTRY_CODE":"NGA","ADM1_NAME":"Niger","ADM1_CODE":"NGA027","ADM2_NAME":"Edati","ADM2_CODE":"NGA027007","HRname":"Edati","HRpcode":"NG027007","HRparent":"NG027","Shape_Leng":2.70773907467,"Shape_Area":0.143811672805,"ADM2_New":"Edati","id":"NG-NI-EDATI","name":"Edati","parentId":"NG-NI","stateName":"Niger","regionId":"NG-NC","fillColor":"#6ba3be"},"geometry":{"type":"MultiPolygon","coordinates":[[[[5.500276566000082,9.13882637000006],[5.5256595610000545,9.138032913000075],[5.570423126000037,9.147939682000072],[5.633532047000074,9.18940067300008],[5.65664720500007,9.193803787000093],[5.678295135000042,9.18940067300008],[5.685633659000075,9.176925659000062],[5.682698250000044,9.15857982600005],[5.686000347000061,9.149040222000053],[5.696640968000054,9.139500618000056],[5.721224308000046,9.131061554000041],[5.74030351600004,9.137299538000093],[5.757548332000056,9.134364128000072],[5.766721249000057,9.127758980000067],[5.757915497000056,9.091801643000053],[5.73663425400008,9.077858925000044],[5.737735271000076,9.054376602000048],[5.721590996000089,9.043369293000069],[5.719389439000054,9.024290085000075],[5.74030351600004,9.011080742000047],[5.753879547000054,9.011080742000047],[5.784699917000069,9.034563065000043],[5.800970078000091,9.039118767000048],[5.805033207000065,9.006765366000081],[5.837540627000067,8.955972672000087],[5.837540627000067,8.944290161000083],[5.829921722000051,8.931591988000093],[5.803001881000057,8.91330623600004],[5.765923023000084,8.898068428000045],[5.722240925000051,8.915845871000045],[5.68440055800005,8.916354179000052],[5.650876999000047,8.927020073000051],[5.621925354000041,8.95394039200005],[5.58687830000008,8.95394039200005],[5.570116520000056,8.970702171000084],[5.535069466000039,8.977305412000078],[5.521863461000066,9.000669479000067],[5.51068925900006,9.013368607000075],[5.495959282000058,9.018955231000064],[5.47411823300007,9.048923492000085],[5.447197914000071,9.061621666000065],[5.410627365000039,9.063144684000065],[5.407071590000044,9.067208290000053],[5.432722092000063,9.102763176000053],[5.4758958820000885,9.109874725000054],[5.489610195000068,9.104287148000083],[5.502816200000041,9.105302811000058],[5.515006542000037,9.119524956000078],[5.500276566000082,9.13882637000006]]],[[[6.05886220900004,9.111569405000068],[6.0697374340000465,9.122779846000071],[6.067524910000088,9.141953468000054],[6.0734243390000415,9.151539803000048],[6.082273483000051,9.153752327000063],[6.094810009000071,9.133104324000044],[6.109558105000076,9.123517990000039],[6.143479824000053,9.11393165600009],[6.149379253000063,9.107294083000056],[6.14331340800004,9.093112946000076],[6.14991664900009,9.075842857000055],[6.147884846000068,9.067208290000053],[6.123504162000074,9.048923492000085],[6.115377426000066,9.037240982000071],[6.110298157000045,9.01590824100009],[6.1250281330000576,8.959527969000078],[6.138234138000087,8.933115959000077],[6.13213920600009,8.897560120000037],[6.137726307000094,8.873687744000051],[6.150424480000083,8.84879970600008],[6.172265530000061,8.824419022000086],[6.176329136000049,8.804609299000049],[6.1605830190000574,8.79191112500007],[6.147377014000085,8.79191112500007],[6.12553596500004,8.803593636000073],[6.102679253000076,8.803593636000073],[6.078298569000083,8.789371490000065],[6.0341091160000815,8.778705597000055],[5.970109940000043,8.79546737700008],[5.861413479000078,8.772102356000062],[5.822302818000082,8.783784866000076],[5.810620785000083,8.782260895000093],[5.805541515000073,8.807657242000062],[5.822302818000082,8.850323677000063],[5.8304300310000485,8.864037514000074],[5.8842701910000415,8.91838550600005],[5.890873432000092,8.934638977000077],[5.889857292000045,8.949876785000072],[5.860309124000082,8.977507591000062],[5.880219460000092,8.981932640000082],[5.912666321000074,9.007004738000091],[5.9274144170000795,9.029127121000045],[5.970922470000062,9.065260887000079],[6.002109528000062,9.06263732900004],[6.031061649000037,9.066192627000078],[6.042743683000083,9.073303223000039],[6.056457996000063,9.095144272000084],[6.05886220900004,9.111569405000068]]]]}},{"type":"Feature","properties":{"CNTRY_NAME":"Nigeria","CNTRY_CODE":"NGA","ADM1_NAME":"Niger","ADM1_CODE":"NGA027","ADM2_NAME":"Gbako","ADM2_CODE":"NGA027008","HRname":"Gbako","HRpcode":"NG027008","HRparent":"NG027","Shape_Leng":1.93451352762,"Shape_Area":0.144086080922,"ADM2_New":"Gbako","id":"NG-NI-GBAKO","name":"Gbako","parentId":"NG-NI","stateName":"Niger","regionId":"NG-NC","fillColor":"#89a96d"},"geometry":{"type":"Polygon","coordinates":[[[5.912274837000041,9.501861572000053],[5.926677227000084,9.530575752000061],[5.951012135000042,9.55122375500008],[5.979034424000076,9.556385994000038],[6.052039146000084,9.550486565000085],[6.064575672000046,9.56007289900009],[6.089647770000056,9.55564785000007],[6.133155823000038,9.579245567000044],[6.170027256000083,9.546798706000061],[6.190674782000087,9.538687706000076],[6.20837307000005,9.540162086000066],[6.21722221400006,9.532788277000066],[6.220836163000058,9.526764870000079],[6.2106590270000765,9.499354362000076],[6.176741123000056,9.475578308000081],[6.171694279000064,9.45875549300007],[6.172535419000042,9.418380737000064],[6.169170856000051,9.40828704800009],[6.154871464000053,9.401557922000052],[6.14646005600008,9.391464233000079],[6.143095493000089,9.379688263000048],[6.14646005600008,9.364547729000037],[6.13468408600005,9.347724915000072],[6.137207508000074,9.33426666300005],[6.127954960000068,9.312397003000058],[6.14646005600008,9.303144455000051],[6.152348042000085,9.29473304700008],[6.141413212000089,9.280433655000081],[6.145618916000046,9.25351715100004],[6.162441730000069,9.245105743000067],[6.16748857500005,9.249311447000082],[6.1758999820000895,9.245105743000067],[6.181787968000037,9.228282928000056],[6.191040516000044,9.229124069000079],[6.20029306400005,9.217348099000048],[6.212910175000047,9.216506958000082],[6.222162724000043,9.208936691000076],[6.221321583000076,9.19968414300007],[6.207022190000089,9.182861328000058],[6.184311390000062,9.175291061000053],[6.170027256000083,9.11393165600009],[6.149379253000063,9.107294083000056],[6.143479824000053,9.11393165600009],[6.109558105000076,9.123517990000039],[6.094810009000071,9.133104324000044],[6.082273483000051,9.153752327000063],[6.0734243390000415,9.151539803000048],[6.067524910000088,9.141953468000054],[6.0697374340000465,9.122779846000071],[6.05886220900004,9.111569405000068],[6.0269670490000635,9.137528419000091],[5.995257378000076,9.124255180000091],[5.9724559780000845,9.067770004000067],[5.9274144170000795,9.029127121000045],[5.912666321000074,9.007004738000091],[5.880219460000092,8.981932640000082],[5.860309124000082,8.977507591000062],[5.855884552000077,8.986356735000072],[5.841135979000057,8.994468689000087],[5.828599930000053,9.01659107200004],[5.819750786000043,9.071898460000057],[5.823437691000038,9.095495224000047],[5.847772598000063,9.155963898000039],[5.845560551000062,9.220120430000065],[5.855146885000067,9.291650772000082],[5.880219460000092,9.355069160000085],[5.89054346100005,9.363918304000038],[5.89939260500006,9.381615639000074],[5.900129795000055,9.425124168000082],[5.915616035000085,9.488542557000073],[5.912274837000041,9.501861572000053]]]}},{"type":"Feature","properties":{"CNTRY_NAME":"Nigeria","CNTRY_CODE":"NGA","ADM1_NAME":"Niger","ADM1_CODE":"NGA027","ADM2_NAME":"Gurara","ADM2_CODE":"NGA027009","HRname":"Gurara","HRpcode":"NG027009","HRparent":"NG027","Shape_Leng":2.07927798339,"Shape_Area":0.0785552415427,"ADM2_New":"Gurara","id":"NG-NI-GURARA","name":"Gurara","parentId":"NG-NI","stateName":"Niger","regionId":"NG-NC","fillColor":"#b5c99a"},"geometry":{"type":"Polygon","coordinates":[[[6.837201595000067,9.387349129000086],[6.838694572000065,9.392575264000072],[6.855483532000051,9.399615288000064],[6.873897552000074,9.391491890000054],[6.901518345000056,9.39474105800008],[6.938345909000077,9.371994972000039],[7.003335953000089,9.407739639000056],[7.0092935560000456,9.416404724000074],[7.021208286000046,9.42019558000004],[7.040705204000062,9.41098880800007],[7.0547862050000845,9.416404724000074],[7.066701412000043,9.41315555600005],[7.078616142000044,9.42073726700005],[7.086198330000059,9.41911220600008],[7.101904392000051,9.432110786000067],[7.114902020000045,9.428861618000042],[7.113819122000052,9.44727516200004],[7.099196434000078,9.447816849000048],[7.095946789000038,9.452149391000091],[7.099738121000087,9.477062225000054],[7.114360809000061,9.477603912000063],[7.125733852000053,9.484643936000055],[7.139273643000081,9.478687286000081],[7.162020206000079,9.47922802000005],[7.177725792000047,9.492768288000093],[7.211304188000042,9.500891685000056],[7.224302292000061,9.460272789000044],[7.221594334000088,9.447816849000048],[7.2378416060000745,9.436985016000051],[7.274669647000053,9.440775871000085],[7.289505959000053,9.425436974000093],[7.289834023000083,9.409363747000043],[7.256255627000087,9.375785828000062],[7.254631042000085,9.362788200000068],[7.2703018190000535,9.34940528900006],[7.249215126000081,9.323252678000074],[7.265462399000057,9.28371715500009],[7.2649211880000735,9.27450943000008],[7.215636730000085,9.271260262000055],[7.203180313000075,9.27667617800006],[7.205888271000049,9.300505638000061],[7.1863913540000794,9.304296494000084],[7.155520916000057,9.289673805000064],[7.147938728000042,9.278841972000066],[7.167658329000062,9.153118134000067],[7.015266895000082,9.268970490000072],[6.788054466000062,9.270166397000082],[6.786707401000058,9.155335426000079],[6.777224541000066,9.170525551000082],[6.7820987700000614,9.21710205100004],[6.774516582000047,9.25013828300007],[6.743646622000085,9.331376076000083],[6.746354580000059,9.341666222000072],[6.76097726800009,9.34491539000004],[6.7831821440000795,9.339499474000093],[6.81188631100008,9.299422264000043],[6.822175980000054,9.290757179000082],[6.831924915000059,9.289673805000064],[6.837069511000038,9.30104732500007],[6.835444927000083,9.329751015000056],[6.839236259000074,9.33570861800007],[6.859274864000042,9.343291283000042],[6.861982822000073,9.355747223000037],[6.837201595000067,9.387349129000086]]]}},{"type":"Feature","properties":{"CNTRY_NAME":"Nigeria","CNTRY_CODE":"NGA","ADM1_NAME":"Niger","ADM1_CODE":"NGA027","ADM2_NAME":"Katcha","ADM2_CODE":"NGA027010","HRname":"Katcha","HRpcode":"NG027010","HRparent":"NG027","Shape_Leng":2.52830394004,"Shape_Area":0.138184057345,"ADM2_New":"Katcha","id":"NG-NI-KATCHA","name":"Katcha","parentId":"NG-NI","stateName":"Niger","regionId":"NG-NC","fillColor":"#d4a574"},"geometry":{"type":"Polygon","coordinates":[[[6.29870653200004,9.146692276000067],[6.322258472000044,9.105476379000038],[6.317211628000052,9.090335846000073],[6.296183109000083,9.077718735000076],[6.271790028000055,9.043231964000086],[6.273472309000056,9.007062912000038],[6.285248280000076,8.97005271900008],[6.284407139000052,8.938089371000046],[6.2902951240000675,8.914537430000053],[6.286089420000053,8.887620926000068],[6.296183109000083,8.86827373500006],[6.328146458000049,8.854815483000039],[6.332352161000074,8.812758446000089],[6.353380680000043,8.775748253000074],[6.338240147000079,8.731367111000054],[6.305342674000087,8.738071442000091],[6.284517765000089,8.747721672000068],[6.257089615000041,8.748737335000044],[6.200709343000085,8.770070076000081],[6.18648767500008,8.770070076000081],[6.164646626000092,8.785308838000049],[6.161599159000048,8.789371490000065],[6.176329136000049,8.804609299000049],[6.177344799000082,8.81172084800005],[6.137726307000094,8.873687744000051],[6.13213920600009,8.897560120000037],[6.138234138000087,8.933115959000077],[6.1250281330000576,8.959527969000078],[6.111314297000092,9.005241394000052],[6.115377426000066,9.037240982000071],[6.130615234000061,9.056034088000047],[6.147884846000068,9.067208290000053],[6.14483737900008,9.101747513000078],[6.149379253000063,9.107294083000056],[6.170027256000083,9.11393165600009],[6.184311390000062,9.175291061000053],[6.207022190000089,9.182861328000058],[6.221321583000076,9.19968414300007],[6.222162724000043,9.208936691000076],[6.212910175000047,9.216506958000082],[6.20029306400005,9.217348099000048],[6.191040516000044,9.229124069000079],[6.181787968000037,9.228282928000056],[6.1758999820000895,9.245105743000067],[6.16748857500005,9.249311447000082],[6.162441730000069,9.245105743000067],[6.145618916000046,9.25351715100004],[6.141413212000089,9.280433655000081],[6.152348042000085,9.29473304700008],[6.14646005600008,9.303144455000051],[6.127954960000068,9.312397003000058],[6.137207508000074,9.33426666300005],[6.13468408600005,9.347724915000072],[6.14646005600008,9.364547729000037],[6.143095493000089,9.379688263000048],[6.14646005600008,9.391464233000079],[6.154871464000053,9.401557922000052],[6.169170856000051,9.40828704800009],[6.172535419000042,9.418380737000064],[6.171694279000064,9.45875549300007],[6.176741123000056,9.475578308000081],[6.2106590270000765,9.499354362000076],[6.223003864000077,9.484830856000087],[6.251602650000052,9.475578308000081],[6.270948887000088,9.46212005600006],[6.280201435000038,9.43940925600009],[6.272631168000089,9.432680130000051],[6.268425465000064,9.417539597000086],[6.270948887000088,9.405763626000066],[6.349174976000086,9.39651107800006],[6.365997791000041,9.388940811000055],[6.378614902000038,9.391464233000079],[6.403007984000055,9.416698456000063],[6.421513081000057,9.42763328600006],[6.486280918000091,9.423427582000045],[6.506468296000037,9.376323700000057],[6.503103733000046,9.314079285000048],[6.487963200000081,9.29641532900007],[6.491327763000072,9.282957077000049],[6.50562715500007,9.268657684000061],[6.50730943700006,9.256881714000087],[6.526823997000065,9.229965210000046],[6.506468296000037,9.229965210000046],[6.497215748000087,9.241741180000076],[6.48459863700009,9.24426460300009],[6.485439777000067,9.260246277000078],[6.4719815250000465,9.272022247000052],[6.467775822000078,9.282957077000049],[6.44170045900006,9.288003922000087],[6.403007984000055,9.280433655000081],[6.3979611400000636,9.272863388000076],[6.399643421000064,9.262769699000046],[6.390390873000058,9.250993729000072],[6.348333836000052,9.22071266200004],[6.34160471000007,9.225759506000088],[6.318893909000053,9.194637299000078],[6.307959080000046,9.191272736000087],[6.296183109000083,9.17024421700006],[6.29870653200004,9.146692276000067]]]}},{"type":"Feature","properties":{"CNTRY_NAME":"Nigeria","CNTRY_CODE":"NGA","ADM1_NAME":"Niger","ADM1_CODE":"NGA027","ADM2_NAME":"Kontagora","ADM2_CODE":"NGA027011","HRname":"Kontagora","HRpcode":"NG027011","HRparent":"NG027","Shape_Leng":1.88275470608,"Shape_Area":0.17142651077,"ADM2_New":"Kontagora","id":"NG-NI-KONTAGORA","name":"Kontagora","parentId":"NG-NI","stateName":"Niger","regionId":"NG-NC","fillColor":"#5a9e6f"},"geometry":{"type":"Polygon","coordinates":[[[5.16769647600006,10.283884048000061],[5.172973633000083,10.28880977600005],[5.176319599000067,10.308049202000063],[5.1934685710000394,10.332308769000065],[5.224420071000054,10.356568336000066],[5.2704291340000395,10.36326026900008],[5.314765453000064,10.360751152000091],[5.327312946000063,10.36326026900008],[5.348226547000081,10.379991531000087],[5.354918480000038,10.41428852100006],[5.328149796000048,10.47870159100006],[5.322294235000072,10.55566215500005],[5.35659170200006,10.622584343000085],[5.355175018000068,10.682399750000059],[5.454121113000042,10.69513130200005],[5.4916033740000785,10.693288803000087],[5.517410755000071,10.684071541000037],[5.570254326000054,10.703119278000088],[5.599748135000084,10.67854118300005],[5.621254444000044,10.623854637000079],[5.622483253000041,10.60111904100006],[5.633543491000069,10.58452892300005],[5.64153146700005,10.583299637000039],[5.673483372000078,10.53967285200008],[5.685158253000054,10.454263687000036],[5.682700634000071,10.408179283000038],[5.6962184910000815,10.36393737800006],[5.703591824000057,10.28590107000008],[5.713423252000041,10.274841309000067],[5.728339672000061,10.237745285000074],[5.651050091000059,10.215194702000076],[5.540627956000037,10.216868401000056],[5.512186050000082,10.205992699000092],[5.456974983000066,10.194281578000073],[5.40678358100007,10.24614620200009],[5.379178047000039,10.252839088000087],[5.325640202000045,10.242800713000065],[5.2712655070000665,10.258694649000063],[5.226093292000087,10.265386581000087],[5.16769647600006,10.283884048000061]]]}},{"type":"Feature","properties":{"CNTRY_NAME":"Nigeria","CNTRY_CODE":"NGA","ADM1_NAME":"Niger","ADM1_CODE":"NGA027","ADM2_NAME":"Lapai","ADM2_CODE":"NGA027012","HRname":"Lapai","HRpcode":"NG027012","HRparent":"NG027","Shape_Leng":3.39464645338,"Shape_Area":0.250612768111,"ADM2_New":"Lapai","id":"NG-NI-LAPAI","name":"Lapai","parentId":"NG-NI","stateName":"Niger","regionId":"NG-NC","fillColor":"#84b882"},"geometry":{"type":"Polygon","coordinates":[[[6.5353221890000555,9.220931053000072],[6.567090034000046,9.23280811300009],[6.586587429000076,9.233349800000042],[6.59958505600008,9.227392197000086],[6.62178993200007,9.237140656000065],[6.63424634900008,9.220892906000074],[6.68244743300005,9.219809532000056],[6.685697079000079,9.233349800000042],[6.701403141000071,9.24038982400009],[6.724690914000064,9.277759552000077],[6.7236080170000605,9.289132118000055],[6.716025829000046,9.298339844000054],[6.716025829000046,9.312420845000076],[6.7230663300000515,9.35249805500007],[6.731190205000075,9.358996391000062],[6.797263145000045,9.371453285000086],[6.810802937000062,9.380660057000057],[6.837201595000067,9.387349129000086],[6.861982822000073,9.355747223000037],[6.859274864000042,9.343291283000042],[6.839236259000074,9.33570861800007],[6.835444927000083,9.329751015000056],[6.837069511000038,9.30104732500007],[6.831924915000059,9.289673805000064],[6.822175980000054,9.290757179000082],[6.81188631100008,9.299422264000043],[6.7831821440000795,9.339499474000093],[6.76097726800009,9.34491539000004],[6.746354580000059,9.341666222000072],[6.743646622000085,9.331376076000083],[6.774516582000047,9.25013828300007],[6.7820987700000614,9.21710205100004],[6.777224541000066,9.170525551000082],[6.786707401000058,9.155335426000079],[6.778522491000047,8.457550049000076],[6.827889919000086,8.457550049000076],[6.824781418000043,8.432682037000063],[6.832135201000085,8.425327301000038],[6.832135201000085,8.417054176000079],[6.824781418000043,8.404185295000048],[6.837650776000089,8.396831512000063],[6.807315350000067,8.34259510000004],[6.790769100000091,8.33064556100004],[6.772384167000041,8.335241318000044],[6.766868591000048,8.308583260000091],[6.751241207000078,8.30490589100009],[6.749403000000086,8.299390793000043],[6.761353016000044,8.29295635200009],[6.761353016000044,8.27273273500009],[6.749403000000086,8.263540268000042],[6.730098724000072,8.283763885000042],[6.719986916000039,8.27457141900004],[6.724583149000068,8.249751091000064],[6.7144713400000455,8.229528427000048],[6.712633133000054,8.201951027000064],[6.691258430000062,8.183006287000069],[6.683676720000051,8.212981224000089],[6.665291786000068,8.226770401000067],[6.641391277000082,8.255267143000083],[6.608298302000037,8.31409835800008],[6.599105835000046,8.324210167000047],[6.579802036000046,8.33064556100004],[6.5513052940000875,8.369254112000078],[6.527404785000044,8.375688553000089],[6.503504276000058,8.412458420000064],[6.452945709000062,8.448308945000065],[6.408037186000058,8.603014946000087],[6.439276218000089,8.59482193000008],[6.467980385000089,8.579115868000088],[6.4863944050000555,8.579115868000088],[6.501017094000076,8.587781906000089],[6.535678387000075,8.627859116000081],[6.545968533000064,8.665769577000049],[6.546510220000073,8.690682411000068],[6.532970428000056,8.735633850000056],[6.534595013000057,8.74863147700006],[6.544343472000037,8.76596260100007],[6.575755596000079,8.786542892000057],[6.591461658000071,8.835285187000068],[6.599043846000086,8.842867851000051],[6.5871286390000705,8.879153252000037],[6.579005241000061,8.932770729000083],[6.584962368000049,8.968514442000071],[6.60391807600007,8.991261482000084],[6.6006684300000416,9.001551628000072],[6.573589325000057,9.03675460800008],[6.567090034000046,9.082789421000086],[6.547051430000067,9.108243942000058],[6.531345844000043,9.138572693000071],[6.542718887000092,9.193813324000075],[6.5353221890000555,9.220931053000072]]]}},{"type":"Feature","properties":{"CNTRY_NAME":"Nigeria","CNTRY_CODE":"NGA","ADM1_NAME":"Niger","ADM1_CODE":"NGA027","ADM2_NAME":"Lavun","ADM2_CODE":"NGA027013","HRname":"Lavun","HRpcode":"NG027013","HRparent":"NG027","Shape_Leng":2.44790008678,"Shape_Area":0.232926494803,"ADM2_New":"Lavun","id":"NG-NI-LAVUN","name":"Lavun","parentId":"NG-NI","stateName":"Niger","regionId":"NG-NC","fillColor":"#c9b896"},"geometry":{"type":"Polygon","coordinates":[[[5.289232254000069,9.544153214000062],[5.302943230000039,9.683631897000055],[5.310648441000069,9.700877190000085],[5.320555210000066,9.709316254000044],[5.345138550000058,9.717020988000058],[5.412467003000074,9.729496002000076],[5.474475384000073,9.747841835000088],[5.511166573000082,9.752244949000044],[5.707648277000089,9.610616684000092],[5.7311306000000855,9.568788528000084],[5.742137909000064,9.526593208000065],[5.780297279000081,9.48953533200006],[5.798275948000082,9.482196808000083],[5.820657253000093,9.509348869000064],[5.833499432000053,9.509716034000064],[5.865054131000079,9.48990249600007],[5.89392089800009,9.488788605000082],[5.889349461000052,9.454249382000057],[5.876651287000072,9.429869652000093],[5.850747108000064,9.34860038800008],[5.849477291000085,9.328791618000082],[5.83271551100006,9.296792030000063],[5.833223343000043,9.269871712000054],[5.823064804000069,9.232792854000081],[5.82763624200004,9.159651756000073],[5.803001881000057,9.080922127000065],[5.800970078000091,9.039118767000048],[5.784699917000069,9.034563065000043],[5.753879547000054,9.011080742000047],[5.74030351600004,9.011080742000047],[5.720857143000046,9.021721840000055],[5.7182888980000826,9.036765099000093],[5.737735271000076,9.054376602000048],[5.73663425400008,9.077858925000044],[5.756080627000074,9.08960056300009],[5.766721249000057,9.127758980000067],[5.757548332000056,9.134364128000072],[5.74030351600004,9.137299538000093],[5.724159241000052,9.131061554000041],[5.696640968000054,9.139500618000056],[5.686000347000061,9.149040222000053],[5.682698250000044,9.15857982600005],[5.685633659000075,9.176925659000062],[5.678295135000042,9.18940067300008],[5.65664720500007,9.193803787000093],[5.633532047000074,9.18940067300008],[5.570423126000037,9.147939682000072],[5.5256595610000545,9.138032913000075],[5.500276566000082,9.13882637000006],[5.486054420000073,9.157112122000058],[5.484022617000051,9.167778015000067],[5.487578392000046,9.18860340100008],[5.5018000600000505,9.212475777000066],[5.500784397000075,9.276983261000055],[5.467514992000076,9.297807693000038],[5.429928303000054,9.331331253000087],[5.412150860000054,9.357743263000089],[5.411643028000071,9.386694908000038],[5.429928303000054,9.408535957000083],[5.429928303000054,9.425806046000048],[5.395389557000044,9.464916229000039],[5.379643440000052,9.474567413000045],[5.330374718000087,9.525867462000065],[5.289232254000069,9.544153214000062]]]}},{"type":"Feature","properties":{"CNTRY_NAME":"Nigeria","CNTRY_CODE":"NGA","ADM1_NAME":"Niger","ADM1_CODE":"NGA027","ADM2_NAME":"Magama","ADM2_CODE":"NGA027014","HRname":"Magama","HRpcode":"NG027014","HRparent":"NG027","Shape_Leng":3.49222927814,"Shape_Area":0.338022074385,"ADM2_New":"Magama","id":"NG-NI-MAGAMA","name":"Magama","parentId":"NG-NI","stateName":"Niger","regionId":"NG-NC","fillColor":"#7eb09a"},"geometry":{"type":"Polygon","coordinates":[[[5.100878716000068,10.759829521000086],[5.108142376000046,10.757266045000051],[5.1073060040000655,10.74555492400009],[5.112325191000082,10.740535736000083],[5.137421131000053,10.742208481000091],[5.149969101000067,10.749736786000085],[5.174228191000054,10.742208481000091],[5.17924737900006,10.733842850000087],[5.19765090900006,10.725478172000066],[5.206852913000091,10.713766098000065],[5.220237255000086,10.71878528600007],[5.2344584470000655,10.713766098000065],[5.2453331950000575,10.719621658000051],[5.250352383000063,10.729660034000062],[5.261227131000055,10.727150917000074],[5.265409946000091,10.73300647700006],[5.265409946000091,10.75893878900007],[5.272102356000062,10.761448860000087],[5.293015480000065,10.743044853000072],[5.30639982200006,10.752246857000046],[5.320621014000039,10.771487236000041],[5.351614952000091,10.774921417000087],[5.347389698000086,10.725478172000066],[5.3582649230000925,10.659392357000058],[5.35659170200006,10.622584343000085],[5.322294235000072,10.55566215500005],[5.328149796000048,10.47870159100006],[5.354918480000038,10.41428852100006],[5.348226547000081,10.379991531000087],[5.327312946000063,10.36326026900008],[5.314765453000064,10.360751152000091],[5.2704291340000395,10.36326026900008],[5.224420071000054,10.356568336000066],[5.1934685710000394,10.332308769000065],[5.176319599000067,10.308049202000063],[5.172973633000083,10.28880977600005],[5.108560562000093,10.232762337000054],[5.03745555900008,10.207666397000082],[4.978898525000091,10.199300766000079],[4.951293468000074,10.172532082000089],[4.928707123000038,10.164166451000085],[4.9128127100000825,10.103099823000036],[4.909466743000053,10.036177635000058],[4.915322304000085,10.011081696000076],[4.913649559000078,9.998534203000077],[4.893990993000045,9.959217072000058],[4.864712715000053,9.95670700100004],[4.831251144000078,9.979293823000091],[4.799463272000082,9.991004944000053],[4.766838551000092,9.988495827000065],[4.734213829000055,9.965072632000044],[4.698243141000091,9.926591873000064],[4.660599232000038,9.881420135000042],[4.622090816000082,9.823873520000063],[4.6049017910000885,9.845231056000046],[4.594912529000055,9.87020397200007],[4.579928875000064,9.879569054000058],[4.592415333000076,9.902668953000045],[4.572436810000056,9.975714684000081],[4.585547447000067,10.033777237000038],[4.570563793000076,10.069363594000038],[4.529982567000047,10.100580215000093],[4.526921272000038,10.114263535000077],[4.57945585300007,10.132378578000043],[4.610407829000053,10.135725021000042],[4.668128014000047,10.113138199000048],[4.689877987000045,10.113974571000085],[4.699916363000057,10.119830132000061],[4.710791111000049,10.131542206000063],[4.712882519000061,10.16165733300005],[4.678584576000048,10.197628021000071],[4.669383049000089,10.226069450000068],[4.6969885830000635,10.240290642000048],[4.705353737000053,10.252839088000087],[4.702007771000069,10.272915840000053],[4.705353737000053,10.302193642000077],[4.712882519000061,10.31055927300008],[4.731286049000062,10.31474208800006],[4.776458740000066,10.295501709000064],[4.804064274000041,10.296338081000044],[4.828323364000084,10.315578461000086],[4.844217300000082,10.389192581000088],[4.853419304000056,10.460297585000092],[4.845054150000067,10.47870159100006],[4.818703175000053,10.507143974000087],[4.822049618000051,10.559008598000048],[4.827905178000037,10.569883347000086],[4.8237223630000585,10.594979286000068],[4.801972866000085,10.613383293000084],[4.796117306000042,10.629277229000081],[4.814520836000042,10.674449921000075],[4.806992054000091,10.692852974000061],[4.809501648000094,10.697872162000067],[4.814520836000042,10.70456409500008],[4.843799114000092,10.699544907000075],[4.84714555700009,10.70456409500008],[4.86220312100005,10.707074165000051],[4.868058681000093,10.700382233000084],[4.890645027000062,10.701218605000065],[4.893990993000045,10.693689346000042],[4.909048557000062,10.687833786000056],[4.923269749000042,10.693689346000042],[4.931634903000088,10.687833786000056],[4.941673279000042,10.688670158000093],[4.948365211000066,10.701218605000065],[4.973461151000038,10.710420609000039],[4.979317188000039,10.717112541000063],[5.008595467000077,10.721295357000088],[5.008595467000077,10.733842850000087],[5.020307064000065,10.74639129600007],[5.026998997000078,10.748064041000077],[5.040383816000087,10.737189293000085],[5.049585342000057,10.738025665000066],[5.0746812820000855,10.748900414000047],[5.079700470000091,10.755593300000044],[5.100878716000068,10.759829521000086]]]}},{"type":"Feature","properties":{"CNTRY_NAME":"Nigeria","CNTRY_CODE":"NGA","ADM1_NAME":"Niger","ADM1_CODE":"NGA027","ADM2_NAME":"Mariga","ADM2_CODE":"NGA027015","HRname":"Mariga","HRpcode":"NG027015","HRparent":"NG027","Shape_Leng":3.49705634214,"Shape_Area":0.458103873402,"ADM2_New":"Mariga","id":"NG-NI-MARIGA","name":"Mariga","parentId":"NG-NI","stateName":"Niger","regionId":"NG-NC","fillColor":"#a4c4a0"},"geometry":{"type":"Polygon","coordinates":[[[5.807427883000059,11.045851707000054],[5.831117630000051,11.056036949000088],[5.91143608100009,11.064871788000062],[5.921074390000058,11.070494652000093],[5.974084854000068,11.13635540000007],[5.99336147300005,11.145994186000053],[6.006212234000088,11.141978264000045],[6.015850544000045,11.137962341000048],[6.026292324000053,11.11386680600009],[6.032717705000039,11.07531356800007],[6.052797318000046,11.04318618800005],[6.1146426200000406,11.001420021000058],[6.145967007000081,10.957244873000093],[6.152392387000077,10.92993640900005],[6.159621239000046,10.925920486000052],[6.164440155000079,10.872910500000046],[6.154562473000055,10.855394363000073],[6.137132168000051,10.85202693900004],[6.1226744650000455,10.84479904200009],[6.118658543000038,10.837570190000065],[6.131098270000052,10.824039459000062],[6.121068001000083,10.814277649000076],[6.108217239000055,10.81347465500005],[6.11062669800009,10.796607018000088],[6.099381924000056,10.770905495000079],[6.113036156000078,10.739581108000039],[6.103397846000064,10.718698502000052],[6.091350079000051,10.708256721000055],[6.091350079000051,10.70022487600005],[6.104201317000047,10.69942188300007],[6.118658543000038,10.68416118600004],[6.135525703000042,10.677735329000086],[6.137132168000051,10.669703484000081],[6.125083923000091,10.649623871000074],[6.112233162000052,10.605448723000052],[6.1146426200000406,10.599022865000052],[6.1274938580000935,10.59340095500005],[6.1274938580000935,10.569305420000092],[6.121068001000083,10.553241730000082],[6.092956543000071,10.546012878000056],[6.091350079000051,10.522720337000067],[6.086531162000085,10.515491486000087],[6.089744091000057,10.475332260000073],[6.054002285000081,10.45364666000006],[6.047576427000081,10.442401886000084],[6.037938118000056,10.397423744000037],[6.045166969000093,10.36368942300004],[6.041151047000085,10.339593887000092],[6.045166969000093,10.314695358000051],[6.055608273000075,10.306663513000046],[6.0588212010000575,10.29782772100009],[6.041954041000054,10.273732185000085],[6.037938118000056,10.24722766900004],[6.031512737000071,10.235982895000063],[6.0186619760000895,10.228754044000084],[6.025087357000075,10.19501972200004],[6.022275925000088,10.166908264000085],[6.017457008000065,10.15887641900008],[6.03030824700005,10.132371902000045],[6.011031628000069,10.117914200000087],[6.014244080000083,10.111488342000087],[6.0246858600000905,10.111488342000087],[6.03030824700005,10.10425949100005],[6.026292324000053,10.084983826000041],[6.022275925000088,10.07534503900007],[6.005409241000052,10.07534503900007],[5.999166489000061,10.070350647000055],[5.991517544000089,10.08302307100007],[5.972277164000047,10.095571518000042],[5.9337968830000705,10.13739776600005],[5.902845383000056,10.157474518000072],[5.852653503000056,10.175041199000077],[5.762308598000061,10.23778152500006],[5.728339672000061,10.237745285000074],[5.713423252000041,10.274841309000067],[5.703591824000057,10.28590107000008],[5.6962184910000815,10.36393737800006],[5.682700634000071,10.408179283000038],[5.685158253000054,10.454263687000036],[5.673483372000078,10.53967285200008],[5.64153146700005,10.583299637000039],[5.633543491000069,10.58452892300005],[5.622483253000041,10.60111904100006],[5.621254444000044,10.623854637000079],[5.599748135000084,10.67854118300005],[5.570254326000054,10.703119278000088],[5.517410755000071,10.684071541000037],[5.4916033740000785,10.693288803000087],[5.454121113000042,10.69513130200005],[5.355175018000068,10.682399750000059],[5.349062920000051,10.70540142100009],[5.3497114180000835,10.772286415000053],[5.355630875000088,10.80062294000004],[5.358843327000045,10.804638863000037],[5.363662720000093,10.801426888000037],[5.366072178000081,10.815080643000044],[5.355630875000088,10.876926422000054],[5.374907017000055,10.918691635000073],[5.389364719000071,10.979734421000046],[5.416673183000057,11.008648872000037],[5.42999029200007,11.016810417000045],[5.439965248000078,10.998207092000087],[5.444784641000069,10.973308563000046],[5.458438873000091,10.953228951000085],[5.514661789000058,10.96206378900007],[5.5749006270000905,10.965276718000041],[5.636746407000089,10.96206378900007],[5.680118561000086,10.975718498000049],[5.704214096000044,10.990175247000082],[5.74196386300008,11.003829956000061],[5.765256405000059,11.028728485000045],[5.807427883000059,11.045851707000054]]]}},{"type":"Feature","properties":{"CNTRY_NAME":"Nigeria","CNTRY_CODE":"NGA","ADM1_NAME":"Niger","ADM1_CODE":"NGA027","ADM2_NAME":"Mashegu","ADM2_CODE":"NGA027016","HRname":"Mashegu","HRpcode":"NG027016","HRparent":"NG027","Shape_Leng":4.49010875025,"Shape_Area":0.75489353664,"ADM2_New":"Mashegu","id":"NG-NI-MASHEGU","name":"Mashegu","parentId":"NG-NI","stateName":"Niger","regionId":"NG-NC","fillColor":"#96b57c"},"geometry":{"type":"Polygon","coordinates":[[[5.16769647600006,10.283884048000061],[5.226093292000087,10.265386581000087],[5.2712655070000665,10.258694649000063],[5.325640202000045,10.242800713000065],[5.379178047000039,10.252839088000087],[5.40678358100007,10.24614620200009],[5.456974983000066,10.194281578000073],[5.512186050000082,10.205992699000092],[5.540627956000037,10.216868401000056],[5.651050091000059,10.215194702000076],[5.717135906000067,10.23694515200009],[5.762308598000061,10.23778152500006],[5.852653503000056,10.175041199000077],[5.902845383000056,10.157474518000072],[5.9337968830000705,10.13739776600005],[5.972277164000047,10.095571518000042],[5.991517544000089,10.08302307100007],[5.999882698000079,10.064620018000085],[5.99235391600007,10.053744316000063],[5.991517544000089,10.03283119200006],[5.996536732000038,10.024466515000086],[5.996536732000038,10.01024532300005],[6.004065514000047,10.006898880000051],[6.004065514000047,10.001879692000045],[5.994863510000073,9.987658501000055],[5.981479168000078,9.98263931300005],[5.979805946000056,9.975947380000036],[5.988171101000091,9.95670700100004],[5.9856615070000885,9.950015068000084],[5.980642319000083,9.94248676300009],[5.930450916000041,9.915717125000072],[5.903681755000093,9.894804001000068],[5.891133785000079,9.86970806100004],[5.863528252000037,9.837920189000045],[5.853489876000083,9.81449699400008],[5.844288349000067,9.769325256000059],[5.82923078500005,9.74171924600006],[5.8175191880000625,9.722478867000063],[5.799115658000062,9.713277817000062],[5.78238487200008,9.716623306000088],[5.762308598000061,9.730844498000067],[5.728847027000086,9.740882874000079],[5.710443497000085,9.740882874000079],[5.666107655000076,9.726661682000042],[5.595839024000043,9.72833442700005],[5.5950026510000725,9.719133377000048],[5.6092233660000375,9.691527367000049],[5.607848167000043,9.685833931000047],[5.511166573000082,9.752244949000044],[5.474475384000073,9.747841835000088],[5.320555210000066,9.709316254000044],[5.310648441000069,9.700877190000085],[5.302943230000039,9.683631897000055],[5.287716389000082,9.551177025000072],[5.289232254000069,9.534502029000066],[5.280089855000085,9.50707435600009],[5.219138145000045,9.473550797000087],[5.134060383000076,9.447647095000093],[5.069553375000055,9.418694496000057],[4.96949148200008,9.354187965000051],[4.9517140390000804,9.349108696000087],[4.927841663000038,9.35063266800006],[4.89228630100007,9.366886139000087],[4.865874290000079,9.368917465000038],[4.844541073000073,9.380599976000042],[4.83387470200006,9.398377419000042],[4.839969635000045,9.500979424000093],[4.8308272360000615,9.537549973000068],[4.808986187000073,9.547708511000053],[4.753114223000068,9.54821682000005],[4.719082832000083,9.567009926000082],[4.71349573100008,9.579708099000072],[4.687083244000064,9.600025177000077],[4.676924706000079,9.600025177000077],[4.66524267200009,9.59291458100006],[4.662703037000085,9.580723763000037],[4.644417286000078,9.54974079100009],[4.636290550000069,9.479138374000058],[4.626132011000038,9.446630478000088],[4.6118593220000434,9.427962303000072],[4.601155758000061,9.456276894000041],[4.552458286000046,9.507471085000077],[4.5437178610000615,9.534941673000048],[4.5424690250000594,9.56116294900005],[4.596785545000046,9.666049957000041],[4.609896183000046,9.704133987000091],[4.616764069000055,9.71162509900006],[4.630498886000055,9.712874413000065],[4.636742115000061,9.71974182100007],[4.632996559000048,9.782798767000088],[4.622090816000082,9.823873520000063],[4.660599232000038,9.881420135000042],[4.698243141000091,9.926591873000064],[4.734213829000055,9.965072632000044],[4.766838551000092,9.988495827000065],[4.799463272000082,9.991004944000053],[4.831251144000078,9.979293823000091],[4.864712715000053,9.95670700100004],[4.893990993000045,9.959217072000058],[4.913649559000078,9.998534203000077],[4.915322304000085,10.011081696000076],[4.909466743000053,10.036177635000058],[4.9128127100000825,10.103099823000036],[4.928707123000038,10.164166451000085],[4.951293468000074,10.172532082000089],[4.978898525000091,10.199300766000079],[5.03745555900008,10.207666397000082],[5.108560562000093,10.232762337000054],[5.16769647600006,10.283884048000061]]]}},{"type":"Feature","properties":{"CNTRY_NAME":"Nigeria","CNTRY_CODE":"NGA","ADM1_NAME":"Niger","ADM1_CODE":"NGA027","ADM2_NAME":"Mokwa","ADM2_CODE":"NGA027017","HRname":"Mokwa","HRpcode":"NG027017","HRparent":"NG027","Shape_Leng":6.60667916039,"Shape_Area":0.355953112831,"ADM2_New":"Mokwa","id":"NG-NI-MOKWA","name":"Mokwa","parentId":"NG-NI","stateName":"Niger","regionId":"NG-NC","fillColor":"#7cb87c"},"geometry":{"type":"Polygon","coordinates":[[[5.89392089800009,9.488788605000082],[5.912274837000041,9.501861572000053],[5.915616035000085,9.488542557000073],[5.900129795000055,9.425124168000082],[5.89939260500006,9.381615639000074],[5.89054346100005,9.363918304000038],[5.880219460000092,9.355069160000085],[5.855146885000067,9.291650772000082],[5.845560551000062,9.220120430000065],[5.847772598000063,9.155963898000039],[5.823437691000038,9.095495224000047],[5.819750786000043,9.071898460000057],[5.828599930000053,9.01659107200004],[5.834499359000063,9.004792213000087],[5.889857292000045,8.949876785000072],[5.891889095000067,8.938702583000065],[5.8842701910000415,8.91838550600005],[5.826874256000053,8.858958244000064],[5.805541515000073,8.807657242000062],[5.80858898200006,8.785308838000049],[5.861413479000078,8.772102356000062],[5.970109940000043,8.79546737700008],[6.0341091160000815,8.778705597000055],[6.078298569000083,8.789371490000065],[6.102679253000076,8.803593636000073],[6.12553596500004,8.803593636000073],[6.147377014000085,8.79191112500007],[6.1605830190000574,8.79191112500007],[6.169725895000056,8.780229568000038],[6.18648767500008,8.770070076000081],[6.200709343000085,8.770070076000081],[6.257089615000041,8.748737335000044],[6.284517765000089,8.747721672000068],[6.305342674000087,8.738071442000091],[6.338240147000079,8.731367111000054],[6.387026310000067,8.691634178000072],[6.394596577000073,8.673970222000037],[6.392073154000059,8.657147408000071],[6.384096622000072,8.64426231400006],[6.358722687000068,8.684555054000043],[6.343095779000066,8.697424889000047],[6.302649021000093,8.727760315000069],[6.267717361000052,8.738791466000066],[6.2032160760000465,8.73456192000009],[6.169057369000086,8.721549034000077],[6.149538040000039,8.720735550000086],[6.131645203000062,8.751641273000075],[6.114566326000045,8.758147240000085],[6.084474087000046,8.760587692000058],[6.033236027000044,8.758960724000076],[5.978744984000059,8.750014305000093],[5.97467851600004,8.756521225000085],[5.928320408000047,8.742694855000082],[5.901481152000088,8.750014305000093],[5.795752048000054,8.74188137100009],[5.774606228000039,8.753267288000075],[5.728248119000057,8.819958687000053],[5.7127957340000535,8.828905106000093],[5.64203834500006,8.835411072000056],[5.619266033000088,8.852490425000042],[5.601373196000054,8.876889229000085],[5.563148022000064,8.89884853400008],[5.543629169000042,8.916741371000057],[5.539562702000069,8.930567741000061],[5.525417805000075,8.94010067000005],[5.473863602000051,8.947562218000087],[5.457583427000088,8.968590736000067],[5.425023079000084,8.978766441000062],[5.391106129000093,8.982835770000065],[5.370077610000067,8.996402740000065],[5.348370552000063,8.998437881000086],[5.323272228000064,8.992332458000078],[5.272396564000076,9.01471805600005],[5.23780107500005,9.018788338000093],[5.20897197700009,9.035068512000066],[5.159452915000088,9.106972694000092],[5.065163612000049,9.162596703000077],[5.048204899000041,9.18769455000006],[5.016323090000071,9.205331802000046],[4.996651173000089,9.207366943000068],[4.971552849000091,9.20058345800004],[4.911180496000043,9.17141437500004],[4.886081696000076,9.167345047000083],[4.8652472500000385,9.150311470000076],[4.828239918000065,9.134222031000093],[4.785332680000067,9.135293961000059],[4.768706322000071,9.153530121000074],[4.764554977000046,9.149931908000042],[4.751920700000085,9.17985630000004],[4.757158279000066,9.224376678000056],[4.75453949000007,9.24794578600006],[4.737516880000044,9.268896103000088],[4.639310360000081,9.308178902000066],[4.6170501710000735,9.330439568000088],[4.6097269060000485,9.361758232000057],[4.6118593220000434,9.427962303000072],[4.626132011000038,9.446630478000088],[4.636290550000069,9.479138374000058],[4.644417286000078,9.54974079100009],[4.662703037000085,9.580723763000037],[4.66524267200009,9.59291458100006],[4.676924706000079,9.600025177000077],[4.693178654000064,9.598501205000048],[4.71349573100008,9.579708099000072],[4.719082832000083,9.567009926000082],[4.753114223000068,9.54821682000005],[4.808986187000073,9.547708511000053],[4.8308272360000615,9.537549973000068],[4.839969635000045,9.500979424000093],[4.83387470200006,9.398377419000042],[4.839461803000063,9.38618755300007],[4.865874290000079,9.368917465000038],[4.89228630100007,9.366886139000087],[4.938508034000051,9.349108696000087],[4.96949148200008,9.354187965000051],[5.069553375000055,9.418694496000057],[5.1147589680000465,9.440028191000067],[5.160472393000077,9.45729732500007],[5.191709995000053,9.462884903000088],[5.234375954000086,9.480662346000088],[5.245042801000068,9.490312576000065],[5.280089855000085,9.50707435600009],[5.287708759000054,9.524343491000081],[5.289232254000069,9.544153214000062],[5.301422596000066,9.54110527000006],[5.308025837000059,9.533994675000088],[5.330374718000087,9.525867462000065],[5.379643440000052,9.474567413000045],[5.395389557000044,9.464916229000039],[5.429928303000054,9.425806046000048],[5.429928303000054,9.408535957000083],[5.411643028000071,9.386694908000038],[5.409611225000049,9.372981071000083],[5.4141826630000764,9.351140022000038],[5.464975357000071,9.299839973000076],[5.500784397000075,9.276983261000055],[5.5018000600000505,9.212475777000066],[5.487578392000046,9.18860340100008],[5.484022617000051,9.167778015000067],[5.486054420000073,9.157112122000058],[5.515006542000037,9.119524956000078],[5.49824476200007,9.103779793000058],[5.4758958820000885,9.109874725000054],[5.432722092000063,9.102763176000053],[5.407071590000044,9.067208290000053],[5.410627365000039,9.063144684000065],[5.447197914000071,9.061621666000065],[5.47411823300007,9.048923492000085],[5.495959282000058,9.018955231000064],[5.51068925900006,9.013368607000075],[5.521863461000066,9.000669479000067],[5.535069466000039,8.977305412000078],[5.570116520000056,8.970702171000084],[5.58687830000008,8.95394039200005],[5.621925354000041,8.95394039200005],[5.650876999000047,8.927020073000051],[5.68440055800005,8.916354179000052],[5.722240925000051,8.915845871000045],[5.765923023000084,8.898068428000045],[5.806557178000048,8.915337563000037],[5.829921722000051,8.931591988000093],[5.837540627000067,8.944290161000083],[5.837540627000067,8.955972672000087],[5.805033207000065,9.006765366000081],[5.799446106000062,9.05298614500009],[5.805033207000065,9.090065002000074],[5.82763624200004,9.159651756000073],[5.823064804000069,9.232792854000081],[5.833223343000043,9.269871712000054],[5.83271551100006,9.296792030000063],[5.849477291000085,9.328791618000082],[5.850747108000064,9.34860038800008],[5.876651287000072,9.429869652000093],[5.889349461000052,9.454249382000057],[5.89392089800009,9.488788605000082]]]}},{"type":"Feature","properties":{"CNTRY_NAME":"Nigeria","CNTRY_CODE":"NGA","ADM1_NAME":"Niger","ADM1_CODE":"NGA027","ADM2_NAME":"Muya","ADM2_CODE":"NGA027018","HRname":"Muya","HRpcode":"NG027018","HRparent":"NG027","Shape_Leng":2.04894071853,"Shape_Area":0.179358551461,"ADM2_New":"Muya","id":"NG-NI-MUYA","name":"Muya","parentId":"NG-NI","stateName":"Niger","regionId":"NG-NC","fillColor":"#8fbc8f"},"geometry":{"type":"Polygon","coordinates":[[[6.901178837000089,10.07638168300008],[6.9144220350000865,10.077836037000054],[6.940497398000048,10.061013222000042],[6.952273369000068,10.047554970000078],[7.007788658000038,10.045031548000054],[7.0187234880000915,10.038302422000072],[7.033864021000056,10.044190407000087],[7.06498670600007,10.04250812500004],[7.103679180000086,10.03157329600009],[7.105361462000076,10.026526451000052],[7.138165951000076,10.035778999000058],[7.1886343960000545,10.027367592000076],[7.207139492000067,10.041666985000063],[7.216015816000038,10.037407875000042],[7.232373714000062,10.043349266000064],[7.254066944000044,10.039226532000043],[7.270225048000043,10.028208733000042],[7.2777953150000485,10.016432762000079],[7.2854666710000515,9.93518352500007],[7.297982693000051,9.898673058000043],[7.295459270000038,9.871756554000058],[7.300506115000076,9.862504005000062],[7.288730145000045,9.840633392000086],[7.29293584800007,9.811193466000077],[7.285365582000054,9.789323807000073],[7.2677016260000755,9.783435822000058],[7.251719952000087,9.794370651000065],[7.231532574000084,9.791006088000074],[7.210504055000058,9.780071259000067],[7.204740047000087,9.758296013000063],[7.193681240000046,9.76745414700008],[7.186110973000041,9.759883881000064],[7.187793255000088,9.750631332000069],[7.1819052700000725,9.745584488000077],[7.165923595000038,9.747266769000078],[7.141530514000067,9.739696503000062],[7.15162420300004,9.716144562000068],[7.164241314000037,9.701004028000057],[7.199569225000062,9.68838691700006],[7.202933788000053,9.661470413000075],[7.191157818000079,9.637077332000047],[7.1734938620000435,9.620254517000092],[7.154147625000064,9.616048813000077],[7.100314617000038,9.642124176000038],[7.0776038170000675,9.663152695000065],[7.072556973000076,9.65726470900006],[7.067510128000038,9.631189346000042],[7.02629375500004,9.55885124200006],[7.020405769000092,9.554645538000045],[7.00190067300008,9.554645538000045],[6.984236717000044,9.564739227000075],[6.978348732000086,9.561374664000084],[6.956479073000082,9.522682190000069],[6.9497499470000434,9.520999908000078],[6.892552376000083,9.530252457000074],[6.8647947310000745,9.526887894000083],[6.846798420000084,9.533117294000078],[6.849654198000053,9.568103790000066],[6.846289635000062,9.632871628000089],[6.835354805000065,9.654741287000093],[6.83956050900008,9.671564102000048],[6.830307961000074,9.707733154000039],[6.843766212000048,9.72623825100004],[6.869841576000056,9.738855362000038],[6.8748884200000475,9.746425629000044],[6.86058902700006,9.775865555000053],[6.845448494000038,9.917178154000055],[6.8681592940000655,9.958394051000084],[6.866255283000044,9.972481728000048],[6.884982109000077,10.027367592000076],[6.8933935170000495,10.072789192000073],[6.901178837000089,10.07638168300008]]]}},{"type":"Feature","properties":{"CNTRY_NAME":"Nigeria","CNTRY_CODE":"NGA","ADM1_NAME":"Niger","ADM1_CODE":"NGA027","ADM2_NAME":"Pailoro","ADM2_CODE":"NGA027019","HRname":"Pailoro","HRpcode":"NG027019","HRparent":"NG027","Shape_Leng":2.80298625604,"Shape_Area":0.170079373397,"ADM2_New":"Paikoro","id":"NG-NI-PAILORO","name":"Pailoro","parentId":"NG-NI","stateName":"Niger","regionId":"NG-NC","fillColor":"#a8c686"},"geometry":{"type":"Polygon","coordinates":[[[7.204740047000087,9.758296013000063],[7.224803448000046,9.738855362000038],[7.244990826000048,9.732126236000056],[7.2710661890000665,9.732126236000056],[7.280318737000073,9.72455596900005],[7.288730145000045,9.706050873000038],[7.28284215900004,9.684181213000045],[7.311440945000072,9.66904068000008],[7.347609997000063,9.621936798000092],[7.344309330000044,9.606965065000054],[7.29461813000006,9.584926605000078],[7.287047863000055,9.556327820000092],[7.2609725000000935,9.526887894000083],[7.239102840000044,9.518476486000054],[7.22732687000007,9.49492454500006],[7.215550900000039,9.50333595300009],[7.177725792000047,9.492768288000093],[7.162020206000079,9.47922802000005],[7.139273643000081,9.478687286000081],[7.125733852000053,9.484643936000055],[7.114360809000061,9.477603912000063],[7.099738121000087,9.477062225000054],[7.095946789000038,9.452149391000091],[7.099196434000078,9.447816849000048],[7.113819122000052,9.44727516200004],[7.114902020000045,9.428861618000042],[7.101904392000051,9.432110786000067],[7.086198330000059,9.41911220600008],[7.078616142000044,9.42073726700005],[7.066701412000043,9.41315555600005],[7.0547862050000845,9.416404724000074],[7.040705204000062,9.41098880800007],[7.021208286000046,9.42019558000004],[7.0092935560000456,9.416404724000074],[7.003335953000089,9.407739639000056],[6.938345909000077,9.371994972000039],[6.901518345000056,9.39474105800008],[6.873897552000074,9.391491890000054],[6.855483532000051,9.399615288000064],[6.838694572000065,9.392575264000072],[6.837201595000067,9.387349129000086],[6.810802937000062,9.380660057000057],[6.797263145000045,9.371453285000086],[6.731190205000075,9.358996391000062],[6.7230663300000515,9.35249805500007],[6.716025829000046,9.312420845000076],[6.716025829000046,9.298339844000054],[6.7236080170000605,9.289132118000055],[6.724690914000064,9.277759552000077],[6.701403141000071,9.24038982400009],[6.685697079000079,9.233349800000042],[6.68244743300005,9.219809532000056],[6.63424634900008,9.220892906000074],[6.62178993200007,9.237140656000065],[6.59958505600008,9.227392197000086],[6.586587429000076,9.233349800000042],[6.567090034000046,9.23280811300009],[6.5353221890000555,9.220931053000072],[6.511515141000075,9.249311447000082],[6.508150578000084,9.26361084000007],[6.491327763000072,9.282957077000049],[6.487963200000081,9.29641532900007],[6.503103733000046,9.314079285000048],[6.506468296000037,9.376323700000057],[6.486280918000091,9.423427582000045],[6.480735779000042,9.42373561900007],[6.473663807000094,9.467166901000041],[6.477869511000051,9.478101730000049],[6.4904866220000486,9.482307434000063],[6.496374607000064,9.512588501000039],[6.502262592000079,9.517635345000087],[6.51740312600009,9.516794205000053],[6.5216088290000584,9.52436447100007],[6.535067081000079,9.52941131600005],[6.55020761500009,9.526887894000083],[6.558619022000073,9.536981583000056],[6.5973119740000925,9.531934738000075],[6.620022774000063,9.541187286000081],[6.629275322000069,9.533617020000065],[6.652827263000063,9.535299301000066],[6.683949471000062,9.526887894000083],[6.697407722000094,9.518476486000054],[6.711707115000081,9.519317627000078],[6.71759510000004,9.533617020000065],[6.755446434000078,9.543710709000038],[6.777316093000081,9.55885124200006],[6.790774345000045,9.557168961000059],[6.795821190000083,9.550439835000077],[6.805914879000056,9.552963257000044],[6.812644005000038,9.546234131000062],[6.8647947310000745,9.526887894000083],[6.892552376000083,9.530252457000074],[6.956479073000082,9.522682190000069],[6.978348732000086,9.561374664000084],[6.984236717000044,9.564739227000075],[7.00190067300008,9.554645538000045],[7.020405769000092,9.554645538000045],[7.02629375500004,9.55885124200006],[7.067510128000038,9.631189346000042],[7.072556973000076,9.65726470900006],[7.0776038170000675,9.663152695000065],[7.100314617000038,9.642124176000038],[7.135642529000052,9.621936798000092],[7.154147625000064,9.616048813000077],[7.1734938620000435,9.620254517000092],[7.191157818000079,9.637077332000047],[7.202933788000053,9.661470413000075],[7.202092648000075,9.679134369000053],[7.199569225000062,9.68838691700006],[7.164241314000037,9.701004028000057],[7.15162420300004,9.716144562000068],[7.141530514000067,9.739696503000062],[7.165923595000038,9.747266769000078],[7.1819052700000725,9.745584488000077],[7.187793255000088,9.750631332000069],[7.186110973000041,9.759883881000064],[7.193681240000046,9.76745414700008],[7.204740047000087,9.758296013000063]]]}},{"type":"Feature","properties":{"CNTRY_NAME":"Nigeria","CNTRY_CODE":"NGA","ADM1_NAME":"Niger","ADM1_CODE":"NGA027","ADM2_NAME":"Rafi","ADM2_CODE":"NGA027020","HRname":"Rafi","HRpcode":"NG027020","HRparent":"NG027","Shape_Leng":2.93340029461,"Shape_Area":0.303352692936,"ADM2_New":"Rafi","id":"NG-NI-RAFI","name":"Rafi","parentId":"NG-NI","stateName":"Niger","regionId":"NG-NC","fillColor":"#c2b280"},"geometry":{"type":"Polygon","coordinates":[[[6.089744091000057,10.475332260000073],[6.105004311000073,10.45685958900009],[6.129734516000042,10.463544846000048],[6.147385120000081,10.452065468000058],[6.154097080000042,10.409971237000093],[6.167398453000089,10.38547802000005],[6.20138692900008,10.386981964000086],[6.2150087360000725,10.393771172000072],[6.228695393000066,10.417503357000044],[6.249577999000053,10.421519279000051],[6.261818886000071,10.45467472100006],[6.298572540000066,10.47051334400004],[6.306604385000071,10.488986969000052],[6.370056152000075,10.532359123000049],[6.390135765000082,10.554847717000087],[6.396561623000082,10.572518349000063],[6.418247700000052,10.576534271000071],[6.439130306000038,10.59259796100008],[6.493747234000068,10.614283562000082],[6.51178550700007,10.606582642000092],[6.5242681500000685,10.595006943000044],[6.521593094000082,10.572834969000041],[6.540331841000068,10.545209885000077],[6.550773621000076,10.390997887000083],[6.541938305000087,10.374131203000047],[6.512220383000056,10.34682273900006],[6.492943764000074,10.305859566000038],[6.4792895320000525,10.290599823000036],[6.424673080000048,10.260078430000078],[6.392545700000085,10.228754044000084],[6.38290739100006,10.175744057000088],[6.389332771000056,10.161286354000083],[6.418247700000052,10.148435593000045],[6.478486538000084,10.143615723000039],[6.488927841000077,10.138796806000073],[6.5258746150000775,10.113095284000053],[6.541135311000062,10.089802742000074],[6.540331841000068,10.068920135000042],[6.549970150000092,10.040807724000047],[6.544347763000076,10.02635097500007],[6.545151234000059,10.002255440000056],[6.55960845900006,9.98458480800008],[6.556395531000078,9.976552963000074],[6.511015415000088,9.959686279000039],[6.5021805760000575,9.950048447000086],[6.49816465400005,9.937196732000075],[6.49816465400005,9.925148964000073],[6.504590034000046,9.917920113000037],[6.5021805760000575,9.901856422000037],[6.473265648000051,9.866516113000046],[6.4314999580000745,9.85446834600009],[6.341543198000068,9.91069221500004],[6.324676037000074,9.909085274000063],[6.31503772700006,9.898644447000038],[6.300580502000059,9.89703750600006],[6.290139198000077,9.90346336400006],[6.259617805000062,9.906676292000043],[6.253192425000066,9.91390419000004],[6.237931728000092,9.911495209000066],[6.217852116000074,9.917920113000037],[6.20821380600006,9.91390419000004],[6.2063903810000625,9.900596619000055],[6.200075626000057,9.89817714700007],[6.19516038900008,9.884044647000053],[6.177340984000068,9.871755600000085],[6.169353008000087,9.854550362000055],[6.150304794000078,9.832429886000057],[6.095003128000087,9.825670242000058],[6.069810390000043,9.815224648000083],[6.057520866000061,9.815224648000083],[6.004677296000068,9.82751369500005],[5.981942654000079,9.837345123000091],[5.971496582000043,9.864381790000039],[5.967195511000057,9.906779289000042],[5.98255682000007,9.933815956000046],[5.980642319000083,9.94248676300009],[5.988171101000091,9.95670700100004],[5.979805946000056,9.975947380000036],[5.981479168000078,9.98263931300005],[5.994863510000073,9.987658501000055],[6.004065514000047,10.001879692000045],[6.004065514000047,10.006898880000051],[5.996536732000038,10.01024532300005],[5.99235391600007,10.053744316000063],[6.005409241000052,10.07534503900007],[6.022275925000088,10.07534503900007],[6.03030824700005,10.10425949100005],[6.0246858600000905,10.111488342000087],[6.014244080000083,10.111488342000087],[6.011031628000069,10.117914200000087],[6.03030824700005,10.132371902000045],[6.017457008000065,10.15887641900008],[6.022275925000088,10.166908264000085],[6.025087357000075,10.19501972200004],[6.0186619760000895,10.228754044000084],[6.031512737000071,10.235982895000063],[6.037938118000056,10.24722766900004],[6.041954041000054,10.273732185000085],[6.0588212010000575,10.29782772100009],[6.055608273000075,10.306663513000046],[6.045166969000093,10.314695358000051],[6.039544582000076,10.407864571000061],[6.054002285000081,10.45364666000006],[6.089744091000057,10.475332260000073]]]}},{"type":"Feature","properties":{"CNTRY_NAME":"Nigeria","CNTRY_CODE":"NGA","ADM1_NAME":"Niger","ADM1_CODE":"NGA027","ADM2_NAME":"Rijau","ADM2_CODE":"NGA027021","HRname":"Rijau","HRpcode":"NG027021","HRparent":"NG027","Shape_Leng":2.99403808717,"Shape_Area":0.263692658884,"ADM2_New":"Rijau","id":"NG-NI-RIJAU","name":"Rijau","parentId":"NG-NI","stateName":"Niger","regionId":"NG-NC","fillColor":"#9bb898"},"geometry":{"type":"Polygon","coordinates":[[[5.154251099000078,11.346612930000049],[5.203025341000057,11.330726624000079],[5.216679096000064,11.299402237000038],[5.215876102000038,11.273700714000086],[5.22390794800009,11.261652946000083],[5.231939793000038,11.26004600500005],[5.236759186000086,11.262455940000052],[5.238365173000091,11.28896141100006],[5.227120876000072,11.310647011000071],[5.228727341000081,11.333136559000081],[5.2584452630000555,11.35642910000007],[5.279327869000042,11.36365795100005],[5.317881107000062,11.367673874000047],[5.329850674000056,11.362885475000041],[5.350811481000051,11.296190262000039],[5.358040333000076,11.22711563100006],[5.374104023000086,11.191775322000069],[5.42149210000008,11.16607379900006],[5.4423747060000665,11.138765335000073],[5.4423747060000665,11.10422802000005],[5.429523945000085,11.060052872000085],[5.431130409000048,11.019090652000045],[5.402215481000042,10.99740409900005],[5.389364719000071,10.979734421000046],[5.374907017000055,10.918691635000073],[5.355630875000088,10.876926422000054],[5.366072178000081,10.815080643000044],[5.363662720000093,10.801426888000037],[5.358843327000045,10.804638863000037],[5.355630875000088,10.80062294000004],[5.351614952000091,10.774921417000087],[5.320621014000039,10.771487236000041],[5.30639982200006,10.752246857000046],[5.293015480000065,10.743044853000072],[5.272102356000062,10.761448860000087],[5.265409946000091,10.75893878900007],[5.265409946000091,10.73300647700006],[5.261227131000055,10.727150917000074],[5.250352383000063,10.729660034000062],[5.2453331950000575,10.719621658000051],[5.2344584470000655,10.713766098000065],[5.223583698000084,10.71878528600007],[5.206852913000091,10.713766098000065],[5.19765090900006,10.725478172000066],[5.17924737900006,10.733842850000087],[5.174228191000054,10.742208481000091],[5.149969101000067,10.749736786000085],[5.137421131000053,10.742208481000091],[5.112325191000082,10.740535736000083],[5.1073060040000655,10.74555492400009],[5.108142376000046,10.757266045000051],[5.100878716000068,10.759829521000086],[5.108979225000041,10.79574585000006],[5.099777222000057,10.808294296000042],[5.083883286000059,10.817496300000073],[5.047075748000054,10.825024605000067],[5.038710594000065,10.835899353000059],[5.028672218000054,10.85932254800008],[5.02532625200007,10.890274048000038],[5.034527779000086,10.899476051000079],[5.075517654000066,10.915369987000076],[5.082210064000037,10.927081108000039],[5.0813736920000565,10.95050430300006],[5.062970161000067,11.012407303000089],[5.0406398770000465,11.051897049000047],[4.995954514000061,11.053992271000084],[4.991765499000053,11.070050240000057],[4.979896069000063,11.080523491000065],[4.908679008000092,11.081920624000077],[4.87656164200007,11.091694832000087],[4.839656353000066,11.113859177000052],[4.817800522000084,11.119511604000081],[4.802551746000063,11.114037514000074],[4.788587570000061,11.118925095000066],[4.780209064000076,11.128700256000059],[4.746122360000072,11.147592545000066],[4.721585274000063,11.176336288000073],[4.710388184000067,11.180367470000078],[4.699915409000084,11.20340824100009],[4.69921731900007,11.222259521000069],[4.7034063340000785,11.22854328200009],[4.7529788020000865,11.259264946000087],[4.764848709000091,11.276021004000086],[4.76594209700005,11.305951118000053],[4.87130880400008,11.353216171000042],[4.890585423000061,11.370885849000047],[4.905845642000088,11.37329578400005],[4.917893887000048,11.370885849000047],[4.933957577000058,11.354019165000068],[4.9427924160000885,11.35723209400004],[4.952430725000056,11.369279861000052],[4.958856106000042,11.369279861000052],[4.966084957000078,11.362051010000073],[4.9909834860000615,11.286551476000056],[5.00865364100008,11.279322624000088],[5.011063576000083,11.270487785000057],[5.0054411890000665,11.257637024000076],[5.011866570000052,11.252014160000044],[5.025520802000074,11.256030083000041],[5.045600414000091,11.27289772000006],[5.058451653000077,11.270487785000057],[5.064877033000073,11.254424095000047],[5.048813343000063,11.227918625000086],[5.048813343000063,11.21105194100005],[5.057648182000094,11.20462608300005],[5.071302414000058,11.22711563100006],[5.071302414000058,11.237557411000068],[5.080137253000089,11.255227089000073],[5.1002173420000645,11.279322624000088],[5.105839252000067,11.301009178000072],[5.1002173420000645,11.345987320000063],[5.105036259000087,11.352413177000074],[5.117887497000083,11.355626106000045],[5.154251099000078,11.346612930000049]]]}},{"type":"Feature","properties":{"CNTRY_NAME":"Nigeria","CNTRY_CODE":"NGA","ADM1_NAME":"Niger","ADM1_CODE":"NGA027","ADM2_NAME":"Shiroro","ADM2_CODE":"NGA027022","HRname":"Shiroro","HRpcode":"NG027022","HRparent":"NG027","Shape_Leng":4.18588516873,"Shape_Area":0.413552924186,"ADM2_New":"Shiroro","id":"NG-NI-SHIRORO","name":"Shiroro","parentId":"NG-NI","stateName":"Niger","regionId":"NG-NC","fillColor":"#6ba3be"},"geometry":{"type":"Polygon","coordinates":[[[6.540331841000068,10.545209885000077],[6.55610084500006,10.546940804000087],[6.5740656850000505,10.55725765200009],[6.586916924000093,10.574124336000068],[6.64706993100009,10.593429565000065],[6.725868225000056,10.589385033000042],[6.731490612000073,10.596613884000078],[6.729884148000053,10.603038788000049],[6.713820457000054,10.634363174000043],[6.7268853190000755,10.647723198000051],[6.814443588000074,10.639150620000066],[6.829479218000074,10.62472534200009],[6.829479218000074,10.59982681300005],[6.8351016040000445,10.595810890000052],[6.84138488800005,10.574693680000053],[6.835503101000086,10.537981033000051],[6.839519024000083,10.53155517600004],[6.849157333000051,10.530752182000072],[6.861205101000053,10.550831795000079],[6.869102478000059,10.555356979000067],[6.912609100000054,10.537981033000051],[6.93590164200009,10.500231743000086],[6.953519821000043,10.48217868800009],[6.954374790000088,10.462481499000091],[6.938311100000078,10.433567047000054],[6.923050880000062,10.382163048000052],[6.926263332000076,10.37011528000005],[6.934295177000081,10.361279488000037],[6.977213860000063,10.364830017000088],[6.996943951000048,10.35646057100007],[7.020236492000038,10.35405159000004],[7.033890724000059,10.343609810000089],[7.050757408000038,10.317104340000071],[7.045938492000062,10.291402817000062],[7.03228426000004,10.287386894000065],[7.019433022000044,10.273732185000085],[7.008188725000082,10.242407799000091],[6.99614095700008,10.244817734000037],[6.987305641000091,10.236785889000089],[6.982486725000058,10.244014740000068],[6.970438957000056,10.232769966000092],[6.954472542000076,10.191998482000088],[6.942327023000075,10.180562973000065],[6.928672791000054,10.180562973000065],[6.9236350060000404,10.189126015000056],[6.915019035000057,10.18859481800007],[6.905458927000041,10.170948029000044],[6.885301113000082,10.150844574000075],[6.882088184000054,10.117111206000061],[6.901178837000089,10.07638168300008],[6.8933935170000495,10.072789192000073],[6.868608475000087,9.96269512200007],[6.845448494000038,9.917178154000055],[6.86058902700006,9.775865555000053],[6.8748884200000475,9.746425629000044],[6.869841576000056,9.738855362000038],[6.843766212000048,9.72623825100004],[6.830307961000074,9.707733154000039],[6.83956050900008,9.671564102000048],[6.835354805000065,9.654741287000093],[6.846289635000062,9.632871628000089],[6.849654198000053,9.568103790000066],[6.846798420000084,9.533117294000078],[6.812644005000038,9.546234131000062],[6.805914879000056,9.552963257000044],[6.795821190000083,9.550439835000077],[6.790774345000045,9.557168961000059],[6.777316093000081,9.55885124200006],[6.755446434000078,9.543710709000038],[6.71759510000004,9.533617020000065],[6.711707115000081,9.519317627000078],[6.697407722000094,9.518476486000054],[6.683949471000062,9.526887894000083],[6.648762703000045,9.535008430000062],[6.651144981000073,9.55885124200006],[6.669650078000075,9.573150635000047],[6.6780614850000575,9.621095657000069],[6.6780614850000575,9.67072296100008],[6.682267189000072,9.677452087000063],[6.651144981000073,9.707733154000039],[6.620022774000063,9.72287368800005],[6.613293648000081,9.73128509500009],[6.609087944000066,9.758201599000074],[6.58805942500004,9.780912399000044],[6.553572178000081,9.796052933000055],[6.524973392000049,9.79857635500008],[6.486280918000091,9.810352325000053],[6.413942814000052,9.753154755000082],[6.371885777000045,9.756519318000073],[6.360109806000082,9.748949051000068],[6.340763569000046,9.761566162000065],[6.309641361000047,9.75567817700005],[6.227591038000071,9.768062592000092],[6.224654198000053,9.774670601000082],[6.236943245000077,9.82812881500007],[6.237557888000083,9.872369766000077],[6.230798721000042,9.89141750300007],[6.2063903810000625,9.900596619000055],[6.20821380600006,9.91390419000004],[6.217852116000074,9.917920113000037],[6.237931728000092,9.911495209000066],[6.245964050000055,9.915511131000073],[6.2572083470000734,9.912298203000091],[6.259617805000062,9.906676292000043],[6.290139198000077,9.90346336400006],[6.300580502000059,9.89703750600006],[6.31503772700006,9.898644447000038],[6.324676037000074,9.909085274000063],[6.341543198000068,9.91069221500004],[6.4314999580000745,9.85446834600009],[6.473265648000051,9.866516113000046],[6.5021805760000575,9.901856422000037],[6.504590034000046,9.917920113000037],[6.49816465400005,9.925148964000073],[6.5021805760000575,9.950048447000086],[6.511015415000088,9.959686279000039],[6.556395531000078,9.976552963000074],[6.55960845900006,9.98458480800008],[6.545151234000059,10.002255440000056],[6.544347763000076,10.02635097500007],[6.549970150000092,10.040807724000047],[6.540331841000068,10.068920135000042],[6.541135311000062,10.089802742000074],[6.5258746150000775,10.113095284000053],[6.478486538000084,10.143615723000039],[6.418247700000052,10.148435593000045],[6.389332771000056,10.161286354000083],[6.38290739100006,10.170121193000057],[6.392545700000085,10.228754044000084],[6.424673080000048,10.260078430000078],[6.4792895320000525,10.290599823000036],[6.492943764000074,10.305859566000038],[6.512220383000056,10.34682273900006],[6.541938305000087,10.374131203000047],[6.550773621000076,10.390997887000083],[6.540331841000068,10.545209885000077]]]}},{"type":"Feature","properties":{"CNTRY_NAME":"Nigeria","CNTRY_CODE":"NGA","ADM1_NAME":"Niger","ADM1_CODE":"NGA027","ADM2_NAME":"Suleja","ADM2_CODE":"NGA027023","HRname":"Suleja","HRpcode":"NG027023","HRparent":"NG027","Shape_Leng":0.47865697437,"Shape_Area":0.00978867633994,"ADM2_New":"Suleja","id":"NG-NI-SULEJA","name":"Suleja","parentId":"NG-NI","stateName":"Niger","regionId":"NG-NC","fillColor":"#89a96d"},"geometry":{"type":"Polygon","coordinates":[[[7.167658329000062,9.153118134000067],[7.147938728000042,9.278841972000066],[7.155520916000057,9.289673805000064],[7.178809166000065,9.30321407300005],[7.200472355000045,9.30321407300005],[7.205888271000049,9.300505638000061],[7.203180313000075,9.27667617800006],[7.223045349000074,9.271059990000083],[7.211575031000052,9.252846718000058],[7.207242489000066,9.226850510000077],[7.218073845000049,9.201937675000067],[7.221865177000041,9.165109634000089],[7.233965874000091,9.133502007000061],[7.219758034000051,9.113510132000044],[7.167658329000062,9.153118134000067]]]}},{"type":"Feature","properties":{"CNTRY_NAME":"Nigeria","CNTRY_CODE":"NGA","ADM1_NAME":"Niger","ADM1_CODE":"NGA027","ADM2_NAME":"Tafa","ADM2_CODE":"NGA027024","HRname":"Tafa","HRpcode":"NG027024","HRparent":"NG027","Shape_Leng":0.67083530381,"Shape_Area":0.0182405739177,"ADM2_New":"Tafa","id":"NG-NI-TAFA","name":"Tafa","parentId":"NG-NI","stateName":"Niger","regionId":"NG-NC","fillColor":"#b5c99a"},"geometry":{"type":"Polygon","coordinates":[[[7.2703018190000535,9.34940528900006],[7.321242332000054,9.366598129000067],[7.335326672000065,9.361163139000041],[7.360388756000077,9.367021561000058],[7.376487255000086,9.363329887000077],[7.388168335000046,9.349822998000093],[7.233965874000091,9.133502007000061],[7.221865177000041,9.165109634000089],[7.218073845000049,9.201937675000067],[7.207242489000066,9.226850510000077],[7.208867073000079,9.242556572000069],[7.223045349000074,9.271059990000083],[7.2649211880000735,9.27450943000008],[7.265462399000057,9.28371715500009],[7.249215126000081,9.323252678000074],[7.2703018190000535,9.34940528900006]]]}},{"type":"Feature","properties":{"CNTRY_NAME":"Nigeria","CNTRY_CODE":"NGA","ADM1_NAME":"Niger","ADM1_CODE":"NGA027","ADM2_NAME":"Wushishi","ADM2_CODE":"NGA027025","HRname":"Wushishi","HRpcode":"NG027025","HRparent":"NG027","Shape_Leng":2.16403194438,"Shape_Area":0.154601888738,"ADM2_New":"Wushishi","id":"NG-NI-WUSHISHI","name":"Wushishi","parentId":"NG-NI","stateName":"Niger","regionId":"NG-NC","fillColor":"#d4a574"},"geometry":{"type":"Polygon","coordinates":[[[5.980642319000083,9.94248676300009],[5.98255682000007,9.933815956000046],[5.967195511000057,9.906779289000042],[5.971496582000043,9.864381790000039],[5.981942654000079,9.837345123000091],[6.004677296000068,9.82751369500005],[6.057520866000061,9.815224648000083],[6.069810390000043,9.815224648000083],[6.095003128000087,9.825670242000058],[6.150304794000078,9.832429886000057],[6.169353008000087,9.854550362000055],[6.177340984000068,9.871755600000085],[6.19516038900008,9.884044647000053],[6.200075626000057,9.89817714700007],[6.2063903810000625,9.900596619000055],[6.230798721000042,9.89141750300007],[6.237557888000083,9.872369766000077],[6.236943245000077,9.82812881500007],[6.224654198000053,9.774670601000082],[6.227591038000071,9.768062592000092],[6.221321583000076,9.709415436000086],[6.1977696420000825,9.680816650000054],[6.1927227970000445,9.663993835000042],[6.202816486000074,9.628665924000074],[6.1977696420000825,9.594179153000084],[6.20029306400005,9.579038620000063],[6.226368427000068,9.551280975000054],[6.229732990000059,9.536981583000056],[6.220836163000058,9.526764870000079],[6.20837307000005,9.540162086000066],[6.190674782000087,9.538687706000076],[6.170027256000083,9.546798706000061],[6.133155823000038,9.579245567000044],[6.089647770000056,9.55564785000007],[6.064575672000046,9.56007289900009],[6.052039146000084,9.550486565000085],[5.979034424000076,9.556385994000038],[5.951012135000042,9.55122375500008],[5.926677227000084,9.530575752000061],[5.912274837000041,9.501861572000053],[5.89392089800009,9.488788605000082],[5.865054131000079,9.48990249600007],[5.838269234000052,9.507881165000072],[5.820657253000093,9.509348869000064],[5.798275948000082,9.482196808000083],[5.790570736000063,9.482563972000037],[5.742137909000064,9.526593208000065],[5.7311306000000855,9.568788528000084],[5.707648277000089,9.610616684000092],[5.607848167000043,9.685833931000047],[5.6092233660000375,9.691527367000049],[5.5950026510000725,9.719133377000048],[5.595839024000043,9.72833442700005],[5.666107655000076,9.726661682000042],[5.710443497000085,9.740882874000079],[5.728847027000086,9.740882874000079],[5.762308598000061,9.730844498000067],[5.78238487200008,9.716623306000088],[5.799115658000062,9.713277817000062],[5.8175191880000625,9.722478867000063],[5.844288349000067,9.769325256000059],[5.853489876000083,9.81449699400008],[5.863528252000037,9.837920189000045],[5.891133785000079,9.86970806100004],[5.903681755000093,9.894804001000068],[5.930450916000041,9.915717125000072],[5.980642319000083,9.94248676300009]]]}},{"type":"Feature","properties":{"CNTRY_NAME":"Nigeria","CNTRY_CODE":"NGA","ADM1_NAME":"Niger","ADM1_CODE":"NGA027","ADM2_NAME":"Borgu","ADM2_CODE":"NGA027004","HRname":"Borgu","HRpcode":"NG027004","HRparent":"NG027","Shape_Leng":5.6344772534,"Shape_Area":0.925456600731,"ADM2_New":"Borgu","id":"NG-NI-BORGU","name":"Borgu","parentId":"NG-NI","stateName":"Niger","regionId":"NG-NC","fillColor":"#5a9e6f"},"geometry":{"type":"Polygon","coordinates":[[[4.226610661000052,11.018696785000088],[4.25618267100009,10.985642433000066],[4.263107300000058,10.982180595000045],[4.277821541000037,10.986508369000092],[4.288208485000041,10.980448723000052],[4.283880711000052,10.937170982000055],[4.288208485000041,10.928515434000076],[4.319368839000049,10.914666176000082],[4.341008186000067,10.915531158000078],[4.347932816000082,10.905144691000089],[4.352260590000071,10.796083450000083],[4.356588364000061,10.771847725000043],[4.373899460000075,10.740687370000046],[4.368706226000086,10.701736450000055],[4.353126049000082,10.670576096000048],[4.344470501000046,10.632491112000082],[4.324562550000053,10.582287788000087],[4.3098478320000595,10.554590225000084],[4.312444210000081,10.547665596000058],[4.335814953000067,10.555455208000069],[4.36005067800005,10.554590225000084],[4.405060291000041,10.543337822000069],[4.48036432300006,10.542471886000044],[4.510058403000073,10.535167694000052],[4.498541355000043,10.517370224000047],[4.485558033000075,10.46976470900006],[4.47949886300006,10.421292305000065],[4.486423492000085,10.368493080000064],[4.482961178000039,10.328677177000088],[4.490751266000075,10.31396198300007],[4.541819572000065,10.287129402000062],[4.566055775000052,10.25683498400008],[4.567442417000052,10.222948074000044],[4.527485371000068,10.143033981000087],[4.52686119100008,10.111193657000058],[4.529982567000047,10.100580215000093],[4.570563793000076,10.069363594000038],[4.585547447000067,10.033777237000038],[4.572436810000056,9.975714684000081],[4.592415333000076,9.902668953000045],[4.579928875000064,9.879569054000058],[4.594912529000055,9.87020397200007],[4.6049017910000885,9.845231056000046],[4.6211342810000815,9.827125549000073],[4.632996559000048,9.782798767000088],[4.636742115000061,9.745339394000041],[4.636742115000061,9.71974182100007],[4.630498886000055,9.712874413000065],[4.616764069000055,9.71162509900006],[4.609896183000046,9.704133987000091],[4.596785545000046,9.666049957000041],[4.5424690250000594,9.56116294900005],[4.5437178610000615,9.534941673000048],[4.552458286000046,9.507471085000077],[4.601155758000061,9.456276894000041],[4.611145020000038,9.436298370000088],[4.613642216000073,9.39321994800008],[4.6097269060000485,9.361758232000057],[4.5011668210000835,9.440430641000091],[4.443552017000059,9.509829521000086],[4.387247086000059,9.562206268000068],[4.350583553000092,9.58839511900004],[4.282493591000048,9.694458008000083],[4.1711926460000655,9.82016277300005],[4.152861118000089,9.86206340800004],[4.141076088000091,9.860754013000076],[4.127982140000086,9.851588249000088],[4.118815899000083,9.855516434000037],[4.124053478000064,9.875158310000074],[4.114887714000076,9.881705284000077],[4.095246315000054,9.87777710000006],[4.095246315000054,9.86730194100005],[4.0834617610000805,9.851588249000088],[4.038941383000065,9.864683151000065],[4.021918774000085,9.856825829000059],[4.011443615000076,9.898727417000089],[4.002277851000088,9.906583786000056],[3.9852552410000612,9.89348983800005],[3.9800174240000388,9.906583786000056],[3.967250586000091,9.902983665000079],[3.9623403550000376,9.907893181000077],[3.9459724430000733,9.907893181000077],[3.93615198100008,9.916077614000073],[3.934515238000074,9.927535057000057],[3.959066868000093,9.93408203100006],[3.9705240730000924,9.948813438000059],[3.965613842000039,9.956996918000073],[3.934515238000074,9.966817856000091],[3.9410622120000767,9.97663784000008],[3.95251965500006,9.978275299000074],[3.949246168000059,9.99136924700008],[3.934515238000074,9.999552727000037],[3.9214208130000543,9.999552727000037],[3.909963608000055,9.989732742000058],[3.887048721000042,9.988095284000053],[3.8903222080000432,10.015920639000058],[3.903416395000079,10.019194603000074],[3.864133835000075,10.050292969000054],[3.8510396480000395,10.055203438000092],[3.83303499200008,10.047019005000038],[3.823319197000046,10.054306030000077],[3.818045616000063,10.066830635000088],[3.7991170880000595,10.071198463000087],[3.7940208910000592,10.062462807000088],[3.784556389000045,10.062462807000088],[3.780188322000072,10.052269936000073],[3.7881965640000885,10.034069061000082],[3.7750921250000715,10.03334140800007],[3.7714519500000847,10.047174454000071],[3.750339031000067,10.068286896000075],[3.743058920000067,10.084303856000076],[3.735050440000066,10.08794307700009],[3.736506701000053,10.068286896000075],[3.730682373000093,10.068286896000075],[3.715393782000092,10.089399338000078],[3.703017235000061,10.15273761700007],[3.6884567740000875,10.161474228000088],[3.6725100000000452,10.183800000000076],[3.655330000000049,10.184090000000083],[3.6463000000000534,10.189410000000066],[3.6125300000000493,10.221720000000062],[3.5977400000000443,10.241770000000088],[3.5846200000000863,10.275140000000079],[3.614400000000046,10.355720000000076],[3.6338000000000648,10.390360000000044],[3.6327300000000378,10.41450000000009],[3.6376500000000647,10.427590000000066],[3.6460400000000845,10.435140000000047],[3.6877100000000382,10.456360000000075],[3.786000000000058,10.405380000000036],[3.7991700000000606,10.44280000000009],[3.800980000000038,10.485320000000058],[3.8061700000000656,10.503000000000043],[3.8317800000000375,10.568630000000041],[3.8483700000000454,10.588790000000074],[3.850970000000075,10.599810000000048],[3.8480200000000764,10.667640000000063],[3.8409800000000587,10.704920000000072],[3.7971600000000763,10.735460000000046],[3.7493800000000874,10.825560000000053],[3.749200000000087,10.83752000000004],[3.7690000000000623,10.898820000000057],[3.771220000000085,10.930770000000052],[3.75870000000009,10.998420000000067],[3.7517700000000787,11.010630000000049],[3.718990000000076,11.023180000000082],[3.7171800000000417,11.034690000000069],[3.7240200000000527,11.057420000000093],[3.719470000000058,11.08618000000007],[3.7275200000000837,11.117650000000083],[3.719530642000052,11.126928662000068],[3.7515568730000837,11.127595901000063],[3.7939696310000386,11.112880707000045],[3.8909132480000608,11.054022789000044],[3.993915796000067,11.017668724000089],[4.100380421000068,11.026324272000068],[4.1670289040000625,11.024593353000057],[4.186071396000045,11.032382965000068],[4.213769913000078,11.030652046000057],[4.226610661000052,11.018696785000088]]]}}]}