{"type":"FeatureCollection","features":[{"type":"Feature","properties":{"CNTRY_NAME":"Nigeria","CNTRY_CODE":"NGA","ADM1_NAME":"Nasarawa","ADM1_CODE":"NGA026","ADM2_NAME":"Akwanga","ADM2_CODE":"NGA026001","HRname":"Akwanga","HRpcode":"NG026001","HRparent":"NG026","Shape_Leng":1.17802945148,"Shape_Area":0.0819513901919,"ADM2_New":"Akwanga","id":"NG-NA-AKWANGA","name":"Akwanga","parentId":"NG-NA","stateName":"Nassarawa","regionId":"NG-NC","fillColor":"#7cb87c"},"geometry":{"type":"Polygon","coordinates":[[[8.160416603000044,9.066604614000084],[8.23825931500005,9.139926910000042],[8.255879402000062,9.178689957000074],[8.248138428000061,9.182249069000079],[8.251033783000082,9.191023827000038],[8.288684845000091,9.198684692000086],[8.332963943000038,9.17780876200004],[8.38731193500007,9.175717354000085],[8.395512581000048,9.16195106500004],[8.446608543000082,9.112617493000073],[8.47391891500007,9.072973251000064],[8.476561546000084,9.055354118000082],[8.490657806000058,9.037734985000043],[8.50434589400004,9.001431465000053],[8.530156136000073,8.884634018000042],[8.44220447500004,8.89061260200009],[8.367321968000056,8.888851166000052],[8.335606575000043,8.895017624000047],[8.303010941000082,8.887088776000041],[8.251306534000037,8.853444099000058],[8.247509956000044,8.878279686000042],[8.23165226000009,8.902946472000053],[8.21050930000007,8.922327995000046],[8.192890167000087,8.961090088000049],[8.186722755000062,8.977828979000037],[8.185842514000058,9.031567574000064],[8.160416603000044,9.066604614000084]]]}},{"type":"Feature","properties":{"CNTRY_NAME":"Nigeria","CNTRY_CODE":"NGA","ADM1_NAME":"Nasarawa","ADM1_CODE":"NGA026","ADM2_NAME":"Awe","ADM2_CODE":"NGA026002","HRname":"Awe","HRpcode":"NG026002","HRparent":"NG026","Shape_Leng":2.52281566281,"Shape_Area":0.209934043673,"ADM2_New":"Awe","id":"NG-NA-AWE","name":"Awe","parentId":"NG-NA","stateName":"Nassarawa","regionId":"NG-NC","fillColor":"#8fbc8f"},"geometry":{"type":"Polygon","coordinates":[[[8.988257408000038,8.522885323000082],[9.01947021500007,8.509875298000054],[9.049360275000083,8.519665718000056],[9.059162140000069,8.51228046400007],[9.059874535000063,8.496867180000038],[9.069934845000091,8.48766136200004],[9.080109596000057,8.488046646000043],[9.10141277300005,8.473614693000059],[9.097158432000072,8.440607071000045],[9.121526718000041,8.438224792000085],[9.132393837000052,8.428657532000045],[9.152475357000071,8.452715874000091],[9.174925804000054,8.467226028000084],[9.17702674900005,8.463459015000069],[9.182617187000062,8.467567444000053],[9.211994171000072,8.45728874200006],[9.273346901000082,8.463871002000076],[9.288908005000053,8.460703850000073],[9.355316162000065,8.48295784000004],[9.380579948000047,8.478287697000042],[9.470183372000065,8.431235313000059],[9.532260895000093,8.41412067400006],[9.557150841000066,8.402318001000083],[9.61850643200006,8.387319565000041],[9.622797012000092,8.38358783700005],[9.611920357000088,8.350004196000043],[9.615386963000049,8.294836044000078],[9.609673500000042,8.291272163000087],[9.546886444000052,8.305003166000063],[9.518010139000069,8.302137375000086],[9.48320674900009,8.306058884000038],[9.389717102000077,8.34910965000006],[9.376966476000064,8.350010872000041],[9.36327648200006,8.340537071000085],[9.342466354000067,8.283742905000054],[9.325519562000068,8.26384925800005],[9.323423386000059,8.253451347000066],[9.329566956000065,8.236310005000064],[9.39046955100008,8.20182800300006],[9.411823273000039,8.176929474000076],[9.40627670300006,8.165313721000075],[9.386946678000072,8.148825645000045],[9.39503669700008,8.093748093000045],[9.414026260000071,8.071104050000088],[9.415376663000075,8.061924934000047],[9.404143333000093,8.045594215000051],[9.34602642100009,8.001879692000045],[9.33551788300008,7.9855079650000675],[9.179125786000043,7.908083439000052],[9.132690430000082,7.991333961000066],[9.057020187000091,8.07764148700005],[9.008656502000065,8.160769463000065],[8.965497971000048,8.201476097000068],[8.944259644000056,8.231074333000038],[8.94212722800006,8.243443489000072],[8.945738792000043,8.250147820000052],[8.959953308000081,8.255546570000092],[8.95912265800007,8.281416893000085],[8.973099709000053,8.28092670400008],[8.986341476000064,8.287792206000063],[9.012825966000037,8.320652008000081],[9.008576393000055,8.400403976000064],[8.998080254000058,8.425452232000055],[9.001359940000043,8.434721947000071],[8.98369312300008,8.449336052000092],[8.975092888000063,8.473334312000077],[8.988257408000038,8.522885323000082]]]}},{"type":"Feature","properties":{"CNTRY_NAME":"Nigeria","CNTRY_CODE":"NGA","ADM1_NAME":"Nasarawa","ADM1_CODE":"NGA026","ADM2_NAME":"Doma","ADM2_CODE":"NGA026003","HRname":"Doma","HRpcode":"NG026003","HRparent":"NG026","Shape_Leng":2.3963815734,"Shape_Area":0.222833564345,"ADM2_New":"Doma","id":"NG-NA-DOMA","name":"Doma","parentId":"NG-NA","stateName":"Nassarawa","regionId":"NG-NC","fillColor":"#a8c686"},"geometry":{"type":"Polygon","coordinates":[[[8.174082756000075,8.540981293000073],[8.185401917000092,8.550559044000067],[8.204782486000056,8.552320480000049],[8.22152137800009,8.544391632000043],[8.25059318500007,8.517082214000084],[8.27173614500009,8.50562953900004],[8.288475037000069,8.500343323000038],[8.31490421300009,8.502105713000049],[8.33164215100004,8.490653038000062],[8.363357544000053,8.484486580000066],[8.413902283000084,8.481570244000068],[8.467752457000074,8.451889992000076],[8.489776611000082,8.42281818400005],[8.502035141000079,8.397160530000065],[8.510128021000071,8.29220676400007],[8.507675171000074,8.237277985000048],[8.509636879000084,8.216188431000091],[8.520916939000074,8.184801102000051],[8.516013145000045,8.165183067000044],[8.512680054000043,8.15777683300007],[8.503683090000038,8.158167839000043],[8.46625804900009,8.139229774000057],[8.426578522000057,8.112175941000089],[8.39050674400005,8.077907562000064],[8.371117592000076,8.04634380300007],[8.363452911000081,8.016584396000042],[8.360296249000044,7.960672855000041],[8.363452911000081,7.946243763000041],[8.405386925000073,7.861023426000088],[8.404662132000055,7.8367605210000875],[8.392920494000066,7.820144653000057],[8.41199398000009,7.768508911000083],[8.372159004000082,7.770002365000039],[8.27476310700007,7.8145623210000394],[8.215219498000067,7.834565163000093],[8.185447693000071,7.852242470000078],[8.159862518000068,7.8596854210000515],[8.113808632000087,7.863872051000044],[8.06885623900007,7.879503727000042],[8.067440033000082,7.912913322000065],[8.055459023000083,7.965066433000061],[8.047706604000041,8.029201508000085],[8.049820900000043,8.057392120000088],[8.061801910000042,8.09051704400008],[8.094221115000039,8.108840942000086],[8.162584305000053,8.161699295000062],[8.168222427000046,8.213147163000087],[8.16187953900004,8.25684356700009],[8.163993835000042,8.278691292000076],[8.156241417000047,8.294197083000086],[8.115365028000042,8.309701920000066],[8.078011513000092,8.308292389000087],[8.061097145000076,8.318159103000085],[8.058278084000051,8.325206757000046],[8.06532573700008,8.339302063000048],[8.10338306400007,8.361150742000063],[8.16751766200008,8.36749362900008],[8.19148063700004,8.379474640000069],[8.202756882000074,8.392160416000081],[8.211918831000048,8.42105674700008],[8.21050930000007,8.442199707000043],[8.198880196000061,8.48378086100007],[8.178442001000064,8.517610550000086],[8.174082756000075,8.540981293000073]]]}},{"type":"Feature","properties":{"CNTRY_NAME":"Nigeria","CNTRY_CODE":"NGA","ADM1_NAME":"Nasarawa","ADM1_CODE":"NGA026","ADM2_NAME":"Karu","ADM2_CODE":"NGA026004","HRname":"Karu","HRpcode":"NG026004","HRparent":"NG026","Shape_Leng":2.54890940307,"Shape_Area":0.217195618347,"ADM2_New":"Karu","id":"NG-NA-KARU","name":"Karu","parentId":"NG-NA","stateName":"Nassarawa","regionId":"NG-NC","fillColor":"#c2b280"},"geometry":{"type":"Polygon","coordinates":[[[7.914795876000085,9.400461197000084],[7.920670509000047,9.405098915000053],[7.938289642000086,9.403336525000043],[7.9990768430000685,9.354002953000077],[8.001719475000073,9.34078788800008],[7.997314930000073,9.314358711000068],[8.000838280000039,9.306430817000091],[8.045767784000077,9.277358055000093],[8.062506676000055,9.272072792000074],[8.096864700000083,9.211285591000092],[8.103912354000045,9.17604732500007],[8.09598350500005,9.160189629000058],[8.038720131000048,9.136403084000051],[8.010529518000055,9.092354774000057],[7.949742317000073,9.065044403000059],[7.937408924000067,9.048306465000053],[7.916265488000079,9.000734329000068],[7.886312485000076,8.962852478000059],[7.819358826000041,8.927613258000065],[7.802620411000078,8.880922318000046],[7.785001278000038,8.866827011000055],[7.769143581000037,8.84039783500009],[7.766500950000079,8.81749248500006],[7.771786690000056,8.800753593000081],[7.794691563000072,8.793705940000052],[7.8140730860000644,8.778729439000074],[7.833454609000057,8.773444176000055],[7.848431110000092,8.77608680700007],[7.86781215700006,8.810444832000087],[7.894241333000082,8.83335018200006],[7.9136228560000745,8.842159271000071],[7.9277181630000655,8.835111618000042],[7.933885098000076,8.787539482000057],[7.932563305000087,8.739967346000071],[7.922873020000054,8.705609322000043],[7.92903947800005,8.678298950000055],[7.928158760000088,8.65198040000007],[7.8999676700000805,8.654513359000077],[7.8453474040000515,8.669489861000045],[7.83125209800005,8.680942535000042],[7.7916083340000455,8.699442863000058],[7.725535870000044,8.71353817000005],[7.698225498000056,8.708251953000058],[7.676201344000049,8.716180801000064],[7.655939102000048,8.732038498000065],[7.6453676220000375,8.732919693000042],[7.606605053000067,8.76551532700006],[7.565301418000047,8.785279274000061],[7.591669083000056,8.834875107000073],[7.594658852000066,8.856400490000055],[7.588679314000046,9.129055977000064],[7.667605877000085,9.303650856000047],[7.7300548550000485,9.331963539000071],[7.748000622000063,9.32140731800007],[7.7638578410000605,9.295858383000052],[7.788752079000062,9.282155991000081],[7.7999777790000735,9.268548965000093],[7.823763847000066,9.27119159700004],[7.889836311000067,9.374264717000074],[7.914795876000085,9.400461197000084]]]}},{"type":"Feature","properties":{"CNTRY_NAME":"Nigeria","CNTRY_CODE":"NGA","ADM1_NAME":"Nasarawa","ADM1_CODE":"NGA026","ADM2_NAME":"Keana","ADM2_CODE":"NGA026005","HRname":"Keana","HRpcode":"NG026005","HRparent":"NG026","Shape_Leng":1.38985961219,"Shape_Area":0.086073991455,"ADM2_New":"Keana","id":"NG-NA-KEANA","name":"Keana","parentId":"NG-NA","stateName":"Nassarawa","regionId":"NG-NC","fillColor":"#9bb898"},"geometry":{"type":"Polygon","coordinates":[[[8.508656502000065,8.260818481000058],[8.52950000800007,8.253461838000078],[8.594728470000064,8.252481461000059],[8.66142749800008,8.264741898000068],[8.744801521000056,8.259346962000052],[8.767361641000093,8.26572322800007],[8.80806827500004,8.28828334800005],[8.827685356000075,8.289754868000045],[8.890952110000057,8.27307987200004],[8.95912265800007,8.281416893000085],[8.959953308000081,8.255546570000092],[8.945738792000043,8.250147820000052],[8.94212722800006,8.243443489000072],[8.947597504000044,8.222564697000053],[9.01076602900008,8.157675743000084],[9.056192398000064,8.080205917000058],[9.025375366000048,8.062576294000053],[8.910846710000044,8.056263924000064],[8.78053665200008,8.07520198800006],[8.588001251000037,8.128858566000076],[8.524424553000074,8.15726566300009],[8.512680054000043,8.15777683300007],[8.520916939000074,8.184801102000051],[8.509636879000084,8.216188431000091],[8.508656502000065,8.260818481000058]]]}},{"type":"Feature","properties":{"CNTRY_NAME":"Nigeria","CNTRY_CODE":"NGA","ADM1_NAME":"Nasarawa","ADM1_CODE":"NGA026","ADM2_NAME":"Keffi","ADM2_CODE":"NGA026006","HRname":"Keffi","HRpcode":"NG026006","HRparent":"NG026","Shape_Leng":0.422419529647,"Shape_Area":0.0113584037614,"ADM2_New":"Keffi","id":"NG-NA-KEFFI","name":"Keffi","parentId":"NG-NA","stateName":"Nassarawa","regionId":"NG-NC","fillColor":"#6ba3be"},"geometry":{"type":"Polygon","coordinates":[[[7.811492443000077,8.900105476000078],[7.885431767000057,8.876517296000088],[7.897765160000063,8.869469643000059],[7.912741661000041,8.849206924000043],[7.9136228560000745,8.842159271000071],[7.894241333000082,8.83335018200006],[7.86781215700006,8.810444832000087],[7.848431110000092,8.77608680700007],[7.833454609000057,8.773444176000055],[7.8140730860000644,8.778729439000074],[7.794691563000072,8.793705940000052],[7.771786690000056,8.800753593000081],[7.767381668000041,8.808682442000077],[7.769143581000037,8.84039783500009],[7.785001278000038,8.866827011000055],[7.802620411000078,8.880922318000046],[7.80526351900005,8.89413642900007],[7.811492443000077,8.900105476000078]]]}},{"type":"Feature","properties":{"CNTRY_NAME":"Nigeria","CNTRY_CODE":"NGA","ADM1_NAME":"Nasarawa","ADM1_CODE":"NGA026","ADM2_NAME":"Kokona","ADM2_CODE":"NGA026007","HRname":"Kokona","HRpcode":"NG026007","HRparent":"NG026","Shape_Leng":1.79567247926,"Shape_Area":0.151667396148,"ADM2_New":"Kokona","id":"NG-NA-KOKONA","name":"Kokona","parentId":"NG-NA","stateName":"Nassarawa","regionId":"NG-NC","fillColor":"#89a96d"},"geometry":{"type":"Polygon","coordinates":[[[8.135277748000078,9.051707268000087],[8.160416603000044,9.066604614000084],[8.185842514000058,9.031567574000064],[8.189366341000039,8.969900131000088],[8.21050930000007,8.922327995000046],[8.23165226000009,8.902946472000053],[8.247509956000044,8.878279686000042],[8.254557610000063,8.843040466000048],[8.25367641400004,8.812206268000068],[8.245747566000091,8.794587135000086],[8.246628761000068,8.772562981000078],[8.238699913000062,8.752301216000092],[8.238699913000062,8.739086151000038],[8.242223740000043,8.721467018000055],[8.258962631000088,8.71882438700004],[8.258962631000088,8.708251953000058],[8.251914978000059,8.695919037000067],[8.228569031000063,8.69503784200009],[8.216235161000043,8.687108994000084],[8.186799049000058,8.619943619000082],[8.176591873000064,8.576107025000056],[8.174463272000082,8.544465065000054],[8.167342186000042,8.540867805000062],[8.145317078000062,8.559368134000067],[8.130341530000067,8.559368134000067],[8.100388527000064,8.571702003000041],[8.043125153000062,8.605178833000082],[7.968242645000089,8.635131836000085],[7.954147339000087,8.635131836000085],[7.930361271000038,8.649227142000086],[7.922873020000054,8.705609322000043],[7.932563305000087,8.739967346000071],[7.933444500000064,8.761110306000091],[7.9277181630000655,8.835111618000042],[7.9136228560000745,8.842159271000071],[7.897765160000063,8.869469643000059],[7.885431767000057,8.876517296000088],[7.811492443000077,8.900105476000078],[7.819358826000041,8.927613258000065],[7.886312485000076,8.962852478000059],[7.892479420000086,8.969900131000088],[7.916265488000079,9.000734329000068],[7.937408924000067,9.048306465000053],[7.949742317000073,9.065044403000059],[8.010529518000055,9.092354774000057],[8.038720131000048,9.136403084000051],[8.073078156000065,9.147855759000038],[8.09859085100004,9.162779808000039],[8.102590561000056,9.063282967000077],[8.107876778000048,9.052711487000067],[8.135277748000078,9.051707268000087]]]}},{"type":"Feature","properties":{"CNTRY_NAME":"Nigeria","CNTRY_CODE":"NGA","ADM1_NAME":"Nasarawa","ADM1_CODE":"NGA026","ADM2_NAME":"Lafia","ADM2_CODE":"NGA026008","HRname":"Lafia","HRpcode":"NG026008","HRparent":"NG026","Shape_Leng":3.32331475286,"Shape_Area":0.226560495195,"ADM2_New":"Lafia","id":"NG-NA-LAFIA","name":"Lafia","parentId":"NG-NA","stateName":"Nassarawa","regionId":"NG-NC","fillColor":"#b5c99a"},"geometry":{"type":"Polygon","coordinates":[[[8.90739250200005,9.019323349000047],[8.96681594800009,9.015042305000065],[9.044990540000072,9.027093887000092],[9.062741280000068,9.01822853100009],[9.07073783900006,8.987840652000045],[9.067069054000058,8.966298103000042],[9.073461533000057,8.953068733000066],[9.07189464600009,8.945277214000043],[9.045955658000082,8.92288970900006],[9.044477463000078,8.91317176800004],[9.031820297000081,8.89523506200004],[9.023541451000085,8.865909576000092],[9.003014565000058,8.851485252000089],[8.973994255000093,8.854057312000066],[8.958789825000053,8.849521637000066],[8.949798584000064,8.835607529000072],[8.950596809000047,8.815776825000057],[8.945146561000058,8.799559593000083],[8.932709694000039,8.785508156000049],[8.907889366000063,8.783555031000049],[8.900554657000043,8.775506973000063],[8.904410362000078,8.755034447000071],[8.891933441000049,8.740353584000047],[8.892136574000062,8.732930183000065],[8.910737991000076,8.702993393000042],[8.91394710500009,8.686176300000056],[8.940243721000058,8.66723060600009],[8.951176643000053,8.62131214100009],[8.958310127000061,8.612245560000076],[8.977794647000053,8.605191231000049],[8.983431816000063,8.596580505000077],[8.98102188100006,8.578203201000065],[8.986068726000042,8.561980247000065],[8.975144386000068,8.537506104000045],[8.988257408000038,8.522885323000082],[8.975092888000063,8.473334312000077],[8.98369312300008,8.449336052000092],[9.001359940000043,8.434721947000071],[8.998080254000058,8.425452232000055],[9.008576393000055,8.400403976000064],[8.959852219000084,8.406291962000068],[8.922094345000062,8.403045654000039],[8.894140244000084,8.407949448000068],[8.856866837000041,8.400592804000041],[8.829401970000049,8.404026031000058],[8.780603409000037,8.430999756000062],[8.749216080000053,8.45797443400005],[8.732541084000047,8.46287822700009],[8.724694252000063,8.47317791000006],[8.706057549000093,8.482006073000093],[8.623173714000075,8.475629807000075],[8.613855362000038,8.466801643000053],[8.607858658000055,8.439653397000086],[8.589823723000052,8.41285419500008],[8.56628227200008,8.402554512000052],[8.509882927000092,8.395689011000059],[8.502035141000079,8.397160530000065],[8.489776611000082,8.42281818400005],[8.469102859000088,8.45025062600007],[8.413902283000084,8.481570244000068],[8.363357544000053,8.484486580000066],[8.33164215100004,8.490653038000062],[8.31490421300009,8.502105713000049],[8.288475037000069,8.500343323000038],[8.27173614500009,8.50562953900004],[8.25059318500007,8.517082214000084],[8.22152137800009,8.544391632000043],[8.204782486000056,8.552320480000049],[8.185401917000092,8.550559044000067],[8.174082756000075,8.540981293000073],[8.176591873000064,8.576107025000056],[8.188925743000084,8.626321793000045],[8.216235161000043,8.687108994000084],[8.228569031000063,8.69503784200009],[8.251914978000059,8.695919037000067],[8.25235557600007,8.687108994000084],[8.242664337000065,8.673013687000093],[8.242664337000065,8.656274796000048],[8.25235557600007,8.652750969000067],[8.256760597000039,8.644822121000061],[8.251474380000047,8.63248920400008],[8.249711990000037,8.59108352700008],[8.243545532000041,8.56641578700004],[8.267332077000049,8.558487892000073],[8.286712646000069,8.571702003000041],[8.311380386000053,8.610465050000073],[8.336047173000054,8.619274139000083],[8.400358200000085,8.608702660000063],[8.43559646600005,8.617512703000045],[8.485812187000079,8.65098953200004],[8.540431976000093,8.652750969000067],[8.558932304000052,8.66156101200005],[8.576488495000092,8.663086891000091],[8.639101028000084,8.663322449000077],[8.65583896600009,8.673013687000093],[8.677863121000087,8.691514015000052],[8.70463466600006,8.729304314000046],[8.71310234100008,8.768157959000064],[8.708697319000066,8.784896851000042],[8.69724464400008,8.793705940000052],[8.66313266800006,8.803971291000039],[8.652315140000042,8.813968658000078],[8.640862465000055,8.816611290000083],[8.639021873000047,8.826942444000053],[8.659679413000049,8.835401535000074],[8.769539833000067,8.83985328700004],[8.799476624000079,8.847343445000092],[8.820036888000061,8.860403061000056],[8.89739704100009,8.980443954000066],[8.90739250200005,9.019323349000047]]]}},{"type":"Feature","properties":{"CNTRY_NAME":"Nigeria","CNTRY_CODE":"NGA","ADM1_NAME":"Nasarawa","ADM1_CODE":"NGA026","ADM2_NAME":"Nasarawa","ADM2_CODE":"NGA026009","HRname":"Nasarawa","HRpcode":"NG026009","HRparent":"NG026","Shape_Leng":3.1219531741,"Shape_Area":0.471017133776,"ADM2_New":"Nasarawa","id":"NG-NA-NASARAWA","name":"Nasarawa","parentId":"NG-NA","stateName":"Nassarawa","regionId":"NG-NC","fillColor":"#d4a574"},"geometry":{"type":"Polygon","coordinates":[[[7.565301418000047,8.785279274000061],[7.606605053000067,8.76551532700006],[7.6453676220000375,8.732919693000042],[7.655939102000048,8.732038498000065],[7.676201344000049,8.716180801000064],[7.698225498000056,8.708251953000058],[7.725535870000044,8.71353817000005],[7.7916083340000455,8.699442863000058],[7.83125209800005,8.680942535000042],[7.8453474040000515,8.669489861000045],[7.8999676700000805,8.654513359000077],[7.928158760000088,8.65198040000007],[7.954147339000087,8.635131836000085],[7.968242645000089,8.635131836000085],[8.043125153000062,8.605178833000082],[8.100388527000064,8.571702003000041],[8.130341530000067,8.559368134000067],[8.145317078000062,8.559368134000067],[8.167342186000042,8.540867805000062],[8.174463272000082,8.544465065000054],[8.178442001000064,8.517610550000086],[8.203108788000065,8.47320938100006],[8.212623596000071,8.430923462000067],[8.202756882000074,8.392160416000081],[8.19148063700004,8.379474640000069],[8.16751766200008,8.36749362900008],[8.10338306400007,8.361150742000063],[8.06532573700008,8.339302063000048],[8.058278084000051,8.325206757000046],[8.061097145000076,8.318159103000085],[8.078011513000092,8.308292389000087],[8.115365028000042,8.309701920000066],[8.156241417000047,8.294197083000086],[8.163993835000042,8.278691292000076],[8.16187953900004,8.25684356700009],[8.168222427000046,8.213147163000087],[8.162584305000053,8.161699295000062],[8.094221115000039,8.108840942000086],[8.061801910000042,8.09051704400008],[8.049820900000043,8.057392120000088],[8.047706604000041,8.029201508000085],[8.055459023000083,7.965066433000061],[8.067440033000082,7.912913322000065],[8.06885623900007,7.879503727000042],[7.972856998000054,7.939232349000065],[7.867259979000039,7.98621606800009],[7.838418007000087,7.985285759000078],[7.542710304000082,8.043121338000049],[7.505344868000066,8.04719829600009],[7.404485226000077,8.042964935000043],[7.383236408000073,8.103911400000072],[7.381631851000066,8.14482021300006],[7.392861843000048,8.192145348000054],[7.416123867000067,8.245888710000088],[7.432968616000039,8.268348694000053],[7.4321661000000745,8.317277908000051],[7.442594051000071,8.33412265800007],[7.442594051000071,8.345353127000067],[7.431364059000089,8.381448746000046],[7.4321661000000745,8.407116890000054],[7.4843049050000445,8.481715202000089],[7.5051603320000595,8.525832176000051],[7.514785767000092,8.537062645000049],[7.5220050810000885,8.573158264000085],[7.5220050810000885,8.62449455300009],[7.512379169000042,8.646954536000067],[7.493228436000038,8.65073680900008],[7.565301418000047,8.785279274000061]]]}},{"type":"Feature","properties":{"CNTRY_NAME":"Nigeria","CNTRY_CODE":"NGA","ADM1_NAME":"Nasarawa","ADM1_CODE":"NGA026","ADM2_NAME":"Nasarawa-Eggon","ADM2_CODE":"NGA026010","HRname":"Nasarawa-Eggon","HRpcode":"NG026010","HRparent":"NG026","Shape_Leng":1.50331585582,"Shape_Area":0.0993449031569,"ADM2_New":"Nasarawa-Eggon","id":"NG-NA-NASARAWA-EGGON","name":"Nasarawa-Eggon","parentId":"NG-NA","stateName":"Nassarawa","regionId":"NG-NC","fillColor":"#5a9e6f"},"geometry":{"type":"Polygon","coordinates":[[[8.251306534000037,8.853444099000058],[8.303010941000082,8.887088776000041],[8.335606575000043,8.895017624000047],[8.367321968000056,8.888851166000052],[8.44220447500004,8.89061260200009],[8.530156136000073,8.884634018000042],[8.531182289000071,8.879159927000046],[8.500348091000092,8.837755203000086],[8.509598732000086,8.824540138000089],[8.530202866000081,8.820613861000083],[8.557170868000071,8.805158615000039],[8.579195023000068,8.799873352000077],[8.600485802000037,8.811631203000047],[8.639548302000037,8.823658943000055],[8.640862465000055,8.816611290000083],[8.66313266800006,8.803971291000039],[8.69724464400008,8.793705940000052],[8.708697319000066,8.784896851000042],[8.71310234100008,8.768157959000064],[8.71133995100007,8.752301216000092],[8.70463466600006,8.729304314000046],[8.677863121000087,8.691514015000052],[8.639101028000084,8.663322449000077],[8.579195023000068,8.663322449000077],[8.558932304000052,8.66156101200005],[8.540431976000093,8.652750969000067],[8.485812187000079,8.65098953200004],[8.43559646600005,8.617512703000045],[8.400358200000085,8.608702660000063],[8.375691414000073,8.60958385500004],[8.336047173000054,8.619274139000083],[8.311380386000053,8.610465050000073],[8.277903557000059,8.563773155000092],[8.258532524000088,8.559296608000068],[8.243545532000041,8.56641578700004],[8.249711990000037,8.59108352700008],[8.251474380000047,8.63248920400008],[8.256760597000039,8.644822121000061],[8.25235557600007,8.652750969000067],[8.242664337000065,8.656274796000048],[8.242664337000065,8.673013687000093],[8.25235557600007,8.687108994000084],[8.258962631000088,8.71882438700004],[8.242223740000043,8.721467018000055],[8.238699913000062,8.739086151000038],[8.238699913000062,8.752301216000092],[8.246628761000068,8.772562981000078],[8.245747566000091,8.794587135000086],[8.25367641400004,8.812206268000068],[8.251306534000037,8.853444099000058]]]}},{"type":"Feature","properties":{"CNTRY_NAME":"Nigeria","CNTRY_CODE":"NGA","ADM1_NAME":"Nasarawa","ADM1_CODE":"NGA026","ADM2_NAME":"Obi","ADM2_CODE":"NGA026011","HRname":"Obi","HRpcode":"NG026011","HRparent":"NG026","Shape_Leng":1.33342025182,"Shape_Area":0.07951867587,"ADM2_New":"Obi","id":"NG-NA-OBI","name":"Obi","parentId":"NG-NA","stateName":"Nassarawa","regionId":"NG-NC","fillColor":"#84b882"},"geometry":{"type":"Polygon","coordinates":[[[8.502035141000079,8.397160530000065],[8.524091721000048,8.39589595800004],[8.56628227200008,8.402554512000052],[8.589823723000052,8.41285419500008],[8.607479095000087,8.43737602200008],[8.613855362000038,8.466801643000053],[8.623173714000075,8.475629807000075],[8.706057549000093,8.482006073000093],[8.724694252000063,8.47317791000006],[8.732541084000047,8.46287822700009],[8.749216080000053,8.45797443400005],[8.780603409000037,8.430999756000062],[8.829401970000049,8.404026031000058],[8.882860184000037,8.402064323000047],[8.894140244000084,8.407949448000068],[8.922094345000062,8.403045654000039],[8.959852219000084,8.406291962000068],[9.008576393000055,8.400403976000064],[9.013003349000087,8.323318481000058],[9.009392738000088,8.311333656000045],[8.994189262000077,8.293678284000066],[8.973099709000053,8.28092670400008],[8.890952110000057,8.27307987200004],[8.827685356000075,8.289754868000045],[8.80806827500004,8.28828334800005],[8.767361641000093,8.26572322800007],[8.744801521000056,8.259346962000052],[8.66142749800008,8.264741898000068],[8.594728470000064,8.252481461000059],[8.52950000800007,8.253461838000078],[8.508656502000065,8.260818481000058],[8.502035141000079,8.397160530000065]]]}},{"type":"Feature","properties":{"CNTRY_NAME":"Nigeria","CNTRY_CODE":"NGA","ADM1_NAME":"Nasarawa","ADM1_CODE":"NGA026","ADM2_NAME":"Toto","ADM2_CODE":"NGA026012","HRname":"Toto","HRpcode":"NG026012","HRparent":"NG026","Shape_Leng":2.34633988283,"Shape_Area":0.238254710307,"ADM2_New":"Toto","id":"NG-NA-TOTO","name":"Toto","parentId":"NG-NA","stateName":"Nassarawa","regionId":"NG-NC","fillColor":"#c9b896"},"geometry":{"type":"Polygon","coordinates":[[[7.477623463000043,8.63133335100008],[7.493228436000038,8.65073680900008],[7.512379169000042,8.646954536000067],[7.5220050810000885,8.62449455300009],[7.5220050810000885,8.573158264000085],[7.514785767000092,8.537062645000049],[7.5051603320000595,8.525832176000051],[7.499545097000066,8.507383347000086],[7.4321661000000745,8.407116890000054],[7.431364059000089,8.381448746000046],[7.442594051000071,8.345353127000067],[7.442594051000071,8.33412265800007],[7.4321661000000745,8.317277908000051],[7.432968616000039,8.268348694000053],[7.416123867000067,8.245888710000088],[7.392861843000048,8.192145348000054],[7.381631851000066,8.14482021300006],[7.383236408000073,8.103911400000072],[7.404485226000077,8.042964935000043],[7.253840923000041,8.015047073000062],[7.072845459000064,7.942744732000051],[6.966546535000077,7.879061222000075],[6.952556610000045,7.917903423000041],[6.963587761000042,7.960188389000052],[6.9782953260000795,7.985927582000045],[6.979214668000054,8.000635147000082],[6.970941544000084,8.030051231000073],[6.987028599000041,8.077852249000046],[6.983351231000086,8.115541458000052],[7.002655506000053,8.167018890000065],[7.000817299000062,8.181727409000075],[6.972320557000046,8.22493171700006],[6.964966297000046,8.265378952000049],[6.934631348000039,8.30122947700005],[6.934631348000039,8.31042194400004],[6.951177597000083,8.346272469000041],[6.957612514000061,8.374769211000057],[6.969562531000065,8.391315460000044],[6.9841747280000845,8.459377289000088],[7.116741180000076,8.466221809000047],[7.271183968000059,8.492465973000037],[7.342399597000053,8.51043891900008],[7.418127060000074,8.569902420000062],[7.477623463000043,8.63133335100008]]]}},{"type":"Feature","properties":{"CNTRY_NAME":"Nigeria","CNTRY_CODE":"NGA","ADM1_NAME":"Nasarawa","ADM1_CODE":"NGA026","ADM2_NAME":"Wamba","ADM2_CODE":"NGA026013","HRname":"Wamba","HRpcode":"NG026013","HRparent":"NG026","Shape_Leng":1.38850377938,"Shape_Area":0.0951117557562,"ADM2_New":"Wamba","id":"NG-NA-WAMBA","name":"Wamba","parentId":"NG-NA","stateName":"Nassarawa","regionId":"NG-NC","fillColor":"#7eb09a"},"geometry":{"type":"Polygon","coordinates":[[[8.657807350000041,9.207689285000072],[8.667521477000037,9.18986988100005],[8.687015533000078,9.18494415300006],[8.708078384000089,9.187809944000037],[8.746224403000042,9.178644180000049],[8.764998436000042,9.165241241000047],[8.767522812000038,9.136285782000073],[8.760068893000039,9.10517692600007],[8.77817630800007,9.088605881000092],[8.79190254200006,9.083423615000072],[8.79943847700008,9.071156502000065],[8.789483070000074,9.05242824600009],[8.789928436000082,9.04279613500006],[8.79815483100009,9.031578064000087],[8.850249290000079,9.030030251000085],[8.90913009600007,9.016470909000077],[8.88623619100008,8.96066284200009],[8.87712287900007,8.953579903000048],[8.867217064000045,8.929220200000088],[8.820036888000061,8.860403061000056],[8.799476624000079,8.847343445000092],[8.769539833000067,8.83985328700004],[8.659679413000049,8.835401535000074],[8.579195023000068,8.799873352000077],[8.557170868000071,8.805158615000039],[8.530202866000081,8.820613861000083],[8.509598732000086,8.824540138000089],[8.500348091000092,8.837755203000086],[8.531182289000071,8.879159927000046],[8.50434589400004,9.001431465000053],[8.53326129900006,9.004377365000039],[8.554131508000069,9.020359039000084],[8.566833496000072,9.060831070000063],[8.620715141000062,9.114884377000067],[8.649191856000073,9.17132663700005],[8.657807350000041,9.207689285000072]]]}}]}