{"type":"FeatureCollection","features":[{"type":"Feature","properties":{"CNTRY_NAME":"Nigeria","CNTRY_CODE":"NGA","ADM1_NAME":"Ogun","ADM1_CODE":"NGA028","ADM2_NAME":"Abeokuta North","ADM2_CODE":"NGA028001","HRname":"Abeokuta North","HRpcode":"NG028001","HRparent":"NG028","Shape_Leng":1.19949798467,"Shape_Area":0.0655981158255,"ADM2_New":"Abeokuta North","id":"NG-OG-ABEOKUTA-NORTH","name":"Abeokuta North","parentId":"NG-OG","stateName":"Ogun","regionId":"NG-SW","fillColor":"#6BA368"},"geometry":{"type":"Polygon","coordinates":[[[3.107279778000077,7.41619300800005],[3.1403665540000816,7.395598888000052],[3.143902540000056,7.390937805000078],[3.1420869830000697,7.3801031110000395],[3.1557927130000394,7.3526921270000685],[3.1656913760000407,7.341270447000056],[3.191960573000074,7.32718420000009],[3.209092617000067,7.287209034000057],[3.221656322000058,7.283782959000064],[3.231554747000075,7.271980762000055],[3.2517325880000385,7.263224125000079],[3.302367449000087,7.253706455000042],[3.3320631980000712,7.238858700000037],[3.3636624810000626,7.208020687000044],[3.302938700000084,7.1330199240000525],[3.2991313930000388,7.1242637630000445],[3.305603743000063,7.112842083000089],[3.2717201710000836,7.067917824000062],[3.255349398000078,7.062968731000069],[3.2218465810000794,7.062968731000069],[3.1967194080000922,7.054212570000061],[3.1841559410000855,7.055735111000047],[3.148368835000042,7.077816486000074],[3.125072241000055,7.071367741000074],[3.1220996380000656,7.074770927000088],[3.1259067060000802,7.1143651010000895],[3.101541042000065,7.139111519000039],[3.0882160660000864,7.170330048000039],[3.0796499250000693,7.207640171000037],[3.066523790000076,7.218685150000056],[3.060610056000087,7.253910542000085],[3.0491964820000703,7.272478104000072],[3.047017336000067,7.286385536000068],[3.0215911870000696,7.30852937700007],[3.0147383210000385,7.322996140000043],[3.001032591000069,7.3801031110000395],[3.0053348540000684,7.395036221000055],[3.110297441000057,7.385052681000047],[3.107279778000077,7.41619300800005]]]}},{"type":"Feature","properties":{"CNTRY_NAME":"Nigeria","CNTRY_CODE":"NGA","ADM1_NAME":"Ogun","ADM1_CODE":"NGA028","ADM2_NAME":"Abeokuta South","ADM2_CODE":"NGA028002","HRname":"Abeokuta South","HRpcode":"NG028002","HRparent":"NG028","Shape_Leng":0.311167156358,"Shape_Area":0.0057993183837,"ADM2_New":"Abeokuta South","id":"NG-OG-ABEOKUTA-SOUTH","name":"Abeokuta South","parentId":"NG-OG","stateName":"Ogun","regionId":"NG-SW","fillColor":"#C4A574"},"geometry":{"type":"Polygon","coordinates":[[[3.3636624810000626,7.208020687000044],[3.390702486000066,7.187438488000055],[3.406492710000066,7.147868156000072],[3.40344715100008,7.136827469000082],[3.35243153600004,7.1166496280000615],[3.305603743000063,7.112842083000089],[3.2991313930000388,7.1242637630000445],[3.302938700000084,7.1330199240000525],[3.3636624810000626,7.208020687000044]]]}},{"type":"Feature","properties":{"CNTRY_NAME":"Nigeria","CNTRY_CODE":"NGA","ADM1_NAME":"Ogun","ADM1_CODE":"NGA028","ADM2_NAME":"Ado-Odo/Ota","ADM2_CODE":"NGA028003","HRname":"Ado-Odo/Ota","HRpcode":"NG028003","HRparent":"NG028","Shape_Leng":1.2163296722,"Shape_Area":0.0711688084361,"ADM2_New":"Ado-Odo/Ota","id":"NG-OG-ADO-ODO-OTA","name":"Ado-Odo/Ota","parentId":"NG-OG","stateName":"Ogun","regionId":"NG-SW","fillColor":"#5B8FA8"},"geometry":{"type":"Polygon","coordinates":[[[3.28759789500009,6.680097103000037],[3.262877703000072,6.696602821000056],[3.24184107800005,6.659866333000082],[3.240591049000045,6.618102074000092],[3.2297241690000646,6.60104227100004],[3.216072559000054,6.595005512000057],[3.1968979840000884,6.576189518000092],[3.2039604190000546,6.529477596000049],[3.1746132370000737,6.507490158000053],[3.155649424000046,6.501806259000091],[3.143634081000073,6.50450277300007],[3.0958666800000856,6.497777462000045],[2.892274857000075,6.501963139000054],[2.8814349170000924,6.519949436000047],[2.88109636300004,6.543698788000086],[2.9231767650000506,6.585173130000044],[2.933455944000059,6.60687351200005],[2.9330751900000678,6.614107132000072],[2.9170851710000534,6.63276243200005],[2.916323900000066,6.651036263000037],[2.9414508340000793,6.673498631000086],[2.966197252000086,6.683777809000048],[3.0084745880000696,6.671723843000052],[3.0459568500000387,6.745453358000077],[3.0911185740000633,6.74323988000009],[3.2570626740000534,6.749260426000092],[3.2673418520000723,6.743930817000091],[3.285235405000037,6.705859184000076],[3.28759789500009,6.680097103000037]]]}},{"type":"Feature","properties":{"CNTRY_NAME":"Nigeria","CNTRY_CODE":"NGA","ADM1_NAME":"Ogun","ADM1_CODE":"NGA028","ADM2_NAME":"Egbado South","ADM2_CODE":"NGA028005","HRname":"Egbado South","HRpcode":"NG028005","HRparent":"NG028","Shape_Leng":1.04289884227,"Shape_Area":0.0509667271034,"ADM2_New":"Egbado South","id":"NG-OG-EGBADO-SOUTH","name":"Egbado South","parentId":"NG-OG","stateName":"Ogun","regionId":"NG-SW","fillColor":"#B8956B"},"geometry":{"type":"Polygon","coordinates":[[[3.061457396000094,6.937674522000066],[3.093355656000085,6.8935513500000525],[3.0529999730000554,6.855860710000059],[3.050715685000057,6.83834743500006],[3.0529999730000554,6.829591274000052],[3.0731778140000756,6.8067483900000525],[3.0895485880000706,6.766773701000091],[3.0911185740000633,6.74323988000009],[3.0459568500000387,6.745453358000077],[3.0107407570000646,6.671975613000086],[2.966197252000086,6.683777809000048],[2.953253031000088,6.679970741000091],[2.916323900000066,6.651036263000037],[2.9170851710000534,6.63276243200005],[2.9261894230000394,6.621073723000052],[2.9071867470000825,6.622482777000073],[2.89195823700004,6.635807991000092],[2.8733031750000464,6.66398096100005],[2.84703397800007,6.725275517000057],[2.819241762000047,6.835682869000038],[2.832185984000091,6.850530624000044],[2.851983070000074,6.862713337000059],[2.898810863000051,6.863474846000088],[2.9494459630000733,6.8935513500000525],[2.985613823000051,6.90344953500005],[3.0103600030000734,6.941140175000044],[3.061457396000094,6.937674522000066]]]}},{"type":"Feature","properties":{"CNTRY_NAME":"Nigeria","CNTRY_CODE":"NGA","ADM1_NAME":"Ogun","ADM1_CODE":"NGA028","ADM2_NAME":"Ewekoro","ADM2_CODE":"NGA028006","HRname":"Ewekoro","HRpcode":"NG028006","HRparent":"NG028","Shape_Leng":1.04063018573,"Shape_Area":0.0482244863008,"ADM2_New":"Ewekoro","id":"NG-OG-EWEKORO","name":"Ewekoro","parentId":"NG-OG","stateName":"Ogun","regionId":"NG-SW","fillColor":"#6AADA3"},"geometry":{"type":"Polygon","coordinates":[[[3.122822046000067,7.070918083000038],[3.148368835000042,7.077816486000074],[3.1841559410000855,7.055735111000047],[3.1967194080000922,7.054212570000061],[3.2218465810000794,7.062968731000069],[3.255349398000078,7.062968731000069],[3.2717201710000836,7.067917824000062],[3.292881489000081,7.0937538150000705],[3.2816185950000545,7.017282963000071],[3.2804765700000758,6.990633011000057],[3.286187172000041,6.9559884070000635],[3.3238778110000453,6.873373508000043],[3.335680008000054,6.855099201000087],[3.3638527390000377,6.832256317000088],[3.3609974380000835,6.828068256000051],[3.327494621000085,6.822738171000083],[3.259727716000043,6.826545715000066],[3.1835849290000624,6.845962048000047],[3.1139142510000397,6.8699469570000815],[3.0674254890000725,6.869722366000076],[3.093355656000085,6.8935513500000525],[3.064802170000064,6.928957462000085],[3.0623276230000442,6.9674096110000505],[3.0840282440000806,7.005100250000055],[3.1205766200000653,7.0298466680000615],[3.122822046000067,7.070918083000038]]]}},{"type":"Feature","properties":{"CNTRY_NAME":"Nigeria","CNTRY_CODE":"NGA","ADM1_NAME":"Ogun","ADM1_CODE":"NGA028","ADM2_NAME":"Ifo","ADM2_CODE":"NGA028007","HRname":"Ifo","HRpcode":"NG028007","HRparent":"NG028","Shape_Leng":1.13393297256,"Shape_Area":0.0423004695757,"ADM2_New":"Ifo","id":"NG-OG-IFO","name":"Ifo","parentId":"NG-OG","stateName":"Ogun","regionId":"NG-SW","fillColor":"#8FAF6E"},"geometry":{"type":"Polygon","coordinates":[[[3.0674254890000725,6.869722366000076],[3.1139142510000397,6.8699469570000815],[3.1835849290000624,6.845962048000047],[3.259727716000043,6.826545715000066],[3.327494621000085,6.822738171000083],[3.364752054000064,6.8304576870000915],[3.3872666360000494,6.817408562000082],[3.39678454400007,6.795707703000062],[3.3864893910000546,6.725323200000048],[3.394881010000063,6.694818497000085],[3.412393808000047,6.684539318000077],[3.437927008000088,6.686609745000055],[3.438755274000073,6.673625946000072],[3.45640897800007,6.6419148450000876],[3.3715417390000653,6.638493538000091],[3.344873428000085,6.665226936000067],[3.3171129230000815,6.667160511000077],[3.28759789500009,6.680097103000037],[3.285235405000037,6.705859184000076],[3.2673418520000723,6.743930817000091],[3.2570626740000534,6.749260426000092],[3.0931653980000533,6.743169308000063],[3.0895485880000706,6.766773701000091],[3.0731778140000756,6.8067483900000525],[3.0529999730000554,6.829591274000052],[3.050715685000057,6.83834743500006],[3.0529999730000554,6.855860710000059],[3.0674254890000725,6.869722366000076]]]}},{"type":"Feature","properties":{"CNTRY_NAME":"Nigeria","CNTRY_CODE":"NGA","ADM1_NAME":"Ogun","ADM1_CODE":"NGA028","ADM2_NAME":"Ijebu East","ADM2_CODE":"NGA028008","HRname":"Ijebu East","HRpcode":"NG028008","HRparent":"NG028","Shape_Leng":2.26372908903,"Shape_Area":0.181874911691,"ADM2_New":"Ijebu East","id":"NG-OG-IJEBU-EAST","name":"Ijebu East","parentId":"NG-OG","stateName":"Ogun","regionId":"NG-SW","fillColor":"#D4C4A0"},"geometry":{"type":"Polygon","coordinates":[[[4.3650755880000816,7.059700966000094],[4.370260715000086,7.056211472000086],[4.37118005800005,7.032460213000093],[4.37693977400005,7.0283894540000915],[4.371032715000069,7.017980099000056],[4.374319553000078,6.998856068000066],[4.390379906000078,6.98085498800009],[4.40053653700005,6.98073482500007],[4.424521446000085,7.002435207000076],[4.438227177000044,7.004719734000048],[4.454216957000085,7.00091266600009],[4.463354111000058,6.993298054000093],[4.488862038000093,6.99177551300005],[4.516273499000079,7.0226130490000855],[4.559294224000041,7.02147102400005],[4.6095857620000515,7.031077862000075],[4.57428789100004,7.006175995000092],[4.561608791000083,6.988337517000048],[4.556210041000043,6.958760262000055],[4.557522297000048,6.88951540000005],[4.547595501000046,6.840522289000091],[4.47641277300005,6.802269936000073],[4.418231487000071,6.760396481000043],[4.4109268190000535,6.74004221000007],[4.38973522200007,6.715917110000078],[4.389039040000057,6.674362183000085],[4.376120090000086,6.663210392000053],[4.3770551680000835,6.645117283000047],[4.362478733000046,6.6298213010000495],[4.3459062580000705,6.624435425000058],[4.316904068000042,6.625678539000091],[4.296188354000037,6.618220806000068],[4.277130127000078,6.5979194640000856],[4.229897976000075,6.579689503000054],[4.2200365070000885,6.567516804000093],[4.215333462000046,6.577714920000062],[4.204391003000069,6.585531235000076],[4.186748505000082,6.584861279000052],[4.166342258000043,6.593373775000089],[4.143002987000045,6.5750865940000836],[4.116402626000081,6.563422680000087],[4.110596180000073,6.558286190000047],[4.109479427000053,6.546896935000063],[4.094737053000074,6.545981407000056],[4.09064197500004,6.5618252750000465],[4.083386898000072,6.558977604000063],[4.06493806800006,6.562396049000085],[4.064886570000056,6.5805573460000915],[4.050481319000085,6.619155884000065],[4.061562538000089,6.636700630000064],[4.070426941000051,6.633191586000066],[4.084463120000066,6.639840126000081],[4.091480732000093,6.652583122000067],[4.0952310560000456,6.6515192990000855],[4.090372562000084,6.6660652160000495],[4.094251156000041,6.670681953000042],[4.091480732000093,6.6789927480000415],[4.078526974000056,6.679176331000065],[4.074074268000061,6.692914963000078],[4.0588459970000486,6.698625565000043],[4.061891556000091,6.710047245000055],[4.054657936000069,6.7248950000000605],[4.003261566000049,6.731747627000061],[4.002881050000042,6.738600731000076],[4.02229738200009,6.756113529000061],[4.012018204000071,6.761443615000076],[3.9705202580000787,6.762966156000061],[3.96975874900005,6.789235592000068],[3.994885921000048,6.821977139000069],[3.9956474300000764,6.854337692000058],[4.008972168000071,6.856241226000066],[4.0645565990000705,6.84139347100006],[4.0721707340000535,6.882891178000079],[4.104150772000082,6.930860996000092],[4.091206551000084,6.937333107000086],[4.091729164000071,6.942299366000043],[4.116143227000066,6.948754787000041],[4.157260418000078,6.969694138000079],[4.171346664000055,6.983780384000056],[4.187336922000043,7.0268011090000755],[4.203627586000039,7.046032429000093],[4.2187738420000755,7.047115803000054],[4.268486023000094,7.088352680000071],[4.297514915000079,7.0905885700000795],[4.3650755880000816,7.059700966000094]]]}},{"type":"Feature","properties":{"CNTRY_NAME":"Nigeria","CNTRY_CODE":"NGA","ADM1_NAME":"Ogun","ADM1_CODE":"NGA028","ADM2_NAME":"Ijebu North","ADM2_CODE":"NGA028009","HRname":"Ijebu North","HRpcode":"NG028009","HRparent":"NG028","Shape_Leng":1.2059833647,"Shape_Area":0.078680494186,"ADM2_New":"Ijebu North","id":"NG-OG-IJEBU-NORTH","name":"Ijebu North","parentId":"NG-OG","stateName":"Ogun","regionId":"NG-SW","fillColor":"#688EB5"},"geometry":{"type":"Polygon","coordinates":[[[4.012756824000064,7.126267910000081],[4.019251347000079,7.1246442790000515],[4.045901775000061,7.138350010000067],[4.085114956000041,7.131877899000074],[4.16887188000004,7.174137115000065],[4.190192223000054,7.069821835000084],[4.197892666000087,7.04916238800007],[4.203627586000039,7.046032429000093],[4.187336922000043,7.0268011090000755],[4.171346664000055,6.983780384000056],[4.157260418000078,6.969694138000079],[4.116143227000066,6.948754787000041],[4.041142464000075,6.933907032000093],[3.981370449000053,6.903069019000043],[3.9417762760000414,6.891647816000045],[3.8189961910000534,6.890886307000073],[3.801483393000069,6.894693375000088],[3.7622916700000815,6.924581051000075],[3.757891655000037,6.930480480000085],[3.7824475770000845,6.999008656000058],[3.793107510000084,7.047740459000067],[3.8236103060000914,7.0828127860000905],[3.9389209750000873,7.083908081000061],[3.960240841000086,7.092283726000062],[3.9655709270000443,7.109796524000046],[3.9975509640000837,7.126167297000052],[4.012756824000064,7.126267910000081]]]}},{"type":"Feature","properties":{"CNTRY_NAME":"Nigeria","CNTRY_CODE":"NGA","ADM1_NAME":"Ogun","ADM1_CODE":"NGA028","ADM2_NAME":"Ijebu North East","ADM2_CODE":"NGA028010","HRname":"Ijebu North East","HRpcode":"NG028010","HRparent":"NG028","Shape_Leng":0.465690086614,"Shape_Area":0.00960290560335,"ADM2_New":"Ijebu North East","id":"NG-OG-IJEBU-NORTH-EAST","name":"Ijebu North East","parentId":"NG-OG","stateName":"Ogun","regionId":"NG-SW","fillColor":"#7CB087"},"geometry":{"type":"Polygon","coordinates":[[[3.936264753000046,6.891647816000045],[3.981370449000053,6.903069019000043],[4.041142464000075,6.933907032000093],[4.091729164000071,6.942299366000043],[4.091206551000084,6.937333107000086],[4.104150772000082,6.930860996000092],[4.0721707340000535,6.882891178000079],[4.066460133000078,6.843677521000075],[4.000977516000091,6.856621742000073],[3.9956474300000764,6.854337692000058],[3.994885921000048,6.833017826000059],[3.9914593700000864,6.831875324000066],[3.9629058840000653,6.852053165000086],[3.936264753000046,6.891647816000045]]]}},{"type":"Feature","properties":{"CNTRY_NAME":"Nigeria","CNTRY_CODE":"NGA","ADM1_NAME":"Ogun","ADM1_CODE":"NGA028","ADM2_NAME":"Ijebu ode","ADM2_CODE":"NGA028011","HRname":"Ijebu ode","HRpcode":"NG028011","HRparent":"NG028","Shape_Leng":0.818129304624,"Shape_Area":0.0155894194019,"ADM2_New":"Ijebu ode","id":"NG-OG-IJEBU-ODE","name":"Ijebu ode","parentId":"NG-OG","stateName":"Ogun","regionId":"NG-SW","fillColor":"#C9B896"},"geometry":{"type":"Polygon","coordinates":[[[3.898772240000085,6.891159058000085],[3.936264753000046,6.891647816000045],[3.969377995000059,6.845200539000075],[3.9834644790000766,6.834921360000067],[3.994885921000048,6.833017826000059],[3.9929823880000868,6.815885544000082],[3.96975874900005,6.789235592000068],[3.9705202580000787,6.762966156000061],[4.012018204000071,6.761443615000076],[4.02229738200009,6.756113529000061],[4.002881050000042,6.738600731000076],[4.003261566000049,6.731747627000061],[4.054657936000069,6.7248950000000605],[4.061891556000091,6.710047245000055],[4.0615110400000844,6.696341515000086],[4.074074268000061,6.692914963000078],[4.078526974000056,6.679176331000065],[3.9193351270000676,6.680661201000078],[3.917220354000051,6.684539318000077],[3.9476773740000795,6.748118401000056],[3.9507231710000497,6.766012192000062],[3.9366366860000426,6.7907586100000685],[3.899326801000086,6.814362526000082],[3.9149360660000525,6.858906269000045],[3.898772240000085,6.891159058000085]]]}},{"type":"Feature","properties":{"CNTRY_NAME":"Nigeria","CNTRY_CODE":"NGA","ADM1_NAME":"Ogun","ADM1_CODE":"NGA028","ADM2_NAME":"Ikenne","ADM2_CODE":"NGA028012","HRname":"Ikenne","HRpcode":"NG028012","HRparent":"NG028","Shape_Leng":0.526770170462,"Shape_Area":0.0116832024624,"ADM2_New":"Ikenne","id":"NG-OG-IKENNE","name":"Ikenne","parentId":"NG-OG","stateName":"Ogun","regionId":"NG-SW","fillColor":"#5E9E78"},"geometry":{"type":"Polygon","coordinates":[[[3.604378939000071,6.940316200000041],[3.6415834430000587,6.973501205000048],[3.6400606630000425,6.992156029000057],[3.649578571000063,7.00091266600009],[3.7015459540000393,6.937333107000086],[3.753359079000063,6.9023675920000755],[3.7369523050000453,6.831875324000066],[3.718297243000052,6.8014183040000376],[3.7015459540000393,6.82121563000004],[3.6920280460000754,6.856621742000073],[3.6771802900000807,6.879845619000093],[3.66766238200006,6.890505314000052],[3.6246416570000406,6.912967682000044],[3.604378939000071,6.940316200000041]]]}},{"type":"Feature","properties":{"CNTRY_NAME":"Nigeria","CNTRY_CODE":"NGA","ADM1_NAME":"Ogun","ADM1_CODE":"NGA028","ADM2_NAME":"Obafemi-Owode","ADM2_CODE":"NGA028015","HRname":"Obafemi-Owode","HRpcode":"NG028015","HRparent":"NG028","Shape_Leng":1.69414551683,"Shape_Area":0.1145547777,"ADM2_New":"Obafemi-Owode","id":"NG-OG-OBAFEMI-OWODE","name":"Obafemi-Owode","parentId":"NG-OG","stateName":"Ogun","regionId":"NG-SW","fillColor":"#72A898"},"geometry":{"type":"Polygon","coordinates":[[[3.4054398540000648,7.15087652200009],[3.4691202640000824,7.1322588920000385],[3.4805417060000536,7.133400917000074],[3.501100063000081,7.149010181000051],[3.593803883000078,7.142538071000047],[3.7693130970000652,7.15662431700008],[3.789919376000057,7.152704716000073],[3.7944400310000788,7.139492035000046],[3.781495810000081,7.1212182040000584],[3.7274343970000814,7.096852303000048],[3.727600574000064,7.083577633000061],[3.708398819000081,7.062968731000069],[3.708779573000072,7.052308559000039],[3.654908419000037,7.02413606600004],[3.649578571000063,7.00091266600009],[3.6400606630000425,6.992156029000057],[3.6415834430000587,6.973501205000048],[3.589806557000088,6.927815437000049],[3.589806557000088,6.91410970700008],[3.5952866080000376,6.9039659500000425],[3.569628716000068,6.90344953500005],[3.5486893650000866,6.8855562210000585],[3.540313721000075,6.871850491000089],[3.5216586590000816,6.864997864000088],[3.5106179710000447,6.852434158000051],[3.4931051730000604,6.851292133000072],[3.485490799000047,6.844439030000046],[3.4843487740000683,6.831114292000052],[3.4717850690000773,6.818931103000068],[3.465693712000075,6.796849728000041],[3.453130245000068,6.777052879000053],[3.438334227000041,6.689266205000081],[3.412393808000047,6.684539318000077],[3.394881010000063,6.694818497000085],[3.3864600660000406,6.722427368000069],[3.3960230350000415,6.801799297000059],[3.3872666360000494,6.817408562000082],[3.335680008000054,6.855099201000087],[3.3238778110000453,6.873373508000043],[3.286187172000041,6.9559884070000635],[3.2804765700000758,6.990633011000057],[3.292881489000081,7.0937538150000705],[3.305603743000063,7.112842083000089],[3.35243153600004,7.1166496280000615],[3.40344715100008,7.136827469000082],[3.4054398540000648,7.15087652200009]]]}},{"type":"Feature","properties":{"CNTRY_NAME":"Nigeria","CNTRY_CODE":"NGA","ADM1_NAME":"Ogun","ADM1_CODE":"NGA028","ADM2_NAME":"Odeda","ADM2_CODE":"NGA028016","HRname":"Odeda","HRpcode":"NG028016","HRparent":"NG028","Shape_Leng":1.98699354596,"Shape_Area":0.126866045095,"ADM2_New":"Odeda","id":"NG-OG-ODEDA","name":"Odeda","parentId":"NG-OG","stateName":"Ogun","regionId":"NG-SW","fillColor":"#D4896A"},"geometry":{"type":"Polygon","coordinates":[[[3.3930828570000813,7.4558320050000475],[3.4424312110000415,7.492065430000082],[3.4534826280000743,7.494930744000044],[3.4522342680000406,7.486245632000077],[3.4665839670000764,7.4711456300000805],[3.4600143430000685,7.452629089000084],[3.482859612000084,7.417232037000076],[3.47336602200005,7.3964066510000634],[3.4727330210000673,7.391195297000081],[3.479096413000093,7.389439583000069],[3.497712851000074,7.394600868000055],[3.5457525250000685,7.44080448200009],[3.7041983600000776,7.447892189000072],[3.707649469000046,7.444986820000054],[3.7053737640000577,7.392282963000071],[3.7198290820000466,7.3876090050000585],[3.7143466470000703,7.30479431200007],[3.71837210700005,7.301308155000072],[3.7601397040000393,7.3011913300000515],[3.7628407480000874,7.296727180000062],[3.7597951890000445,7.281117916000085],[3.763602257000059,7.230483055000093],[3.7803537850000453,7.202690601000086],[3.7773079870000856,7.180609226000058],[3.789919376000057,7.152704716000073],[3.7590336800000728,7.156243801000073],[3.7209622860000877,7.14977169000008],[3.6866981980000446,7.151675224000087],[3.593803883000078,7.142538071000047],[3.501100063000081,7.149010181000051],[3.4805417060000536,7.133400917000074],[3.4691202640000824,7.1322588920000385],[3.426480293000054,7.141776562000075],[3.4054398540000648,7.15087652200009],[3.383840322000083,7.1958379750000745],[3.356048107000049,7.21220874800008],[3.3320631980000712,7.238858700000037],[3.302367449000087,7.253706455000042],[3.2517325880000385,7.263224125000079],[3.231554747000075,7.271980762000055],[3.221656322000058,7.283782959000064],[3.209092617000067,7.287209034000057],[3.191960573000074,7.32718420000009],[3.1607420440000737,7.345077515000071],[3.1420869830000697,7.3801031110000395],[3.143902540000056,7.390937805000078],[3.155272961000094,7.378180027000042],[3.1830358510000565,7.36999368700009],[3.24914431600007,7.367492199000083],[3.2824668880000445,7.335541248000084],[3.2916014190000737,7.321035385000073],[3.3066136840000695,7.314042568000048],[3.3240284920000818,7.315152168000054],[3.3500418660000832,7.363155365000068],[3.3858168130000763,7.401284695000072],[3.3814761640000484,7.430837631000088],[3.3990147110000635,7.444110870000088],[3.4002280240000573,7.4493207930000835],[3.3930828570000813,7.4558320050000475]]]}},{"type":"Feature","properties":{"CNTRY_NAME":"Nigeria","CNTRY_CODE":"NGA","ADM1_NAME":"Ogun","ADM1_CODE":"NGA028","ADM2_NAME":"Odogbolu","ADM2_CODE":"NGA028017","HRname":"Odogbolu","HRpcode":"NG028017","HRparent":"NG028","Shape_Leng":0.886059930967,"Shape_Area":0.0439803603737,"ADM2_New":"Odogbolu","id":"NG-OG-ODOGBOLU","name":"Odogbolu","parentId":"NG-OG","stateName":"Ogun","regionId":"NG-SW","fillColor":"#9B8B72"},"geometry":{"type":"Polygon","coordinates":[[[3.753359079000063,6.9023675920000755],[3.757891655000037,6.930480480000085],[3.801483393000069,6.894693375000088],[3.8189961910000534,6.890886307000073],[3.898772240000085,6.891159058000085],[3.9149360660000525,6.858906269000045],[3.899326801000086,6.814362526000082],[3.9366366860000426,6.7907586100000685],[3.9507231710000497,6.766012192000062],[3.9476773740000795,6.748118401000056],[3.9168367390000753,6.680704117000062],[3.6999621390000925,6.682374954000068],[3.704553127000054,6.740653038000062],[3.7007844450000675,6.773626328000091],[3.7369523050000453,6.831875324000066],[3.753359079000063,6.9023675920000755]]]}},{"type":"Feature","properties":{"CNTRY_NAME":"Nigeria","CNTRY_CODE":"NGA","ADM1_NAME":"Ogun","ADM1_CODE":"NGA028","ADM2_NAME":"Remo North","ADM2_CODE":"NGA028019","HRname":"Remo North","HRpcode":"NG028019","HRparent":"NG028","Shape_Leng":0.565586625344,"Shape_Area":0.01620973656,"ADM2_New":"Remo North","id":"NG-OG-REMO-NORTH","name":"Remo North","parentId":"NG-OG","stateName":"Ogun","regionId":"NG-SW","fillColor":"#8AAB76"},"geometry":{"type":"Polygon","coordinates":[[[3.727600574000064,7.083577633000061],[3.7837800980000793,7.080101013000046],[3.8236103060000914,7.0828127860000905],[3.793107510000084,7.047740459000067],[3.7824475770000845,6.999008656000058],[3.754845858000067,6.920581818000073],[3.753359079000063,6.9023675920000755],[3.7015459540000393,6.937333107000086],[3.649578571000063,7.00091266600009],[3.654908419000037,7.02413606600004],[3.708779573000072,7.052308559000039],[3.708398819000081,7.062968731000069],[3.727600574000064,7.083577633000061]]]}},{"type":"Feature","properties":{"CNTRY_NAME":"Nigeria","CNTRY_CODE":"NGA","ADM1_NAME":"Ogun","ADM1_CODE":"NGA028","ADM2_NAME":"Shagamu","ADM2_CODE":"NGA028020","HRname":"Shagamu","HRpcode":"NG028020","HRparent":"NG028","Shape_Leng":0.971960448076,"Shape_Area":0.0498805536365,"ADM2_New":"Shagamu","id":"NG-OG-SHAGAMU","name":"Shagamu","parentId":"NG-OG","stateName":"Ogun","regionId":"NG-SW","fillColor":"#BFA882"},"geometry":{"type":"Polygon","coordinates":[[[3.604378939000071,6.940316200000041],[3.6246416570000406,6.912967682000044],[3.66766238200006,6.890505314000052],[3.6771802900000807,6.879845619000093],[3.6920280460000754,6.856621742000073],[3.7015459540000393,6.82121563000004],[3.7169363500000827,6.79960346200005],[3.7007844450000675,6.773626328000091],[3.704553127000054,6.740653038000062],[3.6999621390000925,6.682374954000068],[3.4633374210000625,6.683959961000085],[3.4679663180000375,6.6793308260000686],[3.465073347000043,6.664749622000045],[3.453234673000054,6.671268463000047],[3.444489241000042,6.664900303000081],[3.437927008000088,6.686609745000055],[3.4481809140000905,6.758017063000068],[3.4687395100000913,6.812839985000039],[3.4843487740000683,6.831114292000052],[3.485490799000047,6.844439030000046],[3.4931051730000604,6.851292133000072],[3.5106179710000447,6.852434158000051],[3.5216586590000816,6.864997864000088],[3.540313721000075,6.871850491000089],[3.5486893650000866,6.8855562210000585],[3.569628716000068,6.90344953500005],[3.592852116000074,6.903069019000043],[3.589806557000088,6.927815437000049],[3.604378939000071,6.940316200000041]]]}},{"type":"Feature","properties":{"CNTRY_NAME":"Nigeria","CNTRY_CODE":"NGA","ADM1_NAME":"Ogun","ADM1_CODE":"NGA028","ADM2_NAME":"Ipokia","ADM2_CODE":"NGA028014","HRname":"Ipokia","HRpcode":"NG028014","HRparent":"NG028","Shape_Leng":1.19518883758,"Shape_Area":0.0484177774477,"ADM2_New":"Ipokia","id":"NG-OG-IPOKIA","name":"Ipokia","parentId":"NG-OG","stateName":"Ogun","regionId":"NG-SW","fillColor":"#C2A882"},"geometry":{"type":"Polygon","coordinates":[[[2.819241762000047,6.835682869000038],[2.84703397800007,6.725275517000057],[2.8733031750000464,6.66398096100005],[2.89195823700004,6.635807991000092],[2.9071867470000825,6.622482777000073],[2.9261894230000394,6.621073723000052],[2.933455944000059,6.60687351200005],[2.9231767650000506,6.585173130000044],[2.88109636300004,6.543698788000086],[2.8791854380000927,6.526906490000044],[2.8963069920000635,6.495014668000067],[2.8893990520000443,6.476109028000053],[2.8799462320000657,6.469928265000078],[2.8686754700000847,6.471746445000065],[2.859586239000066,6.4677472110000735],[2.8525507450000873,6.4499711990000606],[2.8421854970000595,6.4439888000000565],[2.8330013750000376,6.443140984000081],[2.8183069230000797,6.454585552000083],[2.7992324830000825,6.460095882000076],[2.7841141220000623,6.452748775000089],[2.7444109920000415,6.44907522200009],[2.735445976000051,6.457930565000083],[2.7137942310000653,6.459021091000068],[2.724710000000073,6.526390000000049],[2.742930000000058,6.545430000000067],[2.753120000000081,6.570470000000057],[2.7446500000000924,6.583830000000091],[2.731420000000071,6.630790000000047],[2.752460000000042,6.665680000000066],[2.78490000000005,6.693270000000041],[2.789500000000089,6.74813000000006],[2.7787100000000464,6.759200000000078],[2.751790000000085,6.759050000000059],[2.739150000000052,6.76529000000005],[2.7279700000000844,6.8016600000000835],[2.7492500000000746,6.839300000000037],[2.7441921020000564,6.852097621000041],[2.7758405210000774,6.838728428000081],[2.819241762000047,6.835682869000038]]]}},{"type":"Feature","properties":{"CNTRY_NAME":"Nigeria","CNTRY_CODE":"NGA","ADM1_NAME":"Ogun","ADM1_CODE":"NGA028","ADM2_NAME":"Egbado North","ADM2_CODE":"NGA028004","HRname":"Egbado North","HRpcode":"NG028004","HRparent":"NG028","Shape_Leng":1.80476282625,"Shape_Area":0.163825210647,"ADM2_New":"Egbado North","id":"NG-OG-EGBADO-NORTH","name":"Egbado North","parentId":"NG-OG","stateName":"Ogun","regionId":"NG-SW","fillColor":"#A8BF7A"},"geometry":{"type":"Polygon","coordinates":[[[3.00690817800006,7.396784306000086],[3.001032591000069,7.3801031110000395],[3.0147383210000385,7.322996140000043],[3.0215911870000696,7.30852937700007],[3.047017336000067,7.286385536000068],[3.0491964820000703,7.272478104000072],[3.060610056000087,7.253910542000085],[3.066523790000076,7.218685150000056],[3.0796499250000693,7.207640171000037],[3.0882160660000864,7.170330048000039],[3.101541042000065,7.139111519000039],[3.1259067060000802,7.1143651010000895],[3.1205766200000653,7.086192131000075],[3.124383926000064,7.062588215000062],[3.1205766200000653,7.0298466680000615],[3.074891090000051,6.994821072000093],[3.0623276230000442,6.9674096110000505],[3.061457396000094,6.937674522000066],[3.0103600030000734,6.941140175000044],[2.985613823000051,6.90344953500005],[2.9494459630000733,6.8935513500000525],[2.898810863000051,6.863474846000088],[2.851983070000074,6.862713337000059],[2.832185984000091,6.850530624000044],[2.819241762000047,6.835682869000038],[2.7758405210000774,6.838728428000081],[2.744192205000047,6.852097624000066],[2.751510000000053,6.912420000000054],[2.747880000000066,6.928290000000061],[2.72004000000004,6.934810000000084],[2.72064000000006,6.986530000000073],[2.7432700000000523,7.012450000000058],[2.79260000000005,7.041280000000086],[2.7528800000000615,7.077250000000049],[2.7450900000000615,7.092680000000087],[2.750650000000064,7.105760000000089],[2.775340000000085,7.128220000000056],[2.784870000000069,7.159230000000093],[2.774250000000052,7.234420000000057],[2.749460000000056,7.261150000000043],[2.747510183000088,7.391767167000069],[2.8323764800000504,7.393428326000048],[2.9283163550000495,7.413606167000069],[2.9637227060000555,7.4109411240000895],[3.00690817800006,7.396784306000086]]]}},{"type":"Feature","properties":{"CNTRY_NAME":"Nigeria","CNTRY_CODE":"NGA","ADM1_NAME":"Ogun","ADM1_CODE":"NGA028","ADM2_NAME":"Imeko-Afon","ADM2_CODE":"NGA028013","HRname":"Imeko-Afon","HRpcode":"NG028013","HRparent":"NG028","Shape_Leng":2.19235771803,"Shape_Area":0.13564202735,"ADM2_New":"Imeko-Afon","id":"NG-OG-IMEKO-AFON","name":"Imeko-Afon","parentId":"NG-OG","stateName":"Ogun","regionId":"NG-SW","fillColor":"#94B86A"},"geometry":{"type":"Polygon","coordinates":[[[3.0259585380000544,7.791800976000047],[3.0192253590000746,7.789857388000087],[3.0192105770000808,7.785223961000042],[3.0203120710000917,7.766694069000039],[3.0260906220000834,7.758609295000042],[3.0062139030000594,7.713928223000039],[3.011983156000042,7.7029476170000635],[2.9968791010000473,7.698830605000069],[3.002648354000087,7.687849522000079],[2.994516850000082,7.6860780720000434],[2.9898512360000495,7.6791081430000645],[3.0020217900000716,7.6733670230000826],[2.993276596000044,7.661167145000093],[2.9978902340000673,7.651919365000083],[2.9890220170000816,7.630609512000092],[2.974993467000047,7.620222569000077],[2.9725730420000787,7.610382080000079],[2.980459213000074,7.587190628000087],[3.0068261620000385,7.5558385850000604],[3.0334522720000905,7.549972534000062],[3.044315577000077,7.534303188000081],[3.0644719600000485,7.51976585400007],[3.0769460200000935,7.49134874300006],[3.069245815000045,7.475731373000087],[3.075379610000084,7.451386452000065],[3.0822112560000505,7.438624382000057],[3.097791910000069,7.430471897000075],[3.107279778000077,7.41619300800005],[3.110297441000057,7.385052681000047],[3.023875475000068,7.39228630100007],[2.9637227060000555,7.4109411240000895],[2.9283163550000495,7.413606167000069],[2.8323764800000504,7.393428326000048],[2.747510183000088,7.391767167000069],[2.7475800000000845,7.417440000000056],[2.785810000000083,7.41871000000009],[2.799190000000067,7.426480000000083],[2.7981900000000905,7.48255000000006],[2.7929300000000694,7.49452000000008],[2.749490000000094,7.527500000000089],[2.7461100000000442,7.555780000000084],[2.7362300000000914,7.565220000000068],[2.730290000000082,7.5801700000000665],[2.7253900000000613,7.6479700000000435],[2.7303700000000504,7.699180000000069],[2.729460000000074,7.792220000000043],[2.72467000000006,7.807630000000074],[2.7113200000000575,7.813170000000071],[2.7063100000000873,7.832710000000077],[2.6855910650000396,7.867809065000074],[2.7258260250000603,7.880725384000073],[2.7566492560000597,7.8999676700000805],[2.7677142620000836,7.91159772900005],[2.7771065240000894,7.944651127000043],[2.791637182000045,7.951082706000079],[2.8078906540000617,7.951730251000072],[2.8275678160000552,7.933856487000071],[2.8385868070000697,7.931006908000086],[2.9198217390000423,7.923816681000062],[2.8913052080000625,7.89995050400006],[2.8819093700000735,7.8657383920000825],[2.8794507980000503,7.822867393000081],[2.88231778100004,7.811874866000039],[2.9112873080000554,7.795777798000074],[2.915317059000074,7.785369396000078],[2.914625645000058,7.750614643000063],[2.95244550700005,7.779732704000082],[2.972876787000075,7.8163070680000715],[2.9787805080000567,7.847608089000062],[2.9857828620000646,7.859221458000093],[3.0259585380000544,7.791800976000047]]]}},{"type":"Feature","properties":{"CNTRY_NAME":"Nigeria","CNTRY_CODE":"NGA","ADM1_NAME":"Ogun","ADM1_CODE":"NGA028","ADM2_NAME":"Ogun waterside","ADM2_CODE":"NGA028018","HRname":"Ogun waterside","HRpcode":"NG028018","HRparent":"NG028","Shape_Leng":1.83300586268,"Shape_Area":0.0816260864472,"ADM2_New":"Ogun waterside","id":"NG-OG-OGUN-WATERSIDE","name":"Ogun waterside","parentId":"NG-OG","stateName":"Ogun","regionId":"NG-SW","fillColor":"#A3C986"},"geometry":{"type":"Polygon","coordinates":[[[4.582542419000049,6.642193317000078],[4.592308521000064,6.6367068290000475],[4.600756168000089,6.618286610000041],[4.589912415000072,6.56744146300008],[4.588248730000089,6.532358646000091],[4.604174614000044,6.503808975000084],[4.605220795000093,6.492155075000085],[4.564331055000082,6.498971462000043],[4.566308975000084,6.476821423000047],[4.559962273000053,6.450932503000047],[4.535164833000067,6.408320427000092],[4.52311658900004,6.407330036000076],[4.503599167000061,6.415532112000051],[4.479822636000051,6.409049988000049],[4.473125458000084,6.39320278200006],[4.480064392000088,6.386895657000082],[4.514828205000072,6.397127151000063],[4.5757579800000485,6.380978584000047],[4.598449707000043,6.366196156000058],[4.595837593000056,6.335711002000039],[4.5756139760000565,6.304204464000065],[4.551476479000087,6.3096113200000445],[4.497422218000054,6.359172821000072],[4.481680870000048,6.355392456000061],[4.456810160000089,6.340274765000061],[4.3508377080000855,6.371523829000068],[4.3508377080000855,6.427625179000074],[4.337199211000041,6.439527988000066],[4.303938389000052,6.439470768000092],[4.295577049000087,6.4346113200000445],[4.263808727000082,6.443560600000069],[4.245267391000084,6.434468269000092],[4.236883163000073,6.438172817000066],[4.2356915470000445,6.4447588920000385],[4.225829601000044,6.445616245000053],[4.217325687000084,6.463053226000056],[4.193742752000048,6.463196278000055],[4.161073208000062,6.474720001000037],[4.15501022300009,6.496640682000077],[4.178334236000069,6.515130997000085],[4.21114397000008,6.5280885700000795],[4.222256660000085,6.537740707000069],[4.22873306300005,6.557616234000079],[4.221983433000048,6.565439701000059],[4.229897976000075,6.579689503000054],[4.277130127000078,6.5979194640000856],[4.296188354000037,6.618220806000068],[4.316904068000042,6.625678539000091],[4.3459062580000705,6.624435425000058],[4.362478733000046,6.6298213010000495],[4.3770551680000835,6.645117283000047],[4.3902235030000725,6.628200531000061],[4.424611092000077,6.613617420000082],[4.454317093000043,6.607318401000043],[4.478824615000065,6.535431862000053],[4.496610641000075,6.505059719000087],[4.512100697000051,6.5540833470000734],[4.537799835000044,6.601317406000078],[4.567274570000052,6.636568546000092],[4.582542419000049,6.642193317000078]]]}}]}