{"type":"FeatureCollection","features":[{"type":"Feature","properties":{"CNTRY_NAME":"Nigeria","CNTRY_CODE":"NGA","ADM1_NAME":"Ondo","ADM1_CODE":"NGA029","ADM2_NAME":"Akoko North East","ADM2_CODE":"NGA029001","HRname":"Akoko North East","HRpcode":"NG029001","HRparent":"NG029","Shape_Leng":0.997989702253,"Shape_Area":0.0304535567726,"ADM2_New":"Akoko North East","id":"NG-ON-AKOKO-NORTH-EAST","name":"Akoko North East","parentId":"NG-ON","stateName":"Ondo","regionId":"NG-SW","fillColor":"#6BA368"},"geometry":{"type":"Polygon","coordinates":[[[5.618211746000043,7.563905239000064],[5.635854244000086,7.559386253000071],[5.671086788000082,7.5595812800000886],[5.711934566000082,7.550573826000061],[5.786094189000039,7.553754807000075],[5.86849021900008,7.576371670000071],[5.893457413000078,7.588513851000073],[5.917333126000074,7.630197525000085],[5.937654018000046,7.644160271000089],[5.96846675900008,7.605549812000049],[5.996539116000065,7.559537411000065],[6.004125595000062,7.529235840000069],[5.975643158000082,7.530212879000089],[5.967428207000069,7.5157070160000785],[5.95421886400004,7.515233040000055],[5.951171875000057,7.501221657000087],[5.945872784000073,7.5001616480000735],[5.823482990000059,7.495887756000059],[5.820687294000038,7.502238274000092],[5.813270092000039,7.502197266000053],[5.737348557000075,7.482386112000086],[5.686358452000093,7.481180191000078],[5.656658173000039,7.4865555760000575],[5.614950180000051,7.483554363000053],[5.610309124000082,7.484452248000082],[5.618211746000043,7.563905239000064]]]}},{"type":"Feature","properties":{"CNTRY_NAME":"Nigeria","CNTRY_CODE":"NGA","ADM1_NAME":"Ondo","ADM1_CODE":"NGA029","ADM2_NAME":"Akoko North West","ADM2_CODE":"NGA029002","HRname":"Akoko North West","HRpcode":"NG029002","HRparent":"NG029","Shape_Leng":0.898891911545,"Shape_Area":0.0419255373828,"ADM2_New":"Akoko North West","id":"NG-ON-AKOKO-NORTH-WEST","name":"Akoko North West","parentId":"NG-ON","stateName":"Ondo","regionId":"NG-SW","fillColor":"#C4A574"},"geometry":{"type":"Polygon","coordinates":[[[5.773028374000091,7.747318745000086],[5.816439152000044,7.7278490070000885],[5.827743053000063,7.7340407370000435],[5.85002613100005,7.728624344000082],[5.919446945000061,7.750246048000065],[5.928739071000052,7.746604443000081],[5.922439098000041,7.712404728000081],[5.940000534000092,7.645110130000091],[5.917333126000074,7.630197525000085],[5.893457413000078,7.588513851000073],[5.86849021900008,7.576371670000071],[5.786094189000039,7.553754807000075],[5.711934566000082,7.550573826000061],[5.671086788000082,7.5595812800000886],[5.635854244000086,7.559386253000071],[5.618211746000043,7.563905239000064],[5.624599457000045,7.58240795100005],[5.655056477000073,7.62872266800008],[5.680962086000079,7.623744011000042],[5.6886172290000445,7.632442951000087],[5.699404240000092,7.682898045000059],[5.716454983000062,7.700992584000062],[5.767605782000089,7.73718118700009],[5.773028374000091,7.747318745000086]]]}},{"type":"Feature","properties":{"CNTRY_NAME":"Nigeria","CNTRY_CODE":"NGA","ADM1_NAME":"Ondo","ADM1_CODE":"NGA029","ADM2_NAME":"Akoko South East","ADM2_CODE":"NGA029003","HRname":"Akoko South East","HRpcode":"NG029003","HRparent":"NG029","Shape_Leng":0.582498636073,"Shape_Area":0.0184486975581,"ADM2_New":"Akoko South East","id":"NG-ON-AKOKO-SOUTH-EAST","name":"Akoko South East","parentId":"NG-ON","stateName":"Ondo","regionId":"NG-SW","fillColor":"#5B8FA8"},"geometry":{"type":"Polygon","coordinates":[[[5.823482990000059,7.495887756000059],[5.951171875000057,7.501221657000087],[5.948134899000081,7.487301826000078],[5.963303089000078,7.46036386500009],[5.984490871000048,7.45611000100007],[5.986714840000047,7.450263977000077],[5.9872169490000715,7.444429874000093],[5.977336884000067,7.434600830000079],[5.968483925000044,7.414854050000088],[5.978558064000083,7.393786907000049],[5.975996017000057,7.372240067000064],[5.986794949000057,7.363408089000075],[5.980875969000067,7.348884106000071],[5.950448036000068,7.344475269000043],[5.9105191230000855,7.354998112000089],[5.8919034000000465,7.367822170000068],[5.8816118240000606,7.3843855860000644],[5.84686613100007,7.394510746000037],[5.827465534000055,7.4505677220000734],[5.823482990000059,7.495887756000059]]]}},{"type":"Feature","properties":{"CNTRY_NAME":"Nigeria","CNTRY_CODE":"NGA","ADM1_NAME":"Ondo","ADM1_CODE":"NGA029","ADM2_NAME":"Akoko South West","ADM2_CODE":"NGA029004","HRname":"Akoko South West","HRpcode":"NG029004","HRparent":"NG029","Shape_Leng":0.905699658602,"Shape_Area":0.0433312112579,"ADM2_New":"Akoko South West","id":"NG-ON-AKOKO-SOUTH-WEST","name":"Akoko South West","parentId":"NG-ON","stateName":"Ondo","regionId":"NG-SW","fillColor":"#A8BF7A"},"geometry":{"type":"Polygon","coordinates":[[[5.610309124000082,7.484452248000082],[5.737348557000075,7.482386112000086],[5.820687294000038,7.502238274000092],[5.830308914000057,7.439503193000064],[5.84816169700008,7.397127151000063],[5.823184013000059,7.386831760000064],[5.787208557000042,7.35339164700008],[5.756678581000074,7.341218948000062],[5.696621895000078,7.303028107000046],[5.66974926000006,7.300109386000088],[5.640027523000072,7.30917835200006],[5.504433632000087,7.316193104000092],[5.521214485000087,7.332527637000055],[5.588349342000072,7.43169879900006],[5.599372864000088,7.450227261000066],[5.610309124000082,7.484452248000082]]]}},{"type":"Feature","properties":{"CNTRY_NAME":"Nigeria","CNTRY_CODE":"NGA","ADM1_NAME":"Ondo","ADM1_CODE":"NGA029","ADM2_NAME":"Akure North","ADM2_CODE":"NGA029005","HRname":"Akure North","HRpcode":"NG029005","HRparent":"NG029","Shape_Leng":1.13413693426,"Shape_Area":0.0539114209773,"ADM2_New":"Akure North","id":"NG-ON-AKURE-NORTH","name":"Akure North","parentId":"NG-ON","stateName":"Ondo","regionId":"NG-SW","fillColor":"#B8956B"},"geometry":{"type":"Polygon","coordinates":[[[5.192399979000072,7.436892033000049],[5.2452702520000685,7.433491707000087],[5.320331097000064,7.4412946700000475],[5.346626282000045,7.3814215660000855],[5.358230114000094,7.295613289000073],[5.388226032000091,7.2831869130000655],[5.418754101000047,7.249780655000052],[5.416126728000052,7.22206544900007],[5.424548626000046,7.208261490000041],[5.419195652000042,7.170373917000063],[5.4278178220000655,7.1205601690000435],[5.433406353000066,7.1159744260000934],[5.457498074000057,7.118877888000043],[5.486292362000086,7.109804153000084],[5.490979671000048,7.100596428000074],[5.479935646000058,7.085761547000061],[5.449725151000052,7.064806938000061],[5.3651552200000765,7.092512131000092],[5.316319466000039,7.162417412000082],[5.27350425700007,7.1917276380000885],[5.24934101100007,7.201750755000091],[5.226012707000052,7.228398800000093],[5.2129187580000576,7.248640537000085],[5.181623936000051,7.35474920300004],[5.194454670000084,7.40089273500007],[5.192399979000072,7.436892033000049]]]}},{"type":"Feature","properties":{"CNTRY_NAME":"Nigeria","CNTRY_CODE":"NGA","ADM1_NAME":"Ondo","ADM1_CODE":"NGA029","ADM2_NAME":"Akure South","ADM2_CODE":"NGA029006","HRname":"Akure South","HRpcode":"NG029006","HRparent":"NG029","Shape_Leng":0.827581903544,"Shape_Area":0.0270624912588,"ADM2_New":"Akure South","id":"NG-ON-AKURE-SOUTH","name":"Akure South","parentId":"NG-ON","stateName":"Ondo","regionId":"NG-SW","fillColor":"#6AADA3"},"geometry":{"type":"Polygon","coordinates":[[[5.083097458000054,7.2506909370000585],[5.086626530000046,7.28302812600009],[5.11245966000007,7.306255817000078],[5.152204990000087,7.328636169000049],[5.181623936000051,7.35474920300004],[5.2129187580000576,7.248640537000085],[5.226012707000052,7.228398800000093],[5.24934101100007,7.201750755000091],[5.27350425700007,7.1917276380000885],[5.316319466000039,7.162417412000082],[5.3651552200000765,7.092512131000092],[5.254500866000058,7.107596397000066],[5.2340517040000805,7.116716862000089],[5.207014084000093,7.143344402000082],[5.158651829000064,7.169854164000071],[5.083097458000054,7.2506909370000585]]]}},{"type":"Feature","properties":{"CNTRY_NAME":"Nigeria","CNTRY_CODE":"NGA","ADM1_NAME":"Ondo","ADM1_CODE":"NGA029","ADM2_NAME":"Ese-Odo","ADM2_CODE":"NGA029007","HRname":"Ese-Odo","HRpcode":"NG029007","HRparent":"NG029","Shape_Leng":1.2394259536,"Shape_Area":0.0620632200021,"ADM2_New":"Ese-Odo","id":"NG-ON-ESE-ODO","name":"Ese-Odo","parentId":"NG-ON","stateName":"Ondo","regionId":"NG-SW","fillColor":"#8FAF6E"},"geometry":{"type":"Polygon","coordinates":[[[4.865088463000063,6.437849045000064],[4.905781746000059,6.456541538000067],[4.915980816000058,6.456598282000073],[4.923429489000057,6.451099396000075],[4.950805664000086,6.363531590000093],[4.995665073000055,6.300068378000049],[5.00256919900005,6.294045448000077],[5.015618801000073,6.292353153000079],[5.041041851000045,6.274275303000081],[5.053448200000048,6.246833324000079],[5.060573101000045,6.248004913000045],[5.073347569000077,6.239534855000045],[5.078811169000062,6.222615719000089],[5.075622559000067,6.213434219000078],[5.085182667000083,6.216088295000077],[5.092422962000057,6.19828033400006],[5.103156090000084,6.202176094000038],[5.109939575000055,6.19542789500008],[5.119923592000077,6.207008839000082],[5.1286873820000665,6.18965864200004],[5.135913372000061,6.186662197000089],[5.132036209000091,6.1808462140000415],[5.137675762000072,6.1730918880000445],[5.126955986000041,6.1639466290000655],[5.101120949000062,6.124878883000065],[5.041731834000075,6.00508642200009],[4.853392124000038,6.206943989000081],[4.839350700000068,6.23087358500004],[4.83448886900004,6.27147436100006],[4.864854813000079,6.313193798000043],[4.870325565000087,6.329844952000087],[4.865612507000037,6.343668938000064],[4.849773407000043,6.357431889000054],[4.85061311700008,6.373133659000075],[4.867184162000058,6.394462585000042],[4.87357187300006,6.412965298000074],[4.874422073000062,6.426820278000093],[4.865088463000063,6.437849045000064]]]}},{"type":"Feature","properties":{"CNTRY_NAME":"Nigeria","CNTRY_CODE":"NGA","ADM1_NAME":"Ondo","ADM1_CODE":"NGA029","ADM2_NAME":"Idanre","ADM2_CODE":"NGA029008","HRname":"Idanre","HRpcode":"NG029008","HRparent":"NG029","Shape_Leng":1.85641384396,"Shape_Area":0.156165614496,"ADM2_New":"Idanre","id":"NG-ON-IDANRE","name":"Idanre","parentId":"NG-ON","stateName":"Ondo","regionId":"NG-SW","fillColor":"#D4C4A0"},"geometry":{"type":"Polygon","coordinates":[[[5.036707401000058,7.255974293000065],[5.063632011000038,7.2496600150000745],[5.083097458000054,7.2506909370000585],[5.158651829000064,7.169854164000071],[5.20422744800004,7.144252300000062],[5.2294001580000895,7.119461060000049],[5.24706840500005,7.1103253360000735],[5.3760547640000595,7.091649532000076],[5.449725151000052,7.064806938000061],[5.475494862000062,7.050649166000085],[5.478466511000079,7.016500950000079],[5.529964924000069,6.926297188000092],[5.537059784000064,6.884796619000042],[5.27240800900006,6.88885879500009],[5.254822254000089,6.883221626000079],[5.2088685040000655,6.810021400000039],[5.197015762000092,6.773944855000082],[5.150810719000049,6.745987892000073],[5.126022816000045,6.70152902600006],[5.122329712000067,6.69873857500005],[5.105563164000046,6.712496281000085],[5.088838100000089,6.718866825000077],[5.078197479000039,6.714883804000067],[5.062835693000068,6.726109982000082],[5.053517818000046,6.734368324000059],[5.0468988420000755,6.757415771000069],[5.017136574000062,6.77387142200007],[5.002203941000062,6.79133272200005],[5.002070427000092,6.815339088000087],[4.988069057000075,6.898733616000072],[5.006719112000042,6.979723454000066],[4.9943265910000605,7.040596485000037],[4.992261887000041,7.078442574000064],[4.994976521000069,7.090461731000062],[5.034475803000078,7.157162189000076],[5.032186985000067,7.235174656000083],[5.036707401000058,7.255974293000065]]]}},{"type":"Feature","properties":{"CNTRY_NAME":"Nigeria","CNTRY_CODE":"NGA","ADM1_NAME":"Ondo","ADM1_CODE":"NGA029","ADM2_NAME":"Ifedore","ADM2_CODE":"NGA029009","HRname":"Ifedore","HRpcode":"NG029009","HRparent":"NG029","Shape_Leng":0.672376244338,"Shape_Area":0.0241103754673,"ADM2_New":"Ifedore","id":"NG-ON-IFEDORE","name":"Ifedore","parentId":"NG-ON","stateName":"Ondo","regionId":"NG-SW","fillColor":"#688EB5"},"geometry":{"type":"Polygon","coordinates":[[[5.084746361000043,7.456950665000079],[5.132086754000056,7.444868088000078],[5.187743664000038,7.440559864000079],[5.192399979000072,7.436892033000049],[5.194439411000076,7.403662205000046],[5.186305523000044,7.36575937300006],[5.177115917000037,7.350934982000069],[5.152204990000087,7.328636169000049],[5.11245966000007,7.306255817000078],[5.090314865000039,7.286742210000057],[5.083865643000081,7.279319763000046],[5.083097458000054,7.2506909370000585],[5.071981907000065,7.248782635000055],[5.036707401000058,7.255974293000065],[5.042090893000079,7.2883219720000625],[5.042684078000093,7.348343372000045],[5.030450821000045,7.380593300000044],[5.006279945000074,7.392001629000049],[5.005278111000052,7.405384541000046],[5.018115044000069,7.4313097000000425],[5.048568249000084,7.4573326110000835],[5.0708055500000455,7.460226059000092],[5.084746361000043,7.456950665000079]]]}},{"type":"Feature","properties":{"CNTRY_NAME":"Nigeria","CNTRY_CODE":"NGA","ADM1_NAME":"Ondo","ADM1_CODE":"NGA029","ADM2_NAME":"Ile-Oluji-Okeigbo","ADM2_CODE":"NGA029011","HRname":"Ile-Oluji-Okeigbo","HRpcode":"NG029011","HRparent":"NG029","Shape_Leng":1.31661908202,"Shape_Area":0.0569278025364,"ADM2_New":"Ile-Oluji-Okeigbo","id":"NG-ON-ILE-OLUJI-OKEIGBO","name":"Ile-Oluji-Okeigbo","parentId":"NG-ON","stateName":"Ondo","regionId":"NG-SW","fillColor":"#C9B896"},"geometry":{"type":"Polygon","coordinates":[[[4.834250927000085,7.374184132000039],[4.87561607400005,7.378812313000083],[4.943352222000044,7.369954109000048],[4.989670277000073,7.37759733200005],[5.006279945000074,7.392001629000049],[5.030450821000045,7.380593300000044],[5.042684078000093,7.348343372000045],[5.042941093000081,7.302176952000082],[5.032220364000068,7.231300354000041],[5.02210903200006,7.213418961000059],[5.0073404310000456,7.2013335230000735],[4.980498791000059,7.192874432000053],[4.856594563000044,7.183926105000069],[4.813456059000089,7.218726158000038],[4.78657817800007,7.216730595000058],[4.766252041000087,7.203691006000042],[4.756145477000075,7.187014580000039],[4.761996269000065,7.135338783000066],[4.7546353340000564,7.125141144000054],[4.688897610000083,7.108156204000068],[4.651000977000081,7.086709023000083],[4.616705418000038,7.084672451000074],[4.635089874000073,7.113398552000092],[4.67295551300009,7.140385628000047],[4.669154167000045,7.15698528300004],[4.6718845370000395,7.1662340160000895],[4.683927536000056,7.168147087000079],[4.703434467000079,7.161791801000049],[4.708982468000045,7.164592743000071],[4.7154316900000595,7.1720151900000815],[4.720881462000079,7.192359447000058],[4.742083549000085,7.21463728000009],[4.7566409110000905,7.264579773000037],[4.7564306260000535,7.302436352000086],[4.77192068100004,7.351460457000087],[4.806123734000039,7.370117187000062],[4.834250927000085,7.374184132000039]]]}},{"type":"Feature","properties":{"CNTRY_NAME":"Nigeria","CNTRY_CODE":"NGA","ADM1_NAME":"Ondo","ADM1_CODE":"NGA029","ADM2_NAME":"Irele","ADM2_CODE":"NGA029012","HRname":"Irele","HRpcode":"NG029012","HRparent":"NG029","Shape_Leng":1.3356993015,"Shape_Area":0.0784521163495,"ADM2_New":"Irele","id":"NG-ON-IRELE","name":"Irele","parentId":"NG-ON","stateName":"Ondo","regionId":"NG-SW","fillColor":"#5E9E78"},"geometry":{"type":"Polygon","coordinates":[[[5.078197479000039,6.714883804000067],[5.088838100000089,6.718866825000077],[5.105563164000046,6.712496281000085],[5.122329712000067,6.69873857500005],[5.112367153000093,6.65620851500006],[5.11253118500008,6.626662254000053],[5.128054142000053,6.5881609920000415],[5.140639782000051,6.574186325000085],[5.162112236000041,6.561973095000042],[5.164249897000047,6.554492474000085],[5.1503572460000555,6.5117468830000576],[5.153385162000063,6.498033047000092],[5.102981091000061,6.442285538000078],[5.10778999300004,6.4358739850000575],[5.103693485000065,6.424831390000065],[5.10974931700008,6.414679527000089],[5.103693485000065,6.4022121430000425],[5.075731277000045,6.377276897000058],[5.0661134720000405,6.376564503000054],[5.052824974000089,6.384150982000051],[5.04384994500009,6.366590977000044],[5.029245377000052,6.363563061000093],[5.027820587000065,6.345218182000053],[5.035301208000078,6.328475952000076],[5.0153646470000695,6.308973789000049],[5.015618801000073,6.292353153000079],[5.00256919900005,6.294045448000077],[4.950805664000086,6.363531590000093],[4.923429489000057,6.451099396000075],[4.915980816000058,6.456598282000073],[4.905781746000059,6.456541538000067],[4.854925632000061,6.43132925000009],[4.827836514000069,6.4671902660000455],[4.839704990000087,6.50049686400007],[4.868247509000071,6.536665916000061],[4.866007805000038,6.605905533000055],[4.881549358000086,6.645696163000082],[4.926888943000051,6.662568092000072],[4.980691433000061,6.6582493780000505],[5.00856828700006,6.647323608000079],[5.018746853000039,6.651073456000063],[5.033427715000073,6.678855419000058],[5.078197479000039,6.714883804000067]]]}},{"type":"Feature","properties":{"CNTRY_NAME":"Nigeria","CNTRY_CODE":"NGA","ADM1_NAME":"Ondo","ADM1_CODE":"NGA029","ADM2_NAME":"Odigbo","ADM2_CODE":"NGA029013","HRname":"Odigbo","HRpcode":"NG029013","HRparent":"NG029","Shape_Leng":2.09636511805,"Shape_Area":0.148179290717,"ADM2_New":"Odigbo","id":"NG-ON-ODIGBO","name":"Odigbo","parentId":"NG-ON","stateName":"Ondo","regionId":"NG-SW","fillColor":"#94B86A"},"geometry":{"type":"Polygon","coordinates":[[[4.914076328000078,6.957065105000083],[4.952271938000081,6.93325328800006],[4.958824158000084,6.92220926300007],[4.988069057000075,6.898733616000072],[5.002070427000092,6.815339088000087],[5.002203941000062,6.79133272200005],[5.017136574000062,6.77387142200007],[5.0468988420000755,6.757415771000069],[5.053517818000046,6.734368324000059],[5.076794624000058,6.716953754000087],[5.033427715000073,6.678855419000058],[5.018746853000039,6.651073456000063],[5.00856828700006,6.647323608000079],[4.980691433000061,6.6582493780000505],[4.926888943000051,6.662568092000072],[4.915778160000059,6.65973663300008],[4.876938820000078,6.641054153000084],[4.866007805000038,6.605905533000055],[4.867969990000063,6.586525917000074],[4.835503101000086,6.589116096000055],[4.811422348000065,6.584365845000093],[4.7479062080000745,6.668040276000056],[4.732855320000056,6.706737995000083],[4.713235378000093,6.733406544000047],[4.688217163000047,6.730497837000087],[4.638102531000072,6.738530636000064],[4.625225067000088,6.719991684000092],[4.611532688000068,6.6811351780000905],[4.5958938600000465,6.65888738600006],[4.582542419000049,6.642193317000078],[4.564508438000075,6.633782864000068],[4.528610229000037,6.586492538000073],[4.512100697000051,6.5540833470000734],[4.496610641000075,6.505059719000087],[4.478824615000065,6.535431862000053],[4.454317093000043,6.607318401000043],[4.426470757000061,6.612704277000091],[4.3902235030000725,6.628200531000061],[4.379962444000057,6.639224052000088],[4.376120090000086,6.663210392000053],[4.389039040000057,6.674362183000085],[4.388823509000076,6.713141918000076],[4.4109268190000535,6.74004221000007],[4.418231487000071,6.760396481000043],[4.47641277300005,6.802269936000073],[4.515257359000088,6.82002925900008],[4.542057991000092,6.835874557000068],[4.548316002000092,6.844217300000082],[4.566077709000069,6.851705074000051],[4.607754707000083,6.860246181000093],[4.629028797000046,6.86959743500006],[4.6865143780000835,6.86991596200005],[4.719789982000066,6.88856744800006],[4.788258076000091,6.914801121000039],[4.837239265000051,6.943696499000055],[4.876109123000049,6.95683908500007],[4.914076328000078,6.957065105000083]]]}},{"type":"Feature","properties":{"CNTRY_NAME":"Nigeria","CNTRY_CODE":"NGA","ADM1_NAME":"Ondo","ADM1_CODE":"NGA029","ADM2_NAME":"Okitipupa","ADM2_CODE":"NGA029014","HRname":"Okitipupa","HRpcode":"NG029014","HRparent":"NG029","Shape_Leng":1.07510593843,"Shape_Area":0.065427764903,"ADM2_New":"Okitipupa","id":"NG-ON-OKITIPUPA","name":"Okitipupa","parentId":"NG-ON","stateName":"Ondo","regionId":"NG-SW","fillColor":"#C2A882"},"geometry":{"type":"Polygon","coordinates":[[[4.582542419000049,6.642193317000078],[4.611532688000068,6.6811351780000905],[4.63347721100007,6.736658096000042],[4.688217163000047,6.730497837000087],[4.713235378000093,6.733406544000047],[4.732855320000056,6.706737995000083],[4.7479062080000745,6.668040276000056],[4.811422348000065,6.584365845000093],[4.835503101000086,6.589116096000055],[4.867969990000063,6.586525917000074],[4.868247509000071,6.536665916000061],[4.839704990000087,6.50049686400007],[4.82782125500006,6.469960213000093],[4.831596851000086,6.4579772950000915],[4.851180553000063,6.437771797000039],[4.853086472000086,6.428548813000077],[4.82629585300009,6.410856724000041],[4.752213478000044,6.393825531000061],[4.709562778000077,6.39358949700005],[4.670492649000039,6.4164566990000935],[4.652773380000042,6.434825897000053],[4.638726711000061,6.459679127000072],[4.626627445000054,6.4679222110000865],[4.61819028900004,6.484495640000091],[4.605220795000093,6.492155075000085],[4.604174614000044,6.503808975000084],[4.588248730000089,6.532358646000091],[4.589912415000072,6.56744146300008],[4.600756168000089,6.618286610000041],[4.592308521000064,6.6367068290000475],[4.582542419000049,6.642193317000078]]]}},{"type":"Feature","properties":{"CNTRY_NAME":"Nigeria","CNTRY_CODE":"NGA","ADM1_NAME":"Ondo","ADM1_CODE":"NGA029","ADM2_NAME":"Ondo East","ADM2_CODE":"NGA029015","HRname":"Ondo East","HRpcode":"NG029015","HRparent":"NG029","Shape_Leng":0.937125325425,"Shape_Area":0.028873949232,"ADM2_New":"Ondo East","id":"NG-ON-ONDO-EAST","name":"Ondo East","parentId":"NG-ON","stateName":"Ondo","regionId":"NG-SW","fillColor":"#72A898"},"geometry":{"type":"Polygon","coordinates":[[[4.856594563000044,7.183926105000069],[4.980498791000059,7.192874432000053],[5.014732361000085,7.205991268000048],[5.032220364000068,7.231300354000041],[5.034475803000078,7.157162189000076],[4.994976521000069,7.090461731000062],[4.992261887000041,7.078442574000064],[4.9943265910000605,7.040596485000037],[5.006719112000042,6.979723454000066],[4.989544392000084,6.900218964000089],[4.974668503000089,6.90752363200005],[4.952271938000081,6.93325328800006],[4.914076328000078,6.957065105000083],[4.932906628000069,7.080883980000067],[4.9198594090000825,7.092815399000074],[4.879928589000087,7.103674412000089],[4.842733383000052,7.122859001000052],[4.8592634200000475,7.151574612000047],[4.861875534000092,7.182060242000091],[4.856594563000044,7.183926105000069]]]}},{"type":"Feature","properties":{"CNTRY_NAME":"Nigeria","CNTRY_CODE":"NGA","ADM1_NAME":"Ondo","ADM1_CODE":"NGA029","ADM2_NAME":"Ondo West","ADM2_CODE":"NGA029016","HRname":"Ondo West","HRpcode":"NG029016","HRparent":"NG029","Shape_Leng":1.29831931178,"Shape_Area":0.0791242693703,"ADM2_New":"Ondo West","id":"NG-ON-ONDO-WEST","name":"Ondo West","parentId":"NG-ON","stateName":"Ondo","regionId":"NG-SW","fillColor":"#D4896A"},"geometry":{"type":"Polygon","coordinates":[[[4.616705418000038,7.084672451000074],[4.651000977000081,7.086709023000083],[4.688897610000083,7.108156204000068],[4.7546353340000564,7.125141144000054],[4.761996269000065,7.135338783000066],[4.755259514000045,7.179622650000056],[4.763485909000053,7.200905323000086],[4.781025410000041,7.2148532870000395],[4.813456059000089,7.218726158000038],[4.840483189000054,7.193945408000047],[4.861875534000092,7.182060242000091],[4.8592634200000475,7.151574612000047],[4.842733383000052,7.122859001000052],[4.879928589000087,7.103674412000089],[4.9198594090000825,7.092815399000074],[4.932906628000069,7.080883980000067],[4.914076328000078,6.957065105000083],[4.878890991000048,6.956854343000089],[4.837239265000051,6.943696499000055],[4.788258076000091,6.914801121000039],[4.719789982000066,6.88856744800006],[4.6865143780000835,6.86991596200005],[4.629028797000046,6.86959743500006],[4.548316002000092,6.844217300000082],[4.557522297000048,6.88951540000005],[4.556210041000043,6.958760262000055],[4.561608791000083,6.988337517000048],[4.57264232600005,7.0050191880000625],[4.6095857620000515,7.031077862000075],[4.616705418000038,7.084672451000074]]]}},{"type":"Feature","properties":{"CNTRY_NAME":"Nigeria","CNTRY_CODE":"NGA","ADM1_NAME":"Ondo","ADM1_CODE":"NGA029","ADM2_NAME":"Ose","ADM2_CODE":"NGA029017","HRname":"Ose","HRpcode":"NG029017","HRparent":"NG029","Shape_Leng":2.04007204648,"Shape_Area":0.119683565449,"ADM2_New":"Ose","id":"NG-ON-OSE","name":"Ose","parentId":"NG-ON","stateName":"Ondo","regionId":"NG-SW","fillColor":"#9B8B72"},"geometry":{"type":"Polygon","coordinates":[[[5.84686613100007,7.394510746000037],[5.8816118240000606,7.3843855860000644],[5.8919034000000465,7.367822170000068],[5.9105191230000855,7.354998112000089],[5.950448036000068,7.344475269000043],[5.917542934000039,7.333662033000053],[5.916747093000083,7.315598011000077],[5.923961163000058,7.2962799070000415],[5.89652204500004,7.258053780000068],[5.89733982100006,7.23123312000007],[5.903481007000039,7.217193127000087],[5.884325027000045,7.199862003000078],[5.883665085000075,7.192872047000037],[5.893909931000053,7.185792923000065],[5.872960091000039,7.162648201000081],[5.862779140000043,7.128338814000074],[5.842559814000083,7.118010998000045],[5.843033791000039,7.109847069000068],[5.854922771000076,7.096343040000079],[5.823740959000077,7.081440926000084],[5.792581081000037,7.0216550830000415],[5.793781281000065,7.005321026000047],[5.78564214700009,6.968341351000049],[5.799811840000075,6.921328545000051],[5.78790760000004,6.894484997000063],[5.7871084210000845,6.87139654200007],[5.769666672000085,6.8399057390000735],[5.778134823000073,6.817791939000074],[5.770835400000067,6.79651403400004],[5.757921219000082,6.784439087000067],[5.726479530000063,6.769490719000089],[5.702557564000074,6.736117363000062],[5.667370796000057,6.727612019000048],[5.640374660000077,6.746853352000073],[5.6292533870000625,6.745868206000068],[5.60523891400004,6.729115009000054],[5.582198143000085,6.704056263000041],[5.576634884000043,6.704025745000081],[5.561655998000049,6.729796410000063],[5.561419964000038,6.772269726000047],[5.544519901000058,6.810034275000078],[5.5435109140000804,6.8248023990000775],[5.549027443000057,6.83314323400009],[5.571213245000081,6.845269680000058],[5.570152283000084,6.869271278000042],[5.56551885600004,6.87602329300006],[5.576467991000072,6.900700569000037],[5.578864574000079,6.969965935000062],[5.584334850000062,6.986616611000045],[5.591706276000082,6.9949679370000695],[5.622262001000081,7.002523899000039],[5.6370306020000385,7.014609337000081],[5.641429901000038,7.05710840200004],[5.651526451000052,7.075631618000045],[5.693208694000077,7.083249569000088],[5.699667931000079,7.08882522600004],[5.697721004000073,7.1054353710000555],[5.687450409000064,7.118305206000059],[5.693873882000048,7.130344391000051],[5.7613372800000775,7.170423031000041],[5.757562160000077,7.1824054720000845],[5.726898193000068,7.194239616000061],[5.715622902000064,7.220954418000076],[5.696986675000062,7.237471581000079],[5.6697645190000685,7.297339439000041],[5.703096867000056,7.305834293000089],[5.756678581000074,7.341218948000062],[5.787208557000042,7.35339164700008],[5.82040739100006,7.385893345000056],[5.837967396000067,7.396147728000074],[5.84686613100007,7.394510746000037]]]}},{"type":"Feature","properties":{"CNTRY_NAME":"Nigeria","CNTRY_CODE":"NGA","ADM1_NAME":"Ondo","ADM1_CODE":"NGA029","ADM2_NAME":"Owo","ADM2_CODE":"NGA029018","HRname":"Owo","HRpcode":"NG029018","HRparent":"NG029","Shape_Leng":1.43317142426,"Shape_Area":0.0838861630283,"ADM2_New":"Owo","id":"NG-ON-OWO","name":"Owo","parentId":"NG-ON","stateName":"Ondo","regionId":"NG-SW","fillColor":"#A3C986"},"geometry":{"type":"Polygon","coordinates":[[[5.454043865000074,7.300614357000086],[5.47317028000009,7.301790237000091],[5.504433632000087,7.316193104000092],[5.640027523000072,7.30917835200006],[5.6650924680000685,7.30377721800005],[5.696986675000062,7.237471581000079],[5.715622902000064,7.220954418000076],[5.726898193000068,7.194239616000061],[5.761291027000084,7.178732872000069],[5.7613372800000775,7.170423031000041],[5.754883289000077,7.163923264000061],[5.704958916000066,7.13779306400005],[5.689268589000051,7.12477874800004],[5.687450409000064,7.118305206000059],[5.697721004000073,7.1054353710000555],[5.699667931000079,7.08882522600004],[5.685801506000075,7.081361771000047],[5.660777569000061,7.079376221000075],[5.647843361000071,7.0709943770000905],[5.641429901000038,7.05710840200004],[5.633347511000068,7.009972572000038],[5.587090969000087,6.991248608000092],[5.578864574000079,6.969965935000062],[5.576467991000072,6.900700569000037],[5.56551885600004,6.87602329300006],[5.555240154000046,6.883038998000075],[5.537059784000064,6.884796619000042],[5.529964924000069,6.926297188000092],[5.478466511000079,7.016500950000079],[5.478302002000078,7.046047688000044],[5.449725151000052,7.064806938000061],[5.487311840000075,7.093189240000072],[5.490021229000092,7.106131077000043],[5.466780186000051,7.117082596000046],[5.433406353000066,7.1159744260000934],[5.4278178220000655,7.1205601690000435],[5.419195652000042,7.170373917000063],[5.424548626000046,7.208261490000041],[5.416126728000052,7.22206544900007],[5.418754101000047,7.249780655000052],[5.390758514000083,7.281942844000071],[5.398140430000069,7.288447857000051],[5.454043865000074,7.300614357000086]]]}},{"type":"Feature","properties":{"CNTRY_NAME":"Nigeria","CNTRY_CODE":"NGA","ADM1_NAME":"Ondo","ADM1_CODE":"NGA029","ADM2_NAME":"Ilaje","ADM2_CODE":"NGA029010","HRname":"Ilaje","HRpcode":"NG029010","HRparent":"NG029","Shape_Leng":2.25229948874,"Shape_Area":0.10910832441,"ADM2_New":"Ilaje","id":"NG-ON-ILAJE","name":"Ilaje","parentId":"NG-ON","stateName":"Ondo","regionId":"NG-SW","fillColor":"#7CB087"},"geometry":{"type":"Polygon","coordinates":[[[4.605220795000093,6.492155075000085],[4.61819028900004,6.484495640000091],[4.626627445000054,6.4679222110000865],[4.638726711000061,6.459679127000072],[4.66490364100008,6.421042919000058],[4.7002701760000605,6.397231102000092],[4.716990471000088,6.3917837140000415],[4.752213478000044,6.393825531000061],[4.82629585300009,6.410856724000041],[4.865088463000063,6.437849045000064],[4.873479366000083,6.429584980000072],[4.871763706000081,6.404644966000092],[4.8497114180000835,6.368511677000072],[4.849773407000043,6.357431889000054],[4.869351864000066,6.338149548000047],[4.869423866000091,6.325222969000038],[4.83448886900004,6.27147436100006],[4.839350700000068,6.23087358500004],[4.853392124000038,6.206943989000081],[5.041731834000075,6.00508642200009],[5.016400814000065,5.948643208000078],[4.983859062000079,5.898479939000083],[4.972363982000047,5.894415779000042],[4.9090461730000925,5.975481033000051],[4.7802429200000915,6.096711159000051],[4.763066292000076,6.11770391500005],[4.693125248000058,6.177057743000091],[4.5293221480000625,6.30478572800007],[4.456810160000089,6.340274765000061],[4.4789042470000595,6.354453564000039],[4.497422218000054,6.359172821000072],[4.551476479000087,6.3096113200000445],[4.5756139760000565,6.304204464000065],[4.594925880000062,6.332935810000038],[4.598449707000043,6.366196156000058],[4.5757579800000485,6.380978584000047],[4.517614841000068,6.396219254000073],[4.482433319000052,6.386790752000081],[4.473125458000084,6.39320278200006],[4.479822636000051,6.409049988000049],[4.5008230210000875,6.4145936970000434],[4.527757645000065,6.406432629000051],[4.535164833000067,6.408320427000092],[4.559962273000053,6.450932503000047],[4.566308975000084,6.476821423000047],[4.565273762000061,6.4962062840000385],[4.605220795000093,6.492155075000085]]]}}]}