{"type":"FeatureCollection","features":[{"type":"Feature","properties":{"CNTRY_NAME":"Nigeria","CNTRY_CODE":"NGA","ADM1_NAME":"Oyo","ADM1_CODE":"NGA031","ADM2_NAME":"Afijio","ADM2_CODE":"NGA031001","HRname":"Afijio","HRpcode":"NG031001","HRparent":"NG031","Shape_Leng":1.18818582804,"Shape_Area":0.0588224733455,"ADM2_New":"Afijio","id":"NG-OY-AFIJIO","name":"Afijio","parentId":"NG-OY","stateName":"Oyo","regionId":"NG-SW","fillColor":"#6BA368"},"geometry":{"type":"Polygon","coordinates":[[[4.09114646900008,7.85016584400006],[4.076208115000043,7.824930191000078],[4.070667744000048,7.800783157000069],[4.0708332060000885,7.75975227400005],[4.061259747000065,7.7542657850000865],[4.074169636000079,7.735920429000089],[4.078246593000074,7.708062172000041],[4.074169636000079,7.681563377000089],[4.057183266000038,7.679524899000057],[4.0293250080000576,7.652346134000084],[3.9919545650000714,7.6537051200000406],[3.9545841220000852,7.644872189000068],[3.8791635040000756,7.659141064000039],[3.769090414000061,7.645551682000075],[3.753462791000061,7.651667118000091],[3.748027086000093,7.659141064000039],[3.747347593000086,7.693793774000085],[3.735117197000079,7.714177608000057],[3.696431875000087,7.730031967000059],[3.702502966000054,7.743394375000037],[3.7439503670000818,7.75018930400006],[3.7521038060000933,7.757663250000064],[3.753462791000061,7.764457703000062],[3.733758450000039,7.811340809000058],[3.732399464000082,7.841237068000055],[3.827524424000046,7.839878082000041],[3.871689558000071,7.824250698000071],[3.9172134400000687,7.795712948000073],[3.9388611320000564,7.798681259000091],[3.937597513000071,7.79299545300006],[3.9450714590000757,7.793674946000067],[3.9702117440000393,7.814058781000085],[4.013018131000081,7.838519573000042],[4.09114646900008,7.85016584400006]]]}},{"type":"Feature","properties":{"CNTRY_NAME":"Nigeria","CNTRY_CODE":"NGA","ADM1_NAME":"Oyo","ADM1_CODE":"NGA031","ADM2_NAME":"Akinyele","ADM2_CODE":"NGA031002","HRname":"Akinyele","HRpcode":"NG031002","HRparent":"NG031","Shape_Leng":0.896785050967,"Shape_Area":0.0422189797258,"ADM2_New":"Akinyele","id":"NG-OY-AKINYELE","name":"Akinyele","parentId":"NG-OY","stateName":"Oyo","regionId":"NG-SW","fillColor":"#C4A574"},"geometry":{"type":"Polygon","coordinates":[[[3.8465492730000506,7.652152061000038],[3.8927528860000393,7.659141064000039],[3.9260466100000713,7.64759016000005],[3.9545841220000852,7.644872189000068],[3.9919545650000714,7.6537051200000406],[4.0293250080000576,7.652346134000084],[4.05292892500006,7.674966812000093],[4.06873369200008,7.665935516000047],[4.0933732990000635,7.621484280000061],[4.005543709000051,7.54499101600004],[3.9919545650000714,7.5089793210000835],[3.9912750720000645,7.489954472000079],[3.971570730000053,7.454622269000083],[3.9586608410000395,7.441712856000038],[3.9287643430000685,7.419290543000045],[3.910418987000071,7.431520939000052],[3.899547577000078,7.432879448000051],[3.875707865000038,7.420413494000059],[3.866933346000053,7.459378719000085],[3.8560619350000707,7.484519005000038],[3.826844931000039,7.53276062000009],[3.80374312400005,7.561298370000088],[3.793551207000064,7.586438179000083],[3.7962689400000613,7.594592094000063],[3.843152046000057,7.6407957080000415],[3.8465492730000506,7.652152061000038]]]}},{"type":"Feature","properties":{"CNTRY_NAME":"Nigeria","CNTRY_CODE":"NGA","ADM1_NAME":"Oyo","ADM1_CODE":"NGA031","ADM2_NAME":"Atiba","ADM2_CODE":"NGA031003","HRname":"Atiba","HRpcode":"NG031003","HRparent":"NG031","Shape_Leng":1.95575847114,"Shape_Area":0.143331973213,"ADM2_New":"Atiba","id":"NG-OY-ATIBA","name":"Atiba","parentId":"NG-OY","stateName":"Oyo","regionId":"NG-SW","fillColor":"#5B8FA8"},"geometry":{"type":"Polygon","coordinates":[[[3.923945189000051,8.617599487000064],[3.963522911000041,8.61475181600008],[3.9569513800000777,8.595037460000071],[3.9545948510000812,8.549084663000087],[3.958129644000053,8.531410217000087],[3.9828734400000485,8.487813950000088],[4.021756649000054,8.39944362600005],[4.045321941000054,8.377056122000056],[4.04767847100004,8.362916946000041],[4.041787148000083,8.34406471300008],[3.9651992320000886,8.233306885000047],[3.9640209670000672,8.202671051000038],[3.973447323000073,8.179105759000038],[4.012330532000078,8.14140129100008],[4.022934914000075,8.120192528000075],[4.037074089000043,8.023573875000068],[4.060639858000059,7.974085808000041],[4.078313828000091,7.9493422510000755],[4.001467228000081,7.907824516000062],[3.9742884640000398,7.87385129900008],[3.9471099380000396,7.855505943000082],[3.9246876240000574,7.914619446000074],[3.9192519190000894,7.954707623000047],[3.90838050800005,7.971693993000088],[3.871689558000071,8.007705688000044],[3.809178829000075,8.046435356000075],[3.762975216000086,8.102150917000074],[3.734437943000046,8.119817734000037],[3.7398736480000707,8.156508446000089],[3.7541422840000678,8.17417430900008],[3.7616164680000566,8.193879128000049],[3.770210981000048,8.238078117000043],[3.789149284000075,8.290863037000065],[3.789149284000075,8.316248894000069],[3.799222946000043,8.331560135000075],[3.7877390380000406,8.339619637000055],[3.784918547000075,8.361378670000079],[3.790156841000055,8.38434600800008],[3.772830248000048,8.439951897000071],[3.7812919620000685,8.45526409100006],[3.801476479000087,8.45357322700005],[3.813773155000092,8.458184242000073],[3.818384647000073,8.487389565000058],[3.8076248170000895,8.539650917000074],[3.8227806090000627,8.596618652000075],[3.910610914000074,8.605747223000037],[3.923945189000051,8.617599487000064]]]}},{"type":"Feature","properties":{"CNTRY_NAME":"Nigeria","CNTRY_CODE":"NGA","ADM1_NAME":"Oyo","ADM1_CODE":"NGA031","ADM2_NAME":"Egbeda","ADM2_CODE":"NGA031005","HRname":"Egbeda","HRpcode":"NG031005","HRparent":"NG031","Shape_Leng":0.595228473633,"Shape_Area":0.0155319898178,"ADM2_New":"Egbeda","id":"NG-OY-EGBEDA","name":"Egbeda","parentId":"NG-OY","stateName":"Oyo","regionId":"NG-SW","fillColor":"#B8956B"},"geometry":{"type":"Polygon","coordinates":[[[3.9477894310000465,7.393470764000085],[4.016415119000044,7.4247260090000395],[4.078926086000081,7.435597420000079],[4.14823103000009,7.458699226000078],[4.135321140000087,7.405701160000092],[4.136680126000044,7.330280781000056],[4.128886700000066,7.310589790000051],[4.084361553000065,7.332998276000069],[3.9824421410000923,7.3703689580000855],[3.9505071640000438,7.358138561000089],[3.9477894310000465,7.393470764000085]]]}},{"type":"Feature","properties":{"CNTRY_NAME":"Nigeria","CNTRY_CODE":"NGA","ADM1_NAME":"Oyo","ADM1_CODE":"NGA031","ADM2_NAME":"Ibadan North","ADM2_CODE":"NGA031006","HRname":"Ibadan North","HRpcode":"NG031006","HRparent":"NG031","Shape_Leng":0.199471975484,"Shape_Area":0.00222023780284,"ADM2_New":"Ibadan North","id":"NG-OY-IBADAN-NORTH","name":"Ibadan North","parentId":"NG-OY","stateName":"Oyo","regionId":"NG-SW","fillColor":"#6AADA3"},"geometry":{"type":"Polygon","coordinates":[[[3.875707865000038,7.420413494000059],[3.899547577000078,7.432879448000051],[3.910418987000071,7.431520939000052],[3.9287643430000685,7.419290543000045],[3.9464585780000903,7.395527363000042],[3.92563414600005,7.373597622000091],[3.916426182000066,7.371046066000076],[3.914948463000087,7.381757736000054],[3.875707865000038,7.420413494000059]]]}},{"type":"Feature","properties":{"CNTRY_NAME":"Nigeria","CNTRY_CODE":"NGA","ADM1_NAME":"Oyo","ADM1_CODE":"NGA031","ADM2_NAME":"Ibadan North East","ADM2_CODE":"NGA031007","HRname":"Ibadan North East","HRpcode":"NG031007","HRparent":"NG031","Shape_Leng":0.164475865211,"Shape_Area":0.0014563245004,"ADM2_New":"Ibadan North East","id":"NG-OY-IBADAN-NORTH-EAST","name":"Ibadan North East","parentId":"NG-OY","stateName":"Oyo","regionId":"NG-SW","fillColor":"#8FAF6E"},"geometry":{"type":"Polygon","coordinates":[[[3.916426182000066,7.371046066000076],[3.92563414600005,7.373597622000091],[3.9477894310000465,7.393470764000085],[3.9493367670000907,7.350672245000055],[3.9460339550000754,7.3388209340000685],[3.936100245000091,7.329594612000051],[3.9095261100000585,7.354681492000054],[3.916426182000066,7.371046066000076]]]}},{"type":"Feature","properties":{"CNTRY_NAME":"Nigeria","CNTRY_CODE":"NGA","ADM1_NAME":"Oyo","ADM1_CODE":"NGA031","ADM2_NAME":"Ibadan North West","ADM2_CODE":"NGA031008","HRname":"Ibadan North West","HRpcode":"NG031008","HRparent":"NG031","Shape_Leng":0.201133565012,"Shape_Area":0.00211284757487,"ADM2_New":"Ibadan North West","id":"NG-OY-IBADAN-NORTH-WEST","name":"Ibadan North West","parentId":"NG-OY","stateName":"Oyo","regionId":"NG-SW","fillColor":"#D4C4A0"},"geometry":{"type":"Polygon","coordinates":[[[3.85149550400007,7.381485462000057],[3.856469154000081,7.400603294000064],[3.875707865000038,7.420413494000059],[3.914948463000087,7.381757736000054],[3.915531397000052,7.365826130000073],[3.9095261100000585,7.354681492000054],[3.8869717120000473,7.372237682000048],[3.86715459800007,7.3730149270000425],[3.85149550400007,7.381485462000057]]]}},{"type":"Feature","properties":{"CNTRY_NAME":"Nigeria","CNTRY_CODE":"NGA","ADM1_NAME":"Oyo","ADM1_CODE":"NGA031","ADM2_NAME":"Ibadan South East","ADM2_CODE":"NGA031009","HRname":"Ibadan South East","HRpcode":"NG031009","HRparent":"NG031","Shape_Leng":0.147655602608,"Shape_Area":0.00137228845014,"ADM2_New":"Ibadan South East","id":"NG-OY-IBADAN-SOUTH-EAST","name":"Ibadan South East","parentId":"NG-OY","stateName":"Oyo","regionId":"NG-SW","fillColor":"#688EB5"},"geometry":{"type":"Polygon","coordinates":[[[3.9095261100000585,7.354681492000054],[3.93476533900008,7.333380699000088],[3.9330167770000912,7.322889805000045],[3.9161140920000435,7.311038494000059],[3.8871104720000744,7.307957649000059],[3.891634464000049,7.325026512000079],[3.9095261100000585,7.354681492000054]]]}},{"type":"Feature","properties":{"CNTRY_NAME":"Nigeria","CNTRY_CODE":"NGA","ADM1_NAME":"Oyo","ADM1_CODE":"NGA031","ADM2_NAME":"Ibadan South West","ADM2_CODE":"NGA031010","HRname":"Ibadan South West","HRpcode":"NG031010","HRparent":"NG031","Shape_Leng":0.231409028869,"Shape_Area":0.00328309595865,"ADM2_New":"Ibadan South West","id":"NG-OY-IBADAN-SOUTH-WEST","name":"Ibadan South West","parentId":"NG-OY","stateName":"Oyo","regionId":"NG-SW","fillColor":"#7CB087"},"geometry":{"type":"Polygon","coordinates":[[[3.85149550400007,7.381485462000057],[3.86715459800007,7.3730149270000425],[3.8869717120000473,7.372237682000048],[3.9095261100000585,7.354681492000054],[3.891634464000049,7.325026512000079],[3.8871104720000744,7.307957649000059],[3.8638517860000547,7.310261250000053],[3.8399550910000926,7.349312305000069],[3.8358750340000825,7.36466074000009],[3.85149550400007,7.381485462000057]]]}},{"type":"Feature","properties":{"CNTRY_NAME":"Nigeria","CNTRY_CODE":"NGA","ADM1_NAME":"Oyo","ADM1_CODE":"NGA031","ADM2_NAME":"Ibarapa Central","ADM2_CODE":"NGA031011","HRname":"Ibarapa Central","HRpcode":"NG031011","HRparent":"NG031","Shape_Leng":0.858907658201,"Shape_Area":0.0357658047717,"ADM2_New":"Ibarapa Central","id":"NG-OY-IBARAPA-CENTRAL","name":"Ibarapa Central","parentId":"NG-OY","stateName":"Oyo","regionId":"NG-SW","fillColor":"#C9B896"},"geometry":{"type":"Polygon","coordinates":[[[3.069192648000069,7.470518112000093],[3.103777647000072,7.466951370000061],[3.1870260240000903,7.479619980000052],[3.224125862000051,7.495907307000039],[3.3236618040000394,7.499526978000063],[3.345766544000071,7.506747723000046],[3.368000746000064,7.472380638000061],[3.4002280240000573,7.4493207930000835],[3.396079063000059,7.440643787000056],[3.382659912000065,7.43315124500009],[3.381323099000042,7.415778160000059],[3.3858168130000763,7.401284695000072],[3.3500418660000832,7.363155365000068],[3.3240284920000818,7.315152168000054],[3.3066136840000695,7.314042568000048],[3.2869958880000922,7.324523449000083],[3.2824668880000445,7.335541248000084],[3.24914431600007,7.367492199000083],[3.1830358510000565,7.36999368700009],[3.155272961000094,7.378180027000042],[3.1403665540000816,7.395598888000052],[3.115294456000072,7.408086300000093],[3.097791910000069,7.430471897000075],[3.0822112560000505,7.438624382000057],[3.069192648000069,7.470518112000093]]]}},{"type":"Feature","properties":{"CNTRY_NAME":"Nigeria","CNTRY_CODE":"NGA","ADM1_NAME":"Oyo","ADM1_CODE":"NGA031","ADM2_NAME":"Ibarapa East","ADM2_CODE":"NGA031012","HRname":"Ibarapa East","HRpcode":"NG031012","HRparent":"NG031","Shape_Leng":1.29569587746,"Shape_Area":0.0681686353882,"ADM2_New":"Ibarapa East","id":"NG-OY-IBARAPA-EAST","name":"Ibarapa East","parentId":"NG-OY","stateName":"Oyo","regionId":"NG-SW","fillColor":"#5E9E78"},"geometry":{"type":"Polygon","coordinates":[[[3.3476860520000855,7.652089119000038],[3.417223930000091,7.687361240000087],[3.421355009000081,7.71049499500009],[3.4304432870000596,7.723714352000059],[3.489929914000072,7.728671551000048],[3.5419807430000674,7.7402381900000705],[3.549416542000074,7.751805305000062],[3.549416542000074,7.779069901000071],[3.5543739800000935,7.781548500000042],[3.6900293830000805,7.731483936000075],[3.6569373610000753,7.688457012000072],[3.616596937000054,7.663540840000053],[3.58218908300006,7.634472370000083],[3.569137812000065,7.595318317000078],[3.5798161030000415,7.53777408600007],[3.5756633280000756,7.505145550000066],[3.58218908300006,7.483788967000066],[3.5158431530000485,7.409030914000084],[3.499470711000072,7.396333694000077],[3.479096413000093,7.389439583000069],[3.474449635000042,7.3888735770000835],[3.47336602200005,7.3964066510000634],[3.482859612000084,7.417232037000076],[3.459404945000074,7.449734688000092],[3.4665839670000764,7.4711456300000805],[3.4522342680000406,7.486245632000077],[3.4534826280000743,7.494930744000044],[3.4424312110000415,7.492065430000082],[3.3930828570000813,7.4558320050000475],[3.368000746000064,7.472380638000061],[3.345766544000071,7.506747723000046],[3.3562371730000677,7.553819180000062],[3.3562371730000677,7.624399662000087],[3.3476860520000855,7.652089119000038]]]}},{"type":"Feature","properties":{"CNTRY_NAME":"Nigeria","CNTRY_CODE":"NGA","ADM1_NAME":"Oyo","ADM1_CODE":"NGA031","ADM2_NAME":"Ibarapa North","ADM2_CODE":"NGA031013","HRname":"Ibarapa North","HRpcode":"NG031013","HRparent":"NG031","Shape_Leng":1.29884980048,"Shape_Area":0.0990114446123,"ADM2_New":"Ibarapa North","id":"NG-OY-IBARAPA-NORTH","name":"Ibarapa North","parentId":"NG-OY","stateName":"Oyo","regionId":"NG-SW","fillColor":"#94B86A"},"geometry":{"type":"Polygon","coordinates":[[[3.0259585380000544,7.791800976000047],[3.0883948800000667,7.812613010000064],[3.151735783000049,7.811708450000083],[3.18159675600009,7.819852352000055],[3.2449378970000566,7.810803413000087],[3.278421402000049,7.754283905000079],[3.283378839000079,7.704711437000071],[3.2883360390000576,7.695623398000066],[3.3015551570000525,7.67909908300004],[3.3420393470000818,7.658443928000054],[3.3544275760000914,7.63887739200004],[3.3562371730000677,7.553819180000062],[3.345766544000071,7.506747723000046],[3.3236618040000394,7.499526978000063],[3.224125862000051,7.495907307000039],[3.1870260240000903,7.479619980000052],[3.103777647000072,7.466951370000061],[3.069192648000069,7.470518112000093],[3.0769460200000935,7.49134874300006],[3.0644719600000485,7.51976585400007],[3.044315577000077,7.534303188000081],[3.0334522720000905,7.549972534000062],[3.0068261620000385,7.5558385850000604],[2.980459213000074,7.587190628000087],[2.9725730420000787,7.610382080000079],[2.974993467000047,7.620222569000077],[2.990797520000058,7.634079933000066],[2.997302532000049,7.64960050600007],[2.993276596000044,7.661167145000093],[3.0020217900000716,7.6733670230000826],[2.9898512360000495,7.6791081430000645],[3.002648354000087,7.687849522000079],[2.9968791010000473,7.698830605000069],[3.011975527000061,7.700630665000062],[3.0062139030000594,7.713928223000039],[3.025501013000053,7.755710602000079],[3.0203120710000917,7.766694069000039],[3.0192253590000746,7.789857388000087],[3.0259585380000544,7.791800976000047]]]}},{"type":"Feature","properties":{"CNTRY_NAME":"Nigeria","CNTRY_CODE":"NGA","ADM1_NAME":"Oyo","ADM1_CODE":"NGA031","ADM2_NAME":"Ido","ADM2_CODE":"NGA031014","HRname":"Ido","HRpcode":"NG031014","HRparent":"NG031","Shape_Leng":1.5127908962,"Shape_Area":0.0802785899128,"ADM2_New":"Ido","id":"NG-OY-IDO","name":"Ido","parentId":"NG-OY","stateName":"Oyo","regionId":"NG-SW","fillColor":"#C2A882"},"geometry":{"type":"Polygon","coordinates":[[[3.6900293830000805,7.731483936000075],[3.735117197000079,7.714177608000057],[3.747347593000086,7.693793774000085],[3.748027086000093,7.659141064000039],[3.759577990000082,7.648269653000057],[3.794230700000071,7.646231174000093],[3.832960129000071,7.652346134000084],[3.844511032000071,7.650987625000084],[3.8465492730000506,7.646231174000093],[3.828203917000053,7.622449875000086],[3.7962689400000613,7.594592094000063],[3.793551207000064,7.586438179000083],[3.80374312400005,7.561298370000088],[3.826844931000039,7.53276062000009],[3.8560619350000707,7.484519005000038],[3.8682920930000932,7.454622269000083],[3.875707865000038,7.420413494000059],[3.856469154000081,7.400603294000064],[3.8529720310000926,7.383700371000089],[3.8356807230000527,7.361163616000056],[3.8638517860000547,7.310261250000053],[3.8555915360000768,7.307082176000051],[3.8169956210000464,7.316135406000058],[3.8027007580000713,7.308511734000092],[3.7755408290000787,7.271821499000055],[3.7611410620000925,7.267154694000055],[3.762294531000066,7.30091619500007],[3.7154831890000537,7.302474499000084],[3.7198290820000466,7.3876090050000585],[3.7053737640000577,7.392282963000071],[3.707649469000046,7.444986820000054],[3.7041983600000776,7.447892189000072],[3.5457525250000685,7.44080448200009],[3.58218908300006,7.483788967000066],[3.5756633280000756,7.505145550000066],[3.5798161030000415,7.53777408600007],[3.569137812000065,7.595318317000078],[3.576256514000079,7.6226072310000745],[3.5964267250000717,7.648709774000054],[3.6569373610000753,7.688457012000072],[3.6900293830000805,7.731483936000075]]]}},{"type":"Feature","properties":{"CNTRY_NAME":"Nigeria","CNTRY_CODE":"NGA","ADM1_NAME":"Oyo","ADM1_CODE":"NGA031","ADM2_NAME":"Irepo","ADM2_CODE":"NGA031015","HRname":"Irepo","HRpcode":"NG031015","HRparent":"NG031","Shape_Leng":1.3167462855,"Shape_Area":0.080480542724,"ADM2_New":"Irepo","id":"NG-OY-IREPO","name":"Irepo","parentId":"NG-OY","stateName":"Oyo","regionId":"NG-SW","fillColor":"#72A898"},"geometry":{"type":"Polygon","coordinates":[[[3.6821796890000655,8.994165421000048],[3.7200098040000853,9.013080597000055],[3.7430663110000637,9.046896935000063],[3.7522890570000413,9.086861610000085],[3.7538261410000473,9.120677948000093],[3.77073431000008,9.146808624000073],[3.826070070000071,9.18216228500006],[3.8629605770000808,9.188310623000064],[3.921370745000047,9.172939301000042],[3.9444272520000823,9.148345947000053],[3.9720952510000416,9.077638626000066],[3.99054050400008,9.04843330400007],[4.0120601650000935,9.03459930400004],[4.210460186000091,8.970032692000075],[4.172995090000086,8.926448822000054],[4.126759052000068,8.90579032900007],[4.056912899000054,8.886115074000088],[3.977229118000082,8.875539780000054],[3.9664080140000806,8.878245354000057],[3.9142692090000537,8.91267681100004],[3.830650806000051,8.949074745000075],[3.7381784920000882,8.960880280000083],[3.704730988000051,8.974652290000051],[3.6821796890000655,8.994165421000048]]]}},{"type":"Feature","properties":{"CNTRY_NAME":"Nigeria","CNTRY_CODE":"NGA","ADM1_NAME":"Oyo","ADM1_CODE":"NGA031","ADM2_NAME":"Iseyin","ADM2_CODE":"NGA031016","HRname":"Iseyin","HRpcode":"NG031016","HRparent":"NG031","Shape_Leng":1.70247233215,"Shape_Area":0.109791664507,"ADM2_New":"Iseyin","id":"NG-OY-ISEYIN","name":"Iseyin","parentId":"NG-OY","stateName":"Oyo","regionId":"NG-SW","fillColor":"#D4896A"},"geometry":{"type":"Polygon","coordinates":[[[3.45708704000009,8.047817230000078],[3.5290863510000463,8.036767960000077],[3.657568693000087,8.030179024000063],[3.7069849970000632,8.032814980000069],[3.726873398000066,8.038989067000045],[3.7405879500000765,8.01370716100007],[3.7412469390000638,7.9768099780000625],[3.7339992520000465,7.9656085970000845],[3.7214803700000516,7.96494960800004],[3.7148916720000784,7.959678650000058],[3.722139359000039,7.944524288000082],[3.716209412000069,7.939912319000086],[3.718185902000073,7.918828011000073],[3.714232683000091,7.910262585000055],[3.724774837000041,7.906968117000076],[3.71752715100007,7.897743702000071],[3.7267515660000754,7.8601870540000505],[3.719503641000074,7.847668648000081],[3.722139359000039,7.841079712000067],[3.732399464000082,7.841237068000055],[3.733758450000039,7.811340809000058],[3.753462791000061,7.764457703000062],[3.7521038060000933,7.757663250000064],[3.7439503670000818,7.75018930400006],[3.702502966000054,7.743394375000037],[3.699785233000057,7.735920429000089],[3.6900293830000805,7.731483936000075],[3.5543739800000935,7.781548500000042],[3.549416542000074,7.779069901000071],[3.549416542000074,7.751805305000062],[3.5419807430000674,7.7402381900000705],[3.489929914000072,7.728671551000048],[3.4304432870000596,7.723714352000059],[3.421355009000081,7.71049499500009],[3.417223930000091,7.687361240000087],[3.3476860520000855,7.652089119000038],[3.331298590000074,7.665879726000071],[3.3015551570000525,7.67909908300004],[3.283378839000079,7.704711437000071],[3.2742905620000897,7.764198303000057],[3.258592606000093,7.782374859000072],[3.2470257280000396,7.8096394540000915],[3.269333363000044,7.80633449600009],[3.3304724690000853,7.808813095000062],[3.3742611410000904,7.822858810000071],[3.3894028660000686,7.866775990000065],[3.3999450210000646,7.881271362000064],[3.4315714840000737,7.902355671000066],[3.4493613240000514,7.934641361000047],[3.447384596000063,7.966926575000059],[3.4599034790000474,8.015684128000089],[3.45331454300009,8.034132957000054],[3.45708704000009,8.047817230000078]]]}},{"type":"Feature","properties":{"CNTRY_NAME":"Nigeria","CNTRY_CODE":"NGA","ADM1_NAME":"Oyo","ADM1_CODE":"NGA031","ADM2_NAME":"Itesiwaju","ADM2_CODE":"NGA031017","HRname":"Itesiwaju","HRpcode":"NG031017","HRparent":"NG031","Shape_Leng":1.78505915094,"Shape_Area":0.123349127057,"ADM2_New":"Itesiwaju","id":"NG-OY-ITESIWAJU","name":"Itesiwaju","parentId":"NG-OY","stateName":"Oyo","regionId":"NG-SW","fillColor":"#9B8B72"},"geometry":{"type":"Polygon","coordinates":[[[3.127193451000039,8.22830390900009],[3.1682138440000926,8.264268875000084],[3.189569712000093,8.268701553000085],[3.2226111890000766,8.271119118000058],[3.2943351270000676,8.25580692300008],[3.3166983130000744,8.255404472000066],[3.3751251700000466,8.262657166000054],[3.411390066000081,8.272328377000065],[3.44362545000007,8.293280602000038],[3.516558170000053,8.370646477000037],[3.548592329000087,8.389181137000037],[3.579618931000084,8.391196251000054],[3.609033823000061,8.367825508000067],[3.6178984640000635,8.354528427000048],[3.680757523000068,8.313831329000038],[3.694860697000081,8.315443039000058],[3.723872662000076,8.291266441000062],[3.7633609770000476,8.206647873000065],[3.7541422840000678,8.17417430900008],[3.7398736480000707,8.156508446000089],[3.733340263000059,8.112540245000048],[3.733340263000059,8.055875778000086],[3.726873398000066,8.038989067000045],[3.7069849970000632,8.032814980000069],[3.657568693000087,8.030179024000063],[3.5290863510000463,8.036767960000077],[3.45708704000009,8.047817230000078],[3.442772388000094,8.05917072300008],[3.439477921000048,8.069712639000045],[3.4065337180000483,8.091455460000077],[3.411804914000072,8.108586311000067],[3.428277016000038,8.123741150000058],[3.4328892230000747,8.13428306600008],[3.416417122000041,8.153390884000089],[3.34789323800004,8.194241524000063],[3.334056616000055,8.21203136400004],[3.3175845150000782,8.20939540900008],[3.3017711640000584,8.19490051300005],[3.2945234780000874,8.181063652000091],[3.29320573800004,8.164591789000042],[3.273626089000061,8.135396957000069],[3.247851849000085,8.133511543000054],[3.213977575000058,8.141774178000048],[3.1776244640000755,8.159950256000059],[3.149533510000083,8.18969345100004],[3.127193451000039,8.22830390900009]]]}},{"type":"Feature","properties":{"CNTRY_NAME":"Nigeria","CNTRY_CODE":"NGA","ADM1_NAME":"Oyo","ADM1_CODE":"NGA031","ADM2_NAME":"Kajola","ADM2_CODE":"NGA031019","HRname":"Kajola","HRpcode":"NG031019","HRparent":"NG031","Shape_Leng":0.933632508949,"Shape_Area":0.0495645729771,"ADM2_New":"Kajola","id":"NG-OY-KAJOLA","name":"Kajola","parentId":"NG-OY","stateName":"Oyo","regionId":"NG-SW","fillColor":"#8AAB76"},"geometry":{"type":"Polygon","coordinates":[[[3.273626089000061,8.135396957000069],[3.29320573800004,8.164591789000042],[3.2945234780000874,8.181063652000091],[3.3017711640000584,8.19490051300005],[3.3175845150000782,8.20939540900008],[3.334056616000055,8.21203136400004],[3.34789323800004,8.194241524000063],[3.416417122000041,8.153390884000089],[3.4328892230000747,8.13428306600008],[3.4058749680000915,8.098044395000045],[3.410487175000071,8.086843491000081],[3.439477921000048,8.069712639000045],[3.442772388000094,8.05917072300008],[3.45708704000009,8.047817230000078],[3.45331454300009,8.034132957000054],[3.4599034790000474,8.015684128000089],[3.447384596000063,7.966926575000059],[3.4493613240000514,7.934641361000047],[3.4315714840000737,7.902355671000066],[3.3999450210000646,7.881271362000064],[3.3894028660000686,7.866775990000065],[3.3834729190000417,7.847009659000037],[3.3701303010000743,7.850949764000063],[3.3189055920000783,7.8856501580000895],[3.2875096800000847,7.914567471000055],[3.283378839000079,7.92448186900009],[3.261897326000053,8.00627613100005],[3.261897326000053,8.048412323000093],[3.27759528200005,8.094679832000054],[3.278421402000049,8.117814064000072],[3.273626089000061,8.135396957000069]]]}},{"type":"Feature","properties":{"CNTRY_NAME":"Nigeria","CNTRY_CODE":"NGA","ADM1_NAME":"Oyo","ADM1_CODE":"NGA031","ADM2_NAME":"Lagelu","ADM2_CODE":"NGA031020","HRname":"Lagelu","HRpcode":"NG031020","HRparent":"NG031","Shape_Leng":0.720875562196,"Shape_Area":0.0275707136087,"ADM2_New":"Lagelu","id":"NG-OY-LAGELU","name":"Lagelu","parentId":"NG-OY","stateName":"Oyo","regionId":"NG-SW","fillColor":"#BFA882"},"geometry":{"type":"Polygon","coordinates":[[[4.0933732990000635,7.621484280000061],[4.138718605000065,7.59866857500009],[4.14823103000009,7.569451809000043],[4.153796673000045,7.568672657000093],[4.1543464660000495,7.5395555500000455],[4.165897369000049,7.50626182600007],[4.152307987000086,7.462776184000063],[4.135321140000087,7.45190477400007],[4.078926086000081,7.435597420000079],[4.016415119000044,7.4247260090000395],[3.9477894310000465,7.393470764000085],[3.9287643430000685,7.419290543000045],[3.971570730000053,7.454622269000083],[3.9912750720000645,7.489954472000079],[3.9919545650000714,7.5089793210000835],[4.005543709000051,7.54499101600004],[4.0933732990000635,7.621484280000061]]]}},{"type":"Feature","properties":{"CNTRY_NAME":"Nigeria","CNTRY_CODE":"NGA","ADM1_NAME":"Oyo","ADM1_CODE":"NGA031","ADM2_NAME":"Ogbomosho North","ADM2_CODE":"NGA031021","HRname":"Ogbomosho North","HRpcode":"NG031021","HRparent":"NG031","Shape_Leng":0.500814244585,"Shape_Area":0.0150658257258,"ADM2_New":"Ogbomosho North","id":"NG-OY-OGBOMOSHO-NORTH","name":"Ogbomosho North","parentId":"NG-OY","stateName":"Oyo","regionId":"NG-SW","fillColor":"#6BA368"},"geometry":{"type":"Polygon","coordinates":[[[4.307036030000063,8.06397525400007],[4.280046940000091,8.081088066000063],[4.2555866240000455,8.088562012000068],[4.232484818000046,8.11234283400006],[4.186873913000056,8.117291451000085],[4.220885277000093,8.200314522000042],[4.240915775000076,8.21916770900009],[4.291358422000087,8.242612209000072],[4.308740020000073,8.205199561000086],[4.326950983000074,8.141610463000063],[4.321577256000069,8.089365900000075],[4.307036030000063,8.06397525400007]]]}},{"type":"Feature","properties":{"CNTRY_NAME":"Nigeria","CNTRY_CODE":"NGA","ADM1_NAME":"Oyo","ADM1_CODE":"NGA031","ADM2_NAME":"Ogbomosho South","ADM2_CODE":"NGA031022","HRname":"Ogbomosho South","HRpcode":"NG031022","HRparent":"NG031","Shape_Leng":0.322603357891,"Shape_Area":0.00557277390632,"ADM2_New":"Ogbomosho South","id":"NG-OY-OGBOMOSHO-SOUTH","name":"Ogbomosho South","parentId":"NG-OY","stateName":"Oyo","regionId":"NG-SW","fillColor":"#C4A574"},"geometry":{"type":"Polygon","coordinates":[[[4.1843585970000845,8.068347931000062],[4.182002068000088,8.106052399000077],[4.186873913000056,8.117291451000085],[4.232484818000046,8.11234283400006],[4.2555866240000455,8.088562012000068],[4.280046940000091,8.081088066000063],[4.307036030000063,8.06397525400007],[4.2929568290000475,8.049832344000038],[4.26306057000005,8.043038368000055],[4.219574928000043,8.053230286000087],[4.1843585970000845,8.068347931000062]]]}},{"type":"Feature","properties":{"CNTRY_NAME":"Nigeria","CNTRY_CODE":"NGA","ADM1_NAME":"Oyo","ADM1_CODE":"NGA031","ADM2_NAME":"Ogo Oluwa","ADM2_CODE":"NGA031023","HRname":"Ogo Oluwa","HRpcode":"NG031023","HRparent":"NG031","Shape_Leng":1.03751982511,"Shape_Area":0.0300772295833,"ADM2_New":"Ogo Oluwa","id":"NG-OY-OGO-OLUWA","name":"Ogo Oluwa","parentId":"NG-OY","stateName":"Oyo","regionId":"NG-SW","fillColor":"#5B8FA8"},"geometry":{"type":"Polygon","coordinates":[[[4.1843585970000845,8.068347931000062],[4.240638256000068,8.047794342000088],[4.26306057000005,8.043038368000055],[4.284803391000082,8.046435356000075],[4.326250553000079,7.968297005000068],[4.397185326000056,7.89651107800006],[4.386129856000082,7.868682861000082],[4.370881557000075,7.848478317000058],[4.367285252000045,7.849197865000065],[4.36020755800007,7.882787704000066],[4.328186035000044,7.9350132940000435],[4.307110786000067,7.944463730000052],[4.276341438000088,7.9712286000000745],[4.250800133000041,7.965510368000082],[4.235551834000091,7.956361294000089],[4.234026909000079,7.931201458000089],[4.191331387000048,7.910234451000065],[4.202767849000054,7.868682861000082],[4.197049618000051,7.865252018000092],[4.147110939000072,7.8496222500000385],[4.1307187080000745,7.848859787000038],[4.11661386500009,7.849240780000059],[4.089797497000063,7.867748737000056],[4.099989414000049,7.91122198100004],[4.099309921000042,7.9227728840000395],[4.0901756290000435,7.937615871000048],[4.121910095000089,7.964659691000065],[4.1843585970000845,8.068347931000062]]]}},{"type":"Feature","properties":{"CNTRY_NAME":"Nigeria","CNTRY_CODE":"NGA","ADM1_NAME":"Oyo","ADM1_CODE":"NGA031","ADM2_NAME":"Olorunsogo","ADM2_CODE":"NGA031024","HRname":"Olorunsogo","HRpcode":"NG031024","HRparent":"NG031","Shape_Leng":1.38108792686,"Shape_Area":0.0873880892361,"ADM2_New":"Olorunsogo","id":"NG-OY-OLORUNSOGO","name":"Olorunsogo","parentId":"NG-OY","stateName":"Oyo","regionId":"NG-SW","fillColor":"#A8BF7A"},"geometry":{"type":"Polygon","coordinates":[[[4.210460186000091,8.970032692000075],[4.253385544000082,8.96696662900007],[4.29027652700006,8.991560936000042],[4.316407204000086,8.997709274000044],[4.32562971100009,8.994634628000085],[4.3348522190000836,8.980800629000044],[4.3348522190000836,8.95774459800009],[4.321018219000052,8.942373276000069],[4.257997036000063,8.900871277000078],[4.221106529000053,8.860906601000067],[4.194975853000074,8.81633091000009],[4.190364361000093,8.753309250000086],[4.213420868000071,8.682601929000043],[4.1965126990000385,8.674916267000071],[4.14732551600008,8.624192238000091],[4.1042861940000535,8.613432884000076],[3.9705581670000925,8.613432884000076],[3.923945189000051,8.617599487000064],[3.9260742660000574,8.623454094000067],[3.9182043080000426,8.642145157000073],[3.8778705600000762,8.692317009000078],[3.896561861000066,8.750357628000074],[3.916236877000074,8.774951935000047],[3.977229118000082,8.875539780000054],[4.056912899000054,8.886115074000088],[4.126759052000068,8.90579032900007],[4.172995090000086,8.926448822000054],[4.210460186000091,8.970032692000075]]]}},{"type":"Feature","properties":{"CNTRY_NAME":"Nigeria","CNTRY_CODE":"NGA","ADM1_NAME":"Oyo","ADM1_CODE":"NGA031","ADM2_NAME":"Oluyole","ADM2_CODE":"NGA031025","HRname":"Oluyole","HRpcode":"NG031025","HRparent":"NG031","Shape_Leng":0.986606235442,"Shape_Area":0.0511799715705,"ADM2_New":"Oluyole","id":"NG-OY-OLUYOLE","name":"Oluyole","parentId":"NG-OY","stateName":"Oyo","regionId":"NG-SW","fillColor":"#B8956B"},"geometry":{"type":"Polygon","coordinates":[[[3.8871104720000744,7.307957649000059],[3.9161140920000435,7.311038494000059],[3.9289369580000653,7.317449570000065],[3.936100245000091,7.329594612000051],[3.9654767510000397,7.293023586000061],[3.988784075000069,7.278388500000062],[4.006670952000093,7.259417534000079],[4.015343666000092,7.239362240000048],[4.012756824000064,7.126267910000081],[3.9975509640000837,7.126167297000052],[3.9655709270000443,7.109796524000046],[3.960240841000086,7.092283726000062],[3.9389209750000873,7.083908081000061],[3.731213093000065,7.080647469000041],[3.7247695920000865,7.087715149000076],[3.7274343970000814,7.096852303000048],[3.781495810000081,7.1212182040000584],[3.7944400310000788,7.139492035000046],[3.7773079870000856,7.180609226000058],[3.7803537850000453,7.202690601000086],[3.763602257000059,7.230483055000093],[3.761698723000052,7.264366150000058],[3.783641100000068,7.280398369000068],[3.8027007580000713,7.308511734000092],[3.8169956210000464,7.316135406000058],[3.8555915360000768,7.307082176000051],[3.8871104720000744,7.307957649000059]]]}},{"type":"Feature","properties":{"CNTRY_NAME":"Nigeria","CNTRY_CODE":"NGA","ADM1_NAME":"Oyo","ADM1_CODE":"NGA031","ADM2_NAME":"Ona-Ara","ADM2_CODE":"NGA031026","HRname":"Ona-Ara","HRpcode":"NG031026","HRparent":"NG031","Shape_Leng":0.784187436759,"Shape_Area":0.0235782138331,"ADM2_New":"Ona-Ara","id":"NG-OY-ONA-ARA","name":"Ona-Ara","parentId":"NG-OY","stateName":"Oyo","regionId":"NG-SW","fillColor":"#6AADA3"},"geometry":{"type":"Polygon","coordinates":[[[3.936100245000091,7.329594612000051],[3.9460339550000754,7.3388209340000685],[3.9505071640000438,7.358138561000089],[3.9824421410000923,7.3703689580000855],[4.084361553000065,7.332998276000069],[4.128886700000066,7.310589790000051],[4.131338120000066,7.299527645000069],[4.125375748000067,7.2577915190000795],[4.111283302000061,7.251286983000057],[4.102608681000049,7.233126163000065],[4.094214439000041,7.22819471400004],[4.072618008000063,7.167474270000071],[4.071991920000073,7.162779331000081],[4.085450649000052,7.151198387000079],[4.072618008000063,7.146816730000069],[4.071053028000051,7.138991833000091],[4.076374054000041,7.134922981000045],[4.084511757000087,7.139930725000056],[4.08835601800007,7.133446217000085],[4.069125175000067,7.1322588920000385],[4.045901775000061,7.138350010000067],[4.019251347000079,7.1246442790000515],[4.012756824000064,7.126267910000081],[4.015343666000092,7.239362240000048],[4.011549473000059,7.25182914700008],[3.988784075000069,7.278388500000062],[3.9530100820000484,7.305490017000068],[3.936100245000091,7.329594612000051]]]}},{"type":"Feature","properties":{"CNTRY_NAME":"Nigeria","CNTRY_CODE":"NGA","ADM1_NAME":"Oyo","ADM1_CODE":"NGA031","ADM2_NAME":"Orelope","ADM2_CODE":"NGA031027","HRname":"Orelope","HRpcode":"NG031027","HRparent":"NG031","Shape_Leng":1.27465582073,"Shape_Area":0.0749289655657,"ADM2_New":"Orelope","id":"NG-OY-ORELOPE","name":"Orelope","parentId":"NG-OY","stateName":"Oyo","regionId":"NG-SW","fillColor":"#8FAF6E"},"geometry":{"type":"Polygon","coordinates":[[[3.603774309000073,8.960129738000091],[3.6821796890000655,8.994165421000048],[3.704730988000051,8.974652290000051],[3.7381784920000882,8.960880280000083],[3.830650806000051,8.949074745000075],[3.9142692090000537,8.91267681100004],[3.9664080140000806,8.878245354000057],[3.977229118000082,8.875539780000054],[3.916236877000074,8.774951935000047],[3.896561861000066,8.750357628000074],[3.8778705600000762,8.692317009000078],[3.9182043080000426,8.642145157000073],[3.9260742660000574,8.623454094000067],[3.923945189000051,8.617599487000064],[3.910610914000074,8.605747223000037],[3.8227806090000627,8.596618652000075],[3.8208131790000834,8.64804840100004],[3.810975790000043,8.66378784200009],[3.778512001000081,8.691332817000045],[3.705714703000069,8.732650757000044],[3.685055971000054,8.75429248800009],[3.6752185820000705,8.807415009000067],[3.680137157000047,8.837911606000091],[3.665380955000046,8.869391441000062],[3.603774309000073,8.960129738000091]]]}},{"type":"Feature","properties":{"CNTRY_NAME":"Nigeria","CNTRY_CODE":"NGA","ADM1_NAME":"Oyo","ADM1_CODE":"NGA031","ADM2_NAME":"Ori Ire","ADM2_CODE":"NGA031028","HRname":"Ori Ire","HRpcode":"NG031028","HRparent":"NG031","Shape_Leng":1.96334911324,"Shape_Area":0.172825074188,"ADM2_New":"Ori Ire","id":"NG-OY-ORI-IRE","name":"Ori Ire","parentId":"NG-OY","stateName":"Oyo","regionId":"NG-SW","fillColor":"#D4C4A0"},"geometry":{"type":"Polygon","coordinates":[[[3.963522911000041,8.61475181600008],[4.1042861940000535,8.613432884000076],[4.14732551600008,8.624192238000091],[4.1965126990000385,8.674916267000071],[4.209143639000047,8.680658340000093],[4.391735077000078,8.304002762000039],[4.350495815000045,8.293398857000057],[4.306899548000047,8.250980377000076],[4.240915775000076,8.21916770900009],[4.220885277000093,8.200314522000042],[4.182002068000088,8.106052399000077],[4.1843585970000845,8.068347931000062],[4.121910095000089,7.964659691000065],[4.0901756290000435,7.937615871000048],[4.060639858000059,7.974085808000041],[4.037074089000043,8.023573875000068],[4.022934914000075,8.120192528000075],[4.012330532000078,8.14140129100008],[3.973447323000073,8.179105759000038],[3.9640209670000672,8.202671051000038],[3.9651992320000886,8.233306885000047],[4.041787148000083,8.34406471300008],[4.04767847100004,8.362916946000041],[4.045321941000054,8.377056122000056],[4.021756649000054,8.39944362600005],[4.013508797000043,8.414761543000054],[3.9828734400000485,8.487813950000088],[3.958129644000053,8.531410217000087],[3.9545948510000812,8.549084663000087],[3.9569513800000777,8.595037460000071],[3.963522911000041,8.61475181600008]]]}},{"type":"Feature","properties":{"CNTRY_NAME":"Nigeria","CNTRY_CODE":"NGA","ADM1_NAME":"Oyo","ADM1_CODE":"NGA031","ADM2_NAME":"Oyo East","ADM2_CODE":"NGA031029","HRname":"Oyo East","HRpcode":"NG031029","HRparent":"NG031","Shape_Leng":0.504773277296,"Shape_Area":0.0117327212166,"ADM2_New":"Oyo East","id":"NG-OY-OYO-EAST","name":"Oyo East","parentId":"NG-OY","stateName":"Oyo","regionId":"NG-SW","fillColor":"#688EB5"},"geometry":{"type":"Polygon","coordinates":[[[4.078313828000091,7.9493422510000755],[4.099309921000042,7.9227728840000395],[4.089797497000063,7.875889778000044],[4.09114646900008,7.85016584400006],[4.013018131000081,7.838519573000042],[3.9702117440000393,7.814058781000085],[3.9450714590000757,7.793674946000067],[3.937597513000071,7.79299545300006],[3.9471099380000396,7.855505943000082],[3.9742884640000398,7.87385129900008],[4.001467228000081,7.907824516000062],[4.078313828000091,7.9493422510000755]]]}},{"type":"Feature","properties":{"CNTRY_NAME":"Nigeria","CNTRY_CODE":"NGA","ADM1_NAME":"Oyo","ADM1_CODE":"NGA031","ADM2_NAME":"Oyo West","ADM2_CODE":"NGA031030","HRname":"Oyo West","HRpcode":"NG031030","HRparent":"NG031","Shape_Leng":0.973036897042,"Shape_Area":0.0428553876044,"ADM2_New":"Oyo West","id":"NG-OY-OYO-WEST","name":"Oyo West","parentId":"NG-OY","stateName":"Oyo","regionId":"NG-SW","fillColor":"#7CB087"},"geometry":{"type":"Polygon","coordinates":[[[3.726873398000066,8.038989067000045],[3.733340263000059,8.055875778000086],[3.734437943000046,8.119817734000037],[3.762975216000086,8.102150917000074],[3.809178829000075,8.046435356000075],[3.871689558000071,8.007705688000044],[3.90838050800005,7.971693993000088],[3.9192519190000894,7.954707623000047],[3.9246876240000574,7.914619446000074],[3.9471099380000396,7.855505943000082],[3.9388611320000564,7.798681259000091],[3.9172134400000687,7.795712948000073],[3.871689558000071,7.824250698000071],[3.827524424000046,7.839878082000041],[3.722139359000039,7.841079712000067],[3.719503641000074,7.847668648000081],[3.725433826000085,7.852939606000064],[3.726092577000088,7.872046947000058],[3.71752715100007,7.897743702000071],[3.724774837000041,7.906968117000076],[3.714232683000091,7.910262585000055],[3.71884489100006,7.92278146700005],[3.716209412000069,7.939912319000086],[3.722139359000039,7.944524288000082],[3.7148916720000784,7.959678650000058],[3.7214803700000516,7.96494960800004],[3.7339992520000465,7.9656085970000845],[3.7412469390000638,7.9768099780000625],[3.7405879500000765,8.01370716100007],[3.726873398000066,8.038989067000045]]]}},{"type":"Feature","properties":{"CNTRY_NAME":"Nigeria","CNTRY_CODE":"NGA","ADM1_NAME":"Oyo","ADM1_CODE":"NGA031","ADM2_NAME":"Saki East","ADM2_CODE":"NGA031031","HRname":"Saki East","HRpcode":"NG031031","HRparent":"NG031","Shape_Leng":1.5545562815,"Shape_Area":0.128095513934,"ADM2_New":"Saki East","id":"NG-OY-SAKI-EAST","name":"Saki East","parentId":"NG-OY","stateName":"Oyo","regionId":"NG-SW","fillColor":"#C9B896"},"geometry":{"type":"Polygon","coordinates":[[[3.416131496000048,8.860165596000058],[3.5247972010000694,8.928539276000038],[3.603774309000073,8.960129738000091],[3.665380955000046,8.869391441000062],[3.680137157000047,8.837911606000091],[3.6752185820000705,8.807415009000067],[3.685055971000054,8.75429248800009],[3.705714703000069,8.732650757000044],[3.778512001000081,8.691332817000045],[3.810975790000043,8.66378784200009],[3.8208131790000834,8.64804840100004],[3.8227806090000627,8.596618652000075],[3.8076248170000895,8.539650917000074],[3.818384647000073,8.487389565000058],[3.813773155000092,8.458184242000073],[3.801476479000087,8.45357322700005],[3.7812919620000685,8.45526409100006],[3.7712183000000437,8.461308479000081],[3.7667860980000683,8.485887527000045],[3.717223883000088,8.499990463000074],[3.6390531060000626,8.506840706000048],[3.5844542980000824,8.51731777200007],[3.5240128040000513,8.539076805000093],[3.5006420610000646,8.556403160000059],[3.4539005760000805,8.574131966000039],[3.4424219130000893,8.60010623900007],[3.454090357000041,8.61035823800006],[3.4602386950000437,8.639563560000056],[3.454090357000041,8.658008575000053],[3.4448676110000633,8.676453590000051],[3.403365850000057,8.696435928000085],[3.389531851000072,8.716418266000062],[3.3864576820000707,8.75023460400007],[3.3941431050000688,8.777902603000086],[3.4202740190000895,8.833238602000051],[3.416131496000048,8.860165596000058]]]}},{"type":"Feature","properties":{"CNTRY_NAME":"Nigeria","CNTRY_CODE":"NGA","ADM1_NAME":"Oyo","ADM1_CODE":"NGA031","ADM2_NAME":"Surulere","ADM2_CODE":"NGA031033","HRname":"Surulere","HRpcode":"NG031033","HRparent":"NG031","Shape_Leng":1.15256167738,"Shape_Area":0.0695043711472,"ADM2_New":"Surulere","id":"NG-OY-SURULERE","name":"Surulere","parentId":"NG-OY","stateName":"Oyo","regionId":"NG-SW","fillColor":"#94B86A"},"geometry":{"type":"Polygon","coordinates":[[[4.391735077000078,8.304002762000039],[4.4179782870000395,8.27337646500007],[4.477091312000084,8.218339920000062],[4.4940781590000825,8.166700363000075],[4.495437145000039,8.117099762000066],[4.505629063000072,8.091959000000088],[4.533486843000048,8.07157516500007],[4.568998337000039,8.054756165000072],[4.560724735000065,8.053951263000044],[4.559199810000052,8.048995018000085],[4.563011646000064,8.008968353000057],[4.557293892000075,7.980758667000089],[4.54966926600008,7.970847130000038],[4.49591875100009,7.9433999060000815],[4.44979238500008,7.938063145000058],[4.441786766000064,7.928914070000076],[4.433019161000061,7.8915553090000685],[4.422485828000049,7.888441086000057],[4.407477856000071,7.898416996000037],[4.397185326000056,7.89651107800006],[4.326250553000079,7.968297005000068],[4.284803391000082,8.046435356000075],[4.307905197000082,8.063422203000073],[4.315606449000086,8.075931583000056],[4.327249523000091,8.12937030900008],[4.320383095000068,8.171763040000087],[4.291358422000087,8.242612209000072],[4.306899548000047,8.250980377000076],[4.350495815000045,8.293398857000057],[4.391735077000078,8.304002762000039]]]}},{"type":"Feature","properties":{"CNTRY_NAME":"Nigeria","CNTRY_CODE":"NGA","ADM1_NAME":"Oyo","ADM1_CODE":"NGA031","ADM2_NAME":"Saki West","ADM2_CODE":"NGA031032","HRname":"Saki West","HRpcode":"NG031032","HRparent":"NG031","Shape_Leng":1.96242425167,"Shape_Area":0.164082244676,"ADM2_New":"Saki West","id":"NG-OY-SAKI-WEST","name":"Saki West","parentId":"NG-OY","stateName":"Oyo","regionId":"NG-SW","fillColor":"#5E9E78"},"geometry":{"type":"Polygon","coordinates":[[[3.4424219130000893,8.60010623900007],[3.3658573630000888,8.581385612000076],[3.340069056000061,8.570506096000088],[3.2880895140000916,8.526182175000088],[3.2316772940000646,8.495558739000046],[3.1881594660000587,8.45687580100008],[3.161565304000078,8.442772865000052],[3.144641638000053,8.439549446000058],[3.1017282010000713,8.446399689000089],[3.083192825000083,8.426252365000039],[2.998171806000073,8.443176270000038],[2.9208066460000737,8.452040672000066],[2.8208765980000408,8.455667496000046],[2.7460662520000483,8.466143181000064],[2.756930000000068,8.482620000000054],[2.7507300000000896,8.493420000000071],[2.7618400000000634,8.505330000000072],[2.761880000000076,8.52255000000008],[2.749460000000056,8.53314000000006],[2.761227131000055,8.570055962000083],[2.7762262820000387,8.590375900000083],[2.802357197000049,8.61035823800006],[2.9207143780000706,8.61189556100004],[3.014477968000051,8.71026992800006],[3.1036300660000506,8.75023460400007],[3.1635773180000797,8.808645248000062],[3.1835596560000567,8.811718941000038],[3.197393656000088,8.796348572000056],[3.237358332000042,8.782514572000082],[3.281934500000091,8.804033279000066],[3.3879947660000767,8.84246158600007],[3.416131496000048,8.860165596000058],[3.4202740190000895,8.833238602000051],[3.3941431050000688,8.777902603000086],[3.3864576820000707,8.75023460400007],[3.389531851000072,8.716418266000062],[3.403365850000057,8.696435928000085],[3.4448676110000633,8.676453590000051],[3.454090357000041,8.658008575000053],[3.4602386950000437,8.639563560000056],[3.454090357000041,8.61035823800006],[3.4424219130000893,8.60010623900007]]]}},{"type":"Feature","properties":{"CNTRY_NAME":"Nigeria","CNTRY_CODE":"NGA","ADM1_NAME":"Oyo","ADM1_CODE":"NGA031","ADM2_NAME":"Iwajowa","ADM2_CODE":"NGA031018","HRname":"Iwajowa","HRpcode":"NG031018","HRparent":"NG031","Shape_Leng":2.37741784754,"Shape_Area":0.205804132973,"ADM2_New":"Iwajowa","id":"NG-OY-IWAJOWA","name":"Iwajowa","parentId":"NG-OY","stateName":"Oyo","regionId":"NG-SW","fillColor":"#A3C986"},"geometry":{"type":"Polygon","coordinates":[[[3.273626089000061,8.135396957000069],[3.278421402000049,8.117814064000072],[3.27759528200005,8.094679832000054],[3.261897326000053,8.048412323000093],[3.261897326000053,8.00627613100005],[3.283378839000079,7.92448186900009],[3.2875096800000847,7.914567471000055],[3.3189055920000783,7.8856501580000895],[3.3701303010000743,7.850949764000063],[3.3834729190000417,7.847009659000037],[3.3742611410000904,7.822858810000071],[3.365173101000039,7.81872749300004],[3.3304724690000853,7.808813095000062],[3.269333363000044,7.80633449600009],[3.18159675600009,7.819852352000055],[3.151735783000049,7.811708450000083],[3.0883948800000667,7.812613010000064],[3.0259585380000544,7.791800976000047],[2.9857828620000646,7.859221458000093],[2.9793684480000593,7.849927902000047],[2.972876787000075,7.8163070680000715],[2.95244550700005,7.779732704000082],[2.914625645000058,7.750614643000063],[2.9117441180000583,7.756974220000075],[2.9158880710000403,7.782475948000069],[2.9112873080000554,7.795777798000074],[2.884053707000078,7.810144424000043],[2.8794507980000503,7.822867393000081],[2.881319761000043,7.862840176000077],[2.8913052080000625,7.89995050400006],[2.918653250000091,7.92149448400005],[2.9175071720000574,7.926123619000066],[2.8786153790000526,7.92480278000005],[2.8385868070000697,7.931006908000086],[2.822933674000069,7.936733246000074],[2.8131072520000657,7.949434757000063],[2.800349236000045,7.952856541000074],[2.7771065240000894,7.944651127000043],[2.765381575000049,7.908112526000082],[2.7258260250000603,7.880725384000073],[2.685593286000085,7.867810249000058],[2.668432039000038,7.8897809440000515],[2.6758200000000443,7.893200000000093],[2.695500000000038,7.93082000000004],[2.72073000000006,8.053060000000073],[2.728830000000073,8.066810000000089],[2.724040000000059,8.084950000000049],[2.7325400000000855,8.116840000000082],[2.7299200000000496,8.128300000000081],[2.7482100000000855,8.164740000000052],[2.751099108000062,8.206290301000081],[2.809191465000083,8.211886406000076],[2.9069051740000873,8.211483955000062],[2.9439759250000748,8.221556664000047],[3.078155994000042,8.21510982500007],[3.1126077180000493,8.22115421300009],[3.127193451000039,8.22830390900009],[3.149533510000083,8.18969345100004],[3.1776244640000755,8.159950256000059],[3.213977575000058,8.141774178000048],[3.247851849000085,8.133511543000054],[3.273626089000061,8.135396957000069]]]}},{"type":"Feature","properties":{"CNTRY_NAME":"Nigeria","CNTRY_CODE":"NGA","ADM1_NAME":"Oyo","ADM1_CODE":"NGA031","ADM2_NAME":"Atigbo","ADM2_CODE":"NGA031004","HRname":"Atigbo","HRpcode":"NG031004","HRparent":"NG031","Shape_Leng":2.90659264733,"Shape_Area":0.244168435577,"ADM2_New":"Atigbo","id":"NG-OY-ATIGBO","name":"Atigbo","parentId":"NG-OY","stateName":"Oyo","regionId":"NG-SW","fillColor":"#A8BF7A"},"geometry":{"type":"Polygon","coordinates":[[[3.7812919620000685,8.45526409100006],[3.772830248000048,8.439951897000071],[3.790156841000055,8.38434600800008],[3.784918547000075,8.361378670000079],[3.7877390380000406,8.339619637000055],[3.799222946000043,8.331560135000075],[3.789149284000075,8.316248894000069],[3.789149284000075,8.290863037000065],[3.7633609770000476,8.206647873000065],[3.723872662000076,8.291266441000062],[3.694860697000081,8.315443039000058],[3.680757523000068,8.313831329000038],[3.6178984640000635,8.354528427000048],[3.609033823000061,8.367825508000067],[3.579618931000084,8.391196251000054],[3.548592329000087,8.389181137000037],[3.516558170000053,8.370646477000037],[3.44362545000007,8.293280602000038],[3.411390066000081,8.272328377000065],[3.3751251700000466,8.262657166000054],[3.3166983130000744,8.255404472000066],[3.2943351270000676,8.25580692300008],[3.2226111890000766,8.271119118000058],[3.189569712000093,8.268701553000085],[3.1682138440000926,8.264268875000084],[3.1331577300000504,8.231227875000059],[3.1126077180000493,8.22115421300009],[3.078155994000042,8.21510982500007],[2.9439759250000748,8.221556664000047],[2.9069051740000873,8.211483955000062],[2.809191465000083,8.211886406000076],[2.751486540000087,8.206275940000069],[2.754100000000051,8.211310000000083],[2.7146000000000754,8.260540000000049],[2.695630000000051,8.324170000000038],[2.6969800000000532,8.354720000000043],[2.708660000000066,8.369580000000042],[2.714010000000087,8.387240000000077],[2.706950000000063,8.42032000000006],[2.714590000000044,8.431540000000041],[2.734890000000064,8.436310000000049],[2.7460662520000483,8.466143181000064],[2.8208765980000408,8.455667496000046],[2.9208066460000737,8.452040672000066],[2.998171806000073,8.443176270000038],[3.083192825000083,8.426252365000039],[3.1017282010000713,8.446399689000089],[3.144641638000053,8.439549446000058],[3.161565304000078,8.442772865000052],[3.1881594660000587,8.45687580100008],[3.2316772940000646,8.495558739000046],[3.2880895140000916,8.526182175000088],[3.340069056000061,8.570506096000088],[3.3658573630000888,8.581385612000076],[3.4424219130000893,8.60010623900007],[3.4539005760000805,8.574131966000039],[3.5006420610000646,8.556403160000059],[3.5240128040000513,8.539076805000093],[3.595333576000087,8.514496803000043],[3.717223883000088,8.499990463000074],[3.7667860980000683,8.485887527000045],[3.7688007350000703,8.462920189000045],[3.7812919620000685,8.45526409100006]]]}}]}