{"type":"FeatureCollection","features":[{"type":"Feature","properties":{"CNTRY_NAME":"Nigeria","CNTRY_CODE":"NGA","ADM1_NAME":"Osun","ADM1_CODE":"NGA030","ADM2_NAME":"Ilesha East","ADM2_CODE":"NGA030018","HRname":"Ilesha East","HRpcode":"NG030018","HRparent":"NG030","Shape_Leng":0.322952342444,"Shape_Area":0.00576165298391,"ADM2_New":"Ilesha East","id":"NG-OS-ILESHA-EAST","name":"Ilesha East","parentId":"NG-OS","stateName":"Osun","regionId":"NG-SW","fillColor":"#A3C986"},"geometry":{"type":"Polygon","coordinates":[[[4.703125477000071,7.599836349000043],[4.7223577500000715,7.616321087000074],[4.754760742000087,7.625470161000067],[4.76505374900006,7.647580624000057],[4.782207966000044,7.661303997000061],[4.79326295900006,7.649105549000069],[4.808892727000057,7.60679101900007],[4.809274197000093,7.591542721000053],[4.7236919400000374,7.558758259000058],[4.703125477000071,7.599836349000043]]]}},{"type":"Feature","properties":{"CNTRY_NAME":"Nigeria","CNTRY_CODE":"NGA","ADM1_NAME":"Osun","ADM1_CODE":"NGA030","ADM2_NAME":"Ilesha West","ADM2_CODE":"NGA030019","HRname":"Ilesha West","HRpcode":"NG030019","HRparent":"NG030","Shape_Leng":0.322167577355,"Shape_Area":0.00512945700729,"ADM2_New":"Ilesha West","id":"NG-OS-ILESHA-WEST","name":"Ilesha West","parentId":"NG-OS","stateName":"Osun","regionId":"NG-SW","fillColor":"#8AAB76"},"geometry":{"type":"Polygon","coordinates":[[[4.665237904000094,7.671854496000037],[4.737225056000057,7.668165684000087],[4.756158829000071,7.675790310000082],[4.758573055000056,7.6696906090000425],[4.782207966000044,7.661303997000061],[4.76505374900006,7.647580624000057],[4.754760742000087,7.625470161000067],[4.7223577500000715,7.616321087000074],[4.703125477000071,7.599836349000043],[4.691289425000093,7.6205143930000645],[4.659839153000064,7.651392460000068],[4.665237904000094,7.671854496000037]]]}},{"type":"Feature","properties":{"CNTRY_NAME":"Nigeria","CNTRY_CODE":"NGA","ADM1_NAME":"Osun","ADM1_CODE":"NGA030","ADM2_NAME":"Irepodun","ADM2_CODE":"NGA030020","HRname":"Irepodun","HRpcode":"NG030020","HRparent":"NG030","Shape_Leng":0.378443121531,"Shape_Area":0.00524223800007,"ADM2_New":"Irepodun","id":"NG-OS-IREPODUN","name":"Irepodun","parentId":"NG-OS","stateName":"Osun","regionId":"NG-SW","fillColor":"#BFA882"},"geometry":{"type":"Polygon","coordinates":[[[4.525915146000045,7.957181454000079],[4.5298466680000615,7.958866119000049],[4.54242658600009,7.95026159300005],[4.54547596000009,7.905279160000077],[4.551575661000072,7.889267921000055],[4.537851810000063,7.861820698000088],[4.501255512000057,7.838948250000044],[4.4814329150000844,7.810357571000054],[4.4730463030000465,7.8061642650000636],[4.461990833000073,7.817981720000091],[4.464794636000079,7.842625141000042],[4.485244751000039,7.860296249000044],[4.504686832000061,7.887362003000078],[4.525915146000045,7.957181454000079]]]}},{"type":"Feature","properties":{"CNTRY_NAME":"Nigeria","CNTRY_CODE":"NGA","ADM1_NAME":"Osun","ADM1_CODE":"NGA030","ADM2_NAME":"Irewole","ADM2_CODE":"NGA030021","HRname":"Irewole","HRpcode":"NG030021","HRparent":"NG030","Shape_Leng":0.632582299342,"Shape_Area":0.0220691901516,"ADM2_New":"Irewole","id":"NG-OS-IREWOLE","name":"Irewole","parentId":"NG-OS","stateName":"Osun","regionId":"NG-SW","fillColor":"#6BA368"},"geometry":{"type":"Polygon","coordinates":[[[4.165897369000049,7.50626182600007],[4.187315464000051,7.516437531000065],[4.22487783400004,7.487090588000058],[4.234026909000079,7.465743065000083],[4.256392002000041,7.472228527000084],[4.282822132000092,7.463837147000049],[4.295402050000064,7.454688072000067],[4.301120281000067,7.406655312000055],[4.332379341000092,7.350617409000051],[4.2789983750000715,7.334860802000037],[4.248894215000064,7.350617409000051],[4.13498067900008,7.363748550000082],[4.135321140000087,7.405701160000092],[4.141436577000093,7.439674377000074],[4.165897369000049,7.50626182600007]]]}},{"type":"Feature","properties":{"CNTRY_NAME":"Nigeria","CNTRY_CODE":"NGA","ADM1_NAME":"Osun","ADM1_CODE":"NGA030","ADM2_NAME":"Isokan","ADM2_CODE":"NGA030022","HRname":"Isokan","HRpcode":"NG030022","HRparent":"NG030","Shape_Leng":0.559622836472,"Shape_Area":0.014601003972,"ADM2_New":"Isokan","id":"NG-OS-ISOKAN","name":"Isokan","parentId":"NG-OS","stateName":"Osun","regionId":"NG-SW","fillColor":"#C4A574"},"geometry":{"type":"Polygon","coordinates":[[[4.13498067900008,7.363748550000082],[4.248894215000064,7.350617409000051],[4.2789983750000715,7.334860802000037],[4.281487942000069,7.319357872000069],[4.260902405000081,7.281999588000076],[4.237648487000058,7.261795044000053],[4.184660435000069,7.261414051000088],[4.1305284500000425,7.228630066000051],[4.091084480000063,7.222248077000074],[4.105320930000062,7.237194061000082],[4.111283302000061,7.251286983000057],[4.125375748000067,7.2577915190000795],[4.131338120000066,7.299527645000069],[4.128886700000066,7.310589790000051],[4.136680126000044,7.330280781000056],[4.13498067900008,7.363748550000082]]]}},{"type":"Feature","properties":{"CNTRY_NAME":"Nigeria","CNTRY_CODE":"NGA","ADM1_NAME":"Osun","ADM1_CODE":"NGA030","ADM2_NAME":"Iwo","ADM2_CODE":"NGA030023","HRname":"Iwo","HRpcode":"NG030023","HRparent":"NG030","Shape_Leng":0.601739488004,"Shape_Area":0.0174877062633,"ADM2_New":"Iwo","id":"NG-OS-IWO","name":"Iwo","parentId":"NG-OS","stateName":"Osun","regionId":"NG-SW","fillColor":"#5B8FA8"},"geometry":{"type":"Polygon","coordinates":[[[4.05292892500006,7.674966812000093],[4.057183266000038,7.679524899000057],[4.074169636000079,7.681563377000089],[4.078246593000074,7.708062172000041],[4.074169636000079,7.735920429000089],[4.061259747000065,7.7542657850000865],[4.0708332060000885,7.75975227400005],[4.090310574000057,7.7486014370000476],[4.139398098000072,7.74203538900008],[4.155497551000053,7.734115124000084],[4.22144699100005,7.667403221000086],[4.251944065000089,7.652536392000059],[4.211154461000092,7.62432670600009],[4.164646626000092,7.601072788000067],[4.144396305000043,7.58142852800006],[4.138718605000065,7.59866857500009],[4.0933732990000635,7.621484280000061],[4.06873369200008,7.665935516000047],[4.05292892500006,7.674966812000093]]]}},{"type":"Feature","properties":{"CNTRY_NAME":"Nigeria","CNTRY_CODE":"NGA","ADM1_NAME":"Osun","ADM1_CODE":"NGA030","ADM2_NAME":"Obokun","ADM2_CODE":"NGA030024","HRname":"Obokun","HRpcode":"NG030024","HRparent":"NG030","Shape_Leng":0.896335897441,"Shape_Area":0.0430266329156,"ADM2_New":"Obokun","id":"NG-OS-OBOKUN","name":"Obokun","parentId":"NG-OS","stateName":"Osun","regionId":"NG-SW","fillColor":"#A8BF7A"},"geometry":{"type":"Polygon","coordinates":[[[4.78258943600008,7.8793563840000616],[4.798218727000062,7.8637270930000795],[4.833099842000081,7.875925541000072],[4.868171215000075,7.862964630000079],[4.8899002080000855,7.844666481000047],[4.910020828000086,7.841811657000051],[4.908579350000082,7.829799175000062],[4.915795803000037,7.822114468000052],[4.914290428000072,7.783000469000058],[4.8954739570000925,7.734076977000086],[4.893228531000091,7.730335236000087],[4.833290100000056,7.739070892000086],[4.806224346000079,7.736402512000041],[4.781064510000078,7.717341900000065],[4.752854824000053,7.67388391500009],[4.737225056000057,7.668165684000087],[4.705965996000089,7.667022228000064],[4.665237904000094,7.671854496000037],[4.6308674810000525,7.719629288000078],[4.599313259000041,7.740444183000079],[4.607994556000051,7.763849735000065],[4.632773399000087,7.774904728000081],[4.652977467000085,7.776048660000072],[4.657170773000075,7.781385422000085],[4.66365146600009,7.7905344960000775],[4.684617996000043,7.864870548000056],[4.693004608000081,7.874019623000038],[4.7288384440000755,7.882406235000076],[4.78258943600008,7.8793563840000616]]]}},{"type":"Feature","properties":{"CNTRY_NAME":"Nigeria","CNTRY_CODE":"NGA","ADM1_NAME":"Osun","ADM1_CODE":"NGA030","ADM2_NAME":"Odo-Otin","ADM2_CODE":"NGA030025","HRname":"Odo-Otin","HRpcode":"NG030025","HRparent":"NG030","Shape_Leng":0.744487902529,"Shape_Area":0.0240588555914,"ADM2_New":"Odo-Otin","id":"NG-OS-ODO-OTIN","name":"Odo-Otin","parentId":"NG-OS","stateName":"Osun","regionId":"NG-SW","fillColor":"#B8956B"},"geometry":{"type":"Polygon","coordinates":[[[4.568998337000039,8.054756165000072],[4.62171840700006,8.07567977900004],[4.633916855000052,8.07148647300005],[4.632392406000065,8.06119442000005],[4.637347698000042,8.053569794000055],[4.648403168000073,8.053569794000055],[4.665557384000067,8.043276787000082],[4.687286377000078,8.057001114000059],[4.704441071000076,8.048233032000041],[4.711684227000092,8.059669495000037],[4.721214294000049,8.064244270000074],[4.774718761000088,8.06830692300008],[4.792119503000038,8.048995018000085],[4.78906965300007,8.038321495000048],[4.795550346000084,8.005918503000089],[4.7856388090000905,7.976184368000077],[4.762384892000057,7.938063145000058],[4.751711369000077,7.9369192120000776],[4.715115070000081,7.963222980000069],[4.689573765000091,7.968559742000082],[4.67889976500004,7.968941212000061],[4.654883385000062,7.9555988310000885],[4.59617710100008,7.960935593000045],[4.556531429000074,7.947974682000051],[4.542688370000064,7.9661302570000885],[4.557293892000075,7.980758667000089],[4.563011646000064,8.008968353000057],[4.559199810000052,8.048995018000085],[4.560724735000065,8.053951263000044],[4.568998337000039,8.054756165000072]]]}},{"type":"Feature","properties":{"CNTRY_NAME":"Nigeria","CNTRY_CODE":"NGA","ADM1_NAME":"Osun","ADM1_CODE":"NGA030","ADM2_NAME":"Ola-oluwa","ADM2_CODE":"NGA030026","HRname":"Ola-oluwa","HRpcode":"NG030026","HRparent":"NG030","Shape_Leng":0.702348100828,"Shape_Area":0.0267314042566,"ADM2_New":"Ola-oluwa","id":"NG-OS-OLA-OLUWA","name":"Ola-oluwa","parentId":"NG-OS","stateName":"Osun","regionId":"NG-SW","fillColor":"#6AADA3"},"geometry":{"type":"Polygon","coordinates":[[[4.0708332060000885,7.75975227400005],[4.07249164600006,7.808732986000052],[4.139486790000092,7.81721925700009],[4.176464081000063,7.838567257000079],[4.22144699100005,7.8397107120000555],[4.258424282000078,7.814550877000045],[4.279391289000046,7.785197735000054],[4.2984514240000635,7.770330429000069],[4.295402050000064,7.740595818000088],[4.318274498000051,7.676552296000068],[4.251944065000089,7.652536392000059],[4.22144699100005,7.667403221000086],[4.155497551000053,7.734115124000084],[4.142029285000092,7.74203538900008],[4.090310574000057,7.7486014370000476],[4.0708332060000885,7.75975227400005]]]}},{"type":"Feature","properties":{"CNTRY_NAME":"Nigeria","CNTRY_CODE":"NGA","ADM1_NAME":"Osun","ADM1_CODE":"NGA030","ADM2_NAME":"Olorunda","ADM2_CODE":"NGA030027","HRname":"Olorunda","HRpcode":"NG030027","HRparent":"NG030","Shape_Leng":0.489730764614,"Shape_Area":0.00789640661773,"ADM2_New":"Olorunda","id":"NG-OS-OLORUNDA","name":"Olorunda","parentId":"NG-OS","stateName":"Osun","regionId":"NG-SW","fillColor":"#8FAF6E"},"geometry":{"type":"Polygon","coordinates":[[[4.5298466680000615,7.958866119000049],[4.542688370000064,7.9661302570000885],[4.568347931000062,7.9262452130000725],[4.602276325000048,7.906803608000075],[4.610281944000064,7.893461227000046],[4.603038788000049,7.840854168000078],[4.59655857100006,7.8282742500000495],[4.599284649000083,7.801316261000068],[4.558437347000051,7.777573586000074],[4.548144817000093,7.777573586000074],[4.537470818000088,7.784053802000074],[4.5260343550000925,7.805401802000063],[4.529465199000072,7.812644958000078],[4.553481579000049,7.8282742500000495],[4.561105728000086,7.841998100000069],[4.5580558780000615,7.870588779000059],[4.5462384220000445,7.900704384000051],[4.54242658600009,7.95026159300005],[4.5298466680000615,7.958866119000049]]]}},{"type":"Feature","properties":{"CNTRY_NAME":"Nigeria","CNTRY_CODE":"NGA","ADM1_NAME":"Osun","ADM1_CODE":"NGA030","ADM2_NAME":"Oriade","ADM2_CODE":"NGA030028","HRname":"Oriade","HRpcode":"NG030028","HRparent":"NG030","Shape_Leng":1.08687433868,"Shape_Area":0.0379977668134,"ADM2_New":"Oriade","id":"NG-OS-ORIADE","name":"Oriade","parentId":"NG-OS","stateName":"Osun","regionId":"NG-SW","fillColor":"#D4C4A0"},"geometry":{"type":"Polygon","coordinates":[[[4.756158829000071,7.675790310000082],[4.781064510000078,7.717341900000065],[4.806224346000079,7.736402512000041],[4.833290100000056,7.739070892000086],[4.893228531000091,7.730335236000087],[4.8879470830000855,7.691927433000046],[4.863861561000078,7.622681618000058],[4.868001461000063,7.616283894000048],[4.883054733000051,7.611391544000071],[4.9022479060000705,7.576392651000049],[4.920206070000063,7.51720619200006],[4.952418804000047,7.447825909000073],[4.984821320000037,7.426478386000042],[4.987108707000061,7.419235229000037],[5.006159306000086,7.413699627000085],[5.003516674000082,7.388754368000093],[4.989670277000073,7.37759733200005],[4.943352222000044,7.369954109000048],[4.878397465000091,7.378827572000091],[4.834250927000085,7.374184132000039],[4.830049992000056,7.401318550000042],[4.844917297000052,7.469173908000073],[4.844917297000052,7.508057594000093],[4.810608387000059,7.584299564000048],[4.808892727000057,7.60679101900007],[4.790594578000082,7.654442310000093],[4.773821354000063,7.665878773000088],[4.758573055000056,7.6696906090000425],[4.756158829000071,7.675790310000082]]]}},{"type":"Feature","properties":{"CNTRY_NAME":"Nigeria","CNTRY_CODE":"NGA","ADM1_NAME":"Osun","ADM1_CODE":"NGA030","ADM2_NAME":"Orolu","ADM2_CODE":"NGA030029","HRname":"Orolu","HRpcode":"NG030029","HRparent":"NG030","Shape_Leng":0.344299898286,"Shape_Area":0.00650055079811,"ADM2_New":"Orolu","id":"NG-OS-OROLU","name":"Orolu","parentId":"NG-OS","stateName":"Osun","regionId":"NG-SW","fillColor":"#688EB5"},"geometry":{"type":"Polygon","coordinates":[[[4.422485828000049,7.888441086000057],[4.433019161000061,7.8915553090000685],[4.441786766000064,7.928914070000076],[4.44979238500008,7.938063145000058],[4.49591875100009,7.9433999060000815],[4.506592751000085,7.951786518000063],[4.525915146000045,7.957181454000079],[4.514216900000065,7.933488369000088],[4.513454437000064,7.909090996000089],[4.504686832000061,7.887362003000078],[4.485244751000039,7.860296249000044],[4.464794636000079,7.842625141000042],[4.436830997000072,7.858771324000088],[4.422485828000049,7.888441086000057]]]}},{"type":"Feature","properties":{"CNTRY_NAME":"Nigeria","CNTRY_CODE":"NGA","ADM1_NAME":"Osun","ADM1_CODE":"NGA030","ADM2_NAME":"Osogbo","ADM2_CODE":"NGA030030","HRname":"Osogbo","HRpcode":"NG030030","HRparent":"NG030","Shape_Leng":0.312900819551,"Shape_Area":0.0038013876587,"ADM2_New":"Osogbo","id":"NG-OS-OSOGBO","name":"Osogbo","parentId":"NG-OS","stateName":"Osun","regionId":"NG-SW","fillColor":"#7CB087"},"geometry":{"type":"Polygon","coordinates":[[[4.5260343550000925,7.805401802000063],[4.537470818000088,7.784053802000074],[4.548144817000093,7.777573586000074],[4.558437347000051,7.777573586000074],[4.599284649000083,7.801316261000068],[4.601514339000062,7.796633720000045],[4.607994556000051,7.763849735000065],[4.601514339000062,7.743645668000056],[4.59198379500009,7.7337341310000625],[4.569873810000047,7.725347519000081],[4.566061497000078,7.714673519000087],[4.553481579000049,7.720010757000068],[4.550813198000071,7.748982430000069],[4.5260343550000925,7.785960197000065],[4.5260343550000925,7.805401802000063]]]}},{"type":"Feature","properties":{"CNTRY_NAME":"Nigeria","CNTRY_CODE":"NGA","ADM1_NAME":"Osun","ADM1_CODE":"NGA030","ADM2_NAME":"Aiyedade","ADM2_CODE":"NGA030001","HRname":"Aiyedade","HRpcode":"NG030001","HRparent":"NG030","Shape_Leng":2.12133368798,"Shape_Area":0.0907164277969,"ADM2_New":"Aiyedade","id":"NG-OS-AIYEDADE","name":"Aiyedade","parentId":"NG-OS","stateName":"Osun","regionId":"NG-SW","fillColor":"#6BA368"},"geometry":{"type":"Polygon","coordinates":[[[4.3533458710000446,7.643005848000087],[4.3674507140000856,7.610602856000071],[4.375456333000045,7.606028557000059],[4.498587132000068,7.619751930000064],[4.526352882000083,7.6179523470000845],[4.527177811000058,7.61441516900004],[4.513073444000042,7.591923714000075],[4.488294601000064,7.570194721000064],[4.469614983000042,7.567907333000051],[4.447504997000067,7.558377266000093],[4.404428005000057,7.530167580000068],[4.396422863000055,7.521399975000065],[4.384605408000084,7.485184669000091],[4.382318020000071,7.476035595000042],[4.393373013000087,7.4562125210000545],[4.375456333000045,7.419235229000037],[4.376980782000089,7.396743774000072],[4.38155555700007,7.385307312000066],[4.401378632000046,7.379970551000042],[4.41109943400005,7.362434864000079],[4.406143665000059,7.346042633000081],[4.3958511350000435,7.337275028000079],[4.405381203000047,7.2656073570000785],[4.40233135200009,7.2598891260000755],[4.387845516000084,7.2541708950000725],[4.384795666000059,7.228248596000071],[4.396422863000055,7.169923306000044],[4.37469387100009,7.115410328000053],[4.368594170000051,7.112741947000075],[4.3560142520000795,7.089106560000062],[4.354489803000092,7.082244873000093],[4.3650755880000816,7.059700966000094],[4.287664890000087,7.09177494000005],[4.268486023000094,7.088352680000071],[4.2187738420000755,7.047115803000054],[4.205973148000055,7.045084953000071],[4.197892666000087,7.04916238800007],[4.190192223000054,7.069821835000084],[4.16887188000004,7.174137115000065],[4.08835601800007,7.133446217000085],[4.084511757000087,7.139930725000056],[4.076374054000041,7.134922981000045],[4.071053028000051,7.138991833000091],[4.072618008000063,7.146816730000069],[4.085450649000052,7.151198387000079],[4.071991920000073,7.162779331000081],[4.072618008000063,7.167474270000071],[4.091084480000063,7.222248077000074],[4.1305284500000425,7.228630066000051],[4.184660435000069,7.261414051000088],[4.237648487000058,7.261795044000053],[4.266620636000084,7.289623737000056],[4.281487942000069,7.319357872000069],[4.2789983750000715,7.334860802000037],[4.332379341000092,7.350617409000051],[4.301120281000067,7.406655312000055],[4.295402050000064,7.454688072000067],[4.282822132000092,7.463837147000049],[4.252189636000082,7.472385406000058],[4.26338005100007,7.483659744000079],[4.268717289000051,7.5019578930000534],[4.290446281000072,7.5233058930000425],[4.283584595000093,7.547703266000042],[4.293495655000072,7.5827746390000925],[4.334285259000069,7.631569862000049],[4.3533458710000446,7.643005848000087]]]}},{"type":"Feature","properties":{"CNTRY_NAME":"Nigeria","CNTRY_CODE":"NGA","ADM1_NAME":"Osun","ADM1_CODE":"NGA030","ADM2_NAME":"Aiyedire","ADM2_CODE":"NGA030002","HRname":"Aiyedire","HRpcode":"NG030002","HRparent":"NG030","Shape_Leng":0.670983598965,"Shape_Area":0.0214013550845,"ADM2_New":"Aiyedire","id":"NG-OS-AIYEDIRE","name":"Aiyedire","parentId":"NG-OS","stateName":"Osun","regionId":"NG-SW","fillColor":"#C4A574"},"geometry":{"type":"Polygon","coordinates":[[[4.251944065000089,7.652536392000059],[4.318274498000051,7.676552296000068],[4.348009109000088,7.65634822800007],[4.3533458710000446,7.643005848000087],[4.334285259000069,7.631569862000049],[4.293495655000072,7.5827746390000925],[4.283584595000093,7.547703266000042],[4.290446281000072,7.5233058930000425],[4.268717289000051,7.5019578930000534],[4.26338005100007,7.483659744000079],[4.2374577520000685,7.4645991330000925],[4.22487783400004,7.487090588000058],[4.19628715500005,7.512250900000083],[4.187315464000051,7.516437531000065],[4.165897369000049,7.50626182600007],[4.1543464660000495,7.5395555500000455],[4.153796673000045,7.568672657000093],[4.14823103000009,7.569451809000043],[4.144220352000048,7.579142094000076],[4.150541782000062,7.590780258000052],[4.164646626000092,7.601072788000067],[4.211154461000092,7.62432670600009],[4.251944065000089,7.652536392000059]]]}},{"type":"Feature","properties":{"CNTRY_NAME":"Nigeria","CNTRY_CODE":"NGA","ADM1_NAME":"Osun","ADM1_CODE":"NGA030","ADM2_NAME":"Atakumosa East","ADM2_CODE":"NGA030003","HRname":"Atakumosa East","HRpcode":"NG030003","HRparent":"NG030","Shape_Leng":0.64568237316,"Shape_Area":0.0194291568814,"ADM2_New":"Atakumosa East","id":"NG-OS-ATAKUMOSA-EAST","name":"Atakumosa East","parentId":"NG-OS","stateName":"Osun","regionId":"NG-SW","fillColor":"#5B8FA8"},"geometry":{"type":"Polygon","coordinates":[[[4.779348850000076,7.579343796000046],[4.809274197000093,7.591542721000053],[4.844917297000052,7.508057594000093],[4.844917297000052,7.469173908000073],[4.830049992000056,7.401318550000042],[4.834250927000085,7.374184132000039],[4.806123734000039,7.370117187000062],[4.778379917000052,7.357036114000039],[4.76915931700006,7.347751617000085],[4.764630795000073,7.323102951000067],[4.761432171000081,7.351760864000084],[4.733603477000088,7.413136005000069],[4.725979328000051,7.501576900000089],[4.76791238800007,7.532454967000092],[4.778205395000043,7.559520721000069],[4.779348850000076,7.579343796000046]]]}},{"type":"Feature","properties":{"CNTRY_NAME":"Nigeria","CNTRY_CODE":"NGA","ADM1_NAME":"Osun","ADM1_CODE":"NGA030","ADM2_NAME":"Atakumosa West","ADM2_CODE":"NGA030004","HRname":"Atakumosa West","HRpcode":"NG030004","HRparent":"NG030","Shape_Leng":1.33842831891,"Shape_Area":0.0470871519547,"ADM2_New":"Atakumosa West","id":"NG-OS-ATAKUMOSA-WEST","name":"Atakumosa West","parentId":"NG-OS","stateName":"Osun","regionId":"NG-SW","fillColor":"#A8BF7A"},"geometry":{"type":"Polygon","coordinates":[[[4.566061497000078,7.714673519000087],[4.569873810000047,7.725347519000081],[4.599313259000041,7.740444183000079],[4.623624325000037,7.726872444000037],[4.657933235000087,7.684938908000049],[4.664032459000055,7.674265385000069],[4.659839153000064,7.651392460000068],[4.691289425000093,7.6205143930000645],[4.7236919400000374,7.558758259000058],[4.779348850000076,7.579343796000046],[4.778205395000043,7.559520721000069],[4.76791238800007,7.532454967000092],[4.725979328000051,7.501576900000089],[4.733603477000088,7.413136005000069],[4.764100552000059,7.338799953000091],[4.765377998000076,7.320861816000047],[4.7564306260000535,7.302436352000086],[4.758433819000061,7.275670052000066],[4.749408722000055,7.231298447000086],[4.736653328000045,7.244640827000069],[4.691670418000058,7.269038200000068],[4.685189724000054,7.287336349000043],[4.6958637240000485,7.355573177000053],[4.691670418000058,7.37844562500004],[4.682902813000055,7.399031162000085],[4.667082310000069,7.41694784200007],[4.660220623000043,7.445919991000039],[4.631248474000074,7.482516289000046],[4.625339985000039,7.520256042000085],[4.580928802000074,7.539316654000061],[4.556149960000084,7.5984044080000785],[4.537851810000063,7.615558624000073],[4.528321743000049,7.618608475000087],[4.54242658600009,7.631569862000049],[4.546619892000081,7.642624855000065],[4.556912422000039,7.643387318000066],[4.569111347000046,7.652154922000079],[4.571779728000081,7.676552296000068],[4.566061497000078,7.714673519000087]]]}},{"type":"Feature","properties":{"CNTRY_NAME":"Nigeria","CNTRY_CODE":"NGA","ADM1_NAME":"Osun","ADM1_CODE":"NGA030","ADM2_NAME":"Boluwaduro","ADM2_CODE":"NGA030005","HRname":"Boluwaduro","HRpcode":"NG030005","HRparent":"NG030","Shape_Leng":0.516978662449,"Shape_Area":0.0117377622076,"ADM2_New":"Boluwaduro","id":"NG-OS-BOLUWADURO","name":"Boluwaduro","parentId":"NG-OS","stateName":"Osun","regionId":"NG-SW","fillColor":"#B8956B"},"geometry":{"type":"Polygon","coordinates":[[[4.72197675700005,7.958984852000071],[4.751711369000077,7.9369192120000776],[4.762384892000057,7.938063145000058],[4.7856388090000905,7.976184368000077],[4.79326295900006,7.997913361000087],[4.793553829000075,8.028666496000085],[4.821281910000039,8.01011180900008],[4.825094223000065,7.991813660000048],[4.871220589000075,7.900704384000051],[4.833099842000081,7.875925541000072],[4.798218727000062,7.8637270930000795],[4.779158115000087,7.882406235000076],[4.742180824000059,7.906041145000074],[4.722739220000051,7.933869839000067],[4.72197675700005,7.958984852000071]]]}},{"type":"Feature","properties":{"CNTRY_NAME":"Nigeria","CNTRY_CODE":"NGA","ADM1_NAME":"Osun","ADM1_CODE":"NGA030","ADM2_NAME":"Boripe","ADM2_CODE":"NGA030006","HRname":"Boripe","HRpcode":"NG030006","HRparent":"NG030","Shape_Leng":0.612725906853,"Shape_Area":0.0107757967932,"ADM2_New":"Boripe","id":"NG-OS-BORIPE","name":"Boripe","parentId":"NG-OS","stateName":"Osun","regionId":"NG-SW","fillColor":"#6AADA3"},"geometry":{"type":"Polygon","coordinates":[[[4.72197675700005,7.958984852000071],[4.722739220000051,7.933869839000067],[4.731506824000064,7.919383526000047],[4.742180824000059,7.906041145000074],[4.78258943600008,7.8793563840000616],[4.7288384440000755,7.882406235000076],[4.693004608000081,7.874019623000038],[4.684617996000043,7.864870548000056],[4.66365146600009,7.7905344960000775],[4.6550092700000505,7.777542591000042],[4.632773399000087,7.774904728000081],[4.607994556000051,7.763849735000065],[4.59655857100006,7.8282742500000495],[4.603730202000065,7.838780403000044],[4.669369698000082,7.88888692900008],[4.668988228000046,7.908328533000088],[4.67889976500004,7.923195839000073],[4.694529533000093,7.931582451000054],[4.72197675700005,7.958984852000071]]]}},{"type":"Feature","properties":{"CNTRY_NAME":"Nigeria","CNTRY_CODE":"NGA","ADM1_NAME":"Osun","ADM1_CODE":"NGA030","ADM2_NAME":"Ede North","ADM2_CODE":"NGA030007","HRname":"Ede North","HRpcode":"NG030007","HRparent":"NG030","Shape_Leng":0.489747230053,"Shape_Area":0.00904575423915,"ADM2_New":"Ede North","id":"NG-OS-EDE-NORTH","name":"Ede North","parentId":"NG-OS","stateName":"Osun","regionId":"NG-SW","fillColor":"#8FAF6E"},"geometry":{"type":"Polygon","coordinates":[[[4.533277512000041,7.774904728000081],[4.550813198000071,7.748982430000069],[4.553481579000049,7.720010757000068],[4.566061497000078,7.714673519000087],[4.568729877000067,7.696375370000055],[4.492106438000064,7.708574295000062],[4.441786766000064,7.710861683000076],[4.376599789000068,7.692563534000044],[4.391848087000085,7.730684280000048],[4.418532848000041,7.755844116000048],[4.436830997000072,7.760418892000075],[4.47838306400007,7.752413273000059],[4.533277512000041,7.774904728000081]]]}},{"type":"Feature","properties":{"CNTRY_NAME":"Nigeria","CNTRY_CODE":"NGA","ADM1_NAME":"Osun","ADM1_CODE":"NGA030","ADM2_NAME":"Ede South","ADM2_CODE":"NGA030008","HRname":"Ede South","HRpcode":"NG030008","HRparent":"NG030","Shape_Leng":0.563335907133,"Shape_Area":0.0178417916862,"ADM2_New":"Ede South","id":"NG-OS-EDE-SOUTH","name":"Ede South","parentId":"NG-OS","stateName":"Osun","regionId":"NG-SW","fillColor":"#D4C4A0"},"geometry":{"type":"Polygon","coordinates":[[[4.376599789000068,7.692563534000044],[4.441786766000064,7.710861683000076],[4.492106438000064,7.708574295000062],[4.568729877000067,7.696375370000055],[4.5702548030000685,7.655967236000038],[4.563205719000052,7.646927357000038],[4.546619892000081,7.642624855000065],[4.54242658600009,7.631569862000049],[4.522603512000046,7.616702557000053],[4.498587132000068,7.619751930000064],[4.375456333000045,7.606028557000059],[4.3674507140000856,7.610602856000071],[4.350677490000066,7.652536392000059],[4.36058902700006,7.666641235000043],[4.356894970000042,7.678556919000073],[4.376599789000068,7.692563534000044]]]}},{"type":"Feature","properties":{"CNTRY_NAME":"Nigeria","CNTRY_CODE":"NGA","ADM1_NAME":"Osun","ADM1_CODE":"NGA030","ADM2_NAME":"Egbedore","ADM2_CODE":"NGA030009","HRname":"Egbedore","HRpcode":"NG030009","HRparent":"NG030","Shape_Leng":0.861261033321,"Shape_Area":0.0220757792303,"ADM2_New":"Egbedore","id":"NG-OS-EGBEDORE","name":"Egbedore","parentId":"NG-OS","stateName":"Osun","regionId":"NG-SW","fillColor":"#688EB5"},"geometry":{"type":"Polygon","coordinates":[[[4.397185326000056,7.89651107800006],[4.407477856000071,7.898416996000037],[4.414721012000086,7.894605160000083],[4.422485828000049,7.888441086000057],[4.436830997000072,7.858771324000088],[4.463134766000053,7.844285011000068],[4.461990833000073,7.817981720000091],[4.4730463030000465,7.8061642650000636],[4.4814329150000844,7.810357571000054],[4.501255512000057,7.838948250000044],[4.537851810000063,7.861820698000088],[4.550813198000071,7.887362003000078],[4.5580558780000615,7.870588779000059],[4.561105728000086,7.841998100000069],[4.553481579000049,7.8282742500000495],[4.5260343550000925,7.808832645000052],[4.5260343550000925,7.785960197000065],[4.533277512000041,7.774904728000081],[4.47838306400007,7.752413273000059],[4.436830997000072,7.760418892000075],[4.418532848000041,7.755844116000048],[4.391848087000085,7.730684280000048],[4.376599789000068,7.692563534000044],[4.359064102000048,7.680364609000037],[4.336954117000062,7.718485832000056],[4.329329491000067,7.755082130000062],[4.341528416000074,7.780241966000062],[4.355251789000079,7.79625272800007],[4.358301640000093,7.841235638000057],[4.380793095000058,7.860677242000065],[4.397185326000056,7.89651107800006]]]}},{"type":"Feature","properties":{"CNTRY_NAME":"Nigeria","CNTRY_CODE":"NGA","ADM1_NAME":"Osun","ADM1_CODE":"NGA030","ADM2_NAME":"Ejigbo","ADM2_CODE":"NGA030010","HRname":"Ejigbo","HRpcode":"NG030010","HRparent":"NG030","Shape_Leng":1.13168847013,"Shape_Area":0.0304460267466,"ADM2_New":"Ejigbo","id":"NG-OS-EJIGBO","name":"Ejigbo","parentId":"NG-OS","stateName":"Osun","regionId":"NG-SW","fillColor":"#7CB087"},"geometry":{"type":"Polygon","coordinates":[[[4.09114646900008,7.85016584400006],[4.089797497000063,7.867748737000056],[4.11661386500009,7.849240780000059],[4.1307187080000745,7.848859787000038],[4.147110939000072,7.8496222500000385],[4.202767849000054,7.868682861000082],[4.191331387000048,7.910234451000065],[4.234026909000079,7.931201458000089],[4.235551834000091,7.956361294000089],[4.250800133000041,7.965510368000082],[4.276341438000088,7.9712286000000745],[4.307110786000067,7.944463730000052],[4.328186035000044,7.9350132940000435],[4.36020755800007,7.882787704000066],[4.365925789000073,7.8580088620000765],[4.364019871000039,7.84580993700007],[4.358301640000093,7.841235638000057],[4.355251789000079,7.79625272800007],[4.341528416000074,7.780241966000062],[4.328567028000066,7.744408131000057],[4.36058902700006,7.6696906090000425],[4.3541083340000455,7.654823303000057],[4.350677490000066,7.652536392000059],[4.330091953000078,7.666641235000043],[4.315987110000037,7.6845579150000844],[4.295402050000064,7.740595818000088],[4.2984514240000635,7.770330429000069],[4.279391289000046,7.785197735000054],[4.258424282000078,7.814550877000045],[4.23936414700006,7.8309426310000845],[4.22144699100005,7.8397107120000555],[4.176464081000063,7.838567257000079],[4.139486790000092,7.81721925700009],[4.07249164600006,7.808732986000052],[4.076208115000043,7.824930191000078],[4.09114646900008,7.85016584400006]]]}},{"type":"Feature","properties":{"CNTRY_NAME":"Nigeria","CNTRY_CODE":"NGA","ADM1_NAME":"Osun","ADM1_CODE":"NGA030","ADM2_NAME":"Ife Central","ADM2_CODE":"NGA030011","HRname":"Ife Central","HRpcode":"NG030011","HRparent":"NG030","Shape_Leng":0.386537774635,"Shape_Area":0.00904918198259,"ADM2_New":"Ife Central","id":"NG-OS-IFE-CENTRAL","name":"Ife Central","parentId":"NG-OS","stateName":"Osun","regionId":"NG-SW","fillColor":"#C9B896"},"geometry":{"type":"Polygon","coordinates":[[[4.526352882000083,7.6179523470000845],[4.537851810000063,7.615558624000073],[4.556149960000084,7.5984044080000785],[4.580928802000074,7.539316654000061],[4.577878952000049,7.506913662000045],[4.56028318400007,7.469988346000093],[4.535183430000075,7.492427826000039],[4.490581989000077,7.521399975000065],[4.4780020710000485,7.5366482730000826],[4.4814329150000844,7.569051266000088],[4.488294601000064,7.570194721000064],[4.513073444000042,7.591923714000075],[4.522984505000068,7.603741169000045],[4.526352882000083,7.6179523470000845]]]}},{"type":"Feature","properties":{"CNTRY_NAME":"Nigeria","CNTRY_CODE":"NGA","ADM1_NAME":"Osun","ADM1_CODE":"NGA030","ADM2_NAME":"Ife East","ADM2_CODE":"NGA030012","HRname":"Ife East","HRpcode":"NG030012","HRparent":"NG030","Shape_Leng":0.689718183959,"Shape_Area":0.0140210937201,"ADM2_New":"Ife East","id":"NG-OS-IFE-EAST","name":"Ife East","parentId":"NG-OS","stateName":"Osun","regionId":"NG-SW","fillColor":"#5E9E78"},"geometry":{"type":"Polygon","coordinates":[[[4.56028318400007,7.469988346000093],[4.577878952000049,7.506913662000045],[4.580928802000074,7.539316654000061],[4.621146679000049,7.5233058930000425],[4.629914284000051,7.507676125000046],[4.631248474000074,7.482516289000046],[4.639635086000055,7.4676489830000605],[4.656408310000074,7.452400684000054],[4.667763233000073,7.421451092000041],[4.657552242000065,7.40970516200008],[4.630486012000063,7.3986496930000385],[4.608757019000052,7.39636278200004],[4.61409425700009,7.342993259000082],[4.605707645000052,7.314402103000077],[4.604945183000041,7.286955357000068],[4.595033646000047,7.268275738000057],[4.588933945000065,7.277043819000085],[4.587790489000042,7.301441193000073],[4.576735497000072,7.317833424000071],[4.583978653000088,7.355954170000075],[4.580547333000084,7.3666281700000695],[4.566442966000068,7.381495476000055],[4.547024727000064,7.373636723000061],[4.547000885000045,7.38416385700009],[4.566442966000068,7.418091774000061],[4.559962273000053,7.440964222000048],[4.56028318400007,7.469988346000093]]]}},{"type":"Feature","properties":{"CNTRY_NAME":"Nigeria","CNTRY_CODE":"NGA","ADM1_NAME":"Osun","ADM1_CODE":"NGA030","ADM2_NAME":"Ife North","ADM2_CODE":"NGA030013","HRname":"Ife North","HRpcode":"NG030013","HRparent":"NG030","Shape_Leng":1.69286343394,"Shape_Area":0.0725154535643,"ADM2_New":"Ife North","id":"NG-OS-IFE-NORTH","name":"Ife North","parentId":"NG-OS","stateName":"Osun","regionId":"NG-SW","fillColor":"#94B86A"},"geometry":{"type":"Polygon","coordinates":[[[4.4814329150000844,7.569051266000088],[4.4780020710000485,7.5366482730000826],[4.481813908000049,7.528642654000066],[4.56028318400007,7.469988346000093],[4.559962273000053,7.440964222000048],[4.566442966000068,7.418091774000061],[4.547000885000045,7.38416385700009],[4.528321743000049,7.336893559000089],[4.507355213000039,7.3155460360000575],[4.501446247000047,7.267894745000092],[4.469424725000067,7.219480991000069],[4.456082344000038,7.169923306000044],[4.446170807000044,7.153531551000071],[4.454175949000046,7.140189171000088],[4.489628792000076,7.111598015000084],[4.510595322000086,7.108548641000084],[4.534230232000084,7.111598015000084],[4.543760777000045,7.100543022000068],[4.563202381000053,7.057466507000072],[4.590649605000067,7.039930820000052],[4.61074829100005,7.035215378000089],[4.6095857620000515,7.031077862000075],[4.577187538000089,7.023374557000068],[4.516273499000079,7.0226130490000855],[4.488862038000093,6.99177551300005],[4.463354111000058,6.993298054000093],[4.454216957000085,7.00091266600009],[4.438227177000044,7.004719734000048],[4.424521446000085,7.002435207000076],[4.40053653700005,6.98073482500007],[4.390379906000078,6.98085498800009],[4.374319553000078,6.998856068000066],[4.371032715000069,7.017980099000056],[4.37865686400005,7.026067734000037],[4.37118005800005,7.032460213000093],[4.370260715000086,7.056211472000086],[4.354489803000092,7.082244873000093],[4.392229557000064,7.15276908900006],[4.395278931000064,7.183647156000063],[4.384795666000059,7.228248596000071],[4.387845516000084,7.2541708950000725],[4.40233135200009,7.2598891260000755],[4.405381203000047,7.2656073570000785],[4.3958511350000435,7.337275028000079],[4.406143665000059,7.346042633000081],[4.41109943400005,7.362434864000079],[4.401378632000046,7.379970551000042],[4.378887177000081,7.389119625000092],[4.375456333000045,7.419235229000037],[4.393373013000087,7.4562125210000545],[4.382318020000071,7.476035595000042],[4.396422863000055,7.521399975000065],[4.404428005000057,7.530167580000068],[4.447504997000067,7.558377266000093],[4.4814329150000844,7.569051266000088]]]}},{"type":"Feature","properties":{"CNTRY_NAME":"Nigeria","CNTRY_CODE":"NGA","ADM1_NAME":"Osun","ADM1_CODE":"NGA030","ADM2_NAME":"Ife South","ADM2_CODE":"NGA030014","HRname":"Ife South","HRpcode":"NG030014","HRparent":"NG030","Shape_Leng":1.32935387871,"Shape_Area":0.059522296564,"ADM2_New":"Ife South","id":"NG-OS-IFE-SOUTH","name":"Ife South","parentId":"NG-OS","stateName":"Osun","regionId":"NG-SW","fillColor":"#C2A882"},"geometry":{"type":"Polygon","coordinates":[[[4.547024727000064,7.373636723000061],[4.566442966000068,7.381495476000055],[4.580547333000084,7.3666281700000695],[4.583978653000088,7.355954170000075],[4.576735497000072,7.317833424000071],[4.587790489000042,7.301441193000073],[4.588933945000065,7.277043819000085],[4.595033646000047,7.268275738000057],[4.604945183000041,7.286955357000068],[4.605707645000052,7.314402103000077],[4.61409425700009,7.342993259000082],[4.608757019000052,7.39636278200004],[4.630486012000063,7.3986496930000385],[4.667082310000069,7.41694784200007],[4.682902813000055,7.399031162000085],[4.6951012610000475,7.365103245000057],[4.685189724000054,7.287336349000043],[4.691670418000058,7.269038200000068],[4.736653328000045,7.244640827000069],[4.749408722000055,7.231298447000086],[4.736561775000041,7.207220078000091],[4.720866203000071,7.195129395000038],[4.7154316900000595,7.1720151900000815],[4.708982468000045,7.164592743000071],[4.698793411000054,7.162689686000078],[4.683927536000056,7.168147087000079],[4.669123650000074,7.162525177000077],[4.67295551300009,7.140385628000047],[4.630479813000079,7.10875606500008],[4.613949776000084,7.0800404550000735],[4.611404419000053,7.037551403000066],[4.606660366000085,7.03497505200005],[4.563202381000053,7.057466507000072],[4.543760777000045,7.100543022000068],[4.534230232000084,7.111598015000084],[4.510595322000086,7.108548641000084],[4.489628792000076,7.111598015000084],[4.454175949000046,7.140189171000088],[4.446170807000044,7.153531551000071],[4.456082344000038,7.169923306000044],[4.469424725000067,7.219480991000069],[4.501446247000047,7.267894745000092],[4.507355213000039,7.3155460360000575],[4.528321743000049,7.336893559000089],[4.547024727000064,7.373636723000061]]]}},{"type":"Feature","properties":{"CNTRY_NAME":"Nigeria","CNTRY_CODE":"NGA","ADM1_NAME":"Osun","ADM1_CODE":"NGA030","ADM2_NAME":"Ifedayo","ADM2_CODE":"NGA030015","HRname":"Ifedayo","HRpcode":"NG030015","HRparent":"NG030","Shape_Leng":0.579950985677,"Shape_Area":0.0104838054771,"ADM2_New":"Ifedayo","id":"NG-OS-IFEDAYO","name":"Ifedayo","parentId":"NG-OS","stateName":"Osun","regionId":"NG-SW","fillColor":"#72A898"},"geometry":{"type":"Polygon","coordinates":[[[5.054930210000066,8.049190521000071],[5.0564889910000375,8.03107833900009],[5.035522461000085,8.005156517000046],[5.031329155000037,7.976946354000063],[5.016461849000052,7.955217361000052],[5.001213551000092,7.94606828700006],[4.99053955100004,7.931201458000089],[4.942035198000042,7.899925709000058],[4.927299976000086,7.880373955000039],[4.923782825000046,7.863490582000054],[4.911100864000048,7.850109577000069],[4.9062919620000685,7.864108086000044],[4.923827648000042,7.8915553090000685],[4.93221426000008,7.915952682000068],[4.933739185000093,7.938444138000079],[4.945556641000053,7.952167988000042],[4.958518028000071,7.98152113000009],[4.966142178000041,8.018116951000081],[4.9733853340000564,8.018116951000081],[4.987490177000041,8.032221794000066],[5.001976013000046,8.034128189000057],[5.009981632000063,8.05013942700009],[5.03704738600004,8.070724487000064],[5.049627304000069,8.064624786000081],[5.054930210000066,8.049190521000071]]]}},{"type":"Feature","properties":{"CNTRY_NAME":"Nigeria","CNTRY_CODE":"NGA","ADM1_NAME":"Osun","ADM1_CODE":"NGA030","ADM2_NAME":"Ifelodun","ADM2_CODE":"NGA030016","HRname":"Ifelodun","HRpcode":"NG030016","HRparent":"NG030","Shape_Leng":0.489547348315,"Shape_Area":0.00934558047504,"ADM2_New":"Ifelodun","id":"NG-OS-IFELODUN","name":"Ifelodun","parentId":"NG-OS","stateName":"Osun","regionId":"NG-SW","fillColor":"#D4896A"},"geometry":{"type":"Polygon","coordinates":[[[4.556531429000074,7.947974682000051],[4.59617710100008,7.960935593000045],[4.654883385000062,7.9555988310000885],[4.67889976500004,7.968941212000061],[4.702535152000053,7.967416286000059],[4.72197675700005,7.958984852000071],[4.694529533000093,7.931582451000054],[4.67889976500004,7.923195839000073],[4.668988228000046,7.908328533000088],[4.669369698000082,7.88888692900008],[4.605707645000052,7.83932972000008],[4.602276325000048,7.847334862000082],[4.610281944000064,7.893461227000046],[4.602276325000048,7.906803608000075],[4.568347931000062,7.9262452130000725],[4.556531429000074,7.947974682000051]]]}},{"type":"Feature","properties":{"CNTRY_NAME":"Nigeria","CNTRY_CODE":"NGA","ADM1_NAME":"Osun","ADM1_CODE":"NGA030","ADM2_NAME":"Ila","ADM2_CODE":"NGA030017","HRname":"Ila","HRpcode":"NG030017","HRparent":"NG030","Shape_Leng":0.806010866212,"Shape_Area":0.0247471721287,"ADM2_New":"Ila","id":"NG-OS-ILA","name":"Ila","parentId":"NG-OS","stateName":"Osun","regionId":"NG-SW","fillColor":"#9B8B72"},"geometry":{"type":"Polygon","coordinates":[[[4.774718761000088,8.06830692300008],[4.8052711490000775,8.063862801000084],[4.818613529000061,8.053569794000055],[4.830049992000056,8.055476189000046],[4.85749721500008,8.072630882000055],[4.851778984000077,8.091691017000073],[4.861309052000081,8.094740868000088],[4.926877499000057,8.079873085000088],[4.9497499470000434,8.055476189000046],[4.9669046400000525,8.046708107000086],[4.970716476000064,8.032603264000045],[4.958518028000071,7.98152113000009],[4.945556641000053,7.952167988000042],[4.933739185000093,7.938444138000079],[4.93221426000008,7.915952682000068],[4.923827648000042,7.8915553090000685],[4.9062919620000685,7.864108086000044],[4.9120101930000715,7.854959011000062],[4.910020828000086,7.841811657000051],[4.8899002080000855,7.844666481000047],[4.868171215000075,7.862964630000079],[4.833099842000081,7.875925541000072],[4.871220589000075,7.900704384000051],[4.825094223000065,7.991813660000048],[4.821281910000039,8.01011180900008],[4.7959318160000635,8.027647972000068],[4.78906965300007,8.038321495000048],[4.792119503000038,8.048995018000085],[4.774718761000088,8.06830692300008]]]}}]}