{"type":"FeatureCollection","features":[{"type":"Feature","properties":{"CNTRY_NAME":"Nigeria","CNTRY_CODE":"NGA","ADM1_NAME":"Plateau","ADM1_CODE":"NGA032","ADM2_NAME":"Barikin Ladi","ADM2_CODE":"NGA032001","HRname":"Barikin Ladi","HRpcode":"NG032001","HRparent":"NG032","Shape_Leng":1.53901073415,"Shape_Area":0.0850276161143,"ADM2_New":"Barikin Ladi","id":"NG-PL-BARIKIN-LADI","name":"Barikin Ladi","parentId":"NG-PL","stateName":"Plateau","regionId":"NG-NC","fillColor":"#6BA368"},"geometry":{"type":"Polygon","coordinates":[[[8.973049164000088,9.83040046700006],[8.97080898300004,9.797931671000072],[8.976932526000041,9.790481567000086],[8.982561111000052,9.752120972000057],[8.993154526000069,9.731356621000089],[9.011262894000083,9.714785576000054],[9.034782410000048,9.706177711000066],[9.044306755000093,9.708530426000038],[9.085132599000076,9.700691223000092],[9.10797596000009,9.665025711000055],[9.135787010000058,9.646954536000067],[9.13877868700007,9.623922348000065],[9.135289192000073,9.616044998000064],[9.109617233000051,9.58787822700009],[9.065926552000064,9.57435607900004],[9.05841255200005,9.570160866000037],[9.053179741000065,9.558345795000037],[9.026616096000055,9.54944419900005],[9.019548416000077,9.535616875000073],[9.019228935000058,9.500853539000047],[9.011485100000073,9.459970474000045],[9.001667976000078,9.441665649000072],[8.953480721000062,9.422644615000081],[8.89216613800005,9.373590469000078],[8.850309372000083,9.362079620000088],[8.828890800000067,9.366920471000071],[8.793068886000071,9.349884987000053],[8.768072128000085,9.348774910000088],[8.74955654100006,9.332509041000037],[8.719147682000084,9.323436737000065],[8.694150925000088,9.322327614000073],[8.690713882000068,9.354992867000078],[8.69561004600007,9.374082565000037],[8.730254173000048,9.416595459000064],[8.733386993000067,9.43217754400007],[8.752080917000058,9.44459056900007],[8.760983467000074,9.46042919200005],[8.805171013000063,9.504862785000057],[8.810226440000065,9.520530701000041],[8.836344719000067,9.539065361000041],[8.873019218000081,9.579303741000047],[8.87736225100008,9.610384941000063],[8.871824265000043,9.646818161000056],[8.880102158000057,9.676143646000071],[8.908639908000055,9.72567272200007],[8.942092896000077,9.752253532000054],[8.951848030000065,9.79129791300005],[8.952612877000092,9.816429138000046],[8.958024979000072,9.824390411000081],[8.973049164000088,9.83040046700006]]]}},{"type":"Feature","properties":{"CNTRY_NAME":"Nigeria","CNTRY_CODE":"NGA","ADM1_NAME":"Plateau","ADM1_CODE":"NGA032","ADM2_NAME":"Bassa","ADM2_CODE":"NGA032002","HRname":"Bassa","HRpcode":"NG032002","HRparent":"NG032","Shape_Leng":1.89930325985,"Shape_Area":0.141861627706,"ADM2_New":"Bassa","id":"NG-PL-BASSA","name":"Bassa","parentId":"NG-PL","stateName":"Plateau","regionId":"NG-NC","fillColor":"#C4A574"},"geometry":{"type":"Polygon","coordinates":[[[8.823521614000072,10.383281708000084],[8.870192528000075,10.357634544000064],[8.898693085000048,10.35821437800007],[8.92977047000005,10.352089882000087],[8.93571567500004,10.348500252000065],[8.954892159000053,10.308810234000077],[8.95386028300004,10.289460182000084],[8.935611725000058,10.267410278000057],[8.936413765000054,10.250069618000055],[8.931246758000043,10.245111465000093],[8.929701805000093,10.228540421000048],[8.930326462000039,10.215049744000055],[8.973875999000086,10.189959526000052],[8.97816658000005,10.180500031000065],[8.957839012000079,10.036740303000045],[8.937133789000086,10.026169777000064],[8.902611732000082,10.022700310000062],[8.865135193000071,9.999803543000041],[8.810121536000054,9.939444542000047],[8.799565315000052,9.917740822000042],[8.812617302000092,9.88550186200007],[8.809662819000039,9.866065979000041],[8.796736717000044,9.853908539000088],[8.780857086000083,9.822316170000079],[8.775303841000039,9.77573680900008],[8.769803047000039,9.76970100400007],[8.70969677000005,9.736145020000038],[8.667751312000064,9.726559639000072],[8.630294800000058,9.731216431000064],[8.615465164000057,9.74239635500004],[8.629613876000064,9.75961589800005],[8.631002426000066,9.771260262000055],[8.626355171000057,9.78842830700006],[8.628827095000076,9.859967232000088],[8.618143082000074,9.882658958000093],[8.619621277000078,9.892376900000045],[8.635857582000085,9.916263580000077],[8.63550090800004,9.923970222000037],[8.610556602000088,9.963402748000078],[8.617712975000074,9.975303650000058],[8.652235031000089,9.978766441000062],[8.673029900000074,9.987412453000047],[8.679919243000086,10.00508976000009],[8.67263603200007,10.037590027000078],[8.62869358100005,10.112859726000067],[8.629547119000051,10.13605976100007],[8.645694733000084,10.161870003000047],[8.646013260000075,10.196640015000071],[8.654915810000091,10.21247959100009],[8.703038216000039,10.255149841000048],[8.742437363000079,10.278140068000084],[8.768287659000066,10.30245018000005],[8.77159977000008,10.314180374000046],[8.762839317000044,10.336959839000087],[8.775052071000061,10.36452961000009],[8.771792412000082,10.393340111000043],[8.799246788000062,10.382980347000057],[8.823521614000072,10.383281708000084]]]}},{"type":"Feature","properties":{"CNTRY_NAME":"Nigeria","CNTRY_CODE":"NGA","ADM1_NAME":"Plateau","ADM1_CODE":"NGA032","ADM2_NAME":"Bokkos","ADM2_CODE":"NGA032003","HRname":"Bokkos","HRpcode":"NG032003","HRparent":"NG032","Shape_Leng":1.55131658065,"Shape_Area":0.138483322768,"ADM2_New":"Bokkos","id":"NG-PL-BOKKOS","name":"Bokkos","parentId":"NG-PL","stateName":"Plateau","regionId":"NG-NC","fillColor":"#5B8FA8"},"geometry":{"type":"Polygon","coordinates":[[[8.698085785000046,9.320570946000089],[8.74772262600004,9.330496788000062],[8.768072128000085,9.348774910000088],[8.793068886000071,9.349884987000053],[8.828890800000067,9.366920471000071],[8.850309372000083,9.362079620000088],[8.89033222200004,9.371578217000092],[8.953480721000062,9.422644615000081],[9.001667976000078,9.441665649000072],[9.003119469000069,9.432570457000054],[9.021492958000067,9.410220146000086],[9.06338691700006,9.379261971000062],[9.10809516900008,9.32912254300004],[9.120612144000063,9.30844402300005],[9.124175072000071,9.231382370000063],[9.131368637000037,9.200813293000067],[9.109884262000037,9.082098961000042],[9.10107135800007,9.064332962000037],[9.07320880900005,9.041860580000048],[9.060153961000083,9.020597458000054],[9.044990540000072,9.027093887000092],[8.977663040000039,9.01653671300005],[8.924118996000061,9.015935898000066],[8.850249290000079,9.030030251000085],[8.79815483100009,9.031578064000087],[8.789928436000082,9.04279613500006],[8.789483070000074,9.05242824600009],[8.79943847700008,9.071156502000065],[8.79190254200006,9.083423615000072],[8.780188560000056,9.086765289000084],[8.760068893000039,9.10517692600007],[8.767522812000038,9.136285782000073],[8.764998436000042,9.165241241000047],[8.748991966000062,9.178043365000065],[8.708078384000089,9.187809944000037],[8.687015533000078,9.18494415300006],[8.667521477000037,9.18986988100005],[8.656926155000065,9.210636139000087],[8.65973568000004,9.22355175000007],[8.650911331000088,9.23471164700004],[8.638195992000078,9.240692139000089],[8.63591671000006,9.24831295000007],[8.643073082000058,9.26021385200005],[8.678983688000073,9.275321960000042],[8.698085785000046,9.320570946000089]]]}},{"type":"Feature","properties":{"CNTRY_NAME":"Nigeria","CNTRY_CODE":"NGA","ADM1_NAME":"Plateau","ADM1_CODE":"NGA032","ADM2_NAME":"Jos East","ADM2_CODE":"NGA032004","HRname":"Jos East","HRpcode":"NG032004","HRparent":"NG032","Shape_Leng":1.12609788453,"Shape_Area":0.0840827342125,"ADM2_New":"Jos East","id":"NG-PL-JOS-EAST","name":"Jos East","parentId":"NG-PL","stateName":"Plateau","regionId":"NG-NC","fillColor":"#A8BF7A"},"geometry":{"type":"Polygon","coordinates":[[[8.981877327000063,9.860683441000049],[8.991619110000045,9.889589310000076],[8.988716125000053,9.910696030000054],[8.971640587000081,9.946617126000092],[8.968826294000053,9.965797424000073],[8.98630619000005,10.010419846000048],[9.020439148000037,10.016349792000085],[9.047448158000066,10.01562023200006],[9.089393616000052,10.025199890000067],[9.125455856000087,10.03940868400008],[9.163582802000064,10.045869827000047],[9.217511177000063,10.046339989000046],[9.247065544000066,10.03221035000007],[9.259761810000043,10.007670403000077],[9.267312050000044,9.96939754500005],[9.277638435000085,9.954412460000071],[9.291314125000042,9.908687592000092],[9.286881447000042,9.879532814000072],[9.274312973000065,9.859669685000085],[9.260800362000055,9.81852912900007],[9.253554344000065,9.808555603000059],[9.21992397300005,9.785826683000039],[9.155795097000066,9.755951881000044],[9.152183533000084,9.744761467000046],[9.126098633000083,9.731467247000069],[9.113172531000089,9.719310760000042],[9.101725578000071,9.71687126200004],[9.087143898000079,9.698850632000074],[9.044306755000093,9.708530426000038],[9.034782410000048,9.706177711000066],[9.011262894000083,9.714785576000054],[8.993154526000069,9.731356621000089],[8.982561111000052,9.752120972000057],[8.976932526000041,9.790481567000086],[8.97080898300004,9.797931671000072],[8.974528313000064,9.842497826000056],[8.981877327000063,9.860683441000049]]]}},{"type":"Feature","properties":{"CNTRY_NAME":"Nigeria","CNTRY_CODE":"NGA","ADM1_NAME":"Plateau","ADM1_CODE":"NGA032","ADM2_NAME":"Jos North","ADM2_CODE":"NGA032005","HRname":"Jos North","HRpcode":"NG032005","HRparent":"NG032","Shape_Leng":0.64353514458,"Shape_Area":0.0240441073713,"ADM2_New":"Jos North","id":"NG-PL-JOS-NORTH","name":"Jos North","parentId":"NG-PL","stateName":"Plateau","regionId":"NG-NC","fillColor":"#B8956B"},"geometry":{"type":"Polygon","coordinates":[[[8.95639705700006,10.03375721000009],[8.95654010800007,10.023170471000071],[8.98408317600007,10.010880470000075],[8.968826294000053,9.965797424000073],[8.971640587000081,9.946617126000092],[8.988716125000053,9.910696030000054],[8.991619110000045,9.889589310000076],[8.981877327000063,9.860683441000049],[8.970237732000044,9.851960182000084],[8.956777573000068,9.851362228000085],[8.91734123200007,9.870846748000076],[8.907727242000078,9.87042045600009],[8.890867233000051,9.860018730000093],[8.854511261000084,9.854543686000056],[8.838861465000093,9.85964012100004],[8.82388687100007,9.891794205000053],[8.79992198900004,9.910035133000065],[8.810121536000054,9.939444542000047],[8.865135193000071,9.999803543000041],[8.902611732000082,10.022700310000062],[8.937133789000086,10.026169777000064],[8.95639705700006,10.03375721000009]]]}},{"type":"Feature","properties":{"CNTRY_NAME":"Nigeria","CNTRY_CODE":"NGA","ADM1_NAME":"Plateau","ADM1_CODE":"NGA032","ADM2_NAME":"Jos South","ADM2_CODE":"NGA032006","HRname":"Jos South","HRpcode":"NG032006","HRparent":"NG032","Shape_Leng":1.01736234441,"Shape_Area":0.0420334506632,"ADM2_New":"Jos South","id":"NG-PL-JOS-SOUTH","name":"Jos South","parentId":"NG-PL","stateName":"Plateau","regionId":"NG-NC","fillColor":"#6AADA3"},"geometry":{"type":"Polygon","coordinates":[[[8.803713799000093,9.90542316400007],[8.82388687100007,9.891794205000053],[8.838861465000093,9.85964012100004],[8.848741531000087,9.854288101000066],[8.890867233000051,9.860018730000093],[8.907727242000078,9.87042045600009],[8.91734123200007,9.870846748000076],[8.956777573000068,9.851362228000085],[8.970237732000044,9.851960182000084],[8.981877327000063,9.860683441000049],[8.973049164000088,9.83040046700006],[8.958024979000072,9.824390411000081],[8.952612877000092,9.816429138000046],[8.945671082000047,9.758205414000088],[8.910473824000064,9.727684975000045],[8.880102158000057,9.676143646000071],[8.871824265000043,9.646818161000056],[8.849552155000083,9.62845516200008],[8.838104248000093,9.62601566300009],[8.822454453000091,9.631112099000063],[8.80251312300004,9.645670891000066],[8.795088768000085,9.639550209000049],[8.784709930000076,9.613992691000078],[8.775184631000059,9.611639023000066],[8.767226219000065,9.617076874000077],[8.762489319000053,9.636172295000051],[8.75453090700006,9.641610146000062],[8.707759857000042,9.653046608000068],[8.69769954700007,9.662253380000038],[8.698642731000064,9.683529854000085],[8.710854530000063,9.711099625000088],[8.697287560000063,9.733663559000092],[8.739838600000041,9.750996590000057],[8.773469925000086,9.77372646300006],[8.780857086000083,9.822316170000079],[8.796736717000044,9.853908539000088],[8.809662819000039,9.866065979000041],[8.812617302000092,9.88550186200007],[8.803713799000093,9.90542316400007]]]}},{"type":"Feature","properties":{"CNTRY_NAME":"Nigeria","CNTRY_CODE":"NGA","ADM1_NAME":"Plateau","ADM1_CODE":"NGA032","ADM2_NAME":"Kanam","ADM2_CODE":"NGA032007","HRname":"Kanam","HRpcode":"NG032007","HRparent":"NG032","Shape_Leng":2.61064407203,"Shape_Area":0.214005609313,"ADM2_New":"Kanam","id":"NG-PL-KANAM","name":"Kanam","parentId":"NG-PL","stateName":"Plateau","regionId":"NG-NC","fillColor":"#8FAF6E"},"geometry":{"type":"Polygon","coordinates":[[[9.781454086000053,9.555940628000087],[9.816847801000051,9.593439102000048],[9.853553772000055,9.606744766000077],[9.906775475000074,9.611791611000058],[9.942104340000071,9.609039307000046],[9.962291718000074,9.61270999900006],[9.980644226000038,9.623262405000048],[9.99165630300007,9.645744324000077],[9.962291718000074,9.726954460000059],[9.962291718000074,9.756318092000072],[9.96574783300008,9.773833275000072],[10.008769989000086,9.76872921000006],[10.060044289000075,9.758606911000072],[10.128379822000056,9.723846436000088],[10.140810013000078,9.705093384000065],[10.162529945000074,9.652004242000089],[10.179920197000058,9.650845528000048],[10.210240364000072,9.661844254000073],[10.223879814000043,9.65858936300009],[10.258130074000064,9.667831421000074],[10.281479836000074,9.663076401000069],[10.313220024000088,9.643250465000051],[10.326860428000089,9.639995575000057],[10.35301017800009,9.616060257000072],[10.382749557000068,9.598074913000062],[10.423839569000052,9.584454536000067],[10.488900185000091,9.552595139000061],[10.499670029000072,9.52797699000007],[10.518486023000037,9.503770828000086],[10.566149712000083,9.46529197700005],[10.57894039200005,9.43883323700004],[10.57991981500004,9.417640686000084],[10.571020126000064,9.401801109000075],[10.49392032600008,9.402239799000085],[10.40810966500004,9.382985115000054],[10.39054012300005,9.387996674000078],[10.34891033200006,9.413175583000054],[10.30830955500005,9.45770454400008],[10.27159977000008,9.45993614200006],[10.252909660000057,9.447522163000087],[10.231940269000063,9.442729950000057],[10.200989723000077,9.445217133000085],[10.179129601000056,9.459691048000082],[10.155960083000082,9.460593224000093],[10.127659798000082,9.447752953000077],[10.109319687000038,9.42763328600006],[10.089280128000041,9.36110687300004],[10.080280304000041,9.347193718000085],[10.05362987500007,9.340218544000038],[10.031089783000084,9.327634811000053],[9.992049217000044,9.296943665000072],[9.988559723000037,9.289067268000053],[9.992761612000038,9.281531334000078],[10.016460419000055,9.26907062500004],[10.020660400000054,9.261534691000065],[10.013589859000092,9.247707367000089],[9.964134216000048,9.233928680000076],[9.938105583000038,9.21346759800008],[9.891868591000048,9.213345528000048],[9.884089470000049,9.214930534000075],[9.881897926000079,9.220624924000049],[9.888074875000086,9.25371742200008],[9.866210937000062,9.268190384000093],[9.861653328000045,9.283432007000044],[9.851414680000062,9.296490669000093],[9.80088710800004,9.30583095600008],[9.787426949000064,9.30523300200008],[9.768572807000055,9.296287537000069],[9.759349823000093,9.329081535000057],[9.771561623000082,9.35665226000009],[9.772415161000083,9.379856110000048],[9.788741112000082,9.401816368000084],[9.790269852000051,9.452076912000052],[9.77905273400006,9.486328125000057],[9.74175930000007,9.534790993000058],[9.74694347400009,9.542259216000048],[9.777699471000062,9.551204681000058],[9.781454086000053,9.555940628000087]]]}},{"type":"Feature","properties":{"CNTRY_NAME":"Nigeria","CNTRY_CODE":"NGA","ADM1_NAME":"Plateau","ADM1_CODE":"NGA032","ADM2_NAME":"Kanke","ADM2_CODE":"NGA032008","HRname":"Kanke","HRpcode":"NG032008","HRparent":"NG032","Shape_Leng":1.32334008329,"Shape_Area":0.0762425860472,"ADM2_New":"Kanke","id":"NG-PL-KANKE","name":"Kanke","parentId":"NG-PL","stateName":"Plateau","regionId":"NG-NC","fillColor":"#D4C4A0"},"geometry":{"type":"Polygon","coordinates":[[[9.473641396000062,9.507516861000056],[9.491889954000044,9.52956295000007],[9.508749962000081,9.539963722000039],[9.516530037000052,9.538378716000068],[9.531059265000067,9.515857697000058],[9.55082225800004,9.50515174900005],[9.645879745000059,9.524072647000082],[9.669681549000074,9.518152237000038],[9.74175930000007,9.534790993000058],[9.77905273400006,9.486328125000057],[9.787723541000048,9.465477943000053],[9.79133892100009,9.428958893000072],[9.788741112000082,9.401816368000084],[9.772415161000083,9.379856110000048],[9.771561623000082,9.35665226000009],[9.759349823000093,9.329081535000057],[9.768572807000055,9.296287537000069],[9.75388526900008,9.280577660000063],[9.739838600000041,9.250996590000057],[9.713898659000051,9.228609085000073],[9.708130836000066,9.228354454000055],[9.688597679000054,9.275748253000074],[9.663600922000057,9.274638176000053],[9.64173698400009,9.28911209100005],[9.62836647000006,9.286587715000053],[9.598172188000092,9.231192589000045],[9.530553818000044,9.193441391000079],[9.530606270000078,9.233983994000084],[9.523857117000091,9.254920006000077],[9.513797760000045,9.264125824000075],[9.509151459000066,9.28129386900008],[9.492431641000053,9.309509277000075],[9.476514816000076,9.320385933000068],[9.472223282000073,9.329847336000057],[9.473522186000082,9.343419075000043],[9.49257278400006,9.348125458000084],[9.503753662000065,9.356344223000065],[9.508542061000071,9.377792358000079],[9.501793861000067,9.398728371000061],[9.510516167000048,9.418420792000063],[9.505958557000042,9.433661461000042],[9.480516434000037,9.442184448000091],[9.468534470000066,9.451305389000083],[9.47690010100007,9.47870254500009],[9.473641396000062,9.507516861000056]]]}},{"type":"Feature","properties":{"CNTRY_NAME":"Nigeria","CNTRY_CODE":"NGA","ADM1_NAME":"Plateau","ADM1_CODE":"NGA032","ADM2_NAME":"Langtang North","ADM2_CODE":"NGA032009","HRname":"Langtang North","HRpcode":"NG032009","HRparent":"NG032","Shape_Leng":1.4737763882,"Shape_Area":0.0689592894471,"ADM2_New":"Langtang North","id":"NG-PL-LANGTANG-NORTH","name":"Langtang North","parentId":"NG-PL","stateName":"Plateau","regionId":"NG-NC","fillColor":"#688EB5"},"geometry":{"type":"Polygon","coordinates":[[[9.712064743000042,9.22659778600007],[9.739838600000041,9.250996590000057],[9.76296424900005,9.292563438000059],[9.787426949000064,9.30523300200008],[9.80088710800004,9.30583095600008],[9.851414680000062,9.296490669000093],[9.861653328000045,9.283432007000044],[9.866210937000062,9.268190384000093],[9.888074875000086,9.25371742200008],[9.88145256000007,9.23025703400009],[9.884089470000049,9.214930534000075],[9.915121078000084,9.21051693000004],[9.916367531000049,9.183545113000037],[9.931343079000044,9.15139102900008],[9.91537284900005,9.121725082000069],[9.915996552000081,9.108239174000062],[9.924579620000088,9.089315414000055],[9.912545204000082,9.057892799000058],[9.884414673000038,9.041199684000048],[9.867911339000045,9.023092270000063],[9.868535042000076,9.009606361000067],[9.880962372000056,8.990853310000091],[9.87312984500005,8.951895714000045],[9.89011669200005,8.917900085000042],[9.885060310000085,8.902232170000048],[9.872223854000083,8.88814830800004],[9.87897300700007,8.867213249000088],[9.872172356000078,8.847605705000092],[9.875164032000043,8.82457256300006],[9.871585846000073,8.818622589000086],[9.878292084000066,8.791015625000057],[9.837865829000066,8.797820091000062],[9.82843017600004,8.793540001000054],[9.812423706000061,8.806343079000044],[9.78402710000006,8.795429230000082],[9.774233818000084,8.79885578200009],[9.77464294400005,8.831692696000061],[9.784290314000089,8.89389705700006],[9.809714317000044,8.906608582000047],[9.828905106000093,8.94993209800009],[9.834992409000051,8.98495101900005],[9.83079147300009,8.992486954000071],[9.818986893000044,8.99775409700004],[9.79188823700008,9.000411987000064],[9.77029228200007,9.00910568200004],[9.76188755000004,9.024176598000054],[9.74816131600005,9.029357910000044],[9.730996132000087,9.067206383000041],[9.73019409200009,9.084545135000042],[9.717856407000056,9.101371765000067],[9.711909294000066,9.10496902500006],[9.702383995000048,9.102615356000058],[9.690045357000088,9.119441986000083],[9.66933345800004,9.128930092000076],[9.679362297000068,9.142133713000078],[9.699496269000065,9.206733704000044],[9.712064743000042,9.22659778600007]]]}},{"type":"Feature","properties":{"CNTRY_NAME":"Nigeria","CNTRY_CODE":"NGA","ADM1_NAME":"Plateau","ADM1_CODE":"NGA032","ADM2_NAME":"Langtang South","ADM2_CODE":"NGA032010","HRname":"Langtang South","HRpcode":"NG032010","HRparent":"NG032","Shape_Leng":1.28549887686,"Shape_Area":0.097578730402,"ADM2_New":"Langtang South","id":"NG-PL-LANGTANG-SOUTH","name":"Langtang South","parentId":"NG-PL","stateName":"Plateau","regionId":"NG-NC","fillColor":"#7CB087"},"geometry":{"type":"Polygon","coordinates":[[[9.774233818000084,8.79885578200009],[9.789794922000056,8.795685768000055],[9.812423706000061,8.806343079000044],[9.82843017600004,8.793540001000054],[9.837865829000066,8.797820091000062],[9.878292084000066,8.791015625000057],[9.88727283500009,8.77105617500007],[9.894964218000041,8.771397591000039],[9.903367996000043,8.756326675000082],[9.902247429000056,8.738902092000046],[9.908461571000089,8.729527473000076],[9.912611008000056,8.681447983000055],[9.929241180000076,8.655158997000058],[9.95320606200005,8.636918068000057],[9.994209290000072,8.625225067000088],[10.010299683000085,8.610495567000044],[10.00801563300007,8.553002357000082],[9.86944675400008,8.431289673000038],[9.756654739000055,8.36734199500006],[9.75117492700008,8.380843163000065],[9.739103317000058,8.391890526000054],[9.733742714000073,8.424470901000063],[9.704952240000068,8.463733673000092],[9.70441818200004,8.475292206000063],[9.69154453300007,8.503678322000042],[9.68148517600008,8.51288414000004],[9.678403854000067,8.537843704000068],[9.661774635000086,8.564132690000065],[9.656681061000086,8.590933800000073],[9.654772758000092,8.673860550000086],[9.671596527000077,8.72673130000004],[9.691856384000062,8.746935844000063],[9.708895683000037,8.753483772000038],[9.724455833000093,8.75031375900005],[9.751108170000066,8.757287979000068],[9.77311325100004,8.781431198000064],[9.774233818000084,8.79885578200009]]]}},{"type":"Feature","properties":{"CNTRY_NAME":"Nigeria","CNTRY_CODE":"NGA","ADM1_NAME":"Plateau","ADM1_CODE":"NGA032","ADM2_NAME":"Mangu","ADM2_CODE":"NGA032011","HRname":"Mangu","HRpcode":"NG032011","HRparent":"NG032","Shape_Leng":2.05133825669,"Shape_Area":0.136128797338,"ADM2_New":"Mangu","id":"NG-PL-MANGU","name":"Mangu","parentId":"NG-PL","stateName":"Plateau","regionId":"NG-NC","fillColor":"#C9B896"},"geometry":{"type":"Polygon","coordinates":[[[9.087143898000079,9.698850632000074],[9.101725578000071,9.71687126200004],[9.113172531000089,9.719310760000042],[9.126098633000083,9.731467247000069],[9.152183533000084,9.744761467000046],[9.194288254000071,9.71518993400008],[9.20251464800009,9.703972816000089],[9.235825539000075,9.691938400000083],[9.271290779000083,9.71667861900005],[9.279338837000068,9.709314346000042],[9.294490814000085,9.673307419000082],[9.284580231000064,9.636112213000047],[9.295415878000085,9.625675201000092],[9.32014846800007,9.618462563000037],[9.32371902500006,9.599584579000066],[9.334165573000064,9.587930679000067],[9.335479736000082,9.578601837000065],[9.300957680000067,9.57513904600006],[9.290133476000051,9.559214592000046],[9.290845871000045,9.543802261000053],[9.299427986000069,9.524877548000063],[9.316095352000048,9.456119537000063],[9.304327965000084,9.418917656000076],[9.306874275000041,9.405517578000058],[9.298418045000062,9.380044937000036],[9.264557838000087,9.32062625900005],[9.264060020000045,9.289716721000048],[9.277645111000083,9.245918274000076],[9.272500992000062,9.232175827000049],[9.27898216200009,9.217020035000075],[9.27325058000008,9.174294472000042],[9.280533791000039,9.14179992700008],[9.296895981000091,9.121290207000072],[9.299650192000058,9.107701302000066],[9.257852554000067,9.090599060000045],[9.23732566800004,9.076174736000041],[9.191482544000053,9.025876045000075],[9.183879852000075,9.023608208000041],[9.173055649000048,9.007683754000084],[9.13401222200008,8.976992607000057],[9.125786781000045,8.988210678000087],[9.127939224000045,9.024985313000059],[9.120656013000087,9.057480812000051],[9.116365433000055,9.06694221500004],[9.104999542000087,9.071070671000086],[9.131368637000037,9.200813293000067],[9.124175072000071,9.231382370000063],[9.120612144000063,9.30844402300005],[9.10809516900008,9.32912254300004],[9.06338691700006,9.379261971000062],[9.021492958000067,9.410220146000086],[9.003119469000069,9.432570457000054],[9.001667976000078,9.441665649000072],[9.011485100000073,9.459970474000045],[9.019228935000058,9.500853539000047],[9.019548416000077,9.535616875000073],[9.026616096000055,9.54944419900005],[9.051344872000072,9.556333542000061],[9.05841255200005,9.570160866000037],[9.065926552000064,9.57435607900004],[9.109617233000051,9.58787822700009],[9.131711006000046,9.610095024000088],[9.13877868700007,9.623922348000065],[9.135787010000058,9.646954536000067],[9.10797596000009,9.665025711000055],[9.087143898000079,9.698850632000074]]]}},{"type":"Feature","properties":{"CNTRY_NAME":"Nigeria","CNTRY_CODE":"NGA","ADM1_NAME":"Plateau","ADM1_CODE":"NGA032","ADM2_NAME":"Mikang","ADM2_CODE":"NGA032012","HRname":"Mikang","HRpcode":"NG032012","HRparent":"NG032","Shape_Leng":1.48594085422,"Shape_Area":0.0608167907162,"ADM2_New":"Mikang","id":"NG-PL-MIKANG","name":"Mikang","parentId":"NG-PL","stateName":"Plateau","regionId":"NG-NC","fillColor":"#5E9E78"},"geometry":{"type":"Polygon","coordinates":[[[9.362257957000054,9.095680237000067],[9.408992767000086,9.072214127000052],[9.449498177000066,9.02961063400005],[9.464969635000045,9.02836704300006],[9.478035927000064,9.07914066300009],[9.48729419700004,9.087273598000081],[9.506967545000066,9.078494072000069],[9.515282631000048,9.065349579000042],[9.53267765000004,9.06419181800004],[9.539425850000043,9.043255806000047],[9.558082581000065,9.09813880900009],[9.567696571000056,9.098565102000066],[9.56979847000008,9.094798088000061],[9.572789192000073,9.071764946000087],[9.578824997000083,9.066241264000041],[9.588350296000044,9.06859397900007],[9.602574348000076,9.094322205000083],[9.630260468000074,9.120648384000049],[9.643451691000053,9.127025604000039],[9.66933345800004,9.128930092000076],[9.690045357000088,9.119441986000083],[9.702383995000048,9.102615356000058],[9.711909294000066,9.10496902500006],[9.717856407000056,9.101371765000067],[9.73019409200009,9.084545135000042],[9.730996132000087,9.067206383000041],[9.74816131600005,9.029357910000044],[9.76188755000004,9.024176598000054],[9.77029228200007,9.00910568200004],[9.83079147300009,8.992486954000071],[9.835259438000037,8.97917175300006],[9.828905106000093,8.94993209800009],[9.809714317000044,8.906608582000047],[9.789096832000041,8.894109726000067],[9.78315067300008,8.89770698500007],[9.781724930000053,8.928531647000057],[9.75592613200007,8.944761276000065],[9.734775543000069,8.943821907000086],[9.702621460000046,8.930810928000085],[9.65848541300005,8.926920891000066],[9.645293236000043,8.920543671000075],[9.536812782000084,8.93310165400004],[9.51382732400009,8.930150986000058],[9.495808601000078,8.944794655000067],[9.491429329000084,8.95618152600008],[9.477256775000058,8.970997810000085],[9.451457977000075,8.987225533000071],[9.424448967000046,8.98795795400008],[9.374812126000052,8.97803211200005],[9.35330390900009,8.984799385000088],[9.340341568000042,9.015111923000063],[9.339629173000048,9.030524254000056],[9.345806122000056,9.063616753000076],[9.362257957000054,9.095680237000067]]]}},{"type":"Feature","properties":{"CNTRY_NAME":"Nigeria","CNTRY_CODE":"NGA","ADM1_NAME":"Plateau","ADM1_CODE":"NGA032","ADM2_NAME":"Pankshin","ADM2_CODE":"NGA032013","HRname":"Pankshin","HRpcode":"NG032013","HRparent":"NG032","Shape_Leng":2.05808887643,"Shape_Area":0.125413525309,"ADM2_New":"Pankshin","id":"NG-PL-PANKSHIN","name":"Pankshin","parentId":"NG-PL","stateName":"Plateau","regionId":"NG-NC","fillColor":"#94B86A"},"geometry":{"type":"Polygon","coordinates":[[[9.335479736000082,9.578601837000065],[9.356342316000053,9.572319984000046],[9.394767761000082,9.54648590100004],[9.40205097200004,9.513990402000047],[9.408265114000073,9.504613876000064],[9.437463760000071,9.498188019000054],[9.462371826000037,9.501225471000055],[9.473641396000062,9.507516861000056],[9.47690010100007,9.47870254500009],[9.468534470000066,9.451305389000083],[9.480516434000037,9.442184448000091],[9.505958557000042,9.433661461000042],[9.510516167000048,9.418420792000063],[9.501793861000067,9.398728371000061],[9.508542061000071,9.377792358000079],[9.503753662000065,9.356344223000065],[9.49257278400006,9.348125458000084],[9.475356102000092,9.345430374000046],[9.472223282000073,9.329847336000057],[9.476514816000076,9.320385933000068],[9.492431641000053,9.309509277000075],[9.509151459000066,9.28129386900008],[9.513797760000045,9.264125824000075],[9.523857117000091,9.254920006000077],[9.530606270000078,9.233983994000084],[9.530553818000044,9.193441391000079],[9.598172188000092,9.231192589000045],[9.622864723000077,9.280551910000042],[9.62836647000006,9.286587715000053],[9.64173698400009,9.28911209100005],[9.663600922000057,9.274638176000053],[9.688597679000054,9.275748253000074],[9.699727058000065,9.243424416000039],[9.712064743000042,9.22659778600007],[9.699496269000065,9.206733704000044],[9.672205925000071,9.130232811000042],[9.662769318000073,9.12595272100009],[9.643451691000053,9.127025604000039],[9.630260468000074,9.120648384000049],[9.602574348000076,9.094322205000083],[9.588350296000044,9.06859397900007],[9.572789192000073,9.071764946000087],[9.573999405000052,9.087262154000086],[9.56979847000008,9.094798088000061],[9.567696571000056,9.098565102000066],[9.558082581000065,9.09813880900009],[9.539425850000043,9.043255806000047],[9.53267765000004,9.06419181800004],[9.515282631000048,9.065349579000042],[9.506967545000066,9.078494072000069],[9.48729419700004,9.087273598000081],[9.478035927000064,9.07914066300009],[9.464969635000045,9.02836704300006],[9.449498177000066,9.02961063400005],[9.408992767000086,9.072214127000052],[9.381360054000083,9.086430550000046],[9.330386162000082,9.105402946000083],[9.305478096000058,9.102366447000065],[9.282545090000042,9.139958382000088],[9.27325058000008,9.174294472000042],[9.27898216200009,9.217020035000075],[9.272500992000062,9.232175827000049],[9.277645111000083,9.245918274000076],[9.264060020000045,9.289716721000048],[9.264557838000087,9.32062625900005],[9.298418045000062,9.380044937000036],[9.306874275000041,9.405517578000058],[9.304327965000084,9.418917656000076],[9.316095352000048,9.456119537000063],[9.299427986000069,9.524877548000063],[9.290845871000045,9.543802261000053],[9.290133476000051,9.559214592000046],[9.299123764000058,9.573126793000085],[9.308559418000073,9.577406883000037],[9.335479736000082,9.578601837000065]]]}},{"type":"Feature","properties":{"CNTRY_NAME":"Nigeria","CNTRY_CODE":"NGA","ADM1_NAME":"Plateau","ADM1_CODE":"NGA032","ADM2_NAME":"Qua'an Pan","ADM2_CODE":"NGA032014","HRname":"Qua'an Pan","HRpcode":"NG032014","HRparent":"NG032","Shape_Leng":2.2329525321,"Shape_Area":0.203687459452,"ADM2_New":"Qua'an Pan","id":"NG-PL-QUAAN-PAN","name":"Qua'an Pan","parentId":"NG-PL","stateName":"Plateau","regionId":"NG-NC","fillColor":"#C2A882"},"geometry":{"type":"Polygon","coordinates":[[[9.299650192000058,9.107701302000066],[9.305478096000058,9.102366447000065],[9.321767807000072,9.103273392000062],[9.31927967100006,9.012246132000087],[9.32987403900006,8.991480827000089],[9.348159790000068,8.97105693800006],[9.35472965200006,8.953973770000061],[9.35535335500009,8.940488815000037],[9.339651108000055,8.90504169500008],[9.34152221700009,8.864584923000052],[9.357974052000088,8.842148781000049],[9.390662193000082,8.84360027300005],[9.400544167000078,8.838248253000074],[9.403000832000089,8.826773643000081],[9.36176776900004,8.801776886000084],[9.358813286000043,8.782341003000056],[9.34789943700008,8.768342972000085],[9.351158142000088,8.73952961000009],[9.336169243000086,8.688671112000065],[9.34564209000007,8.650482178000061],[9.337811470000076,8.611524582000072],[9.312672615000054,8.571798325000088],[9.291914940000083,8.52068328900009],[9.284400940000069,8.51648807500004],[9.273346901000082,8.463871002000076],[9.263910294000084,8.45959472700008],[9.211994171000072,8.45728874200006],[9.184629440000037,8.465726852000046],[9.17702674900005,8.463459015000069],[9.174925804000054,8.467226028000084],[9.152475357000071,8.452715874000091],[9.132393837000052,8.428657532000045],[9.121526718000041,8.438224792000085],[9.097158432000072,8.440607071000045],[9.10141277300005,8.473614693000059],[9.080109596000057,8.488046646000043],[9.069934845000091,8.48766136200004],[9.059874535000063,8.496867180000038],[9.059162140000069,8.51228046400007],[9.049360275000083,8.519665718000056],[9.01947021500007,8.509875298000054],[8.997275352000088,8.517252922000068],[8.97900390600006,8.530584335000071],[8.974966049000045,8.541358948000038],[8.986068726000042,8.561980247000065],[8.98102188100006,8.578203201000065],[8.983431816000063,8.596580505000077],[8.977794647000053,8.605191231000049],[8.958310127000061,8.612245560000076],[8.951176643000053,8.62131214100009],[8.940243721000058,8.66723060600009],[8.91394710500009,8.686176300000056],[8.907656670000051,8.710219383000037],[8.892136574000062,8.732930183000065],[8.89603328700008,8.748279572000058],[8.904410362000078,8.755034447000071],[8.900554657000043,8.775506973000063],[8.907889366000063,8.783555031000049],[8.932709694000039,8.785508156000049],[8.945146561000058,8.799559593000083],[8.950596809000047,8.815776825000057],[8.949798584000064,8.835607529000072],[8.958789825000053,8.849521637000066],[8.973994255000093,8.854057312000066],[9.003014565000058,8.851485252000089],[9.023541451000085,8.865909576000092],[9.031820297000081,8.89523506200004],[9.044477463000078,8.91317176800004],[9.045955658000082,8.92288970900006],[9.07189464600009,8.945277214000043],[9.069753647000084,8.995417595000049],[9.060153961000083,9.020597458000054],[9.07320880900005,9.041860580000048],[9.104999542000087,9.071070671000086],[9.116365433000055,9.06694221500004],[9.120656013000087,9.057480812000051],[9.127939224000045,9.024985313000059],[9.125786781000045,8.988210678000087],[9.13401222200008,8.976992607000057],[9.173055649000048,9.007683754000084],[9.183879852000075,9.023608208000041],[9.191482544000053,9.025876045000075],[9.23732566800004,9.076174736000041],[9.257852554000067,9.090599060000045],[9.299650192000058,9.107701302000066]]]}},{"type":"Feature","properties":{"CNTRY_NAME":"Nigeria","CNTRY_CODE":"NGA","ADM1_NAME":"Plateau","ADM1_CODE":"NGA032","ADM2_NAME":"Riyom","ADM2_CODE":"NGA032015","HRname":"Riyom","HRpcode":"NG032015","HRparent":"NG032","Shape_Leng":1.24652516569,"Shape_Area":0.0664826610287,"ADM2_New":"Riyom","id":"NG-PL-RIYOM","name":"Riyom","parentId":"NG-PL","stateName":"Plateau","regionId":"NG-NC","fillColor":"#72A898"},"geometry":{"type":"Polygon","coordinates":[[[8.599562645000049,9.737936020000063],[8.615465164000057,9.74239635500004],[8.630294800000058,9.731216431000064],[8.654291153000088,9.725962639000045],[8.697287560000063,9.733663559000092],[8.70884323100006,9.712941170000079],[8.698642731000064,9.683529854000085],[8.69769954700007,9.662253380000038],[8.707759857000042,9.653046608000068],[8.75453090700006,9.641610146000062],[8.762489319000053,9.636172295000051],[8.767226219000065,9.617076874000077],[8.775184631000059,9.611639023000066],[8.784709930000076,9.613992691000078],[8.795088768000085,9.639550209000049],[8.80251312300004,9.645670891000066],[8.822454453000091,9.631112099000063],[8.838104248000093,9.62601566300009],[8.849552155000083,9.62845516200008],[8.871824265000043,9.646818161000056],[8.876649857000075,9.625797272000057],[8.876508713000078,9.587181091000048],[8.865861893000044,9.567402840000057],[8.810226440000065,9.520530701000041],[8.805171013000063,9.504862785000057],[8.760983467000074,9.46042919200005],[8.752080917000058,9.44459056900007],[8.733386993000067,9.43217754400007],[8.730254173000048,9.416595459000064],[8.69943714100009,9.37468528700009],[8.69561004600007,9.374082565000037],[8.687276840000038,9.387659073000066],[8.669525146000069,9.396523476000084],[8.656154633000085,9.393999100000087],[8.642338753000047,9.401107788000047],[8.619672775000083,9.43292045600009],[8.602242470000078,9.476547241000048],[8.586234093000087,9.481567383000083],[8.570406914000046,9.498299599000063],[8.555624008000052,9.547332764000089],[8.555038452000076,9.580629349000048],[8.567339897000068,9.606271744000082],[8.566628456000046,9.621684074000086],[8.553666115000055,9.651996613000051],[8.555053711000085,9.663640976000067],[8.56247806500005,9.669762611000067],[8.587653160000059,9.667018890000065],[8.593065262000039,9.674982071000045],[8.59812068900004,9.69064998600004],[8.592849731000058,9.721303940000041],[8.599562645000049,9.737936020000063]]]}},{"type":"Feature","properties":{"CNTRY_NAME":"Nigeria","CNTRY_CODE":"NGA","ADM1_NAME":"Plateau","ADM1_CODE":"NGA032","ADM2_NAME":"Shendam","ADM2_CODE":"NGA032016","HRname":"Shendam","HRpcode":"NG032016","HRparent":"NG032","Shape_Leng":2.57777440942,"Shape_Area":0.203562226235,"ADM2_New":"Shendam","id":"NG-PL-SHENDAM","name":"Shendam","parentId":"NG-PL","stateName":"Plateau","regionId":"NG-NC","fillColor":"#D4896A"},"geometry":{"type":"Polygon","coordinates":[[[9.321767807000072,9.103273392000062],[9.330386162000082,9.105402946000083],[9.362257957000054,9.095680237000067],[9.345806122000056,9.063616753000076],[9.339629173000048,9.030524254000056],[9.342888832000085,9.001710892000062],[9.357239723000077,8.983042717000046],[9.374812126000052,8.97803211200005],[9.424448967000046,8.98795795400008],[9.451457977000075,8.987225533000071],[9.477256775000058,8.970997810000085],[9.491429329000084,8.95618152600008],[9.495808601000078,8.944794655000067],[9.51382732400009,8.930150986000058],[9.536812782000084,8.93310165400004],[9.645293236000043,8.920543671000075],[9.65848541300005,8.926920891000066],[9.702621460000046,8.930810928000085],[9.734775543000069,8.943821907000086],[9.75592613200007,8.944761276000065],[9.781724930000053,8.928531647000057],[9.78542995500004,8.89008617400009],[9.77464294400005,8.831692696000061],[9.77311325100004,8.781431198000064],[9.751108170000066,8.757287979000068],[9.724455833000093,8.75031375900005],[9.708895683000037,8.753483772000038],[9.691856384000062,8.746935844000063],[9.664528847000042,8.712903976000064],[9.654772758000092,8.673860550000086],[9.656681061000086,8.590933800000073],[9.661774635000086,8.564132690000065],[9.678403854000067,8.537843704000068],[9.68148517600008,8.51288414000004],[9.69154453300007,8.503678322000042],[9.70441818200004,8.475292206000063],[9.704952240000068,8.463733673000092],[9.733742714000073,8.424470901000063],[9.739103317000058,8.391890526000054],[9.75117492700008,8.380843163000065],[9.756654739000055,8.36734199500006],[9.61850643200006,8.387319565000041],[9.559233665000079,8.401512146000073],[9.532260895000093,8.41412067400006],[9.470183372000065,8.431235313000059],[9.380579948000047,8.478287697000042],[9.366942406000078,8.481543541000065],[9.343868256000064,8.480519295000079],[9.321233749000044,8.46974754300004],[9.29074096700009,8.462716103000048],[9.273346901000082,8.463871002000076],[9.284400940000069,8.51648807500004],[9.291914940000083,8.52068328900009],[9.312672615000054,8.571798325000088],[9.337811470000076,8.611524582000072],[9.34564209000007,8.650482178000061],[9.336169243000086,8.688671112000065],[9.351158142000088,8.73952961000009],[9.34789943700008,8.768342972000085],[9.362213135000047,8.792143822000071],[9.36176776900004,8.801776886000084],[9.403000832000089,8.826773643000081],[9.400544167000078,8.838248253000074],[9.390662193000082,8.84360027300005],[9.357974052000088,8.842148781000049],[9.34152221700009,8.864584923000052],[9.339651108000055,8.90504169500008],[9.35535335500009,8.940488815000037],[9.35472965200006,8.953973770000061],[9.348159790000068,8.97105693800006],[9.32987403900006,8.991480827000089],[9.31927967100006,9.012246132000087],[9.321767807000072,9.103273392000062]]]}},{"type":"Feature","properties":{"CNTRY_NAME":"Nigeria","CNTRY_CODE":"NGA","ADM1_NAME":"Plateau","ADM1_CODE":"NGA032","ADM2_NAME":"Wase","ADM2_CODE":"NGA032017","HRname":"Wase","HRpcode":"NG032017","HRparent":"NG032","Shape_Leng":2.92782425844,"Shape_Area":0.413642585663,"ADM2_New":"Wase","id":"NG-PL-WASE","name":"Wase","parentId":"NG-PL","stateName":"Plateau","regionId":"NG-NC","fillColor":"#9B8B72"},"geometry":{"type":"Polygon","coordinates":[[[9.915121078000084,9.21051693000004],[9.938105583000038,9.21346759800008],[9.964134216000048,9.233928680000076],[9.992798805000064,9.239062309000076],[10.019089699000062,9.253743172000043],[10.016460419000055,9.26907062500004],[9.992761612000038,9.281531334000078],[9.988559723000037,9.289067268000053],[9.992049217000044,9.296943665000072],[10.031089783000084,9.327634811000053],[10.05362987500007,9.340218544000038],[10.080280304000041,9.347193718000085],[10.089280128000041,9.36110687300004],[10.109319687000038,9.42763328600006],[10.127659798000082,9.447752953000077],[10.155960083000082,9.460593224000093],[10.179129601000056,9.459691048000082],[10.200989723000077,9.445217133000085],[10.239629745000059,9.443072319000066],[10.27159977000008,9.45993614200006],[10.29660034200009,9.461046219000082],[10.30830955500005,9.45770454400008],[10.34891033200006,9.413175583000054],[10.366840363000051,9.40045738200007],[10.40810966500004,9.382985115000054],[10.49392032600008,9.402239799000085],[10.547760010000047,9.404630661000056],[10.569179535000046,9.399789810000073],[10.560009956000044,9.389730453000084],[10.566579819000083,9.372647285000085],[10.559869766000077,9.351113319000092],[10.580260277000093,9.326922417000048],[10.580149651000056,9.245836258000054],[10.596610069000064,9.22340107000008],[10.59990692100007,9.195981026000084],[10.614236832000074,9.182785034000062],[10.610369682000055,9.175749779000057],[10.613539696000089,9.148863792000043],[10.635760307000055,9.12668418900006],[10.636119843000074,9.118977547000043],[10.622525215000053,9.094029427000066],[10.637916565000069,9.081773758000054],[10.637447357000042,9.055801392000092],[10.627225876000068,9.019009590000053],[10.596746445000065,8.976116180000076],[10.566246986000067,8.969553947000065],[10.463807106000047,8.963215828000045],[10.420206070000063,8.943953514000043],[10.380526543000087,8.914486885000088],[10.341096878000087,8.87984085100004],[10.325076103000072,8.856629372000043],[10.261806488000047,8.819181442000058],[10.224076271000058,8.784611702000063],[10.188146591000077,8.748394012000063],[10.177096367000047,8.728865623000047],[10.116447449000077,8.672503471000084],[10.097175598000092,8.645686150000074],[10.08717727700008,8.64004516600005],[10.05182743100005,8.591742516000068],[10.00801563300007,8.553002357000082],[10.010299683000085,8.610495567000044],[9.994209290000072,8.625225067000088],[9.95320606200005,8.636918068000057],[9.929241180000076,8.655158997000058],[9.914623260000042,8.679606438000064],[9.908461571000089,8.729527473000076],[9.902247429000056,8.738902092000046],[9.903367996000043,8.756326675000082],[9.894964218000041,8.771397591000039],[9.88727283500009,8.77105617500007],[9.872120857000084,8.807063103000075],[9.872172356000078,8.847605705000092],[9.879240036000056,8.861433029000068],[9.872223854000083,8.88814830800004],[9.888461113000062,8.912035942000045],[9.888015747000054,8.921668053000076],[9.87312984500005,8.951895714000045],[9.880962372000056,8.990853310000091],[9.868535042000076,9.009606361000067],[9.867911339000045,9.023092270000063],[9.876991272000055,9.035079002000089],[9.912545204000082,9.057892799000058],[9.924579620000088,9.089315414000055],[9.915996552000081,9.108239174000062],[9.91537284900005,9.121725082000069],[9.931343079000044,9.15139102900008],[9.916367531000049,9.183545113000037],[9.915121078000084,9.21051693000004]]]}}]}