{"type":"FeatureCollection","features":[{"type":"Feature","properties":{"CNTRY_NAME":"Nigeria","CNTRY_CODE":"NGA","ADM1_NAME":"Rivers","ADM1_CODE":"NGA033","ADM2_NAME":"Abua/Odual","ADM2_CODE":"NGA033001","HRname":"Abua/Odual","HRpcode":"NG033001","HRparent":"NG033","Shape_Leng":1.25854541945,"Shape_Area":0.0573621560702,"ADM2_New":"Abua/Odual","id":"NG-RI-ABUA-ODUAL","name":"Abua/Odual","parentId":"NG-RI","stateName":"Rivers","regionId":"NG-SS","fillColor":"#7cb87c"},"geometry":{"type":"Polygon","coordinates":[[[6.549643040000092,4.941215038000053],[6.560778141000071,4.95044994400007],[6.570669174000045,4.974615097000083],[6.582703114000083,4.981512070000065],[6.596508980000067,4.9809370040000545],[6.621951103000072,4.9439048770000795],[6.649763107000069,4.914313793000076],[6.677360535000048,4.897401333000062],[6.6900410650000595,4.902914524000039],[6.698310852000077,4.901260853000053],[6.6939001080000935,4.892439365000087],[6.677111149000041,4.884261131000073],[6.676809311000056,4.877553940000041],[6.682873726000082,4.870937824000066],[6.702170372000069,4.868181229000072],[6.702690125000061,4.862145901000076],[6.710920811000051,4.8560199740000485],[6.7201189990000785,4.8550148010000385],[6.720369816000073,4.832170010000084],[6.726285934000089,4.824663162000093],[6.73776102100004,4.820843220000086],[6.742139339000062,4.7930707930000835],[6.764038086000085,4.774480820000065],[6.762456894000081,4.760527134000085],[6.715075016000071,4.757153034000055],[6.69240999200008,4.745677948000093],[6.660247803000061,4.752925873000038],[6.638588905000063,4.750765800000067],[6.629915237000091,4.758759975000089],[6.607241154000064,4.746353149000072],[6.579172134000089,4.758128166000063],[6.552611828000067,4.758596897000075],[6.5273118020000425,4.7530031200000735],[6.478478909000046,4.71390199700005],[6.461060047000046,4.713280201000089],[6.459428787000093,4.723997116000078],[6.4459419250000565,4.730044842000041],[6.44142198600008,4.745329857000058],[6.444660187000068,4.775567055000067],[6.429982185000085,4.7658739090000495],[6.402275085000042,4.827237129000082],[6.400884151000071,4.87512397800009],[6.440640926000071,4.943194866000056],[6.440402031000076,4.954815865000057],[6.454968929000074,4.959681034000084],[6.480195045000073,4.949223995000068],[6.530840874000091,4.8994059560000665],[6.543207169000084,4.892314911000085],[6.55658817300008,4.89547205000008],[6.563237190000052,4.907876492000071],[6.558826447000058,4.91559505500004],[6.565993786000092,4.91394090700004],[6.570404053000061,4.918351650000091],[6.565442562000044,4.926621437000051],[6.547800064000057,4.932685852000077],[6.549643040000092,4.941215038000053]]]}},{"type":"Feature","properties":{"CNTRY_NAME":"Nigeria","CNTRY_CODE":"NGA","ADM1_NAME":"Rivers","ADM1_CODE":"NGA033","ADM2_NAME":"Ahoada East","ADM2_CODE":"NGA033002","HRname":"Ahoada East","HRpcode":"NG033002","HRparent":"NG033","Shape_Leng":0.933267466535,"Shape_Area":0.0277982016676,"ADM2_New":"Ahoada East","id":"NG-RI-AHOADA-EAST","name":"Ahoada East","parentId":"NG-RI","stateName":"Rivers","regionId":"NG-SS","fillColor":"#8fbc8f"},"geometry":{"type":"Polygon","coordinates":[[[6.592765808000081,5.174438953000049],[6.60471010200007,5.171546936000084],[6.617634773000077,5.175175190000061],[6.639543056000093,5.204371929000047],[6.667100906000087,5.197159767000073],[6.701193810000063,5.1996870040000545],[6.71551704400008,5.20516777000006],[6.718430996000052,5.171578884000041],[6.696308136000084,5.119072914000071],[6.698338985000078,5.089686871000083],[6.6890301700000805,5.028687954000077],[6.668887138000059,4.991086006000046],[6.679333210000038,4.975617886000066],[6.681063175000077,4.963482857000088],[6.676258087000065,4.941609859000039],[6.66788482700008,4.9323530200000505],[6.685242176000088,4.917295933000048],[6.669201851000082,4.905181885000047],[6.649763107000069,4.914313793000076],[6.629692078000062,4.9345197680000865],[6.596508980000067,4.9809370040000545],[6.582703114000083,4.981512070000065],[6.570669174000045,4.974615097000083],[6.560778141000071,4.95044994400007],[6.549643040000092,4.941215038000053],[6.526670933000048,4.9465250970000625],[6.525857925000082,4.958187103000057],[6.531015873000058,4.968401909000079],[6.5741229060000705,4.999762058000044],[6.591908932000081,5.031322002000081],[6.595406055000069,5.061131954000075],[6.592765808000081,5.174438953000049]]]}},{"type":"Feature","properties":{"CNTRY_NAME":"Nigeria","CNTRY_CODE":"NGA","ADM1_NAME":"Rivers","ADM1_CODE":"NGA033","ADM2_NAME":"Ahoada West","ADM2_CODE":"NGA033003","HRname":"Ahoada West","HRpcode":"NG033003","HRparent":"NG033","Shape_Leng":0.854516292503,"Shape_Area":0.0328663909048,"ADM2_New":"Ahoada West","id":"NG-RI-AHOADA-WEST","name":"Ahoada West","parentId":"NG-RI","stateName":"Rivers","regionId":"NG-SS","fillColor":"#a8c686"},"geometry":{"type":"Polygon","coordinates":[[[6.553380966000077,5.189809799000045],[6.56392192800007,5.191916943000081],[6.592765808000081,5.174438953000049],[6.5952601430000755,5.045281887000044],[6.587197781000043,5.019704819000083],[6.5741229060000705,4.999762058000044],[6.540300846000093,4.976719856000045],[6.525857925000082,4.958187103000057],[6.526670933000048,4.9465250970000625],[6.549643040000092,4.941215038000053],[6.546145916000057,4.934891224000069],[6.565442562000044,4.926621437000051],[6.570404053000061,4.918351650000091],[6.565993786000092,4.91394090700004],[6.558826447000058,4.91559505500004],[6.563237190000052,4.907876492000071],[6.55658817300008,4.89547205000008],[6.543207169000084,4.892314911000085],[6.530840874000091,4.8994059560000665],[6.480195045000073,4.949223995000068],[6.454968929000074,4.959681034000084],[6.440402031000076,4.954815865000057],[6.437415123000051,4.966485977000048],[6.410391808000043,4.991127014000085],[6.41156101200005,5.00458192800005],[6.439036846000079,5.052887917000078],[6.485816002000092,5.153363228000046],[6.493334770000047,5.163454056000091],[6.526298523000094,5.17416477200004],[6.534568310000054,5.186845303000041],[6.553380966000077,5.189809799000045]]]}},{"type":"Feature","properties":{"CNTRY_NAME":"Nigeria","CNTRY_CODE":"NGA","ADM1_NAME":"Rivers","ADM1_CODE":"NGA033","ADM2_NAME":"Asari-Toru","ADM2_CODE":"NGA033006","HRname":"Asari-Toru","HRpcode":"NG033006","HRparent":"NG033","Shape_Leng":0.500343192457,"Shape_Area":0.00917712872233,"ADM2_New":"Asari-Toru","id":"NG-RI-ASARI-TORU","name":"Asari-Toru","parentId":"NG-RI","stateName":"Rivers","regionId":"NG-SS","fillColor":"#c2b280"},"geometry":{"type":"Polygon","coordinates":[[[6.7900557520000575,4.79739141500005],[6.801499844000091,4.802419186000066],[6.805706501000088,4.791434765000076],[6.819027901000084,4.794940472000064],[6.825103760000047,4.824153423000041],[6.840762138000059,4.819245815000045],[6.85408306100004,4.807093143000088],[6.883296013000063,4.802185059000067],[6.887269020000076,4.797744751000039],[6.867170811000051,4.782320499000093],[6.863431454000079,4.7741408350000825],[6.866937160000077,4.764091492000091],[6.881657124000071,4.747908115000087],[6.912827969000091,4.733208179000087],[6.929156780000085,4.706504822000056],[6.9258232120000685,4.6944108010000605],[6.904569149000054,4.686188221000066],[6.88081789000006,4.706889153000077],[6.860639095000067,4.715439796000055],[6.83801698700006,4.708625793000067],[6.831653118000077,4.717535019000081],[6.811021805000053,4.727022171000044],[6.790648937000071,4.764480114000094],[6.795415878000085,4.782156944000064],[6.7900557520000575,4.79739141500005]]]}},{"type":"Feature","properties":{"CNTRY_NAME":"Nigeria","CNTRY_CODE":"NGA","ADM1_NAME":"Rivers","ADM1_CODE":"NGA033","ADM2_NAME":"Eleme","ADM2_CODE":"NGA033009","HRname":"Eleme","HRpcode":"NG033009","HRparent":"NG033","Shape_Leng":0.411361603105,"Shape_Area":0.0112535235753,"ADM2_New":"Eleme","id":"NG-RI-ELEME","name":"Eleme","parentId":"NG-RI","stateName":"Rivers","regionId":"NG-SS","fillColor":"#9bb898"},"geometry":{"type":"Polygon","coordinates":[[[7.152400017000048,4.850656986000047],[7.181752205000066,4.838303089000078],[7.180681229000072,4.821993828000075],[7.205812931000082,4.801281929000083],[7.207542896000064,4.789147854000078],[7.193439007000052,4.757557869000038],[7.19519090700004,4.7477540970000405],[7.183183193000048,4.743652821000069],[7.165070057000037,4.726546764000091],[7.1452388760000645,4.722974777000047],[7.136040211000079,4.723979950000057],[7.117301941000051,4.739047050000067],[7.0933060650000925,4.783060074000048],[7.07646608400006,4.804172993000066],[7.0765562060000775,4.81396198300007],[7.084094048000054,4.832550049000076],[7.0938210490000415,4.839000225000063],[7.1384987830000455,4.840977192000082],[7.152400017000048,4.850656986000047]]]}},{"type":"Feature","properties":{"CNTRY_NAME":"Nigeria","CNTRY_CODE":"NGA","ADM1_NAME":"Rivers","ADM1_CODE":"NGA033","ADM2_NAME":"Emohua","ADM2_CODE":"NGA033010","HRname":"Emohua","HRpcode":"NG033010","HRparent":"NG033","Shape_Leng":1.5334288555,"Shape_Area":0.0677533378274,"ADM2_New":"Emohua","id":"NG-RI-EMOHUA","name":"Emohua","parentId":"NG-RI","stateName":"Rivers","regionId":"NG-SS","fillColor":"#6ba3be"},"geometry":{"type":"Polygon","coordinates":[[[6.7944498060000456,5.277269840000088],[6.827092648000075,5.252425671000083],[6.848985195000068,5.249797821000072],[6.831688881000048,5.221497059000058],[6.829332829000066,5.165572166000061],[6.8237009050000665,5.153961182000046],[6.781877041000087,5.111867905000054],[6.775788784000042,5.100728035000088],[6.776112080000075,5.085806847000072],[6.783331871000087,5.069899082000063],[6.836874008000052,5.034510136000051],[6.849421024000037,4.997114182000075],[6.848990917000037,4.950498104000076],[6.861077785000077,4.913105011000084],[6.87525510800009,4.9027371410000455],[6.898756027000047,4.904881001000092],[6.900824070000056,4.894031048000045],[6.893246174000069,4.885918617000073],[6.903628349000087,4.868790627000067],[6.908068657000058,4.849159718000067],[6.917884350000065,4.848225117000084],[6.925830364000092,4.839577675000044],[6.9218573570000785,4.824620724000056],[6.930737972000088,4.81690836000007],[6.928400993000082,4.809196472000053],[6.92115640600008,4.806859493000047],[6.925128937000068,4.788864136000086],[6.918585300000075,4.784891129000073],[6.906433105000076,4.793538094000041],[6.893345356000054,4.791668415000061],[6.883296013000063,4.802185059000067],[6.85408306100004,4.807093143000088],[6.830245495000042,4.824153423000041],[6.825103760000047,4.824153423000041],[6.822533131000057,4.800315857000044],[6.81271743800005,4.790967464000062],[6.805706501000088,4.791434765000076],[6.801499844000091,4.802419186000066],[6.7942552570000885,4.796810150000056],[6.783532619000084,4.802808762000041],[6.753824234000092,4.805457115000081],[6.720369816000073,4.832170010000084],[6.7201189990000785,4.8550148010000385],[6.710920811000051,4.8560199740000485],[6.702690125000061,4.862145901000076],[6.702170372000069,4.868181229000072],[6.682873726000082,4.870937824000066],[6.676809311000056,4.877553940000041],[6.677111149000041,4.884261131000073],[6.6939001080000935,4.892439365000087],[6.698310852000077,4.901260853000053],[6.6900410650000595,4.902914524000039],[6.677360535000048,4.897401333000062],[6.669201851000082,4.905181885000047],[6.685242176000088,4.917295933000048],[6.66788482700008,4.9323530200000505],[6.676258087000065,4.941609859000039],[6.681063175000077,4.963482857000088],[6.679333210000038,4.975617886000066],[6.668887138000059,4.991086006000046],[6.6890301700000805,5.028687954000077],[6.698338985000078,5.089686871000083],[6.696308136000084,5.119072914000071],[6.718430996000052,5.171578884000041],[6.71551704400008,5.20516777000006],[6.710107803000085,5.217799187000082],[6.731263161000072,5.265182972000048],[6.740542889000039,5.273035049000043],[6.7787542340000755,5.272731781000061],[6.7944498060000456,5.277269840000088]]]}},{"type":"Feature","properties":{"CNTRY_NAME":"Nigeria","CNTRY_CODE":"NGA","ADM1_NAME":"Rivers","ADM1_CODE":"NGA033","ADM2_NAME":"Etche","ADM2_CODE":"NGA033011","HRname":"Etche","HRpcode":"NG033011","HRparent":"NG033","Shape_Leng":1.14043160357,"Shape_Area":0.0656655795444,"ADM2_New":"Etche","id":"NG-RI-ETCHE","name":"Etche","parentId":"NG-RI","stateName":"Rivers","regionId":"NG-SS","fillColor":"#89a96d"},"geometry":{"type":"Polygon","coordinates":[[[6.971787930000062,5.2362380030000395],[6.98650312400008,5.234255791000066],[7.039992332000054,5.249618053000063],[7.122664928000063,5.216292381000073],[7.165431023000053,5.212290764000045],[7.21008777600008,5.196576595000067],[7.24213504800008,5.1958670620000476],[7.241043091000051,5.177227020000089],[7.2152538300000515,5.126616001000059],[7.204145908000044,5.070292950000066],[7.185482979000085,5.043402195000056],[7.176064014000076,5.020631790000039],[7.164929867000069,5.011396885000067],[7.162504196000043,4.997896194000077],[7.167912006000051,4.985266209000088],[7.2189531330000705,4.978333950000092],[7.228350163000073,4.97095823300009],[7.209084034000057,4.956501007000043],[7.168517113000064,4.94475221600004],[7.143767834000073,4.913196087000074],[7.1312861440000574,4.907701015000043],[7.126119137000046,4.896553040000072],[7.104446888000041,4.89299488100005],[7.097636223000052,4.903306007000083],[7.0531430240000645,4.9213738440000725],[7.039434910000068,4.934809208000047],[7.035152912000058,4.967669964000038],[7.017805099000043,4.983657837000067],[6.987880230000087,5.03377914400005],[6.963331223000068,5.167772770000056],[6.963055134000058,5.187821865000046],[6.972976208000091,5.215249062000055],[6.971787930000062,5.2362380030000395]]]}},{"type":"Feature","properties":{"CNTRY_NAME":"Nigeria","CNTRY_CODE":"NGA","ADM1_NAME":"Rivers","ADM1_CODE":"NGA033","ADM2_NAME":"Gokana","ADM2_CODE":"NGA033012","HRname":"Gokana","HRpcode":"NG033012","HRparent":"NG033","Shape_Leng":0.418239936209,"Shape_Area":0.0102633993481,"ADM2_New":"Gokana","id":"NG-RI-GOKANA","name":"Gokana","parentId":"NG-RI","stateName":"Rivers","regionId":"NG-SS","fillColor":"#b5c99a"},"geometry":{"type":"Polygon","coordinates":[[[7.234645844000056,4.702348232000077],[7.25700187700005,4.710433960000046],[7.328457832000083,4.72059011500005],[7.34465313000004,4.72932004900008],[7.347864151000067,4.678011894000065],[7.315354824000053,4.597617149000087],[7.275841236000076,4.60632181200009],[7.2529249190000655,4.61769199400004],[7.240745068000081,4.641889095000067],[7.241861820000054,4.666265011000064],[7.252626896000038,4.6852941510000505],[7.234645844000056,4.702348232000077]]]}},{"type":"Feature","properties":{"CNTRY_NAME":"Nigeria","CNTRY_CODE":"NGA","ADM1_NAME":"Rivers","ADM1_CODE":"NGA033","ADM2_NAME":"Ikwerre","ADM2_CODE":"NGA033013","HRname":"Ikwerre","HRpcode":"NG033013","HRparent":"NG033","Shape_Leng":1.09641706236,"Shape_Area":0.0534447115267,"ADM2_New":"Ikwerre","id":"NG-RI-IKWERRE","name":"Ikwerre","parentId":"NG-RI","stateName":"Rivers","regionId":"NG-SS","fillColor":"#d4a574"},"geometry":{"type":"Polygon","coordinates":[[[6.848985195000068,5.249797821000072],[6.903954983000062,5.219525814000065],[6.971787930000062,5.2362380030000395],[6.972976208000091,5.215249062000055],[6.963055134000058,5.187821865000046],[6.963331223000068,5.167772770000056],[6.984330177000061,5.048258781000072],[6.987880230000087,5.03377914400005],[7.010533810000084,4.993971825000074],[7.035152912000058,4.967669964000038],[7.039434910000068,4.934809208000047],[7.025228024000057,4.9397759440000755],[6.980868816000054,4.922411919000069],[6.976161957000045,4.911261082000067],[6.994870186000071,4.892930984000088],[6.984255791000066,4.890217781000047],[6.963628769000081,4.900172234000081],[6.9199409480000895,4.9056458470000734],[6.87525510800009,4.9027371410000455],[6.861077785000077,4.913105011000084],[6.848990917000037,4.950498104000076],[6.849421024000037,4.997114182000075],[6.836874008000052,5.034510136000051],[6.783331871000087,5.069899082000063],[6.776112080000075,5.085806847000072],[6.775788784000042,5.100728035000088],[6.781877041000087,5.111867905000054],[6.8237009050000665,5.153961182000046],[6.829332829000066,5.165572166000061],[6.831688881000048,5.221497059000058],[6.848985195000068,5.249797821000072]]]}},{"type":"Feature","properties":{"CNTRY_NAME":"Nigeria","CNTRY_CODE":"NGA","ADM1_NAME":"Rivers","ADM1_CODE":"NGA033","ADM2_NAME":"Khana","ADM2_CODE":"NGA033014","HRname":"Khana","HRpcode":"NG033014","HRparent":"NG033","Shape_Leng":0.966840914523,"Shape_Area":0.0456744371947,"ADM2_New":"Khana","id":"NG-RI-KHANA","name":"Khana","parentId":"NG-RI","stateName":"Rivers","regionId":"NG-SS","fillColor":"#5a9e6f"},"geometry":{"type":"Polygon","coordinates":[[[7.501562119000084,4.807817936000049],[7.5214633940000795,4.788544178000052],[7.526484013000072,4.748737335000044],[7.5470981600000755,4.726191044000075],[7.536983967000083,4.701867104000087],[7.517953396000053,4.676873684000043],[7.523182392000081,4.657178402000056],[7.5196962360000725,4.63103437400008],[7.545081139000047,4.5795769690000725],[7.5389108660000375,4.565676212000085],[7.524618149000048,4.556251049000082],[7.529382229000078,4.543667793000054],[7.517829418000076,4.531959534000066],[7.510241508000092,4.53273153300006],[7.500435829000082,4.540681839000058],[7.49513578400007,4.560226440000065],[7.473603249000064,4.561882496000067],[7.445114613000044,4.5734767910000755],[7.407610893000083,4.566583157000082],[7.3851127620000625,4.573287964000087],[7.3620390890000635,4.56740999200008],[7.32127618800007,4.590577126000085],[7.315354824000053,4.597617149000087],[7.330491066000093,4.641320229000087],[7.34405612900008,4.664523125000073],[7.348899841000048,4.690590858000064],[7.34465313000004,4.72932004900008],[7.32872915300004,4.749958992000074],[7.321207047000087,4.78311920200008],[7.360764980000056,4.779076099000065],[7.37093210200004,4.7831912040000475],[7.382664204000093,4.807340145000069],[7.418578148000051,4.80752182000009],[7.441062927000075,4.799417973000061],[7.488966942000047,4.8018360140000595],[7.501562119000084,4.807817936000049]]]}},{"type":"Feature","properties":{"CNTRY_NAME":"Nigeria","CNTRY_CODE":"NGA","ADM1_NAME":"Rivers","ADM1_CODE":"NGA033","ADM2_NAME":"Obia/Akpor","ADM2_CODE":"NGA033015","HRname":"Obia/Akpor","HRpcode":"NG033015","HRparent":"NG033","Shape_Leng":0.781726127829,"Shape_Area":0.0211622586313,"ADM2_New":"Obia/Akpor","id":"NG-RI-OBIA-AKPOR","name":"Obia/Akpor","parentId":"NG-RI","stateName":"Rivers","regionId":"NG-SS","fillColor":"#84b882"},"geometry":{"type":"Polygon","coordinates":[[[7.039434910000068,4.934809208000047],[7.0531430240000645,4.9213738440000725],[7.097636223000052,4.903306007000083],[7.104446888000041,4.89299488100005],[7.126119137000046,4.896553040000072],[7.125968933000081,4.88023710300007],[7.152400017000048,4.850656986000047],[7.1384987830000455,4.840977192000082],[7.0938210490000415,4.839000225000063],[7.084094048000054,4.832550049000076],[7.0765562060000775,4.81396198300007],[7.046982288000038,4.823732853000081],[7.004728794000073,4.819058895000069],[6.987340927000048,4.822984695000059],[6.982293129000084,4.814945698000088],[6.980597019000072,4.792810917000054],[6.958489895000071,4.792054176000079],[6.941020966000053,4.798446178000063],[6.940553665000039,4.794005394000067],[6.924427986000069,4.794706821000091],[6.92115640600008,4.806859493000047],[6.928400993000082,4.809196472000053],[6.930737972000088,4.81690836000007],[6.9218573570000785,4.824620724000056],[6.925830364000092,4.839577675000044],[6.917884350000065,4.848225117000084],[6.908068657000058,4.849159718000067],[6.903507233000084,4.858153343000083],[6.903628349000087,4.868790627000067],[6.893246174000069,4.885918617000073],[6.900824070000056,4.894031048000045],[6.898756027000047,4.904881001000092],[6.963628769000081,4.900172234000081],[6.984255791000066,4.890217781000047],[6.994870186000071,4.892930984000088],[6.976161957000045,4.911261082000067],[6.980868816000054,4.922411919000069],[7.025228024000057,4.9397759440000755],[7.039434910000068,4.934809208000047]]]}},{"type":"Feature","properties":{"CNTRY_NAME":"Nigeria","CNTRY_CODE":"NGA","ADM1_NAME":"Rivers","ADM1_CODE":"NGA033","ADM2_NAME":"Ogba/Egbema/Ndoni","ADM2_CODE":"NGA033016","HRname":"Ogba/Egbema/Ndoni","HRpcode":"NG033016","HRparent":"NG033","Shape_Leng":1.69039772673,"Shape_Area":0.0790547945406,"ADM2_New":"Ogba/Egbema/Ndoni","id":"NG-RI-OGBA-EGBEMA-NDONI","name":"Ogba/Egbema/Ndoni","parentId":"NG-RI","stateName":"Rivers","regionId":"NG-SS","fillColor":"#c9b896"},"geometry":{"type":"Polygon","coordinates":[[[6.5059413910000785,5.425829411000052],[6.5245304110000575,5.438663960000042],[6.534836769000037,5.45897436100006],[6.538163662000045,5.475804329000084],[6.530831337000052,5.531958580000094],[6.542584896000051,5.549243450000063],[6.568858147000071,5.553391457000089],[6.584760189000065,5.561688423000078],[6.601007938000066,5.596949577000089],[6.603773594000074,5.614925861000074],[6.617601395000065,5.631519318000073],[6.6213459970000486,5.64256477400005],[6.606450081000048,5.670234203000064],[6.618292809000081,5.7169060710000394],[6.633620262000079,5.730035782000073],[6.673841476000064,5.720951080000077],[6.639080048000039,5.4934458730000415],[6.715590477000092,5.489103794000073],[6.738784790000068,5.493746281000085],[6.749948978000077,5.476490021000075],[6.751194000000055,5.464835167000047],[6.743738174000043,5.458882809000045],[6.744081974000039,5.449101925000093],[6.762536049000062,5.410212994000062],[6.75579500200007,5.323452950000046],[6.77072477300004,5.30076789900005],[6.7944498060000456,5.277269840000088],[6.7787542340000755,5.272731781000061],[6.740542889000039,5.273035049000043],[6.731263161000072,5.265182972000048],[6.710107803000085,5.217799187000082],[6.71551704400008,5.20516777000006],[6.701193810000063,5.1996870040000545],[6.667100906000087,5.197159767000073],[6.639543056000093,5.204371929000047],[6.617634773000077,5.175175190000061],[6.60471010200007,5.171546936000084],[6.579926968000052,5.180136204000064],[6.56392192800007,5.191916943000081],[6.553380966000077,5.189809799000045],[6.558826447000058,5.198422909000044],[6.549230099000056,5.212652206000087],[6.552762032000089,5.22654056500005],[6.566636086000074,5.236972809000065],[6.537384987000053,5.2649059300000545],[6.530881882000074,5.284537792000037],[6.563159943000073,5.320212841000057],[6.569632053000078,5.372142792000091],[6.561977863000038,5.3792490960000805],[6.485476971000082,5.379205227000057],[6.476556778000088,5.404050827000049],[6.4831252100000825,5.420644283000058],[6.5059413910000785,5.425829411000052]]]}},{"type":"Feature","properties":{"CNTRY_NAME":"Nigeria","CNTRY_CODE":"NGA","ADM1_NAME":"Rivers","ADM1_CODE":"NGA033","ADM2_NAME":"Ogu/Bolo","ADM2_CODE":"NGA033017","HRname":"Ogu/Bolo","HRpcode":"NG033017","HRparent":"NG033","Shape_Leng":0.440391250402,"Shape_Area":0.00722867204797,"ADM2_New":"Ogu/Bolo","id":"NG-RI-OGU-BOLO","name":"Ogu/Bolo","parentId":"NG-RI","stateName":"Rivers","regionId":"NG-SS","fillColor":"#7eb09a"},"geometry":{"type":"Polygon","coordinates":[[[7.17561721800007,4.73570585300007],[7.19519090700004,4.7477540970000405],[7.206347942000093,4.709436893000088],[7.214109898000061,4.702382088000093],[7.234645844000056,4.702348232000077],[7.252626896000038,4.6852941510000505],[7.241861820000054,4.666265011000064],[7.240745068000081,4.641889095000067],[7.2069611550000445,4.625981808000063],[7.179580212000076,4.604305744000044],[7.150341511000079,4.6491913800000475],[7.16336011900006,4.696579456000052],[7.174556255000084,4.695017338000071],[7.189397812000038,4.700745583000071],[7.2013750080000705,4.7137641910000525],[7.193042755000079,4.7189717290000885],[7.1977295880000725,4.7244396210000446],[7.194344521000062,4.728866100000062],[7.188550949000046,4.726129055000058],[7.17561721800007,4.73570585300007]]]}},{"type":"Feature","properties":{"CNTRY_NAME":"Nigeria","CNTRY_CODE":"NGA","ADM1_NAME":"Rivers","ADM1_CODE":"NGA033","ADM2_NAME":"Okrika","ADM2_CODE":"NGA033018","HRname":"Okrika","HRpcode":"NG033018","HRparent":"NG033","Shape_Leng":0.819293426558,"Shape_Area":0.0180947605161,"ADM2_New":"Okrika","id":"NG-RI-OKRIKA","name":"Okrika","parentId":"NG-RI","stateName":"Rivers","regionId":"NG-SS","fillColor":"#a4c4a0"},"geometry":{"type":"Polygon","coordinates":[[[7.07646608400006,4.804172993000066],[7.0933060650000925,4.783060074000048],[7.117301941000051,4.739047050000067],[7.136040211000079,4.723979950000057],[7.165070057000037,4.726546764000091],[7.17561721800007,4.73570585300007],[7.186725140000078,4.727099895000038],[7.1985106470000915,4.727043152000078],[7.193042755000079,4.7189717290000885],[7.199291706000054,4.711421013000063],[7.189397812000038,4.700745583000071],[7.174556255000084,4.695017338000071],[7.16336011900006,4.696579456000052],[7.1508622170000535,4.652316093000081],[7.177696228000059,4.60630989100008],[7.169895172000054,4.6006350520000865],[7.133479118000082,4.595795155000076],[7.059288979000087,4.63880682000007],[7.026144981000073,4.68942022300007],[6.988261223000052,4.725151062000066],[6.982152939000059,4.740253925000047],[6.992082119000088,4.748951912000052],[7.002087116000041,4.743642330000057],[7.025621891000071,4.713144302000046],[7.031464577000065,4.712442875000079],[7.044874191000076,4.723303795000049],[7.07743692400004,4.728605747000074],[7.075354099000037,4.7483940120000625],[7.06650114100006,4.765318394000076],[7.071187973000065,4.776774883000087],[7.063376904000052,4.788491726000075],[7.065865517000077,4.793444633000092],[7.076148510000053,4.795688152000082],[7.07646608400006,4.804172993000066]]]}},{"type":"Feature","properties":{"CNTRY_NAME":"Nigeria","CNTRY_CODE":"NGA","ADM1_NAME":"Rivers","ADM1_CODE":"NGA033","ADM2_NAME":"Omumma","ADM2_CODE":"NGA033019","HRname":"Omumma","HRpcode":"NG033019","HRparent":"NG033","Shape_Leng":0.599965369865,"Shape_Area":0.0138626509902,"ADM2_New":"Omumma","id":"NG-RI-OMUMMA","name":"Omumma","parentId":"NG-RI","stateName":"Rivers","regionId":"NG-SS","fillColor":"#96b57c"},"geometry":{"type":"Polygon","coordinates":[[[7.24213504800008,5.1958670620000476],[7.251398087000041,5.201854229000048],[7.256109238000079,5.213470936000078],[7.26391744600005,5.21561050400004],[7.281322002000081,5.201615810000078],[7.292564869000046,5.1726231580000785],[7.278979301000049,5.119540691000054],[7.2569308280000655,5.079692364000039],[7.248316765000084,5.017261982000093],[7.228350163000073,4.97095823300009],[7.2189531330000705,4.978333950000092],[7.167912006000051,4.985266209000088],[7.162504196000043,4.997896194000077],[7.164929867000069,5.011396885000067],[7.176064014000076,5.020631790000039],[7.185482979000085,5.043402195000056],[7.204145908000044,5.070292950000066],[7.2152538300000515,5.126616001000059],[7.241043091000051,5.177227020000089],[7.24213504800008,5.1958670620000476]]]}},{"type":"Feature","properties":{"CNTRY_NAME":"Nigeria","CNTRY_CODE":"NGA","ADM1_NAME":"Rivers","ADM1_CODE":"NGA033","ADM2_NAME":"Oyigbo","ADM2_CODE":"NGA033021","HRname":"Oyigbo","HRpcode":"NG033021","HRparent":"NG033","Shape_Leng":0.890483384145,"Shape_Area":0.0202001108709,"ADM2_New":"Oyigbo","id":"NG-RI-OYIGBO","name":"Oyigbo","parentId":"NG-RI","stateName":"Rivers","regionId":"NG-SS","fillColor":"#7cb87c"},"geometry":{"type":"Polygon","coordinates":[[[7.126119137000046,4.896553040000072],[7.1312861440000574,4.907701015000043],[7.143767834000073,4.913196087000074],[7.140429020000056,4.900634766000053],[7.147241116000089,4.890325069000085],[7.173842907000051,4.87939119300006],[7.191195965000077,4.8638691900000595],[7.215075016000071,4.857152939000059],[7.240856171000075,4.856948853000063],[7.271389961000068,4.873023987000067],[7.319794178000052,4.879632950000087],[7.373507023000059,4.862891197000067],[7.416359901000078,4.866746902000045],[7.4292120930000465,4.862449169000058],[7.446667671000057,4.845414639000069],[7.471591473000046,4.842277050000064],[7.501562119000084,4.807817936000049],[7.488966942000047,4.8018360140000595],[7.441062927000075,4.799417973000061],[7.418578148000051,4.80752182000009],[7.382664204000093,4.807340145000069],[7.37093210200004,4.7831912040000475],[7.360764980000056,4.779076099000065],[7.321207047000087,4.78311920200008],[7.275788784000042,4.8007278440000505],[7.232273102000079,4.824849129000086],[7.162012100000084,4.844520092000039],[7.125968933000081,4.88023710300007],[7.126119137000046,4.896553040000072]]]}},{"type":"Feature","properties":{"CNTRY_NAME":"Nigeria","CNTRY_CODE":"NGA","ADM1_NAME":"Rivers","ADM1_CODE":"NGA033","ADM2_NAME":"Port-Harcourt","ADM2_CODE":"NGA033022","HRname":"Port-Harcourt","HRpcode":"NG033022","HRparent":"NG033","Shape_Leng":0.503855665634,"Shape_Area":0.0089039677565,"ADM2_New":"Port-Harcourt","id":"NG-RI-PORT-HARCOURT","name":"Port-Harcourt","parentId":"NG-RI","stateName":"Rivers","regionId":"NG-SS","fillColor":"#8fbc8f"},"geometry":{"type":"Polygon","coordinates":[[[7.0765562060000775,4.81396198300007],[7.07708358800005,4.797931671000072],[7.063376904000052,4.788491726000075],[7.071187973000065,4.776774883000087],[7.06650114100006,4.765318394000076],[7.075354099000037,4.7483940120000625],[7.07743692400004,4.728605747000074],[7.044874191000076,4.723303795000049],[7.031464577000065,4.712442875000079],[7.025621891000071,4.713144302000046],[7.002087116000041,4.743642330000057],[7.008841991000054,4.772504807000075],[6.992669582000076,4.768298149000088],[6.976310253000065,4.755911827000091],[6.963923931000068,4.754275799000084],[6.9646248820000665,4.771102428000063],[6.9580812450000735,4.775075436000066],[6.949200630000064,4.7727384570000595],[6.940553665000039,4.794005394000067],[6.941020966000053,4.798446178000063],[6.958489895000071,4.792054176000079],[6.980597019000072,4.792810917000054],[6.982293129000084,4.814945698000088],[6.987340927000048,4.822984695000059],[7.004728794000073,4.819058895000069],[7.046982288000038,4.823732853000081],[7.0765562060000775,4.81396198300007]]]}},{"type":"Feature","properties":{"CNTRY_NAME":"Nigeria","CNTRY_CODE":"NGA","ADM1_NAME":"Rivers","ADM1_CODE":"NGA033","ADM2_NAME":"Tai","ADM2_CODE":"NGA033023","HRname":"Tai","HRpcode":"NG033023","HRparent":"NG033","Shape_Leng":0.505906645624,"Shape_Area":0.0129254922392,"ADM2_New":"Tai","id":"NG-RI-TAI","name":"Tai","parentId":"NG-RI","stateName":"Rivers","regionId":"NG-SS","fillColor":"#a8c686"},"geometry":{"type":"Polygon","coordinates":[[[7.181752205000066,4.838303089000078],[7.232273102000079,4.824849129000086],[7.275788784000042,4.8007278440000505],[7.321207047000087,4.78311920200008],[7.32872915300004,4.749958992000074],[7.34465313000004,4.72932004900008],[7.328457832000083,4.72059011500005],[7.25700187700005,4.710433960000046],[7.2242169380000405,4.6999711990000606],[7.214109898000061,4.702382088000093],[7.206347942000093,4.709436893000088],[7.193439007000052,4.757557869000038],[7.203258038000058,4.7737970350000865],[7.205812931000082,4.801281929000083],[7.180681229000072,4.821993828000075],[7.181752205000066,4.838303089000078]]]}},{"type":"Feature","properties":{"CNTRY_NAME":"Nigeria","CNTRY_CODE":"NGA","ADM1_NAME":"Rivers","ADM1_CODE":"NGA033","ADM2_NAME":"Andoni","ADM2_CODE":"NGA033005","HRname":"Andoni","HRpcode":"NG033005","HRparent":"NG033","Shape_Leng":0.655457405154,"Shape_Area":0.0183461356232,"ADM2_New":"Andoni","id":"NG-RI-ANDONI","name":"Andoni","parentId":"NG-RI","stateName":"Rivers","regionId":"NG-SS","fillColor":"#c2b280"},"geometry":{"type":"Polygon","coordinates":[[[7.422804832000054,4.569522858000084],[7.430595398000037,4.5222535130000665],[7.443610191000062,4.513336182000046],[7.479038715000058,4.51526403400004],[7.482172012000092,4.508274555000071],[7.474218845000053,4.495741844000065],[7.498078823000071,4.4807991980000565],[7.5084856330000775,4.453579493000063],[7.465705395000043,4.450673103000042],[7.436182022000082,4.440596104000065],[7.400886058000083,4.436693192000064],[7.324240480000071,4.450499293000064],[7.3330488200000445,4.519155979000061],[7.330092907000051,4.535509109000088],[7.321898460000057,4.539606094000078],[7.312016964000065,4.534786224000072],[7.307064533000073,4.541323662000082],[7.301790237000091,4.574415207000072],[7.32127618800007,4.590577126000085],[7.3620390890000635,4.56740999200008],[7.3851127620000625,4.573287964000087],[7.407610893000083,4.566583157000082],[7.422804832000054,4.569522858000084]]]}},{"type":"Feature","properties":{"CNTRY_NAME":"Nigeria","CNTRY_CODE":"NGA","ADM1_NAME":"Rivers","ADM1_CODE":"NGA033","ADM2_NAME":"Bonny","ADM2_CODE":"NGA033007","HRname":"Bonny","HRpcode":"NG033007","HRparent":"NG033","Shape_Leng":1.15792841148,"Shape_Area":0.0500693819452,"ADM2_New":"Bonny","id":"NG-RI-BONNY","name":"Bonny","parentId":"NG-RI","stateName":"Rivers","regionId":"NG-SS","fillColor":"#9bb898"},"geometry":{"type":"Polygon","coordinates":[[[7.315354824000053,4.597617149000087],[7.32127618800007,4.590577126000085],[7.301790237000091,4.574415207000072],[7.301412582000069,4.559128284000053],[7.312016964000065,4.534786224000072],[7.321898460000057,4.539606094000078],[7.330092907000051,4.535509109000088],[7.3330488200000445,4.519155979000061],[7.324240480000071,4.450499293000064],[7.309514046000061,4.449685097000042],[7.313344002000065,4.425552845000084],[7.205116272000055,4.38735199000007],[7.136325836000083,4.385288715000058],[7.128423214000065,4.400650025000061],[7.130410194000092,4.411935806000088],[7.134280205000039,4.4161019320000605],[7.1407651900000815,4.40694284500006],[7.14534425700009,4.4081239700000765],[7.139111996000054,4.413834095000084],[7.141793251000081,4.424203873000067],[7.1642732620000515,4.457480908000093],[7.140978336000046,4.476191044000075],[7.118582249000042,4.4643101690000435],[7.112365245000092,4.467720032000045],[7.105061055000078,4.4626088140000775],[7.100156307000077,4.458234787000038],[7.105371952000041,4.450648785000055],[7.085609913000042,4.456037998000056],[7.077411759000086,4.452228932000082],[7.0586771970000655,4.4723792080000635],[7.061624050000091,4.492402077000065],[7.072209358000066,4.50490045500004],[7.055504799000062,4.527882099000067],[7.049747944000046,4.552636147000044],[7.05170488400006,4.565207958000087],[7.0600857730000826,4.575397968000061],[7.05930709800009,4.590788841000062],[7.052930832000072,4.598299026000063],[7.059000969000067,4.607573986000091],[7.059288979000087,4.63880682000007],[7.133479118000082,4.595795155000076],[7.179580212000076,4.604305744000044],[7.2069611550000445,4.625981808000063],[7.240745068000081,4.641889095000067],[7.2529249190000655,4.61769199400004],[7.275841236000076,4.60632181200009],[7.315354824000053,4.597617149000087]]]}},{"type":"Feature","properties":{"CNTRY_NAME":"Nigeria","CNTRY_CODE":"NGA","ADM1_NAME":"Rivers","ADM1_CODE":"NGA033","ADM2_NAME":"Opobo/Nkoro","ADM2_CODE":"NGA033020","HRname":"Opobo/Nkoro","HRpcode":"NG033020","HRparent":"NG033","Shape_Leng":0.510167995641,"Shape_Area":0.0100796657045,"ADM2_New":"Opobo/Nkoro","id":"NG-RI-OPOBO-NKORO","name":"Opobo/Nkoro","parentId":"NG-RI","stateName":"Rivers","regionId":"NG-SS","fillColor":"#6ba3be"},"geometry":{"type":"Polygon","coordinates":[[[7.529382229000078,4.543667793000054],[7.552378178000083,4.514445305000038],[7.573728561000053,4.505969048000054],[7.591593266000075,4.492166996000037],[7.583412171000077,4.480154037000091],[7.5810341830000425,4.4571342460000665],[7.5084856330000775,4.453579493000063],[7.498078823000071,4.4807991980000565],[7.474218845000053,4.495741844000065],[7.482172012000092,4.508274555000071],[7.479038715000058,4.51526403400004],[7.443610191000062,4.513336182000046],[7.430595398000037,4.5222535130000665],[7.422804832000054,4.569522858000084],[7.445114613000044,4.5734767910000755],[7.473603249000064,4.561882496000067],[7.49513578400007,4.560226440000065],[7.500435829000082,4.540681839000058],[7.510241508000092,4.53273153300006],[7.517829418000076,4.531959534000066],[7.529382229000078,4.543667793000054]]]}},{"type":"Feature","properties":{"CNTRY_NAME":"Nigeria","CNTRY_CODE":"NGA","ADM1_NAME":"Rivers","ADM1_CODE":"NGA033","ADM2_NAME":"Degema","ADM2_CODE":"NGA033008","HRname":"Degema","HRpcode":"NG033008","HRparent":"NG033","Shape_Leng":1.91354449456,"Shape_Area":0.0807625521303,"ADM2_New":"Degema","id":"NG-RI-DEGEMA","name":"Degema","parentId":"NG-RI","stateName":"Rivers","regionId":"NG-SS","fillColor":"#89a96d"},"geometry":{"type":"Polygon","coordinates":[[[6.7900557520000575,4.79739141500005],[6.795415878000085,4.782156944000064],[6.790648937000071,4.764480114000094],[6.811021805000053,4.727022171000044],[6.831653118000077,4.717535019000081],[6.83801698700006,4.708625793000067],[6.860639095000067,4.715439796000055],[6.88081789000006,4.706889153000077],[6.904569149000054,4.686188221000066],[6.9258232120000685,4.6944108010000605],[6.929156780000085,4.706504822000056],[6.912827969000091,4.733208179000087],[6.881657124000071,4.747908115000087],[6.866937160000077,4.764091492000091],[6.863431454000079,4.7741408350000825],[6.867170811000051,4.782320499000093],[6.881625175000067,4.794528008000043],[6.887269020000076,4.797744751000039],[6.893345356000054,4.791668415000061],[6.906433105000076,4.793538094000041],[6.918585300000075,4.784891129000073],[6.925128937000068,4.788864136000086],[6.924427986000069,4.794706821000091],[6.940553665000039,4.794005394000067],[6.949200630000064,4.7727384570000595],[6.9580812450000735,4.775075436000066],[6.9646248820000665,4.771102428000063],[6.963923931000068,4.754275799000084],[6.976310253000065,4.755911827000091],[6.992669582000076,4.768298149000088],[7.008841991000054,4.772504807000075],[7.002087116000041,4.743642330000057],[6.992082119000088,4.748951912000052],[6.982152939000059,4.740253925000047],[6.988261223000052,4.725151062000066],[7.026144981000073,4.68942022300007],[7.059288979000087,4.63880682000007],[7.059000969000067,4.607573986000091],[7.052930832000072,4.598299026000063],[7.05930709800009,4.590788841000062],[7.0600857730000826,4.575397968000061],[7.05170488400006,4.565207958000087],[7.049747944000046,4.552636147000044],[7.055504799000062,4.527882099000067],[7.072209358000066,4.50490045500004],[7.061624050000091,4.492402077000065],[7.0586771970000655,4.4723792080000635],[7.077411759000086,4.452228932000082],[7.061630249000075,4.441154003000065],[7.026340008000091,4.436543942000071],[7.018938064000054,4.445466995000061],[7.0249142650000636,4.443665981000038],[7.017930984000088,4.458343029000048],[6.991503239000053,4.465525151000065],[6.989313125000081,4.450787067000078],[6.997279167000045,4.42691516900004],[7.013476372000071,4.406549931000086],[7.0051341050000815,4.387417793000054],[7.014224053000078,4.398043155000039],[7.014683246000061,4.393649101000051],[6.99628305400006,4.372845173000087],[6.983429909000051,4.374137878000056],[6.9725561150000885,4.387637138000059],[6.965074062000042,4.375391960000059],[6.9506340030000615,4.374143124000057],[6.936357021000049,4.382327080000039],[6.9064941400000635,4.389023304000091],[6.870450020000078,4.394063950000088],[6.866364783000051,4.388967321000052],[6.852282047000074,4.40781402600004],[6.806723118000093,4.560155869000084],[6.810998917000063,4.574574947000087],[6.836125851000077,4.603280067000071],[6.836722851000047,4.618194103000064],[6.814414978000059,4.645410061000064],[6.789957047000087,4.739309788000071],[6.781167507000077,4.746330261000082],[6.766444206000074,4.738150597000072],[6.762704849000045,4.746563911000067],[6.764038086000085,4.774480820000065],[6.742139339000062,4.7930707930000835],[6.73776102100004,4.820843220000086],[6.753824234000092,4.805457115000081],[6.783532619000084,4.802808762000041],[6.7900557520000575,4.79739141500005]]]}},{"type":"Feature","properties":{"CNTRY_NAME":"Nigeria","CNTRY_CODE":"NGA","ADM1_NAME":"Rivers","ADM1_CODE":"NGA033","ADM2_NAME":"Akuku Toru","ADM2_CODE":"NGA033004","HRname":"Akuku Toru","HRpcode":"NG033004","HRparent":"NG033","Shape_Leng":1.52439723002,"Shape_Area":0.117373338041,"ADM2_New":"Akuku Toru","id":"NG-RI-AKUKU-TORU","name":"Akuku Toru","parentId":"NG-RI","stateName":"Rivers","regionId":"NG-SS","fillColor":"#b5c99a"},"geometry":{"type":"Polygon","coordinates":[[[6.866364783000051,4.388967321000052],[6.856357097000057,4.376482010000075],[6.870197296000072,4.365304947000084],[6.859226227000079,4.360167980000085],[6.757502079000062,4.3461089140000695],[6.738016129000073,4.3450498580000385],[6.723287105000054,4.352077007000048],[6.713893890000065,4.350628853000046],[6.702498913000056,4.340885162000063],[6.633316040000068,4.330724239000062],[6.616867065000065,4.322321892000048],[6.603456021000056,4.336948871000061],[6.585392951000074,4.329685211000083],[6.548765091000064,4.327053470000067],[6.54457283000005,4.354928017000077],[6.520407200000079,4.360930920000044],[6.514143944000068,4.3689417840000715],[6.512575150000089,4.431702137000059],[6.539985180000087,4.500919819000046],[6.54986238500004,4.510221481000087],[6.542593956000076,4.521851063000042],[6.54501676600006,4.53348016700005],[6.560038090000091,4.54123306300005],[6.566337109000074,4.5538315770000395],[6.551316261000068,4.558192730000087],[6.543078423000054,4.568368435000082],[6.540171146000091,4.57660579700007],[6.548893452000073,4.5862970350000865],[6.538109779000081,4.596213818000081],[6.535140991000048,4.608811855000056],[6.516617775000043,4.622614861000045],[6.511964798000065,4.643144131000042],[6.5465931890000775,4.682030201000089],[6.562364101000071,4.692440033000082],[6.56052255600008,4.697745323000049],[6.57312107100006,4.7016220090000616],[6.5789356230000635,4.715189457000065],[6.593472481000049,4.722457886000086],[6.607241154000064,4.746353149000072],[6.629915237000091,4.758759975000089],[6.638588905000063,4.750765800000067],[6.660247803000061,4.752925873000038],[6.69240999200008,4.745677948000093],[6.715075016000071,4.757153034000055],[6.762456894000081,4.760527134000085],[6.766444206000074,4.738150597000072],[6.781167507000077,4.746330261000082],[6.789957047000087,4.739309788000071],[6.814414978000059,4.645410061000064],[6.836722851000047,4.618194103000064],[6.836125851000077,4.603280067000071],[6.830511093000041,4.593533993000051],[6.810998917000063,4.574574947000087],[6.806723118000093,4.560155869000084],[6.8097648620000655,4.540552139000056],[6.830849171000068,4.48024511300008],[6.837450027000045,4.44709301000006],[6.852282047000074,4.40781402600004],[6.866364783000051,4.388967321000052]]]}}]}