{"type":"FeatureCollection","features":[{"type":"Feature","properties":{"CNTRY_NAME":"Nigeria","CNTRY_CODE":"NGA","ADM1_NAME":"Sokoto","ADM1_CODE":"NGA034","ADM2_NAME":"Binji","ADM2_CODE":"NGA034001","HRname":"Binji","HRpcode":"NG034001","HRparent":"NG034","Shape_Leng":0.957439898437,"Shape_Area":0.0464379787105,"ADM2_New":"Binji","id":"NG-SO-BINJI","name":"Binji","parentId":"NG-SO","stateName":"Sokoto","regionId":"NG-NW","fillColor":"#6BA368"},"geometry":{"type":"Polygon","coordinates":[[[4.720144749000042,13.302420616000063],[4.811387062000051,13.292381287000069],[4.848027229000081,13.297615051000037],[4.8960080150000636,13.293252945000063],[4.914764404000039,13.279294968000045],[4.941371918000073,13.23393154100006],[4.971468925000067,13.200780869000084],[5.00461959800009,13.179843903000062],[5.029918671000075,13.171555519000037],[4.961436749000086,13.124446869000053],[4.902114868000069,13.098711967000042],[4.851953030000061,13.09740352600005],[4.8283987050000405,13.102201462000039],[4.81618499800004,13.11703205100008],[4.779545307000092,13.125756264000074],[4.751628876000041,13.124446869000053],[4.689689636000082,13.094349861000069],[4.714578152000058,13.178146362000064],[4.710627079000062,13.195546150000041],[4.715425014000061,13.214303017000077],[4.714116573000069,13.260974884000063],[4.720144749000042,13.302420616000063]]]}},{"type":"Feature","properties":{"CNTRY_NAME":"Nigeria","CNTRY_CODE":"NGA","ADM1_NAME":"Sokoto","ADM1_CODE":"NGA034","ADM2_NAME":"Bodinga","ADM2_CODE":"NGA034002","HRname":"Bodinga","HRpcode":"NG034002","HRparent":"NG034","Shape_Leng":0.923574174814,"Shape_Area":0.0468516698848,"ADM2_New":"Bodinga","id":"NG-SO-BODINGA","name":"Bodinga","parentId":"NG-SO","stateName":"Sokoto","regionId":"NG-NW","fillColor":"#C4A574"},"geometry":{"type":"Polygon","coordinates":[[[5.04544687300006,12.929121017000057],[5.06437778500009,12.971343994000051],[5.090985298000078,12.984430313000075],[5.115412235000065,12.98704719500006],[5.1398386960000835,12.982685089000086],[5.195341110000072,12.94329834000007],[5.226486206000061,12.93243312800007],[5.277187347000051,12.86145210300009],[5.284430027000042,12.824512482000046],[5.283705711000039,12.77598381000007],[5.2960190770000395,12.729628563000063],[5.311953545000051,12.700656891000051],[5.3083319660000825,12.694138527000064],[5.237205505000077,12.685991287000093],[5.2094526290000545,12.69718170200008],[5.193958759000054,12.704591751000066],[5.171728611000049,12.734231949000048],[5.155560970000067,12.747704506000048],[5.068976879000047,12.800733566000076],[5.080516815000067,12.84572124500005],[5.088804245000063,12.861424446000058],[5.087932110000054,12.891085625000073],[5.04544687300006,12.929121017000057]]]}},{"type":"Feature","properties":{"CNTRY_NAME":"Nigeria","CNTRY_CODE":"NGA","ADM1_NAME":"Sokoto","ADM1_CODE":"NGA034","ADM2_NAME":"Dange-Shnsi","ADM2_CODE":"NGA034003","HRname":"Dange-Shnsi","HRpcode":"NG034003","HRparent":"NG034","Shape_Leng":1.42475626825,"Shape_Area":0.100533170783,"ADM2_New":"Dange-Shuni","id":"NG-SO-DANGE-SHNSI","name":"Dange-Shnsi","parentId":"NG-SO","stateName":"Sokoto","regionId":"NG-NW","fillColor":"#5B8FA8"},"geometry":{"type":"Polygon","coordinates":[[[5.280130863000068,13.022089958000038],[5.338752747000058,12.990377426000066],[5.42566919300009,13.005587578000075],[5.44884681700006,12.999794006000059],[5.479722023000079,13.00648403200006],[5.483202457000061,12.984526634000076],[5.498346329000071,12.957913399000063],[5.505703926000081,12.91797256500007],[5.550374508000061,12.864368439000089],[5.571395874000075,12.819697380000036],[5.592417240000088,12.798151016000077],[5.640766621000068,12.77607822400006],[5.670722008000041,12.749801636000086],[5.686267376000046,12.729704857000058],[5.685791492000078,12.713689804000069],[5.625576496000065,12.712245941000049],[5.469127178000065,12.64054012300005],[5.388729572000045,12.67603015900005],[5.3083319660000825,12.694138527000064],[5.311953545000051,12.700656891000051],[5.2960190770000395,12.729628563000063],[5.283705711000039,12.77598381000007],[5.284430027000042,12.824512482000046],[5.277187347000051,12.86145210300009],[5.226486206000061,12.93243312800007],[5.191719532000093,12.944746971000086],[5.193490028000042,12.954333305000091],[5.219225407000067,12.975270271000056],[5.229258060000063,12.99315357200004],[5.236237049000067,12.99315357200004],[5.243216038000071,13.00362205500005],[5.258046627000056,13.007548332000056],[5.280130863000068,13.022089958000038]]]}},{"type":"Feature","properties":{"CNTRY_NAME":"Nigeria","CNTRY_CODE":"NGA","ADM1_NAME":"Sokoto","ADM1_CODE":"NGA034","ADM2_NAME":"Goronyo","ADM2_CODE":"NGA034006","HRname":"Goronyo","HRpcode":"NG034006","HRparent":"NG034","Shape_Leng":2.30026769464,"Shape_Area":0.141930651683,"ADM2_New":"Goronyo","id":"NG-SO-GORONYO","name":"Goronyo","parentId":"NG-SO","stateName":"Sokoto","regionId":"NG-NW","fillColor":"#6AADA3"},"geometry":{"type":"Polygon","coordinates":[[[5.578699589000053,13.569529533000036],[5.62839460400005,13.591071129000056],[5.6612119670000425,13.591780663000065],[5.689025402000084,13.58343601200005],[5.6931972500000825,13.575092316000053],[5.6936607360000835,13.525491714000054],[5.708958149000068,13.46569347400009],[5.732776165000075,13.44800949100005],[5.754386425000064,13.454105377000076],[5.762730598000076,13.47079277000006],[5.803523064000046,13.589925766000079],[5.848951340000042,13.579728127000067],[5.858222485000056,13.57138443000008],[5.915075302000048,13.573114395000061],[5.9233517650000636,13.53615379300004],[5.9817595480000705,13.449933052000063],[6.0040097240000705,13.403577805000054],[5.995434284000055,13.379472733000057],[5.96298551600006,13.325700760000075],[5.928497314000083,13.245381355000063],[5.934278488000075,13.223309517000075],[5.978949070000056,13.160244942000077],[6.0194153790000655,13.131340027000078],[6.034130096000069,13.109268188000044],[6.0136342050000735,13.041473389000089],[5.962131500000055,13.079312325000046],[5.930074215000047,13.090873718000068],[5.849667072000045,13.148682594000093],[5.824441433000061,13.160770416000048],[5.780821800000069,13.161295891000066],[5.73299789400005,13.153412819000039],[5.721961975000056,13.159193993000088],[5.7249507900000935,13.20795822100007],[5.718924522000066,13.23901653300004],[5.720942497000067,13.250388145000045],[5.739320755000051,13.234844208000084],[5.756936073000077,13.231135368000082],[5.77640533400006,13.234380722000083],[5.807578087000081,13.260329247000072],[5.80986738200005,13.281390190000081],[5.7979631420000715,13.300620079000055],[5.74393653900006,13.319849968000085],[5.721044064000068,13.320765495000046],[5.621689796000055,13.307488441000089],[5.561711311000067,13.314355850000084],[5.522336006000046,13.333585739000057],[5.498527527000078,13.36243057300004],[5.499663830000088,13.379936218000068],[5.509861946000058,13.404968262000068],[5.519596577000073,13.410994530000039],[5.566183567000053,13.47820949600009],[5.576845646000038,13.522710800000084],[5.578699589000053,13.569529533000036]]]}},{"type":"Feature","properties":{"CNTRY_NAME":"Nigeria","CNTRY_CODE":"NGA","ADM1_NAME":"Sokoto","ADM1_CODE":"NGA034","ADM2_NAME":"Gawabawa","ADM2_CODE":"NGA034005","HRname":"Gawabawa","HRpcode":"NG034005","HRparent":"NG034","Shape_Leng":1.50656678084,"Shape_Area":0.0825526168189,"ADM2_New":"Gwadabawa","id":"NG-SO-GAWABAWA","name":"Gawabawa","parentId":"NG-SO","stateName":"Sokoto","regionId":"NG-NW","fillColor":"#B8956B"},"geometry":{"type":"Polygon","coordinates":[[[5.574991226000066,13.569529533000036],[5.578699589000053,13.569529533000036],[5.576845646000038,13.522710800000084],[5.566183567000053,13.47820949600009],[5.519596577000073,13.410994530000039],[5.509861946000058,13.404968262000068],[5.499663830000088,13.379936218000068],[5.498527527000078,13.36243057300004],[5.475219727000081,13.340526581000063],[5.423897743000055,13.332670212000039],[5.3886432650000415,13.305198669000049],[5.351391315000058,13.260539055000038],[5.312134266000044,13.284529686000042],[5.286835194000048,13.324659348000068],[5.274621487000047,13.333819389000041],[5.227513313000088,13.333819389000041],[5.172553062000077,13.294125557000086],[5.154451370000061,13.289763451000056],[5.147036076000063,13.348213196000074],[5.179968357000064,13.474272728000074],[5.183894157000054,13.513965607000046],[5.179941654000061,13.534763336000083],[5.221300125000084,13.512048721000042],[5.26950931500005,13.513440132000085],[5.300567627000078,13.534763336000083],[5.325599670000088,13.577874184000052],[5.348313808000057,13.605223656000078],[5.3682465550000416,13.61542129500009],[5.384470940000085,13.61588478100009],[5.410893440000052,13.58668136600005],[5.411356926000053,13.575555801000064],[5.396522999000069,13.531517982000082],[5.396522999000069,13.511585236000087],[5.410893440000052,13.493043900000089],[5.434071064000079,13.484699249000073],[5.474863529000061,13.505095482000058],[5.48228073100006,13.515294075000043],[5.574991226000066,13.569529533000036]]]}},{"type":"Feature","properties":{"CNTRY_NAME":"Nigeria","CNTRY_CODE":"NGA","ADM1_NAME":"Sokoto","ADM1_CODE":"NGA034","ADM2_NAME":"Illela","ADM2_CODE":"NGA034008","HRname":"Illela","HRpcode":"NG034008","HRparent":"NG034","Shape_Leng":1.57454924645,"Shape_Area":0.0986062172936,"ADM2_New":"Illela","id":"NG-SO-ILLELA","name":"Illela","parentId":"NG-SO","stateName":"Sokoto","regionId":"NG-NW","fillColor":"#D4C4A0"},"geometry":{"type":"Polygon","coordinates":[[[5.509861946000058,13.747533798000063],[5.508934975000045,13.70627784700008],[5.517742157000043,13.666875839000056],[5.527245045000086,13.654823303000057],[5.549495697000054,13.590852737000091],[5.574991226000066,13.569529533000036],[5.48228073100006,13.515294075000043],[5.474863529000061,13.505095482000058],[5.434071064000079,13.484699249000073],[5.410893440000052,13.493043900000089],[5.401158810000084,13.502778053000043],[5.394669056000055,13.519929886000057],[5.411356926000053,13.575555801000064],[5.410893440000052,13.58668136600005],[5.384470940000085,13.61588478100009],[5.3682465550000416,13.61542129500009],[5.348313808000057,13.605223656000078],[5.325599670000088,13.577874184000052],[5.300567627000078,13.534763336000083],[5.26950931500005,13.513440132000085],[5.221300125000084,13.512048721000042],[5.176478863000057,13.539264679000041],[5.167318821000038,13.587681770000074],[5.160776138000074,13.675792694000052],[5.169499874000053,13.705453873000067],[5.170878600000037,13.739590186000044],[5.206417264000038,13.73655520400007],[5.280589762000091,13.740367809000077],[5.341591441000048,13.81003449900004],[5.354415657000061,13.838109136000071],[5.464288001000057,13.869303176000074],[5.523737705000087,13.900613168000064],[5.531880856000043,13.880574226000078],[5.536284447000071,13.847661972000083],[5.529794693000042,13.808259964000058],[5.512643337000043,13.772102356000062],[5.509861946000058,13.747533798000063]]]}},{"type":"Feature","properties":{"CNTRY_NAME":"Nigeria","CNTRY_CODE":"NGA","ADM1_NAME":"Sokoto","ADM1_CODE":"NGA034","ADM2_NAME":"Kebbe","ADM2_CODE":"NGA034010","HRname":"Kebbe","HRpcode":"NG034010","HRparent":"NG034","Shape_Leng":2.17188706122,"Shape_Area":0.216474638003,"ADM2_New":"Kebbe","id":"NG-SO-KEBBE","name":"Kebbe","parentId":"NG-SO","stateName":"Sokoto","regionId":"NG-NW","fillColor":"#7CB087"},"geometry":{"type":"Polygon","coordinates":[[[4.951128591000042,12.249313554000082],[4.957433499000047,12.160018963000084],[4.956428988000084,12.029432571000086],[4.94738839200005,11.936013075000062],[4.94839290200008,11.89683715800004],[4.92930719900005,11.779309405000049],[4.92930719900005,11.741137998000056],[4.942946379000091,11.732523779000076],[4.940972805000058,11.725945473000081],[4.932535172000087,11.719808578000084],[4.912208557000042,11.719808578000084],[4.893799305000073,11.71137142200007],[4.887663364000048,11.725945473000081],[4.8746232990000635,11.729013443000042],[4.840106487000071,11.710604668000087],[4.8239984510000795,11.722876549000091],[4.804821968000056,11.727478981000047],[4.795617580000055,11.725177765000069],[4.783344746000068,11.698331833000054],[4.764935970000067,11.689893723000068],[4.754197121000061,11.675319672000057],[4.7281174660000715,11.67608737900008],[4.689765453000064,11.656910896000056],[4.645276546000048,11.67225170100005],[4.628401756000073,11.666882515000054],[4.620730877000085,11.656910896000056],[4.577776432000064,11.660746574000086],[4.548628807000057,11.633899689000089],[4.544026375000044,11.62009239200006],[4.505674362000093,11.585576057000083],[4.487577915000088,11.583100319000039],[4.4705443380000816,11.593939781000074],[4.4096598630000585,11.656385422000085],[4.401854515000082,11.668093681000073],[4.399512768000079,11.685266495000064],[4.406538010000077,11.696974754000053],[4.458055019000085,11.738344193000046],[4.47678852100006,11.746150017000048],[4.502547264000043,11.768786430000091],[4.521280766000075,11.776592255000082],[4.531428337000079,11.792203903000086],[4.538453102000062,11.817961693000086],[4.536891937000064,11.86167335500005],[4.541299820000063,11.876487732000044],[4.556973457000083,11.898431778000088],[4.561153412000067,11.929779053000061],[4.562198162000072,11.978890419000038],[4.5517487530000835,12.102796248000061],[4.637999093000076,12.133901685000069],[4.691238161000058,12.145955814000047],[4.719364461000055,12.162027985000066],[4.769589996000093,12.220289606000051],[4.783653146000063,12.230334713000047],[4.883099706000053,12.233348245000059],[4.903189920000045,12.225312160000044],[4.924284645000057,12.228325692000055],[4.951128591000042,12.249313554000082]]]}},{"type":"Feature","properties":{"CNTRY_NAME":"Nigeria","CNTRY_CODE":"NGA","ADM1_NAME":"Sokoto","ADM1_CODE":"NGA034","ADM2_NAME":"Kware","ADM2_CODE":"NGA034011","HRname":"Kware","HRpcode":"NG034011","HRparent":"NG034","Shape_Leng":1.23152133227,"Shape_Area":0.0461006653041,"ADM2_New":"Kware","id":"NG-SO-KWARE","name":"Kware","parentId":"NG-SO","stateName":"Sokoto","regionId":"NG-NW","fillColor":"#C9B896"},"geometry":{"type":"Polygon","coordinates":[[[5.154451370000061,13.289763451000056],[5.172553062000077,13.294125557000086],[5.227513313000088,13.333819389000041],[5.274621487000047,13.333819389000041],[5.286835194000048,13.324659348000068],[5.312134266000044,13.284529686000042],[5.354527473000076,13.258238792000043],[5.349093914000093,13.24853515600006],[5.325135708000062,13.240870476000055],[5.3098387720000915,13.227890968000054],[5.3098387720000915,13.216403008000043],[5.329308033000075,13.135643959000049],[5.336261272000058,13.124054909000051],[5.351415634000091,13.113072395000074],[5.360829353000042,13.079553604000068],[5.379835129000071,13.078163147000055],[5.428971767000064,13.087433815000054],[5.445196152000051,13.082798958000069],[5.455394268000077,13.075382233000084],[5.479722023000079,13.00648403200006],[5.44884681700006,12.999794006000059],[5.42566919300009,13.005587578000075],[5.338752747000058,12.990377426000066],[5.280130863000068,13.022089958000038],[5.268078804000083,13.072104454000055],[5.250106335000055,13.099983215000066],[5.245397091000086,13.122702599000093],[5.254120827000065,13.16370487200004],[5.250631332000069,13.18769455000006],[5.227949142000057,13.197727203000056],[5.195671082000047,13.196418762000064],[5.166010380000046,13.202525139000045],[5.152488232000053,13.216484070000092],[5.125933170000053,13.228474617000074],[5.154451370000061,13.289763451000056]]]}},{"type":"Feature","properties":{"CNTRY_NAME":"Nigeria","CNTRY_CODE":"NGA","ADM1_NAME":"Sokoto","ADM1_CODE":"NGA034","ADM2_NAME":"Rabah","ADM2_CODE":"NGA034012","HRname":"Rabah","HRpcode":"NG034012","HRparent":"NG034","Shape_Leng":2.15287054264,"Shape_Area":0.202351677331,"ADM2_New":"Rabah","id":"NG-SO-RABAH","name":"Rabah","parentId":"NG-SO","stateName":"Sokoto","regionId":"NG-NW","fillColor":"#5E9E78"},"geometry":{"type":"Polygon","coordinates":[[[5.351415634000091,13.113072395000074],[5.429435253000065,13.13332557700005],[5.48923397100009,13.16113948800006],[5.520755291000057,13.178753853000046],[5.613929749000079,13.247360229000037],[5.6343259810000745,13.256630898000083],[5.684621811000056,13.26775646200008],[5.698991776000071,13.266366005000066],[5.720942497000067,13.250388145000045],[5.718924522000066,13.23901653300004],[5.7249507900000935,13.20795822100007],[5.721961975000056,13.159193993000088],[5.73299789400005,13.153412819000039],[5.780821800000069,13.161295891000066],[5.824441433000061,13.160770416000048],[5.849667072000045,13.148682594000093],[5.930074215000047,13.090873718000068],[5.962131500000055,13.079312325000046],[6.0136342050000735,13.041473389000089],[6.024677753000049,12.992933273000062],[6.024677753000049,12.965998650000074],[6.006457329000057,12.893908501000055],[6.01794385900007,12.836077690000081],[6.045502186000078,12.75411605800008],[6.035686970000086,12.742388725000069],[6.020989895000071,12.736789703000056],[5.987396717000081,12.754286766000064],[5.923010349000037,12.771082878000072],[5.895015717000092,12.787179947000084],[5.837627888000043,12.834070206000092],[5.8131327630000555,12.839669228000048],[5.77114152900009,12.830571175000046],[5.752245426000059,12.817273140000054],[5.690658092000092,12.742388725000069],[5.686267376000046,12.729704857000058],[5.640766621000068,12.77607822400006],[5.592417240000088,12.798151016000077],[5.5766510960000915,12.812865257000055],[5.550374508000061,12.864368439000089],[5.505703926000081,12.91797256500007],[5.498346329000071,12.957913399000063],[5.483202457000061,12.984526634000076],[5.479952335000064,13.009941101000038],[5.455394268000077,13.075382233000084],[5.428971767000064,13.087433815000054],[5.379835129000071,13.078163147000055],[5.360829353000042,13.079553604000068],[5.351415634000091,13.113072395000074]]]}},{"type":"Feature","properties":{"CNTRY_NAME":"Nigeria","CNTRY_CODE":"NGA","ADM1_NAME":"Sokoto","ADM1_CODE":"NGA034","ADM2_NAME":"Shagari","ADM2_CODE":"NGA034014","HRname":"Shagari","HRpcode":"NG034014","HRparent":"NG034","Shape_Leng":1.79079282793,"Shape_Area":0.110484152934,"ADM2_New":"Shagari","id":"NG-SO-SHAGARI","name":"Shagari","parentId":"NG-SO","stateName":"Sokoto","regionId":"NG-NW","fillColor":"#C2A882"},"geometry":{"type":"Polygon","coordinates":[[[5.068976879000047,12.800733566000076],[5.155560970000067,12.747704506000048],[5.171728611000049,12.734231949000048],[5.193958759000054,12.704591751000066],[5.2424612050000405,12.683034897000084],[5.25728130300007,12.662825584000075],[5.264691830000061,12.622406960000092],[5.245829582000056,12.564473152000062],[5.245155811000075,12.542243004000056],[5.2727751730000705,12.485656738000046],[5.265365124000084,12.455342293000058],[5.275806904000092,12.359010696000041],[5.27124580800006,12.281628921000049],[5.161890571000072,12.28457829100006],[5.160613537000074,12.303098679000072],[5.168696880000084,12.332064629000058],[5.166676044000042,12.35496902500006],[5.1424250600000505,12.384609222000051],[5.107745647000058,12.395752907000087],[5.095782280000037,12.421772003000058],[5.0764350890000856,12.44632816300009],[5.051879406000069,12.471628189000057],[5.027323246000037,12.488742828000056],[5.004999638000072,12.49618339500006],[4.984164238000062,12.48799800900008],[4.969282150000083,12.442606926000053],[4.971514225000078,12.416563034000092],[4.96630573300007,12.39647197700009],[4.948446751000063,12.394983292000063],[4.932075977000068,12.399448395000093],[4.899334908000071,12.422515869000051],[4.894870281000067,12.432189941000047],[4.907520294000051,12.471628189000057],[4.906032085000049,12.509577751000052],[4.900078773000075,12.534133911000083],[4.876266956000052,12.578037262000066],[4.9372997280000845,12.610954285000048],[4.950772285000085,12.631163597000068],[4.982433796000066,12.656762123000078],[5.018136978000086,12.658783913000036],[5.034978390000049,12.652047157000084],[5.073376179000093,12.662151337000068],[5.080786228000079,12.678993225000056],[5.078545570000074,12.68758297000005],[5.067505836000066,12.709001541000077],[5.049547195000059,12.727950096000086],[5.04474926000006,12.755430222000086],[5.045185566000043,12.772005081000088],[5.054345131000048,12.793814659000077],[5.068976879000047,12.800733566000076]]]}},{"type":"Feature","properties":{"CNTRY_NAME":"Nigeria","CNTRY_CODE":"NGA","ADM1_NAME":"Sokoto","ADM1_CODE":"NGA034","ADM2_NAME":"Silame","ADM2_CODE":"NGA034015","HRname":"Silame","HRpcode":"NG034015","HRparent":"NG034","Shape_Leng":0.995675064267,"Shape_Area":0.0656037314659,"ADM2_New":"Silame","id":"NG-SO-SILAME","name":"Silame","parentId":"NG-SO","stateName":"Sokoto","regionId":"NG-NW","fillColor":"#72A898"},"geometry":{"type":"Polygon","coordinates":[[[4.689689636000082,13.094349861000069],[4.751628876000041,13.124446869000053],[4.804408073000047,13.122702599000093],[4.81618499800004,13.11703205100008],[4.8283987050000405,13.102201462000039],[4.851953030000061,13.09740352600005],[4.902114868000069,13.098711967000042],[4.9260287280000625,13.107784271000071],[4.923051834000091,13.093041420000077],[4.926541328000042,13.085626602000048],[4.9492235180000534,13.070796013000063],[4.9684157370000435,13.042880058000037],[4.958819389000041,12.970908165000083],[4.9688520430000835,12.950843811000084],[4.957947254000089,12.917256355000063],[4.942244530000039,12.893266678000089],[4.909965992000082,12.879307747000041],[4.798301220000042,12.868403435000062],[4.774092674000087,12.857062340000084],[4.723494530000039,12.879307747000041],[4.638437271000043,12.984866142000044],[4.6445441250000385,13.003186226000082],[4.677258492000078,13.04026222200008],[4.689689636000082,13.094349861000069]]]}},{"type":"Feature","properties":{"CNTRY_NAME":"Nigeria","CNTRY_CODE":"NGA","ADM1_NAME":"Sokoto","ADM1_CODE":"NGA034","ADM2_NAME":"Sokoto North","ADM2_CODE":"NGA034016","HRname":"Sokoto North","HRpcode":"NG034016","HRparent":"NG034","Shape_Leng":0.249208545466,"Shape_Area":0.00423105104963,"ADM2_New":"Sokoto North","id":"NG-SO-SOKOTO-NORTH","name":"Sokoto North","parentId":"NG-SO","stateName":"Sokoto","regionId":"NG-NW","fillColor":"#D4896A"},"geometry":{"type":"Polygon","coordinates":[[[5.248886585000093,13.10176563300007],[5.270696163000082,13.065561295000066],[5.239726543000074,13.04636955300009],[5.189307690000078,13.041057587000068],[5.186075211000059,13.063817024000059],[5.191745281000067,13.096530914000084],[5.225768566000056,13.107436180000036],[5.248886585000093,13.10176563300007]]]}},{"type":"Feature","properties":{"CNTRY_NAME":"Nigeria","CNTRY_CODE":"NGA","ADM1_NAME":"Sokoto","ADM1_CODE":"NGA034","ADM2_NAME":"Sokoto South","ADM2_CODE":"NGA034017","HRname":"Sokoto South","HRpcode":"NG034017","HRparent":"NG034","Shape_Leng":0.262795615632,"Shape_Area":0.0034164926468,"ADM2_New":"Sokoto South","id":"NG-SO-SOKOTO-SOUTH","name":"Sokoto South","parentId":"NG-SO","stateName":"Sokoto","regionId":"NG-NW","fillColor":"#9B8B72"},"geometry":{"type":"Polygon","coordinates":[[[5.189307690000078,13.041057587000068],[5.239726543000074,13.04636955300009],[5.27087307000005,13.062901497000041],[5.280130863000068,13.022089958000038],[5.258046627000056,13.007548332000056],[5.243216038000071,13.00362205500005],[5.236237049000067,12.99315357200004],[5.221842766000066,12.990536690000056],[5.189307690000078,13.041057587000068]]]}},{"type":"Feature","properties":{"CNTRY_NAME":"Nigeria","CNTRY_CODE":"NGA","ADM1_NAME":"Sokoto","ADM1_CODE":"NGA034","ADM2_NAME":"Tambuwal","ADM2_CODE":"NGA034018","HRname":"Tambuwal","HRpcode":"NG034018","HRparent":"NG034","Shape_Leng":2.70347880792,"Shape_Area":0.142245052646,"ADM2_New":"Tambuwal","id":"NG-SO-TAMBUWAL","name":"Tambuwal","parentId":"NG-SO","stateName":"Sokoto","regionId":"NG-NW","fillColor":"#A3C986"},"geometry":{"type":"Polygon","coordinates":[[[4.608868283000049,12.365187894000087],[4.616904368000064,12.43525489800004],[4.623935943000049,12.446304516000055],[4.645030668000061,12.448313537000047],[4.666125393000073,12.443290983000054],[4.6893106600000465,12.421110227000042],[4.710773945000085,12.40807056400007],[4.7240300180000645,12.324916840000071],[4.736081600000091,12.315877914000055],[4.752953529000081,12.312262535000059],[4.776453495000055,12.329134941000063],[4.782479286000068,12.352032661000067],[4.78308153200004,12.415301323000051],[4.795133114000066,12.435789108000051],[4.827068806000057,12.453866005000066],[4.851774216000081,12.480379105000054],[4.868043423000074,12.514724731000058],[4.870453835000092,12.533404350000069],[4.869248867000067,12.54244327500004],[4.840325356000051,12.570160866000037],[4.802363873000047,12.598482132000072],[4.7794661520000545,12.640058517000057],[4.77765846300008,12.70332813300007],[4.793325424000045,12.735264778000044],[4.807659626000088,12.750076294000053],[4.862128735000056,12.703792572000054],[4.886684895000087,12.667330742000047],[4.876266956000052,12.578037262000066],[4.90454340000008,12.520739555000091],[4.907520294000051,12.471628189000057],[4.896358490000068,12.44409561200007],[4.894870281000067,12.432189941000047],[4.899334908000071,12.422515869000051],[4.932075977000068,12.399448395000093],[4.948446751000063,12.394983292000063],[4.96630573300007,12.39647197700009],[4.971514225000078,12.416563034000092],[4.969282150000083,12.442606926000053],[4.984164238000062,12.48799800900008],[5.004999638000072,12.49618339500006],[5.027323246000037,12.488742828000056],[5.051879406000069,12.471628189000057],[5.0764350890000856,12.44632816300009],[5.095782280000037,12.421772003000058],[5.107745647000058,12.395752907000087],[5.1424250600000505,12.384609222000051],[5.166676044000042,12.35496902500006],[5.168696880000084,12.332064629000058],[5.160613537000074,12.303098679000072],[5.161890571000072,12.28457829100006],[5.068934187000082,12.277546716000074],[4.9976139270000886,12.300650463000068],[4.98154175600007,12.300650463000068],[4.956428988000084,12.27051514100009],[4.951128591000042,12.249313554000082],[4.924284645000057,12.228325692000055],[4.903189920000045,12.225312160000044],[4.883099706000053,12.233348245000059],[4.783653146000063,12.230334713000047],[4.769589996000093,12.220289606000051],[4.719364461000055,12.162027985000066],[4.691238161000058,12.145955814000047],[4.637999093000076,12.133901685000069],[4.5517487530000835,12.102796248000061],[4.5496587750000685,12.127270699000064],[4.51935625100009,12.242212296000048],[4.51935625100009,12.262065887000063],[4.525625706000085,12.287143707000041],[4.540247440000087,12.305634499000064],[4.599901676000059,12.341788292000047],[4.608868283000049,12.365187894000087]]]}},{"type":"Feature","properties":{"CNTRY_NAME":"Nigeria","CNTRY_CODE":"NGA","ADM1_NAME":"Sokoto","ADM1_CODE":"NGA034","ADM2_NAME":"Tureta","ADM2_CODE":"NGA034020","HRname":"Tureta","HRpcode":"NG034020","HRparent":"NG034","Shape_Leng":1.84877058774,"Shape_Area":0.197779959528,"ADM2_New":"Tureta","id":"NG-SO-TURETA","name":"Tureta","parentId":"NG-SO","stateName":"Sokoto","regionId":"NG-NW","fillColor":"#BFA882"},"geometry":{"type":"Polygon","coordinates":[[[5.237205505000077,12.685991287000093],[5.3083319660000825,12.694138527000064],[5.331509590000053,12.691241264000041],[5.388729572000045,12.67603015900005],[5.469127178000065,12.64054012300005],[5.625576496000065,12.712245941000049],[5.685791492000078,12.713689804000069],[5.728450298000041,12.590520859000037],[5.733349323000084,12.560426712000037],[5.759943962000079,12.489741325000068],[5.766942501000074,12.483442307000075],[5.759012222000081,12.343367577000038],[5.741840839000076,12.332352638000089],[5.743795395000063,12.32551193200004],[5.72608232500005,12.271005630000047],[5.71031856500008,12.267368317000091],[5.683008671000039,12.277058601000078],[5.673317909000048,12.288511276000065],[5.653055668000093,12.292035103000046],[5.631031513000039,12.288511276000065],[5.61253118500008,12.274415970000064],[5.541054220000092,12.272524163000071],[5.523977538000054,12.261474545000056],[5.4757610240000645,12.252433949000078],[5.4375896170000715,12.253438459000051],[5.272849861000054,12.281564759000048],[5.275806904000092,12.359010696000041],[5.265365124000084,12.455342293000058],[5.2727751730000705,12.485656738000046],[5.245155811000075,12.542243004000056],[5.245829582000056,12.564473152000062],[5.264691830000061,12.622406960000092],[5.25728130300007,12.662825584000075],[5.237205505000077,12.685991287000093]]]}},{"type":"Feature","properties":{"CNTRY_NAME":"Nigeria","CNTRY_CODE":"NGA","ADM1_NAME":"Sokoto","ADM1_CODE":"NGA034","ADM2_NAME":"Wamako","ADM2_CODE":"NGA034021","HRname":"Wamako","HRpcode":"NG034021","HRparent":"NG034","Shape_Leng":1.16843361698,"Shape_Area":0.0579175665964,"ADM2_New":"Wamako","id":"NG-SO-WAMAKO","name":"Wamako","parentId":"NG-SO","stateName":"Sokoto","regionId":"NG-NW","fillColor":"#6BA368"},"geometry":{"type":"Polygon","coordinates":[[[5.029918671000075,13.171555519000037],[5.052164555000047,13.165013313000088],[5.094911098000068,13.182024956000078],[5.106688023000061,13.190312386000073],[5.125933170000053,13.228474617000074],[5.152488232000053,13.216484070000092],[5.166010380000046,13.202525139000045],[5.195671082000047,13.196418762000064],[5.227949142000057,13.197727203000056],[5.250631332000069,13.18769455000006],[5.254120827000065,13.16370487200004],[5.245397091000086,13.122702599000093],[5.248886585000093,13.10176563300007],[5.225768566000056,13.107436180000036],[5.19654369400007,13.09914875000004],[5.188692093000043,13.090424538000036],[5.186947346000068,13.04636955300009],[5.22489595400009,12.988792419000049],[5.219225407000067,12.975270271000056],[5.193490028000042,12.954333305000091],[5.190436840000075,12.946481705000053],[5.1398386960000835,12.982685089000086],[5.115412235000065,12.98704719500006],[5.090985298000078,12.984430313000075],[5.06437778500009,12.971343994000051],[5.04544687300006,12.929121017000057],[5.006364346000055,12.949098587000037],[4.975831032000087,12.947790146000045],[4.96405363100007,12.955204964000075],[4.958819389000041,12.979632378000076],[4.965798378000045,13.002750397000057],[4.9684157370000435,13.042880058000037],[4.9492235180000534,13.070796013000063],[4.926541328000042,13.085626602000048],[4.923051834000091,13.100457191000089],[4.9260287280000625,13.107784271000071],[4.961436749000086,13.124446869000053],[5.029918671000075,13.171555519000037]]]}},{"type":"Feature","properties":{"CNTRY_NAME":"Nigeria","CNTRY_CODE":"NGA","ADM1_NAME":"Sokoto","ADM1_CODE":"NGA034","ADM2_NAME":"Wurno","ADM2_CODE":"NGA034022","HRname":"Wurno","HRpcode":"NG034022","HRparent":"NG034","Shape_Leng":1.26025788394,"Shape_Area":0.0569740367017,"ADM2_New":"Wurno","id":"NG-SO-WURNO","name":"Wurno","parentId":"NG-SO","stateName":"Sokoto","regionId":"NG-NW","fillColor":"#C4A574"},"geometry":{"type":"Polygon","coordinates":[[[5.351391315000058,13.260539055000038],[5.3886432650000415,13.305198669000049],[5.423897743000055,13.332670212000039],[5.472430229000054,13.339995384000076],[5.496476173000076,13.360856056000046],[5.50951623900005,13.353731155000048],[5.522336006000046,13.333585739000057],[5.553470135000055,13.316187859000081],[5.621689796000055,13.307488441000089],[5.721044064000068,13.320765495000046],[5.74393653900006,13.319849968000085],[5.7979631420000715,13.300620079000055],[5.80986738200005,13.281390190000081],[5.807578087000081,13.260329247000072],[5.77640533400006,13.234380722000083],[5.756936073000077,13.231135368000082],[5.739320755000051,13.234844208000084],[5.698991776000071,13.266366005000066],[5.684621811000056,13.26775646200008],[5.6343259810000745,13.256630898000083],[5.613929749000079,13.247360229000037],[5.520755291000057,13.178753853000046],[5.48923397100009,13.16113948800006],[5.429435253000065,13.13332557700005],[5.351415634000091,13.113072395000074],[5.336261272000058,13.124054909000051],[5.329308033000075,13.135643959000049],[5.3098387720000915,13.216403008000043],[5.3098387720000915,13.227890968000054],[5.325135708000062,13.240870476000055],[5.349093914000093,13.24853515600006],[5.354527473000076,13.258238792000043],[5.351391315000058,13.260539055000038]]]}},{"type":"Feature","properties":{"CNTRY_NAME":"Nigeria","CNTRY_CODE":"NGA","ADM1_NAME":"Sokoto","ADM1_CODE":"NGA034","ADM2_NAME":"Yabo","ADM2_CODE":"NGA034023","HRname":"Yabo","HRpcode":"NG034023","HRparent":"NG034","Shape_Leng":1.19228837353,"Shape_Area":0.0654555131577,"ADM2_New":"Yabo","id":"NG-SO-YABO","name":"Yabo","parentId":"NG-SO","stateName":"Sokoto","regionId":"NG-NW","fillColor":"#5B8FA8"},"geometry":{"type":"Polygon","coordinates":[[[4.970117092000066,12.949198723000052],[5.006364346000055,12.949098587000037],[5.028610229000037,12.93950271600005],[5.050855637000041,12.926416397000082],[5.087932110000054,12.891085625000073],[5.088804245000063,12.861424446000058],[5.080516815000067,12.84572124500005],[5.068976879000047,12.800733566000076],[5.054345131000048,12.793814659000077],[5.045185566000043,12.772005081000088],[5.049547195000059,12.727950096000086],[5.067116261000081,12.711435318000042],[5.080786228000079,12.678993225000056],[5.073376179000093,12.662151337000068],[5.05586147300005,12.654741287000093],[5.034978390000049,12.652047157000084],[5.018136978000086,12.658783913000036],[4.982433796000066,12.656762123000078],[4.950772285000085,12.631163597000068],[4.9372997280000845,12.610954285000048],[4.876266956000052,12.578037262000066],[4.886684895000087,12.667330742000047],[4.862128735000056,12.703792572000054],[4.807659626000088,12.750076294000053],[4.81399250000004,12.758543015000043],[4.816334248000089,12.774154663000047],[4.813211918000093,12.78820419300007],[4.7994151120000765,12.809348106000073],[4.789359570000045,12.843104362000076],[4.774092674000087,12.857062340000084],[4.798301220000042,12.868403435000062],[4.909965992000082,12.879307747000041],[4.942244530000039,12.893266678000089],[4.957947254000089,12.917256355000063],[4.963181496000061,12.94211959800009],[4.970117092000066,12.949198723000052]]]}},{"type":"Feature","properties":{"CNTRY_NAME":"Nigeria","CNTRY_CODE":"NGA","ADM1_NAME":"Sokoto","ADM1_CODE":"NGA034","ADM2_NAME":"Gudu","ADM2_CODE":"NGA034007","HRname":"Gudu","HRpcode":"NG034007","HRparent":"NG034","Shape_Leng":2.32805753406,"Shape_Area":0.279147424815,"ADM2_New":"Gudu","id":"NG-SO-GUDU","name":"Gudu","parentId":"NG-SO","stateName":"Sokoto","regionId":"NG-NW","fillColor":"#8FAF6E"},"geometry":{"type":"Polygon","coordinates":[[[4.720144749000042,13.302420616000063],[4.714552879000053,13.268390656000065],[4.71174192400008,13.16072368600004],[4.708420277000073,13.15612506900004],[4.696907997000039,13.16990089400008],[4.6703686710000625,13.165997505000064],[4.654757500000073,13.147264481000036],[4.629779339000038,13.098869324000077],[4.618851662000054,13.091844559000037],[4.602459431000057,13.094965935000062],[4.552503586000057,13.11526107800006],[4.526744843000074,13.140238762000081],[4.504108429000041,13.14179992700008],[4.426052094000056,13.162875175000067],[4.365168095000058,13.173803329000066],[4.355020523000064,13.183950424000045],[4.345653534000064,13.213612556000044],[4.315211773000044,13.229223251000064],[4.287891865000063,13.230004311000073],[4.266816616000085,13.251079559000061],[4.232471943000064,13.269812584000078],[4.212957859000085,13.267471313000044],[4.184076786000048,13.25185966500004],[4.152073860000087,13.25264072400006],[4.134191007000084,13.260656968000092],[4.133817881000084,13.47246834200007],[4.231359105000081,13.472828938000077],[4.463794097000061,13.677650980000067],[4.499858591000077,13.685484661000089],[4.539834931000087,13.704561668000053],[4.567410000000052,13.724330000000066],[4.824099003000072,13.773689471000068],[4.804844379000087,13.724209785000085],[4.792630672000087,13.66532421100004],[4.7658052440000915,13.575469017000046],[4.763624191000076,13.455952644000092],[4.751846790000059,13.434578896000062],[4.735489845000075,13.374384880000036],[4.718042374000049,13.335563660000048],[4.720144749000042,13.302420616000063]]]}},{"type":"Feature","properties":{"CNTRY_NAME":"Nigeria","CNTRY_CODE":"NGA","ADM1_NAME":"Sokoto","ADM1_CODE":"NGA034","ADM2_NAME":"Tangaza","ADM2_CODE":"NGA034019","HRname":"Tangaza","HRpcode":"NG034019","HRparent":"NG034","Shape_Leng":1.87756361178,"Shape_Area":0.204570914958,"ADM2_New":"Tangaza","id":"NG-SO-TANGAZA","name":"Tangaza","parentId":"NG-SO","stateName":"Sokoto","regionId":"NG-NW","fillColor":"#8AAB76"},"geometry":{"type":"Polygon","coordinates":[[[5.170878600000037,13.739590186000044],[5.169499874000053,13.705453873000067],[5.160776138000074,13.675792694000052],[5.169499874000053,13.569361687000082],[5.183894157000054,13.513965607000046],[5.179968357000064,13.474272728000074],[5.147036076000063,13.348213196000074],[5.154451370000061,13.289763451000056],[5.106688023000061,13.190312386000073],[5.0678672790000405,13.169375420000051],[5.037770271000056,13.166757584000038],[5.00461959800009,13.179843903000062],[4.971468925000067,13.200780869000084],[4.941371918000073,13.23393154100006],[4.914764404000039,13.279294968000045],[4.8960080150000636,13.293252945000063],[4.848027229000081,13.297615051000037],[4.811387062000051,13.292381287000069],[4.720144749000042,13.302420616000063],[4.718042374000049,13.335563660000048],[4.735489845000075,13.374384880000036],[4.751846790000059,13.434578896000062],[4.763624191000076,13.455952644000092],[4.7658052440000915,13.575469017000046],[4.792630672000087,13.66532421100004],[4.804844379000087,13.724209785000085],[4.824082644000043,13.773386149000089],[4.870760000000075,13.782480000000078],[4.909520000000043,13.748610000000042],[4.987079999000059,13.742910000000052],[5.000189996000074,13.732395998000072],[5.080601302000048,13.747299818000045],[5.170878600000037,13.739590186000044]]]}},{"type":"Feature","properties":{"CNTRY_NAME":"Nigeria","CNTRY_CODE":"NGA","ADM1_NAME":"Sokoto","ADM1_CODE":"NGA034","ADM2_NAME":"Gada","ADM2_CODE":"NGA034004","HRname":"Gada","HRpcode":"NG034004","HRparent":"NG034","Shape_Leng":1.71572038137,"Shape_Area":0.120890758105,"ADM2_New":"Gada","id":"NG-SO-GADA","name":"Gada","parentId":"NG-SO","stateName":"Sokoto","regionId":"NG-NW","fillColor":"#A8BF7A"},"geometry":{"type":"Polygon","coordinates":[[[5.934708595000075,13.598733902000049],[5.919411659000048,13.584827423000092],[5.915075302000048,13.573114395000061],[5.858222485000056,13.57138443000008],[5.848951340000042,13.579728127000067],[5.803523064000046,13.589925766000079],[5.754386425000064,13.454105377000076],[5.732776165000075,13.44800949100005],[5.724719048000054,13.450396538000064],[5.708958149000068,13.46569347400009],[5.6936607360000835,13.525491714000054],[5.6931972500000825,13.575092316000053],[5.689025402000084,13.58343601200005],[5.6612119670000425,13.591780663000065],[5.62839460400005,13.591071129000056],[5.574991226000066,13.569529533000036],[5.564329624000038,13.574628830000051],[5.541615486000069,13.605223656000078],[5.527245045000086,13.654823303000057],[5.517742157000043,13.666875839000056],[5.508934975000045,13.70627784700008],[5.512643337000043,13.772102356000062],[5.529794693000042,13.808259964000058],[5.536284447000071,13.847661972000083],[5.531880856000043,13.880574226000078],[5.523737705000087,13.900613168000064],[5.551250461000052,13.895888373000048],[5.61918425600004,13.860991483000078],[5.770551734000037,13.805191886000046],[5.820594231000086,13.797043373000065],[6.071530970000083,13.718647563000047],[6.003777981000042,13.673365593000085],[5.984308720000058,13.649260521000087],[5.976428509000073,13.629327774000046],[5.934708595000075,13.598733902000049]]]}},{"type":"Feature","properties":{"CNTRY_NAME":"Nigeria","CNTRY_CODE":"NGA","ADM1_NAME":"Sokoto","ADM1_CODE":"NGA034","ADM2_NAME":"Sabon Birni","ADM2_CODE":"NGA034013","HRname":"Sabon Birni","HRpcode":"NG034013","HRparent":"NG034","Shape_Leng":1.90691733045,"Shape_Area":0.214084817688,"ADM2_New":"Sabon Birni","id":"NG-SO-SABON-BIRNI","name":"Sabon Birni","parentId":"NG-SO","stateName":"Sokoto","regionId":"NG-NW","fillColor":"#94B86A"},"geometry":{"type":"Polygon","coordinates":[[[6.675531720000038,13.357635345000062],[6.6584353450000435,13.350214005000055],[6.62595510500006,13.324070930000062],[6.606150150000076,13.317733765000071],[6.5974359510000795,13.305850983000084],[6.546735287000047,13.295552254000086],[6.5142555240000775,13.296344757000043],[6.4738531110000395,13.29000663800008],[6.362945557000046,13.289215088000049],[6.307491779000088,13.314564705000066],[6.229856491000078,13.309020042000043],[6.197376728000052,13.314564705000066],[6.18232488600006,13.324070930000062],[6.156287193000082,13.319674492000047],[6.123374939000087,13.326164246000076],[6.06496715500009,13.345170021000058],[6.0058641430000534,13.397551537000083],[5.9817595480000705,13.449933052000063],[5.9233517650000636,13.53615379300004],[5.915934563000064,13.577409744000079],[5.924510479000048,13.59038925200008],[5.976428509000073,13.629327774000046],[5.984308720000058,13.649260521000087],[6.003777981000042,13.673365593000085],[6.071530970000083,13.718647563000047],[6.1406004890000645,13.685001326000076],[6.216594225000051,13.714141115000075],[6.265570319000062,13.717392703000087],[6.414376166000068,13.63935768400006],[6.498594658000059,13.554998612000077],[6.5260361070000386,13.502475909000054],[6.675531720000038,13.357635345000062]]]}},{"type":"Feature","properties":{"CNTRY_NAME":"Nigeria","CNTRY_CODE":"NGA","ADM1_NAME":"Sokoto","ADM1_CODE":"NGA034","ADM2_NAME":"Isa","ADM2_CODE":"NGA034009","HRname":"Isa","HRpcode":"NG034009","HRparent":"NG034","Shape_Leng":2.39222446255,"Shape_Area":0.179808349217,"ADM2_New":"Isa","id":"NG-SO-ISA","name":"Isa","parentId":"NG-SO","stateName":"Sokoto","regionId":"NG-NW","fillColor":"#688EB5"},"geometry":{"type":"Polygon","coordinates":[[[6.675531720000038,13.357635345000062],[6.791398625000056,13.160122259000048],[6.742070675000093,13.11702346800007],[6.697526932000073,13.099130630000047],[6.682679176000079,13.083901405000063],[6.622907162000047,13.066769600000043],[6.60729789700008,13.066769600000043],[6.584836006000046,13.07514572100007],[6.53534317000009,13.075906754000073],[6.502601624000079,13.081617355000049],[6.478997231000051,13.089612007000085],[6.421319008000069,13.123496056000079],[6.406090736000067,13.125399590000086],[6.394288540000048,13.138343811000084],[6.3714456560000485,13.149765015000071],[6.2895922660000565,13.158902168000054],[6.270175934000065,13.15623760200009],[6.261800289000064,13.139486313000077],[6.257699966000075,13.101099014000056],[6.26183414500008,13.090074539000057],[6.2542548180000495,13.031505585000048],[6.245296955000072,13.028059959000075],[6.1887955670000565,13.065958023000064],[6.1515874860000395,13.07491493200007],[6.131605148000062,13.072158813000044],[6.101976395000065,13.059756279000055],[6.0723476410000785,13.039773941000078],[6.027902603000086,13.021341324000048],[6.020317554000087,13.008504868000045],[6.0136342050000735,13.041473389000089],[6.023093700000061,13.08246517200007],[6.034655571000087,13.107165337000083],[6.0194153790000655,13.131340027000078],[5.978949070000056,13.160244942000077],[5.934278488000075,13.223309517000075],[5.928497314000083,13.245381355000063],[5.96298551600006,13.325700760000075],[5.995434284000055,13.379472733000057],[6.0040097240000705,13.403577805000054],[6.0058641430000534,13.397551537000083],[6.06496715500009,13.345170021000058],[6.105760098000076,13.331727028000046],[6.156287193000082,13.319674492000047],[6.18232488600006,13.324070930000062],[6.197376728000052,13.314564705000066],[6.229856491000078,13.309020042000043],[6.307491779000088,13.314564705000066],[6.362945557000046,13.289215088000049],[6.4738531110000395,13.29000663800008],[6.5142555240000775,13.296344757000043],[6.546735287000047,13.295552254000086],[6.5974359510000795,13.305850983000084],[6.606150150000076,13.317733765000071],[6.62595510500006,13.324070930000062],[6.6584353450000435,13.350214005000055],[6.675531720000038,13.357635345000062]]]}}]}