{"type":"FeatureCollection","features":[{"type":"Feature","properties":{"CNTRY_NAME":"Nigeria","CNTRY_CODE":"NGA","ADM1_NAME":"Taraba","ADM1_CODE":"NGA035","ADM2_NAME":"Ardo-Kola","ADM2_CODE":"NGA035001","HRname":"Ardo-Kola","HRpcode":"NG035001","HRparent":"NG035","Shape_Leng":1.81734776876,"Shape_Area":0.185597618772,"ADM2_New":"Ardo-Kola","id":"NG-TA-ARDO-KOLA","name":"Ardo-Kola","parentId":"NG-TA","stateName":"Taraba","regionId":"NG-NE","fillColor":"#6BA368"},"geometry":{"type":"Polygon","coordinates":[[[11.060585976000084,9.123277664000057],[11.069956779000051,9.106398582000054],[11.126067162000083,9.04317855800008],[11.21834659600006,9.015663147000055],[11.268807411000068,8.923301697000056],[11.28988647500006,8.912139893000074],[11.311796188000073,8.883712769000056],[11.361376762000077,8.849611282000069],[11.392076492000058,8.816390038000065],[11.43945694000007,8.792570114000057],[11.458496094000054,8.78823566400007],[11.47765636400004,8.745844841000064],[11.486526489000084,8.739324570000065],[11.517806053000072,8.694018364000044],[11.531097412000065,8.66693401300006],[11.405896187000053,8.63535118100009],[11.234346390000042,8.570540428000072],[11.203335762000052,8.574336052000092],[11.164835930000038,8.591635704000055],[11.097517014000061,8.638779640000052],[11.071636200000057,8.642806053000072],[11.026926041000081,8.682318687000077],[11.021306038000091,8.692445755000051],[10.995096207000074,8.70337677000009],[10.962526321000041,8.73997402200007],[10.887536049000062,8.804075241000078],[10.882077217000074,8.81075000800007],[10.899466515000086,8.840944290000039],[10.966196060000073,9.020417213000087],[11.014476776000038,9.084872246000089],[11.060585976000084,9.123277664000057]]]}},{"type":"Feature","properties":{"CNTRY_NAME":"Nigeria","CNTRY_CODE":"NGA","ADM1_NAME":"Taraba","ADM1_CODE":"NGA035","ADM2_NAME":"Bali","ADM2_CODE":"NGA035002","HRname":"Bali","HRpcode":"NG035002","HRparent":"NG035","Shape_Leng":4.26350256585,"Shape_Area":0.74937335978,"ADM2_New":"Bali","id":"NG-TA-BALI","name":"Bali","parentId":"NG-TA","stateName":"Taraba","regionId":"NG-NE","fillColor":"#C4A574"},"geometry":{"type":"Polygon","coordinates":[[[11.531097412000065,8.66693401300006],[11.607645988000058,8.677298546000088],[11.636946678000072,8.673425674000043],[11.675367355000049,8.657853127000067],[11.710777283000084,8.63349437700009],[11.779806137000037,8.609372139000072],[11.779387474000089,8.597758293000084],[11.796403885000075,8.546234131000062],[11.780158043000085,8.514232635000042],[11.730189323000047,8.470869064000055],[11.689617157000043,8.457231522000086],[11.651279449000072,8.426426888000037],[11.628797531000089,8.384893417000058],[11.60116767900007,8.352170944000079],[11.546277046000057,8.245888710000088],[11.504372597000042,8.194497108000064],[11.362566948000051,8.064387321000083],[11.34625721000009,8.041541100000074],[11.354290009000067,8.026648521000084],[11.342720985000085,8.027819633000092],[11.341521263000061,8.018668175000073],[11.313987732000044,8.024029732000088],[11.296875954000086,8.016260147000082],[11.223406792000048,8.012955666000039],[11.17239666000006,8.005471230000069],[11.127176285000075,7.984405518000074],[11.07781601000005,7.942392826000059],[11.033837318000053,7.895431519000056],[11.003107071000045,7.857717514000058],[10.966706276000082,7.795526505000055],[10.918235779000042,7.770854473000043],[10.896185875000072,7.766402721000077],[10.881306648000077,7.755352497000047],[10.887045860000057,7.707167625000068],[10.878906250000057,7.698151588000087],[10.831896782000058,7.678735733000053],[10.771157265000056,7.624100685000087],[10.755395889000056,7.617162704000066],[10.733077049000087,7.632767677000061],[10.704106331000048,7.629734516000042],[10.684266090000051,7.615001678000056],[10.615205765000042,7.5911335950000876],[10.59373664900005,7.574597836000066],[10.561776161000068,7.562778473000037],[10.505825996000056,7.515279770000063],[10.43977642100009,7.500196934000087],[10.413476944000081,7.512855530000081],[10.38823700000006,7.539401531000067],[10.375197411000045,7.561306477000073],[10.359246254000084,7.57269954700007],[10.31563663500009,7.660703659000092],[10.315226555000038,7.669335842000066],[10.32660579700007,7.68195772200005],[10.356786728000088,7.695426941000051],[10.361576080000077,7.702562809000085],[10.376346588000047,7.75166988400008],[10.37565612800006,7.801811695000083],[10.360246658000051,7.83745050400006],[10.357436180000093,7.896147728000074],[10.340395927000088,7.929982662000043],[10.34240722700008,7.959485531000041],[10.362666130000036,7.965586662000078],[10.422186852000038,8.009786606000091],[10.453085899000087,8.044048309000061],[10.514316559000065,8.08832454700007],[10.554797173000054,8.136858940000081],[10.572927475000085,8.151515007000057],[10.637416840000071,8.199398994000092],[10.682637215000057,8.220463753000047],[10.76379585300009,8.277748108000083],[10.796147346000055,8.317265511000073],[10.862506866000047,8.361773491000065],[10.919166565000069,8.43006515500008],[10.97455596900005,8.453318596000088],[11.012777328000084,8.477529526000069],[11.071396828000047,8.540719032000084],[11.088445663000073,8.57781887100009],[11.095666885000071,8.605825424000045],[11.110397339000087,8.631417274000057],[11.148966789000042,8.60130214700007],[11.180637360000048,8.583695412000054],[11.203335762000052,8.574336052000092],[11.234346390000042,8.570540428000072],[11.405896187000053,8.63535118100009],[11.531097412000065,8.66693401300006]]]}},{"type":"Feature","properties":{"CNTRY_NAME":"Nigeria","CNTRY_CODE":"NGA","ADM1_NAME":"Taraba","ADM1_CODE":"NGA035","ADM2_NAME":"Donga","ADM2_CODE":"NGA035003","HRname":"Donga","HRpcode":"NG035003","HRparent":"NG035","Shape_Leng":3.14534926494,"Shape_Area":0.255677599471,"ADM2_New":"Donga","id":"NG-TA-DONGA","name":"Donga","parentId":"NG-TA","stateName":"Taraba","regionId":"NG-NE","fillColor":"#5B8FA8"},"geometry":{"type":"Polygon","coordinates":[[[10.329696655000077,8.081750870000064],[10.335017204000053,8.042197227000088],[10.325296402000049,7.995047569000064],[10.327587128000062,7.983039856000062],[10.34036636400009,7.966314793000038],[10.340395927000088,7.929982662000043],[10.359556198000064,7.887592793000067],[10.360246658000051,7.83745050400006],[10.37565612800006,7.801811695000083],[10.376346588000047,7.75166988400008],[10.361576080000077,7.702562809000085],[10.356786728000088,7.695426941000051],[10.32660579700007,7.68195772200005],[10.315226555000038,7.669335842000066],[10.31563663500009,7.660703659000092],[10.359246254000084,7.57269954700007],[10.375197411000045,7.561306477000073],[10.38823700000006,7.539401531000067],[10.413476944000081,7.512855530000081],[10.43977642100009,7.500196934000087],[10.450027466000051,7.500658512000086],[10.505825996000056,7.515279770000063],[10.561776161000068,7.562778473000037],[10.59373664900005,7.574597836000066],[10.615205765000042,7.5911335950000876],[10.684266090000051,7.615001678000056],[10.704106331000048,7.629734516000042],[10.733077049000087,7.632767677000061],[10.755395889000056,7.617162704000066],[10.606837273000053,7.4800305370000615],[10.562106133000043,7.448606491000078],[10.539675713000065,7.4164566990000935],[10.503576279000072,7.383690834000049],[10.481066704000057,7.353265762000092],[10.43900203700008,7.33754777900009],[10.420178413000087,7.318017960000077],[10.40268135100007,7.256779671000061],[10.393933296000057,7.263937473000055],[10.38836574600009,7.262346745000059],[10.38279914900005,7.250417233000064],[10.358144760000073,7.248826504000078],[10.342238426000051,7.256779671000061],[10.333490372000085,7.255984306000073],[10.323150635000047,7.24723625200005],[10.28895282700006,7.259165764000045],[10.267479897000044,7.278253078000091],[10.23169136000007,7.345853806000093],[10.229305267000086,7.3617596630000435],[10.23884868600004,7.386414051000088],[10.253164291000076,7.398343563000083],[10.244416237000053,7.411068439000076],[10.242504120000092,7.422845364000068],[10.246915817000058,7.434061050000082],[10.227097511000068,7.448951244000057],[10.15222549400005,7.495493412000087],[10.067234993000056,7.558223724000072],[10.016646385000058,7.586554050000075],[9.97819805100005,7.597683430000075],[9.90433788300004,7.6078014370000915],[9.870949745000075,7.597683430000075],[9.839988708000078,7.579274178000048],[9.797699928000043,7.61468601200005],[9.833513260000075,7.647260666000079],[9.864878654000051,7.6877322200000435],[9.921538353000074,7.725168228000086],[9.948856354000043,7.731238842000039],[10.027775764000069,7.820275784000046],[10.072294235000072,7.857711792000089],[10.11175346400006,7.881994724000037],[10.14918994900006,7.921453953000082],[10.205341339000086,8.004860878000045],[10.238226891000068,8.041855812000051],[10.27262687700005,8.06715107000008],[10.329696655000077,8.081750870000064]]]}},{"type":"Feature","properties":{"CNTRY_NAME":"Nigeria","CNTRY_CODE":"NGA","ADM1_NAME":"Taraba","ADM1_CODE":"NGA035","ADM2_NAME":"Gassol","ADM2_CODE":"NGA035005","HRname":"Gassol","HRpcode":"NG035005","HRparent":"NG035","Shape_Leng":3.14145966554,"Shape_Area":0.455183777322,"ADM2_New":"Gassol","id":"NG-TA-GASSOL","name":"Gassol","parentId":"NG-TA","stateName":"Taraba","regionId":"NG-NE","fillColor":"#B8956B"},"geometry":{"type":"Polygon","coordinates":[[[10.41248703000008,8.677933693000057],[10.459716797000056,8.691405296000084],[10.509737015000042,8.719606400000089],[10.52852726000009,8.720452309000052],[10.589377403000071,8.737030029000039],[10.660176277000062,8.724642754000058],[10.76456737500007,8.72587966900005],[10.831347466000068,8.761754990000043],[10.882077217000074,8.81075000800007],[10.962526321000041,8.73997402200007],[10.995096207000074,8.70337677000009],[11.021306038000091,8.692445755000051],[11.026926041000081,8.682318687000077],[11.071636200000057,8.642806053000072],[11.097517014000061,8.638779640000052],[11.110397339000087,8.631417274000057],[11.095666885000071,8.605825424000045],[11.088445663000073,8.57781887100009],[11.071396828000047,8.540719032000084],[11.012777328000084,8.477529526000069],[10.97455596900005,8.453318596000088],[10.919166565000069,8.43006515500008],[10.862506866000047,8.361773491000065],[10.796147346000055,8.317265511000073],[10.76379585300009,8.277748108000083],[10.682637215000057,8.220463753000047],[10.637416840000071,8.199398994000092],[10.572927475000085,8.151515007000057],[10.554797173000054,8.136858940000081],[10.514316559000065,8.08832454700007],[10.453085899000087,8.044048309000061],[10.422186852000038,8.009786606000091],[10.362666130000036,7.965586662000078],[10.34240722700008,7.959485531000041],[10.327587128000062,7.983039856000062],[10.325296402000049,7.995047569000064],[10.335017204000053,8.042197227000088],[10.329696655000077,8.081750870000064],[10.331310272000053,8.158211708000067],[10.32422828700004,8.188565254000082],[10.295898437000062,8.238142014000061],[10.274650574000077,8.25028324100009],[10.246320724000043,8.257366180000076],[10.207873344000063,8.258378029000085],[10.146154404000072,8.238142014000061],[10.060153008000043,8.234094620000064],[10.032835007000074,8.237130165000053],[9.97326660200008,8.29608726500004],[10.05768680600005,8.392797470000062],[10.084156990000054,8.453058243000044],[10.105046272000038,8.481679916000076],[10.147896767000077,8.516479492000087],[10.18862628900007,8.55983352700008],[10.231396675000042,8.596360207000089],[10.240406990000054,8.622716904000072],[10.261205673000063,8.653065681000044],[10.309685707000085,8.677736282000069],[10.41248703000008,8.677933693000057]]]}},{"type":"Feature","properties":{"CNTRY_NAME":"Nigeria","CNTRY_CODE":"NGA","ADM1_NAME":"Taraba","ADM1_CODE":"NGA035","ADM2_NAME":"Ibi","ADM2_CODE":"NGA035006","HRname":"Ibi","HRpcode":"NG035006","HRparent":"NG035","Shape_Leng":3.28385299842,"Shape_Area":0.219315948083,"ADM2_New":"Ibi","id":"NG-TA-IBI","name":"Ibi","parentId":"NG-TA","stateName":"Taraba","regionId":"NG-NE","fillColor":"#6AADA3"},"geometry":{"type":"Polygon","coordinates":[[[10.245595932000072,8.804408073000047],[10.27624607100006,8.767928123000047],[10.295296669000038,8.763593674000049],[10.313457489000086,8.741919518000088],[10.333876610000061,8.744568825000044],[10.35462665600005,8.740311623000082],[10.37612628900007,8.720517159000053],[10.387617111000054,8.69508266400004],[10.41248703000008,8.677933693000057],[10.309685707000085,8.677736282000069],[10.261205673000063,8.653065681000044],[10.240406990000054,8.622716904000072],[10.231396675000042,8.596360207000089],[10.18862628900007,8.55983352700008],[10.147896767000077,8.516479492000087],[10.105046272000038,8.481679916000076],[10.084156990000054,8.453058243000044],[10.05768680600005,8.392797470000062],[10.01264572100007,8.33738517800009],[9.97326660200008,8.29608726500004],[9.938738823000051,8.282660484000075],[9.899279594000063,8.256354332000058],[9.835536957000045,8.11571598100005],[9.804171562000079,8.09143352500007],[9.765724182000042,8.082327843000087],[9.725253105000093,8.083339691000049],[9.633113861000083,8.106392860000085],[9.563367844000084,8.101551056000062],[9.537060738000037,8.092445374000079],[9.523907661000067,8.077268600000082],[9.491530418000082,8.070186615000068],[9.434870720000049,8.039833069000053],[9.38428211200005,8.019597054000087],[9.33551788300008,7.9855079650000675],[9.34602642100009,8.001879692000045],[9.404143333000093,8.045594215000051],[9.415376663000075,8.061924934000047],[9.414026260000071,8.071104050000088],[9.39503669700008,8.093748093000045],[9.386946678000072,8.148825645000045],[9.40627670300006,8.165313721000075],[9.411823273000039,8.176929474000076],[9.39046955100008,8.20182800300006],[9.329566956000065,8.236310005000064],[9.323423386000059,8.253451347000066],[9.325519562000068,8.26384925800005],[9.342466354000067,8.283742905000054],[9.36327648200006,8.340537071000085],[9.376966476000064,8.350010872000041],[9.389717102000077,8.34910965000006],[9.48320674900009,8.306058884000038],[9.518010139000069,8.302137375000086],[9.546886444000052,8.305003166000063],[9.609673500000042,8.291272163000087],[9.617529869000066,8.302932739000084],[9.611920357000088,8.350004196000043],[9.621475220000093,8.388993263000089],[9.711062431000073,8.373270988000058],[9.76132392900007,8.369710922000081],[9.86944675400008,8.431289673000038],[9.997756958000082,8.540867805000062],[10.05182743100005,8.591742516000068],[10.116447449000077,8.672503471000084],[10.177096367000047,8.728865623000047],[10.188146591000077,8.748394012000063],[10.245595932000072,8.804408073000047]]]}},{"type":"Feature","properties":{"CNTRY_NAME":"Nigeria","CNTRY_CODE":"NGA","ADM1_NAME":"Taraba","ADM1_CODE":"NGA035","ADM2_NAME":"Jalingo","ADM2_CODE":"NGA035007","HRname":"Jalingo","HRpcode":"NG035007","HRparent":"NG035","Shape_Leng":0.718880280468,"Shape_Area":0.0156535796137,"ADM2_New":"Jalingo","id":"NG-TA-JALINGO","name":"Jalingo","parentId":"NG-TA","stateName":"Taraba","regionId":"NG-NE","fillColor":"#8FAF6E"},"geometry":{"type":"Polygon","coordinates":[[[11.21834659600006,9.015663147000055],[11.272457123000038,9.025542259000076],[11.289795876000085,9.021132469000065],[11.301205635000088,8.997424126000055],[11.320495605000076,8.987911224000072],[11.343646049000085,8.93358898200006],[11.375726700000087,8.907350540000039],[11.396346092000044,8.870215416000065],[11.439756393000039,8.821994781000058],[11.458496094000054,8.78823566400007],[11.43945694000007,8.792570114000057],[11.392076492000058,8.816390038000065],[11.361376762000077,8.849611282000069],[11.311796188000073,8.883712769000056],[11.28988647500006,8.912139893000074],[11.268807411000068,8.923301697000056],[11.21834659600006,9.015663147000055]]]}},{"type":"Feature","properties":{"CNTRY_NAME":"Nigeria","CNTRY_CODE":"NGA","ADM1_NAME":"Taraba","ADM1_CODE":"NGA035","ADM2_NAME":"Karin-Lamido","ADM2_CODE":"NGA035008","HRname":"Karin-Lamido","HRpcode":"NG035008","HRparent":"NG035","Shape_Leng":3.89024932907,"Shape_Area":0.544009955881,"ADM2_New":"Karim-Lamido","id":"NG-TA-KARIN-LAMIDO","name":"Karin-Lamido","parentId":"NG-TA","stateName":"Taraba","regionId":"NG-NE","fillColor":"#D4C4A0"},"geometry":{"type":"Polygon","coordinates":[[[10.974893570000063,9.59289073900004],[10.978140831000076,9.574613571000043],[10.98471164700004,9.56548500100007],[11.020428658000071,9.54949283600007],[11.16134738900007,9.551022530000068],[11.227089882000087,9.569368362000091],[11.278014183000039,9.54734897600008],[11.405684471000086,9.54450988800005],[11.42764186900007,9.548500061000084],[11.44161605800008,9.533151627000052],[11.45148658800008,9.505914688000075],[11.469977379000056,9.477334023000083],[11.525925636000068,9.407815933000052],[11.434516907000045,9.359821320000037],[11.38670635200009,9.321338654000044],[11.31496715500009,9.281780243000071],[11.260186195000074,9.210111618000042],[11.208216667000045,9.187010765000082],[11.174206734000052,9.182022095000093],[11.130355835000046,9.16793918600007],[11.082386971000062,9.132909775000087],[11.057246208000038,9.121397972000068],[11.014476776000038,9.084872246000089],[10.956775665000066,9.002691269000081],[10.899466515000086,8.840944290000039],[10.882077217000074,8.81075000800007],[10.84126567800007,8.769122124000091],[10.776275635000047,8.731596947000071],[10.76456737500007,8.72587966900005],[10.703056335000042,8.72311306000006],[10.660176277000062,8.724642754000058],[10.589377403000071,8.737030029000039],[10.52852726000009,8.720452309000052],[10.509737015000042,8.719606400000089],[10.459716797000056,8.691405296000084],[10.41248703000008,8.677933693000057],[10.387617111000054,8.69508266400004],[10.37612628900007,8.720517159000053],[10.35462665600005,8.740311623000082],[10.333876610000061,8.744568825000044],[10.313457489000086,8.741919518000088],[10.295296669000038,8.763593674000049],[10.27624607100006,8.767928123000047],[10.245595932000072,8.804408073000047],[10.261806488000047,8.819181442000058],[10.325076103000072,8.856629372000043],[10.341096878000087,8.87984085100004],[10.406956673000082,8.934706688000063],[10.463807106000047,8.963215828000045],[10.566246986000067,8.969553947000065],[10.596746445000065,8.976116180000076],[10.627225876000068,9.019009590000053],[10.64003658300004,9.073219299000073],[10.637916565000069,9.081773758000054],[10.622525215000053,9.094029427000066],[10.636119843000074,9.118977547000043],[10.635760307000055,9.12668418900006],[10.613539696000089,9.148863792000043],[10.610369682000055,9.175749779000057],[10.614236832000074,9.182785034000062],[10.59990692100007,9.195981026000084],[10.596610069000064,9.22340107000008],[10.580149651000056,9.245836258000054],[10.580260277000093,9.326922417000048],[10.559869766000077,9.351113319000092],[10.566579819000083,9.372647285000085],[10.560009956000044,9.389730453000084],[10.578350067000088,9.409849167000061],[10.57894039200005,9.43883323700004],[10.566149712000083,9.46529197700005],[10.518486023000037,9.503770828000086],[10.516326904000039,9.510560989000055],[10.52112674700004,9.517697334000047],[10.589106560000062,9.564007759000049],[10.672446251000054,9.540075302000048],[10.684326172000056,9.542339325000057],[10.731177330000037,9.565208435000045],[10.770366669000055,9.605032921000088],[10.809247017000075,9.615433693000057],[10.838215828000045,9.618465424000078],[10.888006210000071,9.61551475500005],[10.945556641000053,9.593882561000044],[10.974893570000063,9.59289073900004]]]}},{"type":"Feature","properties":{"CNTRY_NAME":"Nigeria","CNTRY_CODE":"NGA","ADM1_NAME":"Taraba","ADM1_CODE":"NGA035","ADM2_NAME":"Lau","ADM2_CODE":"NGA035010","HRname":"Lau","HRpcode":"NG035010","HRparent":"NG035","Shape_Leng":1.67912797687,"Shape_Area":0.136326766834,"ADM2_New":"Lau","id":"NG-TA-LAU","name":"Lau","parentId":"NG-TA","stateName":"Taraba","regionId":"NG-NE","fillColor":"#7CB087"},"geometry":{"type":"Polygon","coordinates":[[[11.525925636000068,9.407815933000052],[11.557318687000077,9.380875587000048],[11.59625625600006,9.379207611000083],[11.62224578900009,9.337124825000046],[11.639060020000045,9.318730354000081],[11.670155525000041,9.25361442600007],[11.700067520000061,9.210051537000083],[11.702615738000077,9.160809517000075],[11.698466301000053,9.14383983600004],[11.629896164000058,9.14196682000005],[11.592636108000079,9.133370399000057],[11.506766319000064,9.06722450300009],[11.448086739000075,9.076695442000073],[11.420836449000092,9.073739052000064],[11.371236801000066,9.036906242000043],[11.347507477000079,8.996046066000076],[11.323996544000067,8.98633861500008],[11.301205635000088,8.997424126000055],[11.289795876000085,9.021132469000065],[11.272457123000038,9.025542259000076],[11.226746559000048,9.014835358000084],[11.20265674600006,9.017211914000086],[11.126067162000083,9.04317855800008],[11.066287041000066,9.111424446000058],[11.060585976000084,9.123277664000057],[11.082386971000062,9.132909775000087],[11.130355835000046,9.16793918600007],[11.174206734000052,9.182022095000093],[11.208216667000045,9.187010765000082],[11.260186195000074,9.210111618000042],[11.31496715500009,9.281780243000071],[11.38670635200009,9.321338654000044],[11.434516907000045,9.359821320000037],[11.525925636000068,9.407815933000052]]]}},{"type":"Feature","properties":{"CNTRY_NAME":"Nigeria","CNTRY_CODE":"NGA","ADM1_NAME":"Taraba","ADM1_CODE":"NGA035","ADM2_NAME":"Wukari","ADM2_CODE":"NGA035014","HRname":"Wukari","HRpcode":"NG035014","HRparent":"NG035","Shape_Leng":3.13212524548,"Shape_Area":0.353297781587,"ADM2_New":"Wukari","id":"NG-TA-WUKARI","name":"Wukari","parentId":"NG-TA","stateName":"Taraba","regionId":"NG-NE","fillColor":"#C2A882"},"geometry":{"type":"Polygon","coordinates":[[[9.97326660200008,8.29608726500004],[10.032835007000074,8.237130165000053],[10.060153008000043,8.234094620000064],[10.146154404000072,8.238142014000061],[10.207873344000063,8.258378029000085],[10.246320724000043,8.257366180000076],[10.274650574000077,8.25028324100009],[10.295898437000062,8.238142014000061],[10.32422828700004,8.188565254000082],[10.331310272000053,8.158211708000067],[10.329696655000077,8.081750870000064],[10.27262687700005,8.06715107000008],[10.238226891000068,8.041855812000051],[10.205341339000086,8.004860878000045],[10.14918994900006,7.921453953000082],[10.11175346400006,7.881994724000037],[10.072294235000072,7.857711792000089],[10.027775764000069,7.820275784000046],[9.950667381000073,7.732790947000069],[9.921538353000074,7.725168228000086],[9.864878654000051,7.6877322200000435],[9.833513260000075,7.647260666000079],[9.797699928000043,7.61468601200005],[9.74721336400006,7.654858112000056],[9.701729774000057,7.7102293970000915],[9.643062592000092,7.7998781200000735],[9.601534843000081,7.829541206000044],[9.561324120000052,7.838769913000078],[9.386640549000049,7.84470272100009],[9.31478977200004,7.8348150250000685],[9.27260208100006,7.822949409000046],[9.225141525000083,7.81833505600008],[9.190204620000088,7.810424805000082],[9.130218506000062,7.788012981000065],[9.120330811000088,7.793286324000064],[9.11571693400009,7.808447361000049],[9.124285698000051,7.82690477400007],[9.149993896000069,7.859863758000074],[9.16251850100008,7.869092464000062],[9.172170639000058,7.886631012000066],[9.181838036000045,7.891685009000071],[9.179125786000043,7.908083439000052],[9.305362701000092,7.969007969000074],[9.358986855000069,7.99834966700007],[9.38428211200005,8.019597054000087],[9.434870720000049,8.039833069000053],[9.491530418000082,8.070186615000068],[9.523907661000067,8.077268600000082],[9.537060738000037,8.092445374000079],[9.563367844000084,8.101551056000062],[9.633113861000083,8.106392860000085],[9.725253105000093,8.083339691000049],[9.765724182000042,8.082327843000087],[9.804171562000079,8.09143352500007],[9.835536957000045,8.11571598100005],[9.899279594000063,8.256354332000058],[9.938738823000051,8.282660484000075],[9.97326660200008,8.29608726500004]]]}},{"type":"Feature","properties":{"CNTRY_NAME":"Nigeria","CNTRY_CODE":"NGA","ADM1_NAME":"Taraba","ADM1_CODE":"NGA035","ADM2_NAME":"Yorro","ADM2_CODE":"NGA035015","HRname":"Yorro","HRpcode":"NG035015","HRparent":"NG035","Shape_Leng":1.82807425482,"Shape_Area":0.104612769954,"ADM2_New":"Yorro","id":"NG-TA-YORRO","name":"Yorro","parentId":"NG-TA","stateName":"Taraba","regionId":"NG-NE","fillColor":"#72A898"},"geometry":{"type":"Polygon","coordinates":[[[11.698466301000053,9.14383983600004],[11.694935799000064,9.106829643000083],[11.710347176000084,9.071190834000049],[11.694087029000059,9.053158760000088],[11.657647133000069,9.027297974000078],[11.630557060000058,9.020889282000041],[11.573627472000055,8.994107246000056],[11.556077003000041,8.967366219000041],[11.558197021000069,8.958810806000088],[11.585145950000083,8.932341576000056],[11.585817337000037,8.91853046400007],[11.627265930000078,8.875411987000064],[11.635207176000051,8.816946030000054],[11.64840698200004,8.791588783000066],[11.662817001000064,8.776665688000037],[11.665105820000065,8.764657974000045],[11.693057060000058,8.717472076000092],[11.732385635000071,8.682909012000039],[11.751676559000089,8.673396111000045],[11.789455414000088,8.643571854000072],[11.779806137000037,8.609372139000072],[11.710777283000084,8.63349437700009],[11.675367355000049,8.657853127000067],[11.636946678000072,8.673425674000043],[11.593986511000082,8.676683426000068],[11.531097412000065,8.66693401300006],[11.517806053000072,8.694018364000044],[11.486526489000084,8.739324570000065],[11.47765636400004,8.745844841000064],[11.439756393000039,8.821994781000058],[11.396346092000044,8.870215416000065],[11.375726700000087,8.907350540000039],[11.343646049000085,8.93358898200006],[11.32133579300006,8.985117912000078],[11.347507477000079,8.996046066000076],[11.371236801000066,9.036906242000043],[11.420836449000092,9.073739052000064],[11.448086739000075,9.076695442000073],[11.506766319000064,9.06722450300009],[11.592636108000079,9.133370399000057],[11.629896164000058,9.14196682000005],[11.698466301000053,9.14383983600004]]]}},{"type":"Feature","properties":{"CNTRY_NAME":"Nigeria","CNTRY_CODE":"NGA","ADM1_NAME":"Taraba","ADM1_CODE":"NGA035","ADM2_NAME":"Zing","ADM2_CODE":"NGA035016","HRname":"Zing","HRpcode":"NG035016","HRparent":"NG035","Shape_Leng":1.18619468673,"Shape_Area":0.0844635692547,"ADM2_New":"Zing","id":"NG-TA-ZING","name":"Zing","parentId":"NG-TA","stateName":"Taraba","regionId":"NG-NE","fillColor":"#D4896A"},"geometry":{"type":"Polygon","coordinates":[[[11.710347176000084,9.071190834000049],[11.729636192000044,9.061677933000055],[11.735177040000053,9.053277016000038],[11.752534866000076,9.04971504200006],[11.76751709000007,9.033712387000037],[11.791758537000078,9.019927025000072],[11.856493950000072,9.002615929000058],[11.880640030000052,8.96823597000008],[11.898962021000045,8.925860405000037],[11.903432846000044,8.891525269000056],[11.89980220800004,8.857208252000078],[11.874137878000056,8.813788414000044],[11.861358643000074,8.803520203000062],[11.830975533000071,8.740660667000043],[11.809861183000066,8.680068016000064],[11.797056198000064,8.664079666000077],[11.789455414000088,8.643571854000072],[11.751676559000089,8.673396111000045],[11.732385635000071,8.682909012000039],[11.693057060000058,8.717472076000092],[11.665105820000065,8.764657974000045],[11.662817001000064,8.776665688000037],[11.64840698200004,8.791588783000066],[11.635207176000051,8.816946030000054],[11.627265930000078,8.875411987000064],[11.585817337000037,8.91853046400007],[11.585145950000083,8.932341576000056],[11.558197021000069,8.958810806000088],[11.556077003000041,8.967366219000041],[11.573627472000055,8.994107246000056],[11.630557060000058,9.020889282000041],[11.657647133000069,9.027297974000078],[11.694087029000059,9.053158760000088],[11.710347176000084,9.071190834000049]]]}},{"type":"Feature","properties":{"CNTRY_NAME":"Nigeria","CNTRY_CODE":"NGA","ADM1_NAME":"Taraba","ADM1_CODE":"NGA035","ADM2_NAME":"Gashaka","ADM2_CODE":"NGA035004","HRname":"Gashaka","HRpcode":"NG035004","HRparent":"NG035","Shape_Leng":3.84796376594,"Shape_Area":0.700131347273,"ADM2_New":"Gashaka","id":"NG-TA-GASHAKA","name":"Gashaka","parentId":"NG-TA","stateName":"Taraba","regionId":"NG-NE","fillColor":"#A8BF7A"},"geometry":{"type":"Polygon","coordinates":[[[11.341521263000061,8.018668175000073],[11.350749016000066,8.011782646000086],[11.354151726000055,7.996901035000064],[11.393233299000087,7.938458920000073],[11.411566734000075,7.898370743000044],[11.472526550000055,7.815851212000041],[11.48981380500004,7.799793720000082],[11.500230789000057,7.799769878000063],[11.51419353500006,7.815756321000038],[11.544662476000042,7.896922112000084],[11.563221931000044,7.906033039000079],[11.578268051000066,7.9059987070000375],[11.636000633000037,7.876118183000074],[11.671657562000064,7.827981949000048],[11.687712669000064,7.795908451000059],[11.747658730000069,7.7442841530000806],[11.757985115000054,7.724809170000071],[11.77159881600005,7.665281773000061],[11.762919426000053,7.540587902000084],[11.77193546300009,7.487935543000049],[11.831790924000074,7.4168601040000794],[11.888101474000052,7.3325987180000425],[11.860588463000056,7.299410355000077],[11.854102132000037,7.277131093000037],[11.844942797000044,7.273928768000076],[11.842223268000055,7.267516330000092],[11.847773793000044,7.253238966000083],[11.881107606000057,7.246929684000065],[11.868310422000093,7.235117446000061],[11.866257284000085,7.220007007000049],[11.856628847000081,7.215610082000069],[11.860256098000036,7.204160326000078],[11.855894203000048,7.19321584700009],[11.865260679000073,7.183654643000068],[11.857238327000061,7.167820494000068],[11.865260678000084,7.156989724000084],[11.86069655600005,7.142341446000046],[11.880207341000073,7.110577767000052],[11.879223771000056,7.09825187000007],[11.868754678000073,7.092042341000081],[11.86747359800006,7.077407322000056],[11.85022127500008,7.080803895000088],[11.846804559000077,7.087567972000045],[11.837228477000053,7.087402492000081],[11.827243550000048,7.067574921000073],[11.803733708000038,7.082345134000093],[11.786895559000072,7.068104263000066],[11.77922665200009,7.046604989000059],[11.773130003000063,7.042338501000074],[11.736174789000074,7.050240264000081],[11.719061319000048,7.0467840590000606],[11.712403885000072,7.0409187440000665],[11.713360340000065,7.032917266000084],[11.686383190000072,7.021533312000088],[11.669231487000047,6.998244325000087],[11.65669640200008,6.99662851100004],[11.65931282300005,6.990698317000067],[11.618927002000078,7.013446808000083],[11.58406734500005,7.062051773000064],[11.533606529000053,7.078812599000059],[11.506186485000057,7.079308510000089],[11.416286469000056,7.061424732000091],[11.335435867000058,7.033565521000071],[11.302637100000084,7.039010525000037],[11.234725952000076,7.09824085200006],[11.210946083000067,7.130042553000067],[11.186276436000071,7.144503593000081],[11.134156227000062,7.195792675000064],[11.130086899000048,7.20944976800007],[11.136636734000092,7.251267910000081],[11.13627624500009,7.2945036890000665],[11.122246742000073,7.337124825000046],[11.115085602000079,7.343723774000068],[11.102626801000042,7.3535437580000576],[11.069826126000066,7.358988762000081],[11.023727417000089,7.3205828670000415],[10.998596191000047,7.309071541000037],[10.983216286000072,7.308379650000063],[10.972636223000052,7.314823627000067],[10.956096649000074,7.338301659000081],[10.928867340000068,7.406280518000074],[10.92042636900004,7.475105762000055],[10.896865845000093,7.5380597110000735],[10.885787010000058,7.554861546000041],[10.789056778000088,7.639627934000089],[10.831896782000058,7.678735733000053],[10.878906250000057,7.698151588000087],[10.887045860000057,7.707167625000068],[10.881306648000077,7.755352497000047],[10.896185875000072,7.766402721000077],[10.918235779000042,7.770854473000043],[10.966706276000082,7.795526505000055],[11.003107071000045,7.857717514000058],[11.033837318000053,7.895431519000056],[11.07781601000005,7.942392826000059],[11.127176285000075,7.984405518000074],[11.17239666000006,8.005471230000069],[11.223406792000048,8.012955666000039],[11.296875954000086,8.016260147000082],[11.313987732000044,8.024029732000088],[11.341521263000061,8.018668175000073]]]}},{"type":"Feature","properties":{"CNTRY_NAME":"Nigeria","CNTRY_CODE":"NGA","ADM1_NAME":"Taraba","ADM1_CODE":"NGA035","ADM2_NAME":"Sardauna","ADM2_CODE":"NGA035011","HRname":"Sardauna","HRpcode":"NG035011","HRparent":"NG035","Shape_Leng":3.30940616741,"Shape_Area":0.378565867294,"ADM2_New":"Sardauna","id":"NG-TA-SARDAUNA","name":"Sardauna","parentId":"NG-TA","stateName":"Taraba","regionId":"NG-NE","fillColor":"#C9B896"},"geometry":{"type":"Polygon","coordinates":[[[11.65931282300005,6.990698317000067],[11.630932559000087,6.989131389000079],[11.620714729000042,6.97318256300008],[11.623411503000057,6.950771037000038],[11.604785114000038,6.935607017000052],[11.607628262000048,6.913678093000044],[11.59856238000009,6.9067508660000385],[11.583886484000061,6.907529448000048],[11.574265996000065,6.900731697000083],[11.56294858800004,6.883647000000053],[11.565922854000064,6.874914568000065],[11.55338018000009,6.859365449000052],[11.556508198000074,6.851491321000083],[11.570413381000037,6.850187886000072],[11.579287933000046,6.842182292000075],[11.578162562000045,6.817229227000041],[11.591159233000042,6.804363393000074],[11.590237501000047,6.798955275000083],[11.575689281000052,6.7909571290000486],[11.569635566000045,6.774892502000057],[11.581037878000075,6.754759246000049],[11.584205145000055,6.734975269000074],[11.57073166400005,6.730934614000091],[11.567783936000069,6.723861791000047],[11.558182900000077,6.723479771000086],[11.546332412000083,6.7009122880000405],[11.552775998000072,6.684495574000039],[11.548113379000085,6.677681375000077],[11.554350110000087,6.666551729000048],[11.532918770000038,6.655852224000057],[11.535135896000043,6.649826319000056],[11.525259600000084,6.645123367000053],[11.518199924000044,6.625019040000041],[11.495443467000086,6.600157993000039],[11.484069462000036,6.598193371000093],[11.461665107000044,6.61111937700008],[11.446936250000078,6.599965438000083],[11.441672125000082,6.60288079500009],[11.432600685000068,6.599713049000059],[11.428334504000077,6.603619397000045],[11.42229547100004,6.5972854180000695],[11.412974387000077,6.5982579180000585],[11.41472030600005,6.589726476000067],[11.427331999000046,6.578762656000038],[11.428150091000077,6.556378204000055],[11.433643291000067,6.554058697000073],[11.432076866000045,6.5458726710000406],[11.41803884300009,6.541849170000091],[11.418770376000055,6.536731542000041],[11.427258598000037,6.534302774000082],[11.420746782000037,6.529308106000087],[11.39474524800005,6.530276695000055],[11.377402404000065,6.523196333000044],[11.355741296000076,6.525094986000056],[11.34961442100007,6.512124161000088],[11.358025959000088,6.502390624000043],[11.349989449000077,6.500023319000093],[11.33914461900008,6.506700801000079],[11.331646226000089,6.503101925000067],[11.31978446000005,6.5056113920000485],[11.304375918000062,6.521883217000038],[11.279339372000038,6.537581265000085],[11.264892288000055,6.535831459000065],[11.24736422400008,6.52665614600005],[11.222692101000064,6.536574744000063],[11.197745886000064,6.537535645000048],[11.197631725000065,6.51001130700007],[11.180939693000084,6.508414874000039],[11.168389017000038,6.4998467330000835],[11.14218889600005,6.507560848000082],[11.138113836000059,6.530292864000046],[11.11598445900006,6.514532159000055],[11.098301246000062,6.519983494000087],[11.093624227000078,6.57665228500008],[11.097114496000074,6.590915843000062],[11.092137195000078,6.612252107000074],[11.096412944000065,6.67298790600006],[11.092953401000045,6.680800150000039],[11.07778546500009,6.692010675000063],[11.066565173000072,6.709088455000085],[11.055106979000072,6.715259973000059],[11.05062465900005,6.7075766960000465],[11.029167554000082,6.714315634000059],[10.992916408000042,6.686943869000061],[10.948965159000068,6.695474801000046],[10.947148750000053,6.687620848000051],[10.916178098000046,6.709104678000074],[10.910086892000038,6.766355709000038],[10.902248230000055,6.772592500000087],[10.89958071400008,6.763235061000046],[10.89545531400006,6.762483997000061],[10.876497185000062,6.795603487000051],[10.83788433300009,6.811458305000087],[10.823982345000047,6.828191927000091],[10.816227754000067,6.84376069800004],[10.819057415000088,6.850684356000045],[10.813908470000058,6.854984133000073],[10.822674181000082,6.865946275000056],[10.82104385000008,6.874836326000093],[10.840087958000083,6.923272847000078],[10.841097323000042,6.930753824000078],[10.834485438000058,6.939658961000077],[10.841115952000052,6.950776577000056],[10.873636246000046,6.986841679000065],[10.92973709100005,7.030887604000043],[10.971676826000078,7.084677696000085],[10.98881721500004,7.1200509070000635],[10.998435974000074,7.205257893000066],[10.99495697000009,7.27776670500009],[10.978006363000077,7.309875488000046],[10.998596191000047,7.309071541000037],[11.023727417000089,7.3205828670000415],[11.069826126000066,7.358988762000081],[11.102626801000042,7.3535437580000576],[11.122246742000073,7.337124825000046],[11.13627624500009,7.2945036890000665],[11.136636734000092,7.251267910000081],[11.130086899000048,7.20944976800007],[11.134156227000062,7.195792675000064],[11.186276436000071,7.144503593000081],[11.210946083000067,7.130042553000067],[11.234725952000076,7.09824085200006],[11.292057037000063,7.045455933000085],[11.302637100000084,7.039010525000037],[11.335435867000058,7.033565521000071],[11.416286469000056,7.061424732000091],[11.506186485000057,7.079308510000089],[11.533606529000053,7.078812599000059],[11.58406734500005,7.062051773000064],[11.618927002000078,7.013446808000083],[11.65931282300005,6.990698317000067]]]}},{"type":"Feature","properties":{"CNTRY_NAME":"Nigeria","CNTRY_CODE":"NGA","ADM1_NAME":"Taraba","ADM1_CODE":"NGA035","ADM2_NAME":"Kurmi","ADM2_CODE":"NGA035009","HRname":"Kurmi","HRpcode":"NG035009","HRparent":"NG035","Shape_Leng":3.09285847121,"Shape_Area":0.363205683635,"ADM2_New":"Kurmi","id":"NG-TA-KURMI","name":"Kurmi","parentId":"NG-TA","stateName":"Taraba","regionId":"NG-NE","fillColor":"#688EB5"},"geometry":{"type":"Polygon","coordinates":[[[10.995786667000061,7.260502815000052],[10.996835709000038,7.167124748000049],[10.984187126000052,7.109461784000075],[10.971676826000078,7.084677696000085],[10.92973709100005,7.030887604000043],[10.873636246000046,6.986841679000065],[10.834899828000061,6.940319127000066],[10.812151954000058,6.948689423000076],[10.798650541000086,6.9625344590000395],[10.788924273000077,6.960203934000049],[10.778804324000077,6.967179343000055],[10.767363896000063,6.956239688000039],[10.760771441000088,6.958806320000065],[10.747100677000049,6.969874649000076],[10.738377251000088,6.988772187000052],[10.720053711000048,6.988820648000058],[10.700926086000038,7.012861473000044],[10.683294292000085,7.0165175640000825],[10.67907110100009,7.039528584000038],[10.657538060000093,7.051631262000058],[10.655059971000071,7.044160779000038],[10.624244764000082,7.049905996000064],[10.59544289300004,7.077206938000074],[10.605774980000092,7.106097777000059],[10.599389323000082,7.118688288000044],[10.595357208000053,7.147041521000062],[10.585662866000064,7.149012903000084],[10.571193151000045,7.162520404000077],[10.55921728900006,7.08497112200007],[10.55722493400009,7.047869404000039],[10.561246132000065,7.036479438000072],[10.55151276500004,6.976743358000078],[10.543397284000037,6.969551194000076],[10.54152821100007,6.938915719000079],[10.534866923000038,6.9373582080000915],[10.530208014000038,6.925625641000067],[10.494641502000093,6.913702482000076],[10.490926411000089,6.891994860000068],[10.494807990000083,6.871825481000087],[10.21694758500007,6.8853096450000635],[10.172385056000053,6.942094420000046],[10.181046562000063,6.967928475000065],[10.17892764700008,6.985681282000087],[10.168977838000046,6.990938601000039],[10.16602406900006,7.0016662590000465],[10.176359317000049,7.0141900750000445],[10.15823778500004,7.0211267830000565],[10.16227641200004,7.035665823000045],[10.154831449000085,7.038536995000072],[10.199878693000073,7.073064804000069],[10.213398933000065,7.093742847000044],[10.232486725000058,7.1406655310000815],[10.237257957000054,7.163729191000073],[10.238053322000042,7.240873814000054],[10.249982834000093,7.261551380000071],[10.263503075000074,7.267913818000068],[10.267479897000044,7.278253078000091],[10.28895282700006,7.259165764000045],[10.323150635000047,7.24723625200005],[10.333490372000085,7.255984306000073],[10.342238426000051,7.256779671000061],[10.358144760000073,7.248826504000078],[10.38279914900005,7.250417233000064],[10.38836574600009,7.262346745000059],[10.393933296000057,7.263937473000055],[10.40268135100007,7.256779671000061],[10.420178413000087,7.318017960000077],[10.43900203700008,7.33754777900009],[10.481066704000057,7.353265762000092],[10.503576279000072,7.383690834000049],[10.539675713000065,7.4164566990000935],[10.562106133000043,7.448606491000078],[10.606837273000053,7.4800305370000615],[10.747736931000077,7.612665653000079],[10.771157265000056,7.624100685000087],[10.789056778000088,7.639627934000089],[10.885787010000058,7.554861546000041],[10.896865845000093,7.5380597110000735],[10.92042636900004,7.475105762000055],[10.928867340000068,7.406280518000074],[10.956096649000074,7.338301659000081],[10.989166260000047,7.291346550000071],[10.995786667000061,7.260502815000052]]]}},{"type":"Feature","properties":{"CNTRY_NAME":"Nigeria","CNTRY_CODE":"NGA","ADM1_NAME":"Taraba","ADM1_CODE":"NGA035","ADM2_NAME":"Ussa","ADM2_CODE":"NGA035013","HRname":"Ussa","HRpcode":"NG035013","HRparent":"NG035","Shape_Leng":1.74046621773,"Shape_Area":0.120808754343,"ADM2_New":"Ussa","id":"NG-TA-USSA","name":"Ussa","parentId":"NG-TA","stateName":"Taraba","regionId":"NG-NE","fillColor":"#94B86A"},"geometry":{"type":"Polygon","coordinates":[[[10.154897690000041,7.039549828000077],[10.096266877000062,6.986924530000067],[10.013853905000076,6.9023769730000595],[9.995440365000093,6.899006244000077],[9.960415784000077,6.8667504500000405],[9.870275603000039,6.775676029000067],[9.816171546000078,6.781350007000071],[9.812771797000039,6.801410198000042],[9.803666115000055,6.8175988200000575],[9.806701660000044,6.858069897000064],[9.826936722000085,6.889435291000041],[9.833513260000075,6.926871300000073],[9.860831261000044,7.0068020820000925],[9.882079124000086,7.087744713000063],[9.911420822000082,7.143393040000092],[9.995398521000084,7.217253208000045],[10.023728371000061,7.236476898000092],[10.052058220000049,7.24558305700009],[10.115800858000057,7.255701065000039],[10.139072418000069,7.283019066000065],[10.16133117700008,7.324501991000091],[10.177519798000048,7.341702461000068],[10.18561363200007,7.362949848000085],[10.215967178000085,7.39532709100007],[10.22507381400004,7.411515236000071],[10.242504120000092,7.422845364000068],[10.253164291000076,7.398343563000083],[10.23884868600004,7.386414051000088],[10.229305267000086,7.3617596630000435],[10.23169136000007,7.345853806000093],[10.267479897000044,7.278253078000091],[10.263503075000074,7.267913818000068],[10.249982834000093,7.261551380000071],[10.238053322000042,7.240873814000054],[10.237257957000054,7.163729191000073],[10.213398933000065,7.093742847000044],[10.199878693000073,7.073064804000069],[10.154897690000041,7.039549828000077]]]}},{"type":"Feature","properties":{"CNTRY_NAME":"Nigeria","CNTRY_CODE":"NGA","ADM1_NAME":"Taraba","ADM1_CODE":"NGA035","ADM2_NAME":"Takum","ADM2_CODE":"NGA035012","HRname":"Takum","HRpcode":"NG035012","HRparent":"NG035","Shape_Leng":2.94550622976,"Shape_Area":0.204676035424,"ADM2_New":"Takum","id":"NG-TA-TAKUM","name":"Takum","parentId":"NG-TA","stateName":"Taraba","regionId":"NG-NE","fillColor":"#5E9E78"},"geometry":{"type":"Polygon","coordinates":[[[9.931287766000082,7.603045940000072],[9.97819805100005,7.597683430000075],[10.016646385000058,7.586554050000075],[10.067234993000056,7.558223724000072],[10.15222549400005,7.495493412000087],[10.227097511000068,7.448951244000057],[10.246915817000058,7.434061050000082],[10.245330811000088,7.424551964000045],[10.22507381400004,7.411515236000071],[10.215967178000085,7.39532709100007],[10.18561363200007,7.362949848000085],[10.177519798000048,7.341702461000068],[10.16133117700008,7.324501991000091],[10.139072418000069,7.283019066000065],[10.115800858000057,7.255701065000039],[10.052058220000049,7.24558305700009],[10.023728371000061,7.236476898000092],[9.995398521000084,7.217253208000045],[9.911420822000082,7.143393040000092],[9.882079124000086,7.087744713000063],[9.860831261000044,7.0068020820000925],[9.833513260000075,6.926871300000073],[9.826936722000085,6.889435291000041],[9.806701660000044,6.858069897000064],[9.803666115000055,6.8175988200000575],[9.812771797000039,6.801410198000042],[9.816171546000078,6.781350007000071],[9.805987762000086,6.790556934000051],[9.79954755600005,6.783423870000092],[9.779454606000058,6.794692732000044],[9.770359986000074,6.7667424290000895],[9.76392099900005,6.759860077000042],[9.768573846000038,6.749980681000068],[9.756675183000084,6.69557702700007],[9.764819942000088,6.691723273000093],[9.765159965000066,6.679481330000044],[9.752167650000047,6.678338504000067],[9.75298188100004,6.656112644000075],[9.72557110300005,6.591528612000047],[9.70645031500004,6.512479059000043],[9.69817872200008,6.509027840000044],[9.674550011000065,6.513406024000062],[9.669952102000082,6.509490060000076],[9.650718513000072,6.5253095910000525],[9.633433875000037,6.518582750000064],[9.613797140000088,6.523801184000092],[9.602374056000087,6.529026601000055],[9.606478691000063,6.571820736000063],[9.622298241000067,6.664106369000081],[9.646029472000066,6.738594055000078],[9.648666382000044,6.799238682000066],[9.641414642000086,6.866475582000078],[9.645699501000081,6.8948202130000595],[9.699752808000085,7.011495590000038],[9.737985611000056,7.078073025000037],[9.824008942000091,7.172336102000088],[9.834555626000054,7.199362755000038],[9.83521461500004,7.217160702000058],[9.824958801000037,7.254598141000088],[9.840817451000078,7.27978277200009],[9.882676125000046,7.414256096000088],[9.888607979000085,7.461717606000093],[9.884653091000075,7.507860184000037],[9.87081050900008,7.540160179000054],[9.839988708000078,7.579274178000048],[9.870949745000075,7.597683430000075],[9.90433788300004,7.6078014370000915],[9.931287766000082,7.603045940000072]]]}}]}