{"type":"FeatureCollection","features":[{"type":"Feature","properties":{"CNTRY_NAME":"Nigeria","CNTRY_CODE":"NGA","ADM1_NAME":"Yobe","ADM1_CODE":"NGA036","ADM2_NAME":"Bade","ADM2_CODE":"NGA036001","HRname":"Bade","HRpcode":"NG036001","HRparent":"NG036","Shape_Leng":1.91888941784,"Shape_Area":0.0641409524611,"ADM2_New":"Bade","id":"NG-YO-BADE","name":"Bade","parentId":"NG-YO","stateName":"Yobe","regionId":"NG-NE","fillColor":"#7cb87c"},"geometry":{"type":"MultiPolygon","coordinates":[[[[11.054519653000057,12.873109818000046],[11.061699867000073,12.866160393000087],[11.064379692000045,12.847209930000076],[11.052470207000056,12.827150345000064],[10.941670418000058,12.831210136000038],[10.859990120000077,12.816670418000058],[10.765219688000059,12.775309563000064],[10.659790039000086,12.748410225000043],[10.602319717000057,12.694069862000049],[10.593830109000066,12.720910072000038],[10.574460030000068,12.754139900000041],[10.577119827000047,12.792819977000079],[10.57087993600004,12.802169800000058],[10.585120201000052,12.821860313000059],[10.670550346000084,12.857780457000047],[10.69758033800008,12.861499786000081],[10.735480309000081,12.858830452000063],[10.798310280000067,12.875269890000084],[10.824729919000049,12.86868000000004],[10.859550476000038,12.875769615000081],[10.887140274000046,12.868980408000084],[10.957309723000037,12.865710258000092],[10.979669571000045,12.87018966700009],[11.015049934000047,12.866769791000081],[11.054519653000057,12.873109818000046]]],[[[11.036970139000061,12.765999794000038],[11.05362987500007,12.737839699000062],[11.088930130000051,12.706649780000077],[11.109709740000085,12.695190430000082],[11.147890091000079,12.64616966200009],[11.154459953000071,12.62891006500007],[11.158040047000043,12.580869675000088],[11.188179970000078,12.499600410000085],[11.10437965400007,12.493499756000062],[11.071169853000072,12.509300232000044],[11.044110298000078,12.57386970500005],[10.995869637000055,12.647660255000062],[10.992600441000093,12.663229942000044],[10.994790077000062,12.682559967000088],[11.01416015600006,12.73845005000004],[11.036970139000061,12.765999794000038]]]]}},{"type":"Feature","properties":{"CNTRY_NAME":"Nigeria","CNTRY_CODE":"NGA","ADM1_NAME":"Yobe","ADM1_CODE":"NGA036","ADM2_NAME":"Bursari","ADM2_CODE":"NGA036002","HRname":"Bursari","HRpcode":"NG036002","HRparent":"NG036","Shape_Leng":2.27332085943,"Shape_Area":0.31717751579,"ADM2_New":"Bursari","id":"NG-YO-BURSARI","name":"Bursari","parentId":"NG-YO","stateName":"Yobe","regionId":"NG-NE","fillColor":"#8fbc8f"},"geometry":{"type":"Polygon","coordinates":[[[11.065199852000092,12.89706993100009],[11.082229614000084,12.914919853000072],[11.147040367000045,12.949549675000071],[11.317359924000073,12.956680298000038],[11.391300201000092,12.988679886000057],[11.414609909000092,12.977959633000069],[11.43288040200008,12.979619980000052],[11.492349625000088,12.96998977700008],[11.581399918000045,12.97871017500006],[11.64923000300007,12.968870163000076],[11.696009636000042,12.941619873000093],[11.717149734000088,12.918519974000048],[11.717280388000063,12.891880035000042],[11.703769684000065,12.848930359000065],[11.705100060000063,12.835980415000051],[11.753829956000061,12.723919868000053],[11.752779961000044,12.690520287000083],[11.765179634000049,12.672309875000053],[11.767840385000056,12.646409988000073],[11.760990143000072,12.627849579000042],[11.767330170000037,12.595569611000087],[11.759090424000078,12.562179565000065],[11.716210365000052,12.51589012100004],[11.67726039900009,12.485170364000055],[11.671360016000051,12.471759796000072],[11.624179840000068,12.483349800000042],[11.60064983400008,12.47906017300005],[11.562700272000086,12.460909843000081],[11.549889565000058,12.469920158000036],[11.533550262000063,12.465629578000062],[11.503809929000056,12.466970444000083],[11.484149933000083,12.457429886000057],[11.47677993800005,12.463250160000086],[11.372730255000079,12.444230080000068],[11.288869858000055,12.410369873000093],[11.242389679000041,12.405170441000053],[11.18766975400007,12.49666976900005],[11.185110092000059,12.516300201000092],[11.158040047000043,12.580869675000088],[11.154459953000071,12.62891006500007],[11.147890091000079,12.64616966200009],[11.12600040400008,12.678660393000087],[11.109709740000085,12.695190430000082],[11.065839767000057,12.725440025000069],[11.038519859000075,12.761119843000074],[11.04148960100008,12.784939766000036],[11.027350426000055,12.806909561000055],[11.02674961100007,12.828680038000073],[11.052470207000056,12.827150345000064],[11.062419891000047,12.842889786000057],[11.061699867000073,12.866160393000087],[11.054519653000057,12.873109818000046],[11.065199852000092,12.89706993100009]]]}},{"type":"Feature","properties":{"CNTRY_NAME":"Nigeria","CNTRY_CODE":"NGA","ADM1_NAME":"Yobe","ADM1_CODE":"NGA036","ADM2_NAME":"Damaturu","ADM2_CODE":"NGA036003","HRname":"Damaturu","HRpcode":"NG036003","HRparent":"NG036","Shape_Leng":1.95885205935,"Shape_Area":0.195692211777,"ADM2_New":"Damaturu","id":"NG-YO-DAMATURU","name":"Damaturu","parentId":"NG-YO","stateName":"Yobe","regionId":"NG-NE","fillColor":"#a8c686"},"geometry":{"type":"Polygon","coordinates":[[[11.645270348000054,11.939419746000056],[11.736720085000059,11.97552967100006],[11.765489578000086,11.975500107000073],[11.79911041300005,11.968890190000081],[11.827260017000071,11.951600075000044],[11.85155010200009,11.946510315000069],[11.923899651000056,11.962559700000043],[12.000769615000081,11.997559547000037],[12.014960289000044,11.996419907000075],[12.026599884000063,11.98758983600004],[12.053799629000082,11.978549957000041],[12.119319916000052,11.982979774000057],[12.154549599000063,11.999259949000077],[12.183329582000056,12.006170273000066],[12.250635147000082,12.009166718000074],[12.244689941000047,11.93583011600009],[12.252169609000077,11.815870285000074],[12.243359566000038,11.788370132000068],[12.220773697000084,11.761261940000054],[12.198980331000087,11.721870422000052],[12.174100876000068,11.639993668000045],[12.154439926000066,11.621959686000082],[12.13012027700006,11.613169670000048],[12.006830215000036,11.59379959100005],[11.937760353000044,11.569109917000048],[11.878640175000044,11.560170174000064],[11.78291988400008,11.527070045000073],[11.758959770000047,11.506649971000058],[11.753979683000068,11.539859772000057],[11.759320259000049,11.577190399000074],[11.753009796000072,11.623350143000039],[11.767009735000045,11.710209846000055],[11.766110420000075,11.739290237000091],[11.74038982400009,11.79784965500005],[11.731340408000051,11.835200310000062],[11.716629982000086,11.860730171000057],[11.645270348000054,11.939419746000056]]]}},{"type":"Feature","properties":{"CNTRY_NAME":"Nigeria","CNTRY_CODE":"NGA","ADM1_NAME":"Yobe","ADM1_CODE":"NGA036","ADM2_NAME":"Fika","ADM2_CODE":"NGA036004","HRname":"Fika","HRpcode":"NG036004","HRparent":"NG036","Shape_Leng":2.22355662531,"Shape_Area":0.182593657991,"ADM2_New":"Fika","id":"NG-YO-FIKA","name":"Fika","parentId":"NG-YO","stateName":"Yobe","regionId":"NG-NE","fillColor":"#c2b280"},"geometry":{"type":"Polygon","coordinates":[[[11.012069702000076,11.58948040000007],[11.089630127000078,11.587329865000072],[11.139019966000092,11.595529556000088],[11.169770241000037,11.606749535000063],[11.193559647000086,11.639929771000084],[11.200010300000088,11.656250000000057],[11.217539787000078,11.667300224000087],[11.233099937000077,11.674030304000041],[11.27198982200008,11.66098022500006],[11.276969910000048,11.643779755000082],[11.298700333000056,11.624050140000065],[11.307000160000086,11.603030205000039],[11.304249763000087,11.587269783000067],[11.309980392000057,11.544679642000062],[11.299799919000066,11.513919830000077],[11.300900459000047,11.485960007000074],[11.327949524000076,11.414449692000062],[11.347510338000063,11.382349968000085],[11.360890388000087,11.369759560000091],[11.376440048000063,11.369560242000091],[11.395460129000071,11.354900360000045],[11.447950363000075,11.353340149000076],[11.46098995200009,11.35933017700006],[11.487620354000057,11.360799789000055],[11.513469696000072,11.357769966000092],[11.507390022000038,11.336759567000058],[11.52132034300007,11.30673027000006],[11.52108955400007,11.29172039000008],[11.538709641000082,11.262249947000043],[11.533889771000077,11.193579674000091],[11.528189659000077,11.167889595000076],[11.51667976400006,11.150070190000065],[11.502790451000067,11.111820221000073],[11.452182770000093,11.042204857000058],[11.385930061000067,11.10181999200006],[11.36518955200006,11.127169609000077],[11.319149971000058,11.227219582000089],[11.303850174000047,11.24938011200004],[11.286560059000067,11.253339767000057],[11.270199776000084,11.242099762000066],[11.237930298000038,11.242699623000078],[11.20724964100009,11.25924015000004],[11.154979706000063,11.268870354000057],[11.137700081000048,11.279769897000051],[11.13031959500006,11.278650284000037],[11.098469734000048,11.295390129000054],[11.078680038000073,11.312479973000052],[11.036870003000047,11.306520462000037],[11.017020226000056,11.295849800000042],[11.01274967200004,11.298859596000057],[10.973469734000048,11.293649673000061],[10.914396286000056,11.318954468000072],[10.85037040700007,11.357580185000074],[10.853309631000059,11.367520332000083],[10.884599686000058,11.387407303000089],[10.910688400000083,11.411270142000092],[10.929817200000059,11.443285942000045],[10.935609818000046,11.48149967200004],[10.929269791000081,11.51377010300007],[10.960220337000067,11.533060074000048],[11.012069702000076,11.58948040000007]]]}},{"type":"Feature","properties":{"CNTRY_NAME":"Nigeria","CNTRY_CODE":"NGA","ADM1_NAME":"Yobe","ADM1_CODE":"NGA036","ADM2_NAME":"Fune","ADM2_CODE":"NGA036005","HRname":"Fune","HRpcode":"NG036005","HRparent":"NG036","Shape_Leng":2.99084884377,"Shape_Area":0.409677728207,"ADM2_New":"Fune","id":"NG-YO-FUNE","name":"Fune","parentId":"NG-YO","stateName":"Yobe","regionId":"NG-NE","fillColor":"#9bb898"},"geometry":{"type":"Polygon","coordinates":[[[11.038290024000048,12.081760406000058],[11.05972003900007,12.10142993900007],[11.091119766000077,12.143799782000087],[11.148530006000044,12.252550125000084],[11.219070435000049,12.326769829000057],[11.245989799000085,12.364080429000069],[11.25284004200006,12.38263988500006],[11.251471519000063,12.393867493000073],[11.261010170000077,12.38825988800005],[11.29528999300004,12.330619812000066],[11.316690445000063,12.254240036000056],[11.338560104000067,12.214819908000038],[11.36515045200008,12.195460320000052],[11.412579536000067,12.192410469000038],[11.445360184000037,12.16047000900005],[11.450750351000067,12.13644981400006],[11.452949524000076,12.080539703000056],[11.470520020000038,12.03024005900005],[11.491100311000082,12.017649651000056],[11.559320450000087,12.010060310000085],[11.575619698000082,12.00047969800005],[11.675909996000087,11.908989906000045],[11.68017005900009,11.899049759000093],[11.710040092000042,11.871060371000056],[11.731340408000051,11.835200310000062],[11.74038982400009,11.79784965500005],[11.766110420000075,11.739290237000091],[11.767009735000045,11.710209846000055],[11.753009796000072,11.623350143000039],[11.759320259000049,11.577190399000074],[11.753979683000068,11.539859772000057],[11.75819015500008,11.509090424000078],[11.720780373000082,11.47348022500006],[11.70300960500009,11.440480232000084],[11.70005989100008,11.423600197000042],[11.685819626000068,11.403920174000064],[11.66613960300009,11.387430191000078],[11.612449646000073,11.368350029000055],[11.565589905000081,11.367839813000046],[11.516969681000091,11.357199669000067],[11.487620354000057,11.360799789000055],[11.46098995200009,11.35933017700006],[11.447950363000075,11.353340149000076],[11.395460129000071,11.354900360000045],[11.376440048000063,11.369560242000091],[11.360890388000087,11.369759560000091],[11.352549553000074,11.37689971900005],[11.327949524000076,11.414449692000062],[11.30591011000007,11.466629982000086],[11.299799919000066,11.513919830000077],[11.309980392000057,11.544679642000062],[11.304249763000087,11.587269783000067],[11.307000160000086,11.603030205000039],[11.298700333000056,11.624050140000065],[11.276969910000048,11.643779755000082],[11.27198982200008,11.66098022500006],[11.287360191000062,11.764780045000066],[11.289850235000074,11.83382034300007],[11.27528953600006,11.839650154000083],[11.19750022900007,11.826789856000062],[11.189729691000082,11.830369949000044],[11.152009964000058,11.827219963000061],[11.119379997000067,11.839449883000043],[11.066989899000077,11.882659912000065],[11.025509834000047,11.933369637000055],[11.012000084000078,11.979539871000043],[11.01601028400006,12.02980995200005],[11.038290024000048,12.081760406000058]]]}},{"type":"Feature","properties":{"CNTRY_NAME":"Nigeria","CNTRY_CODE":"NGA","ADM1_NAME":"Yobe","ADM1_CODE":"NGA036","ADM2_NAME":"Geidam","ADM2_CODE":"NGA036006","HRname":"Geidam","HRpcode":"NG036006","HRparent":"NG036","Shape_Leng":2.65554325559,"Shape_Area":0.361374591615,"ADM2_New":"Geidam","id":"NG-YO-GEIDAM","name":"Geidam","parentId":"NG-YO","stateName":"Yobe","regionId":"NG-NE","fillColor":"#6ba3be"},"geometry":{"type":"Polygon","coordinates":[[[11.71360969500006,12.818860054000083],[11.749620438000079,12.836870193000038],[11.767319679000082,12.842100143000039],[11.78267955800004,12.840769768000087],[11.801560402000064,12.852760315000069],[11.815950394000083,12.852740288000064],[11.857769966000092,12.865639687000055],[11.894129753000072,12.867850304000058],[11.903289795000092,12.879099846000088],[11.888199806000046,12.909319878000076],[11.891909599000087,12.916819572000065],[11.920129776000067,12.927289963000078],[11.96580982200004,12.927989960000048],[12.048560143000088,12.900699615000065],[12.077139854000052,12.89953994800004],[12.139559746000089,12.906780243000071],[12.242639542000063,12.927120209000066],[12.261540413000091,12.946049690000052],[12.277480125000068,12.94808960000006],[12.353190422000068,12.983280182000044],[12.40138816800004,12.997862816000065],[12.38675975800004,12.943960190000041],[12.360719681000091,12.896769524000092],[12.362079620000088,12.85595035600005],[12.371274948000064,12.832563400000083],[12.392660141000079,12.802550316000065],[12.478369713000063,12.708000183000081],[12.485520363000091,12.69328975700006],[12.486140251000052,12.66080665600009],[12.477259636000042,12.63992023500009],[12.444549561000088,12.612159729000041],[12.427169800000058,12.568070412000054],[12.388899803000072,12.508009911000045],[12.363800049000076,12.487380028000075],[12.345399857000075,12.479909897000084],[12.340530396000077,12.472599983000066],[12.287010193000071,12.447710037000093],[12.21959972400009,12.384559631000059],[12.188079834000064,12.375769615000081],[12.130149841000048,12.373590469000078],[12.086580276000063,12.364439964000042],[12.049070358000051,12.369359970000062],[12.035249710000073,12.35886955300009],[11.997710228000074,12.349909782000054],[11.961179733000051,12.360460281000087],[11.919179916000076,12.353369713000063],[11.886919975000069,12.360919952000074],[11.845700264000072,12.358329773000037],[11.82258033800008,12.363240242000074],[11.797869682000055,12.352199554000038],[11.77163982400009,12.35991954800005],[11.725379944000053,12.36279010800007],[11.688870430000065,12.380270004000067],[11.670450211000059,12.398309708000056],[11.661589622000065,12.436779976000082],[11.67726039900009,12.485170364000055],[11.716210365000052,12.51589012100004],[11.759090424000078,12.562179565000065],[11.767330170000037,12.595569611000087],[11.760990143000072,12.627849579000042],[11.767840385000056,12.646409988000073],[11.76632976500008,12.66518020600006],[11.752779961000044,12.690520287000083],[11.753829956000061,12.723919868000053],[11.71360969500006,12.818860054000083]]]}},{"type":"Feature","properties":{"CNTRY_NAME":"Nigeria","CNTRY_CODE":"NGA","ADM1_NAME":"Yobe","ADM1_CODE":"NGA036","ADM2_NAME":"Gujba","ADM2_CODE":"NGA036007","HRname":"Gujba","HRpcode":"NG036007","HRparent":"NG036","Shape_Leng":2.44565582043,"Shape_Area":0.267431465554,"ADM2_New":"Gujba","id":"NG-YO-GUJBA","name":"Gujba","parentId":"NG-YO","stateName":"Yobe","regionId":"NG-NE","fillColor":"#89a96d"},"geometry":{"type":"Polygon","coordinates":[[[11.758959770000047,11.506649971000058],[11.78291988400008,11.527070045000073],[11.83817958800006,11.548210144000052],[11.896140099000093,11.564279556000088],[11.937760353000044,11.569109917000048],[12.006830215000036,11.59379959100005],[12.13012027700006,11.613169670000048],[12.154439926000066,11.621959686000082],[12.168669701000056,11.634710312000038],[12.168979645000093,11.629599571000085],[12.198840141000062,11.629010201000085],[12.24934005700004,11.633480072000054],[12.269989967000072,11.621419907000075],[12.299139977000038,11.588069916000052],[12.322899818000053,11.512590408000051],[12.323539734000065,11.490360260000045],[12.303609848000065,11.466719627000089],[12.255809784000064,11.431969643000059],[12.214200020000078,11.390179634000049],[12.20277023300008,11.36236000100007],[12.196579933000066,11.318059921000042],[12.186900139000045,11.301859856000078],[12.117730141000038,11.263529778000077],[12.102410316000089,11.24561977400009],[12.114170074000072,11.185299873000076],[12.114649773000053,11.15579032900007],[12.12100982700008,11.138919830000077],[12.127360344000067,11.13916015600006],[12.133480072000054,11.128470421000088],[12.13912010200005,11.095950127000037],[12.149680138000065,11.08106994600007],[12.139129639000089,11.061719894000078],[12.088859558000081,11.051059723000037],[12.054389954000044,11.063019753000049],[12.028980255000079,11.062069893000057],[12.009369850000041,11.03586959800009],[11.900199890000067,11.135379791000048],[11.887740135000058,11.125829697000086],[11.879710197000065,11.100509644000056],[11.871919632000072,11.097140312000079],[11.842209816000093,11.112369537000063],[11.79839992500007,11.163450241000078],[11.760149956000078,11.184700012000064],[11.625080109000066,11.20079994200006],[11.53396987900004,11.218460083000082],[11.538709641000082,11.262249947000043],[11.52108955400007,11.29172039000008],[11.52132034300007,11.30673027000006],[11.507390022000038,11.336759567000058],[11.508990288000064,11.352709770000047],[11.565589905000081,11.367839813000046],[11.612449646000073,11.368350029000055],[11.66613960300009,11.387430191000078],[11.694780350000087,11.414039612000067],[11.70300960500009,11.440480232000084],[11.723899841000048,11.477609634000089],[11.758959770000047,11.506649971000058]]]}},{"type":"Feature","properties":{"CNTRY_NAME":"Nigeria","CNTRY_CODE":"NGA","ADM1_NAME":"Yobe","ADM1_CODE":"NGA036","ADM2_NAME":"Gulani","ADM2_CODE":"NGA036008","HRname":"Gulani","HRpcode":"NG036008","HRparent":"NG036","Shape_Leng":2.30743853091,"Shape_Area":0.172397328733,"ADM2_New":"Gulani","id":"NG-YO-GULANI","name":"Gulani","parentId":"NG-YO","stateName":"Yobe","regionId":"NG-NE","fillColor":"#b5c99a"},"geometry":{"type":"Polygon","coordinates":[[[11.452182770000093,11.042204857000058],[11.502790451000067,11.111820221000073],[11.51667976400006,11.150070190000065],[11.528189659000077,11.167889595000076],[11.53396987900004,11.218460083000082],[11.625080109000066,11.20079994200006],[11.760149956000078,11.184700012000064],[11.79839992500007,11.163450241000078],[11.842209816000093,11.112369537000063],[11.871919632000072,11.097140312000079],[11.879710197000065,11.100509644000056],[11.887740135000058,11.125829697000086],[11.900199890000067,11.135379791000048],[11.98964023600007,11.057229996000046],[12.007828712000048,11.033950806000064],[11.975299835000044,10.997570038000049],[11.93052005800007,10.964220047000083],[11.822360039000046,10.935759544000064],[11.68385982500007,10.886039734000065],[11.647489548000067,10.879110336000053],[11.626689911000085,10.866769791000081],[11.624939919000042,10.855150223000066],[11.642649651000056,10.84533977500007],[11.651229858000079,10.82769012500006],[11.68498992900004,10.834309578000045],[11.711750031000065,10.81157016800006],[11.73620986900005,10.803070068000068],[11.737250328000073,10.781929970000078],[11.722880363000058,10.756360054000083],[11.721130371000072,10.74473953200004],[11.756320000000073,10.714189529000066],[11.768469810000056,10.689189911000085],[11.767049789000055,10.675009727000088],[11.747830391000036,10.667010307000055],[11.716939926000066,10.637390137000068],[11.685569763000046,10.620169640000086],[11.561311722000085,10.591618538000091],[11.527589798000065,10.567634583000086],[11.516513824000072,10.570278168000073],[11.51239776600005,10.599837303000072],[11.524185181000064,10.66000652300005],[11.51507091500008,10.694953918000067],[11.516614914000058,10.73211288500005],[11.526517868000042,10.757863998000062],[11.53907489800008,10.850962639000045],[11.528674126000055,10.876823425000055],[11.530362129000082,10.934866905000092],[11.513415337000083,10.968695641000068],[11.452182770000093,11.042204857000058]]]}},{"type":"Feature","properties":{"CNTRY_NAME":"Nigeria","CNTRY_CODE":"NGA","ADM1_NAME":"Yobe","ADM1_CODE":"NGA036","ADM2_NAME":"Jakusko","ADM2_CODE":"NGA036009","HRname":"Jakusko","HRpcode":"NG036009","HRparent":"NG036","Shape_Leng":2.69110697237,"Shape_Area":0.327249138665,"ADM2_New":"Jakusko","id":"NG-YO-JAKUSKO","name":"Jakusko","parentId":"NG-YO","stateName":"Yobe","regionId":"NG-NE","fillColor":"#d4a574"},"geometry":{"type":"Polygon","coordinates":[[[11.02674961100007,12.828680038000073],[11.027350426000055,12.806909561000055],[11.038979530000063,12.79113960300009],[11.041669846000048,12.779129982000086],[11.036970139000061,12.765999794000038],[11.01943016100006,12.748009682000088],[11.00496959700007,12.713319778000084],[10.992230415000051,12.667929649000087],[10.995869637000055,12.647660255000062],[11.044110298000078,12.57386970500005],[11.071169853000072,12.509300232000044],[11.10437965400007,12.493499756000062],[11.18766975400007,12.49666976900005],[11.251471519000063,12.393867493000073],[11.25284004200006,12.38263988500006],[11.245989799000085,12.364080429000069],[11.219070435000049,12.326769829000057],[11.148530006000044,12.252550125000084],[11.120010376000039,12.192359924000073],[11.05972003900007,12.10142993900007],[11.038290024000048,12.081760406000058],[10.98165988900007,12.052740097000083],[10.921469688000059,12.003459930000076],[10.861450195000089,11.941430092000076],[10.826537132000055,11.890371323000068],[10.817000389000043,11.88613033300004],[10.812789917000089,11.916910172000087],[10.79380989100008,11.94544982900004],[10.782019615000081,11.973979950000057],[10.785360336000053,12.075289726000051],[10.780369759000052,12.101559639000072],[10.746370316000082,12.195030212000063],[10.734119415000066,12.26143455500005],[10.72459602400005,12.449607849000074],[10.643460274000063,12.497590065000054],[10.633199692000062,12.514300346000084],[10.590250015000038,12.522410393000087],[10.594969749000086,12.542480469000054],[10.588580132000061,12.553930283000057],[10.599329948000047,12.581130028000075],[10.595749855000065,12.629159927000046],[10.598620415000084,12.642239571000061],[10.594079971000042,12.660679817000073],[10.598030090000066,12.690130234000037],[10.659790039000086,12.748410225000043],[10.765219688000059,12.775309563000064],[10.798110008000037,12.791970253000045],[10.836050034000039,12.803190231000087],[10.852399826000067,12.814419746000056],[10.941670418000058,12.831210136000038],[11.02674961100007,12.828680038000073]]]}},{"type":"Feature","properties":{"CNTRY_NAME":"Nigeria","CNTRY_CODE":"NGA","ADM1_NAME":"Yobe","ADM1_CODE":"NGA036","ADM2_NAME":"Karasuwa","ADM2_CODE":"NGA036010","HRname":"Karasuwa","HRpcode":"NG036010","HRparent":"NG036","Shape_Leng":1.79369939806,"Shape_Area":0.0967093312913,"ADM2_New":"Karasuwa","id":"NG-YO-KARASUWA","name":"Karasuwa","parentId":"NG-YO","stateName":"Yobe","regionId":"NG-NE","fillColor":"#5a9e6f"},"geometry":{"type":"Polygon","coordinates":[[[10.57061004600007,13.022930145000089],[10.69773960100008,13.013099670000088],[10.728460312000038,13.017379761000086],[10.736260414000071,13.02768993400008],[10.730270386000086,13.041390419000038],[10.678179741000065,13.045200348000037],[10.672169685000085,13.051959991000047],[10.67296981800007,13.063409805000049],[10.695010185000058,13.093400002000067],[10.74368000000004,13.124870300000055],[10.833689690000085,13.125329971000042],[10.884579659000053,13.107819557000084],[10.896980286000087,13.089610100000073],[10.893420219000063,13.062410355000054],[10.866909981000049,13.034299850000082],[10.866310120000037,13.023980141000038],[10.873860359000048,13.012339592000046],[10.904740334000053,12.996919632000072],[10.925539970000045,12.999329567000075],[11.022910118000084,12.987030029000039],[11.045999527000049,12.968239784000048],[11.060709953000071,12.942709923000052],[11.065199852000092,12.89706993100009],[11.054519653000057,12.873109818000046],[11.024769783000067,12.86750984200006],[10.979669571000045,12.87018966700009],[10.957309723000037,12.865710258000092],[10.91668033600007,12.866510391000077],[10.859550476000038,12.875769615000081],[10.824729919000049,12.86868000000004],[10.798310280000067,12.875269890000084],[10.735480309000081,12.858830452000063],[10.69758033800008,12.861499786000081],[10.670550346000084,12.857780457000047],[10.585120201000052,12.821860313000059],[10.577710152000066,12.813799858000039],[10.577699661000054,12.80685043300008],[10.566309929000056,12.819169998000064],[10.534569740000052,12.830300331000046],[10.508919716000037,12.82493972800006],[10.527039528000046,12.83936977400009],[10.559880257000088,12.835200310000062],[10.571370125000044,12.846070290000057],[10.572609901000078,12.873649597000053],[10.517539978000059,12.935810089000086],[10.507100105000063,12.958339691000049],[10.521149635000086,12.983839989000046],[10.57061004600007,13.022930145000089]]]}},{"type":"Feature","properties":{"CNTRY_NAME":"Nigeria","CNTRY_CODE":"NGA","ADM1_NAME":"Yobe","ADM1_CODE":"NGA036","ADM2_NAME":"Nangere","ADM2_CODE":"NGA036012","HRname":"Nangere","HRpcode":"NG036012","HRparent":"NG036","Shape_Leng":1.50642907411,"Shape_Area":0.0811878368558,"ADM2_New":"Nangere","id":"NG-YO-NANGERE","name":"Nangere","parentId":"NG-YO","stateName":"Yobe","regionId":"NG-NE","fillColor":"#84b882"},"geometry":{"type":"Polygon","coordinates":[[[10.817000389000043,11.88613033300004],[10.826537132000055,11.890371323000068],[10.861450195000089,11.941430092000076],[10.921469688000059,12.003459930000076],[10.98573970800004,12.055549622000058],[11.038290024000048,12.081760406000058],[11.01601028400006,12.02980995200005],[11.012049675000071,12.000359535000086],[11.012000084000078,11.979539871000043],[11.025509834000047,11.933369637000055],[11.066989899000077,11.882659912000065],[11.119379997000067,11.839449883000043],[11.152009964000058,11.827219963000061],[11.169190407000087,11.826749802000052],[11.08071994800008,11.769330025000045],[11.067669868000053,11.756400108000037],[11.051659584000049,11.726579666000077],[11.031009674000074,11.711409569000068],[11.022230148000062,11.695469856000045],[11.019829750000042,11.668080330000066],[11.039600372000052,11.64404010800007],[11.022199631000092,11.599410057000057],[10.960220337000067,11.533060074000048],[10.929659843000081,11.516030312000055],[10.932499886000073,11.56649017300009],[10.924539566000078,11.651120186000071],[10.912329674000091,11.670450211000059],[10.905220032000045,11.705169678000061],[10.892660141000079,11.736140251000052],[10.864179611000054,11.778949738000051],[10.856300354000041,11.816109657000084],[10.82600021400009,11.827960014000041],[10.807009697000069,11.85649967200004],[10.817000389000043,11.88613033300004]]]}},{"type":"Feature","properties":{"CNTRY_NAME":"Nigeria","CNTRY_CODE":"NGA","ADM1_NAME":"Yobe","ADM1_CODE":"NGA036","ADM2_NAME":"Nguru","ADM2_CODE":"NGA036013","HRname":"Nguru","HRpcode":"NG036013","HRparent":"NG036","Shape_Leng":1.21599483901,"Shape_Area":0.0762920570748,"ADM2_New":"Nguru","id":"NG-YO-NGURU","name":"Nguru","parentId":"NG-YO","stateName":"Yobe","regionId":"NG-NE","fillColor":"#c9b896"},"geometry":{"type":"Polygon","coordinates":[[[10.246970177000037,13.034059525000089],[10.255880356000091,13.066340446000083],[10.277070045000073,13.103249550000044],[10.306079865000072,13.12516975400007],[10.353940010000088,13.138250351000067],[10.392230034000079,13.13782978100005],[10.439840317000062,13.128959656000063],[10.45654010800007,13.121620178000057],[10.498860359000048,13.096249580000062],[10.523300171000074,13.071459770000047],[10.544219971000075,13.040289879000056],[10.57061004600007,13.022930145000089],[10.521149635000086,12.983839989000046],[10.507100105000063,12.958339691000049],[10.517539978000059,12.935810089000086],[10.572609901000078,12.873649597000053],[10.571370125000044,12.846070290000057],[10.559880257000088,12.835200310000062],[10.527039528000046,12.83936977400009],[10.508919716000037,12.82493972800006],[10.478460312000038,12.821559906000061],[10.460648537000054,12.821568489000072],[10.435660362000078,12.837969780000037],[10.408201218000045,12.840026855000076],[10.39383983600004,12.851619720000087],[10.366800308000052,12.861660004000044],[10.334460258000092,12.858779907000041],[10.278010368000082,12.842160225000043],[10.252229691000082,12.844149590000086],[10.247440338000047,12.85445976300008],[10.268269539000073,12.877739906000045],[10.28172969800005,12.933170319000055],[10.281550407000054,12.950440407000087],[10.246970177000037,13.034059525000089]]]}},{"type":"Feature","properties":{"CNTRY_NAME":"Nigeria","CNTRY_CODE":"NGA","ADM1_NAME":"Yobe","ADM1_CODE":"NGA036","ADM2_NAME":"Potiskum","ADM2_CODE":"NGA036014","HRname":"Potiskum","HRpcode":"NG036014","HRparent":"NG036","Shape_Leng":0.932060183632,"Shape_Area":0.0462683851202,"ADM2_New":"Potiskum","id":"NG-YO-POTISKUM","name":"Potiskum","parentId":"NG-YO","stateName":"Yobe","regionId":"NG-NE","fillColor":"#7eb09a"},"geometry":{"type":"Polygon","coordinates":[[[11.169190407000087,11.826749802000052],[11.189729691000082,11.830369949000044],[11.19750022900007,11.826789856000062],[11.27528953600006,11.839650154000083],[11.289850235000074,11.83382034300007],[11.287360191000062,11.764780045000066],[11.27198982200008,11.66098022500006],[11.233099937000077,11.674030304000041],[11.217539787000078,11.667300224000087],[11.200010300000088,11.656250000000057],[11.193559647000086,11.639929771000084],[11.169770241000037,11.606749535000063],[11.139019966000092,11.595529556000088],[11.089630127000078,11.587329865000072],[11.037919998000064,11.586449623000078],[11.02548027000006,11.590780258000052],[11.016340256000092,11.586469650000083],[11.012069702000076,11.58948040000007],[11.022199631000092,11.599410057000057],[11.039600372000052,11.64404010800007],[11.019829750000042,11.668080330000066],[11.026140213000076,11.70409965500005],[11.057700157000056,11.733710289000044],[11.067669868000053,11.756400108000037],[11.08071994800008,11.769330025000045],[11.169190407000087,11.826749802000052]]]}},{"type":"Feature","properties":{"CNTRY_NAME":"Nigeria","CNTRY_CODE":"NGA","ADM1_NAME":"Yobe","ADM1_CODE":"NGA036","ADM2_NAME":"Tarmua","ADM2_CODE":"NGA036015","HRname":"Tarmua","HRpcode":"NG036015","HRparent":"NG036","Shape_Leng":2.93393131269,"Shape_Area":0.380606992877,"ADM2_New":"Tarmua","id":"NG-YO-TARMUA","name":"Tarmua","parentId":"NG-YO","stateName":"Yobe","regionId":"NG-NE","fillColor":"#a4c4a0"},"geometry":{"type":"Polygon","coordinates":[[[11.242389679000041,12.405170441000053],[11.281279564000045,12.408129692000045],[11.372730255000079,12.444230080000068],[11.407739639000056,12.452449799000078],[11.45032978100005,12.455969810000056],[11.47677993800005,12.463250160000086],[11.484149933000083,12.457429886000057],[11.503809929000056,12.466970444000083],[11.533550262000063,12.465629578000062],[11.549889565000058,12.469920158000036],[11.562700272000086,12.460909843000081],[11.60064983400008,12.47906017300005],[11.624179840000068,12.483349800000042],[11.669059753000056,12.472599983000066],[11.661589622000065,12.436779976000082],[11.665800095000066,12.406000137000092],[11.688870430000065,12.380270004000067],[11.725379944000053,12.36279010800007],[11.77163982400009,12.35991954800005],[11.797869682000055,12.352199554000038],[11.82258033800008,12.363240242000074],[11.845700264000072,12.358329773000037],[11.886919975000069,12.360919952000074],[11.919179916000076,12.353369713000063],[11.961179733000051,12.360460281000087],[11.982350349000058,12.351240158000053],[12.008589745000052,12.350460052000074],[12.035249710000073,12.35886955300009],[12.05276966100007,12.369919777000064],[12.086580276000063,12.364439964000042],[12.130149841000048,12.373590469000078],[12.188079834000064,12.375769615000081],[12.21959972400009,12.384559631000059],[12.251950264000072,12.418660164000073],[12.260620117000087,12.420269966000092],[12.277580261000082,12.368180275000043],[12.304030418000082,12.313759804000085],[12.306019783000067,12.284950256000059],[12.303090096000062,12.218729973000052],[12.250635147000082,12.009166718000074],[12.183329582000056,12.006170273000066],[12.154549599000063,11.999259949000077],[12.119319916000052,11.982979774000057],[12.053799629000082,11.978549957000041],[12.026599884000063,11.98758983600004],[12.014960289000044,11.996419907000075],[12.000769615000081,11.997559547000037],[11.923899651000056,11.962559700000043],[11.85155010200009,11.946510315000069],[11.827260017000071,11.951600075000044],[11.79911041300005,11.968890190000081],[11.765489578000086,11.975500107000073],[11.736720085000059,11.97552967100006],[11.645270348000054,11.939419746000056],[11.62372016900008,11.953330040000083],[11.618309975000045,11.963470459000064],[11.605099678000045,11.970239639000056],[11.56494998900007,12.00798988300005],[11.491100311000082,12.017649651000056],[11.470520020000038,12.03024005900005],[11.452949524000076,12.080539703000056],[11.449790001000054,12.14470958700008],[11.440710068000044,12.168169975000069],[11.412579536000067,12.192410469000038],[11.36515045200008,12.195460320000052],[11.338560104000067,12.214819908000038],[11.316690445000063,12.254240036000056],[11.29528999300004,12.330619812000066],[11.274370193000038,12.361789703000056],[11.266059875000053,12.382809639000072],[11.242389679000041,12.405170441000053]]]}},{"type":"Feature","properties":{"CNTRY_NAME":"Nigeria","CNTRY_CODE":"NGA","ADM1_NAME":"Yobe","ADM1_CODE":"NGA036","ADM2_NAME":"Machina","ADM2_CODE":"NGA036011","HRname":"Machina","HRpcode":"NG036011","HRparent":"NG036","Shape_Leng":1.74193879093,"Shape_Area":0.101040025908,"ADM2_New":"Machina","id":"NG-YO-MACHINA","name":"Machina","parentId":"NG-YO","stateName":"Yobe","regionId":"NG-NE","fillColor":"#96b57c"},"geometry":{"type":"Polygon","coordinates":[[[10.28108766400004,13.271211239000081],[10.26140976000005,13.226160049000043],[10.261730194000052,13.193699837000054],[10.254289627000048,13.17175960500009],[10.247900009000091,13.101030350000087],[10.257230759000038,13.068800926000051],[10.246970177000037,13.034059525000089],[10.233730316000049,13.04428005200009],[10.207989693000059,13.041660309000065],[10.185899734000088,13.026430130000051],[10.147439957000074,13.00984001200004],[10.070269585000062,12.998550415000068],[10.036459923000052,12.984319687000038],[9.973386765000043,12.969739914000058],[9.939663887000052,12.94746017500006],[9.916830063000077,12.891909599000087],[9.888009071000056,12.848959923000052],[9.874080658000082,12.83728027300009],[9.84843158700005,12.826609612000084],[9.764303207000069,12.809470177000037],[9.658108711000068,12.809121132000087],[9.794330000000059,12.942060000000083],[9.84676999900006,13.014950000000056],[9.91267999900009,13.070570000000089],[9.996530000000064,13.163270000000068],[10.060899999000071,13.203420000000051],[10.20709000000005,13.267820000000086],[10.28108766400004,13.271211239000081]]]}},{"type":"Feature","properties":{"CNTRY_NAME":"Nigeria","CNTRY_CODE":"NGA","ADM1_NAME":"Yobe","ADM1_CODE":"NGA036","ADM2_NAME":"Yusufari","ADM2_CODE":"NGA036017","HRname":"Yusufari","HRpcode":"NG036017","HRparent":"NG036","Shape_Leng":3.30227424726,"Shape_Area":0.326330267614,"ADM2_New":"Yusufari","id":"NG-YO-YUSUFARI","name":"Yusufari","parentId":"NG-YO","stateName":"Yobe","regionId":"NG-NE","fillColor":"#7cb87c"},"geometry":{"type":"Polygon","coordinates":[[[11.280085583000073,13.373989110000082],[11.283499718000087,13.359160423000048],[11.278550148000079,13.324080467000044],[11.281590462000054,13.29349041000006],[11.293020248000062,13.27659034700008],[11.303440094000052,13.240180016000068],[11.306110382000043,13.221229553000057],[11.301980019000041,13.197600365000085],[11.309630394000067,13.145429611000054],[11.352720261000059,13.117609978000075],[11.370949745000075,13.098460197000065],[11.384110451000083,13.070859909000092],[11.408920288000047,13.041379929000072],[11.413550377000092,13.026740074000088],[11.414099693000082,13.009289742000078],[11.399479866000092,12.994299889000047],[11.331170082000085,12.96022987400005],[11.24561023700005,12.950940132000085],[11.147040367000045,12.949549675000071],[11.082229614000084,12.914919853000072],[11.065199852000092,12.89706993100009],[11.060709953000071,12.942709923000052],[11.045999527000049,12.968239784000048],[11.022910118000084,12.987030029000039],[10.925539970000045,12.999329567000075],[10.904740334000053,12.996919632000072],[10.873860359000048,13.012339592000046],[10.866310120000037,13.023980141000038],[10.866909981000049,13.034299850000082],[10.893420219000063,13.062410355000054],[10.896980286000087,13.089610100000073],[10.884579659000053,13.107819557000084],[10.830189705000066,13.125889778000044],[10.74368000000004,13.124870300000055],[10.695010185000058,13.093400002000067],[10.67296981800007,13.063409805000049],[10.673910141000079,13.048210144000052],[10.705189705000066,13.041979790000084],[10.726969719000067,13.043080330000066],[10.736260414000071,13.02768993400008],[10.728460312000038,13.017379761000086],[10.69773960100008,13.013099670000088],[10.57061004600007,13.022930145000089],[10.544219971000075,13.040289879000056],[10.523300171000074,13.071459770000047],[10.498860359000048,13.096249580000062],[10.45654010800007,13.121620178000057],[10.411089897000068,13.135930061000067],[10.353940010000088,13.138250351000067],[10.306079865000072,13.12516975400007],[10.277070045000073,13.103249550000044],[10.257230759000038,13.068800926000051],[10.249050140000065,13.093899727000064],[10.26338005100007,13.237409592000063],[10.28108766400004,13.271211239000081],[10.466420000000085,13.282500000000084],[10.669219999000063,13.356900000000053],[10.985500000000059,13.373720000000048],[11.280085583000073,13.373989110000082]]]}},{"type":"Feature","properties":{"CNTRY_NAME":"Nigeria","CNTRY_CODE":"NGA","ADM1_NAME":"Yobe","ADM1_CODE":"NGA036","ADM2_NAME":"Yunusari","ADM2_CODE":"NGA036016","HRname":"Yunusari","HRpcode":"NG036016","HRparent":"NG036","Shape_Leng":3.19432260933,"Shape_Area":0.315531197118,"ADM2_New":"Yunusari","id":"NG-YO-YUNUSARI","name":"Yunusari","parentId":"NG-YO","stateName":"Yobe","regionId":"NG-NE","fillColor":"#8fbc8f"},"geometry":{"type":"Polygon","coordinates":[[[12.393550557000083,13.07709738400007],[12.402661324000064,13.015519142000073],[12.40138816800004,12.997862816000065],[12.353190422000068,12.983280182000044],[12.277480125000068,12.94808960000006],[12.261540413000091,12.946049690000052],[12.242639542000063,12.927120209000066],[12.139559746000089,12.906780243000071],[12.077139854000052,12.89953994800004],[12.033599854000045,12.904279709000036],[11.96580982200004,12.927989960000048],[11.920129776000067,12.927289963000078],[11.891909599000087,12.916819572000065],[11.888199806000046,12.909319878000076],[11.903289795000092,12.879099846000088],[11.894129753000072,12.867850304000058],[11.857769966000092,12.865639687000055],[11.815950394000083,12.852740288000064],[11.801560402000064,12.852760315000069],[11.78267955800004,12.840769768000087],[11.767319679000082,12.842100143000039],[11.749620438000079,12.836870193000038],[11.71360969500006,12.818860054000083],[11.703769684000065,12.848930359000065],[11.71471977200008,12.877240181000047],[11.717149734000088,12.918519974000048],[11.696009636000042,12.941619873000093],[11.666899681000075,12.960220337000067],[11.64923000300007,12.968870163000076],[11.581399918000045,12.97871017500006],[11.492349625000088,12.96998977700008],[11.43288040200008,12.979619980000052],[11.414609909000092,12.977959633000069],[11.391300201000092,12.988679886000057],[11.414099693000082,13.009289742000078],[11.408920288000047,13.041379929000072],[11.384110451000083,13.070859909000092],[11.364939690000085,13.105219841000064],[11.309630394000067,13.145429611000054],[11.301980019000041,13.197600365000085],[11.306110382000043,13.221229553000057],[11.303440094000052,13.240180016000068],[11.293020248000062,13.27659034700008],[11.281590462000054,13.29349041000006],[11.278550148000079,13.324080467000044],[11.283499718000087,13.359160423000048],[11.280085583000073,13.373989110000082],[11.395580000000052,13.370080000000087],[11.52218999900009,13.353060000000085],[11.637609999000063,13.305280000000039],[11.695589999000049,13.287010000000066],[11.875430000000051,13.249660000000063],[11.928780000000074,13.222780000000057],[11.995020000000068,13.173240000000078],[12.040979999000058,13.130870000000073],[12.114129999000056,13.090330000000051],[12.129849999000044,13.091150000000084],[12.134699999000077,13.104190000000074],[12.149270000000058,13.096850000000074],[12.15089000000006,13.10859000000005],[12.16357000000005,13.102160000000083],[12.176197462000061,13.109406078000063],[12.186827967000056,13.109477067000057],[12.176799088000053,13.11802583900004],[12.176287972000068,13.124514175000058],[12.180107146000068,13.125948139000059],[12.18090221400007,13.117926455000088],[12.200338826000063,13.128844464000053],[12.210917512000037,13.11669267800005],[12.23315015500009,13.106710920000069],[12.236696620000089,13.115694752000081],[12.257336516000066,13.117746105000037],[12.264482027000042,13.114245009000058],[12.272376895000036,13.103944416000047],[12.271417063000058,13.082993531000056],[12.282175050000092,13.079036269000085],[12.28936888000004,13.08038593200007],[12.277837786000077,13.089519083000084],[12.29500339200007,13.100408105000042],[12.312339346000044,13.097617056000047],[12.322481467000046,13.085076990000061],[12.333933941000055,13.084749403000046],[12.331418066000083,13.07493486900006],[12.337262233000047,13.072104509000042],[12.340650804000063,13.087292795000053],[12.347359803000074,13.087921764000043],[12.353576112000042,13.078193713000076],[12.367696462000083,13.09262854700006],[12.372046829000055,13.090710192000074],[12.36778032300009,13.077575227000068],[12.393550557000083,13.07709738400007]]]}}]}