{"type":"FeatureCollection","features":[{"type":"Feature","properties":{"CNTRY_NAME":"Nigeria","CNTRY_CODE":"NGA","ADM1_NAME":"Zamfara","ADM1_CODE":"NGA037","ADM2_NAME":"Anka","ADM2_CODE":"NGA037001","HRname":"Anka","HRpcode":"NG037001","HRparent":"NG037","Shape_Leng":2.31996787486,"Shape_Area":0.227596260413,"ADM2_New":"Anka","id":"NG-ZA-ANKA","name":"Anka","parentId":"NG-ZA","stateName":"Zamfara","regionId":"NG-NW","fillColor":"#6BA368"},"geometry":{"type":"Polygon","coordinates":[[[5.759012222000081,12.343367577000038],[5.855286121000063,12.343381882000074],[5.88849926000006,12.355360031000089],[5.909733772000038,12.26987743400008],[5.93205738100005,12.230130196000061],[5.939136028000064,12.181127548000063],[5.947302818000082,12.165882111000087],[5.970170975000087,12.144647598000063],[6.015362740000057,12.130491257000074],[6.058376312000064,12.123956680000049],[6.0943121910000855,12.125590324000086],[6.131456375000084,12.134790421000048],[6.131795883000052,12.059240341000077],[6.125940323000066,12.034145355000078],[6.146016598000074,11.965551376000064],[6.162746906000052,11.934600830000079],[6.180313587000057,11.924562454000068],[6.210427761000062,11.88189983400008],[6.233850002000054,11.807451248000064],[6.250580311000078,11.789884567000058],[6.281014442000071,11.778489113000091],[6.245641232000082,11.71466255200005],[6.201553345000093,11.684818268000072],[6.171030521000091,11.606137276000084],[6.170352459000071,11.587145805000091],[6.161534786000061,11.57561492900004],[6.141186237000056,11.57086658500009],[6.0557231900000374,11.587145805000091],[6.000104427000053,11.611563683000043],[5.965172768000059,11.638016701000083],[5.919728279000083,11.661756516000082],[5.842404366000039,11.670574188000046],[5.821377754000082,11.668539047000081],[5.83019352000008,11.69769096400006],[5.827816963000089,11.711158752000074],[5.837323189000074,11.762651443000038],[5.834946632000083,11.776910782000073],[5.844452858000068,11.819689751000055],[5.845245361000082,11.908415794000064],[5.83336210300007,11.970207214000084],[5.83336210300007,12.008232117000091],[5.816726208000091,12.076361656000074],[5.808012009000038,12.08586788200006],[5.743844032000084,12.096166611000058],[5.729584217000081,12.116763115000083],[5.720870495000042,12.155581474000087],[5.725650787000063,12.274886131000073],[5.743795395000063,12.32551193200004],[5.741840839000076,12.332352638000089],[5.759012222000081,12.343367577000038]]]}},{"type":"Feature","properties":{"CNTRY_NAME":"Nigeria","CNTRY_CODE":"NGA","ADM1_NAME":"Zamfara","ADM1_CODE":"NGA037","ADM2_NAME":"Bakura","ADM2_CODE":"NGA037002","HRname":"Bakura","HRpcode":"NG037002","HRparent":"NG037","Shape_Leng":1.484772443,"Shape_Area":0.113509462468,"ADM2_New":"Bakura","id":"NG-ZA-BAKURA","name":"Bakura","parentId":"NG-ZA","stateName":"Zamfara","regionId":"NG-NW","fillColor":"#C4A574"},"geometry":{"type":"Polygon","coordinates":[[[5.686267376000046,12.729704857000058],[5.690658092000092,12.742388725000069],[5.752245426000059,12.817273140000054],[5.77114152900009,12.830571175000046],[5.8131327630000555,12.839669228000048],[5.837627888000043,12.834070206000092],[5.895015717000092,12.787179947000084],[5.923010349000037,12.771082878000072],[5.987396717000081,12.754286766000064],[6.020989895000071,12.736789703000056],[6.035686970000086,12.742388725000069],[6.045502186000078,12.75411605800008],[6.070625305000078,12.722002029000066],[6.082964897000068,12.689572334000047],[6.074076653000077,12.679931641000053],[6.070730686000047,12.642289162000054],[6.0590195660000745,12.624722481000049],[6.039779663000047,12.59795379600007],[6.0054826740000635,12.57202148400006],[5.98373317700009,12.52266788500009],[5.960310936000042,12.502591133000067],[5.895063400000083,12.47582340200006],[5.8791694640000856,12.450727463000078],[5.874987125000075,12.392171860000076],[5.885025024000072,12.355237961000057],[5.875976562000062,12.34991550400008],[5.855286121000063,12.343381882000074],[5.759012222000081,12.343367577000038],[5.766942501000074,12.483442307000075],[5.759943962000079,12.489741325000068],[5.733349323000084,12.560426712000037],[5.728450298000041,12.590520859000037],[5.686459064000076,12.70879554700008],[5.686267376000046,12.729704857000058]]]}},{"type":"Feature","properties":{"CNTRY_NAME":"Nigeria","CNTRY_CODE":"NGA","ADM1_NAME":"Zamfara","ADM1_CODE":"NGA037","ADM2_NAME":"Birnin Magaji","ADM2_CODE":"NGA037003","HRname":"Birnin Magaji","HRpcode":"NG037003","HRparent":"NG037","Shape_Leng":1.38328657227,"Shape_Area":0.098722771245,"ADM2_New":"Birnin Magaji","id":"NG-ZA-BIRNIN-MAGAJI","name":"Birnin Magaji","parentId":"NG-ZA","stateName":"Zamfara","regionId":"NG-NW","fillColor":"#5B8FA8"},"geometry":{"type":"Polygon","coordinates":[[[6.747087479000072,12.578186989000073],[6.7674822810000705,12.564912796000044],[6.785538197000051,12.567690849000087],[6.791094303000079,12.577413559000092],[6.814706326000078,12.579496384000038],[6.82095670700005,12.57532978100005],[6.824429035000037,12.562134743000058],[6.808455944000059,12.551023483000051],[6.804983616000072,12.53782844500006],[6.813317299000062,12.523939133000056],[6.823040009000067,12.519772530000068],[6.835540295000044,12.523939133000056],[6.866791725000041,12.569079399000088],[6.929988384000069,12.57532978100005],[6.946655750000048,12.582969666000054],[6.995615959000077,12.580191612000078],[7.051230431000079,12.589386940000054],[7.051239491000047,12.539853096000058],[7.068321228000059,12.411334038000064],[7.092723370000044,12.360089302000063],[7.104723454000066,12.295072556000036],[7.0581183430000465,12.290596962000052],[6.975476265000054,12.296847343000081],[6.86158323300009,12.280874252000046],[6.806719780000037,12.313513756000077],[6.785885811000071,12.334348679000072],[6.710188389000052,12.385045052000066],[6.691437721000057,12.429491043000041],[6.672686577000093,12.504493713000045],[6.677547932000039,12.52116107900008],[6.700465679000047,12.548939705000066],[6.747087479000072,12.578186989000073]]]}},{"type":"Feature","properties":{"CNTRY_NAME":"Nigeria","CNTRY_CODE":"NGA","ADM1_NAME":"Zamfara","ADM1_CODE":"NGA037","ADM2_NAME":"Bukkuyum","ADM2_CODE":"NGA037004","HRname":"Bukkuyum","HRpcode":"NG037004","HRparent":"NG037","Shape_Leng":2.21976502039,"Shape_Area":0.266185001097,"ADM2_New":"Bukkuyum","id":"NG-ZA-BUKKUYUM","name":"Bukkuyum","parentId":"NG-ZA","stateName":"Zamfara","regionId":"NG-NW","fillColor":"#A8BF7A"},"geometry":{"type":"Polygon","coordinates":[[[5.4059903020000775,12.229704143000049],[5.410204993000093,12.25910424400007],[5.4757610240000645,12.252433949000078],[5.523977538000054,12.261474545000056],[5.541054220000092,12.272524163000071],[5.61253118500008,12.274415970000064],[5.631031513000039,12.288511276000065],[5.653055668000093,12.292035103000046],[5.673317909000048,12.288511276000065],[5.683008671000039,12.277058601000078],[5.71031856500008,12.267368317000091],[5.72608232500005,12.271005630000047],[5.720870495000042,12.155581474000087],[5.729584217000081,12.116763115000083],[5.743844032000084,12.096166611000058],[5.808012009000038,12.08586788200006],[5.816726208000091,12.076361656000074],[5.83336210300007,12.008232117000091],[5.83336210300007,11.970207214000084],[5.845245361000082,11.908415794000064],[5.844452858000068,11.819689751000055],[5.834946632000083,11.776910782000073],[5.837323189000074,11.762651443000038],[5.827816963000089,11.711158752000074],[5.83019352000008,11.69769096400006],[5.819894791000081,11.673925400000087],[5.819306850000089,11.649385452000047],[5.76593112900008,11.69353771200008],[5.75730180700009,11.687784195000063],[5.75730180700009,11.682031631000086],[5.744837284000084,11.681073189000074],[5.730454922000092,11.694496155000081],[5.724702358000059,11.691619873000093],[5.724702358000059,11.684907913000075],[5.7112789150000935,11.682031631000086],[5.692102909000084,11.667649269000037],[5.671967983000059,11.659978867000063],[5.6585445400000935,11.668608665000079],[5.639368534000084,11.662856102000092],[5.593345642000088,11.66956710800008],[5.55978727300004,11.685867310000049],[5.554993153000055,11.675319672000057],[5.545405388000063,11.672443390000069],[5.5415701870000476,11.66573238400008],[5.524311543000067,11.662856102000092],[5.502258778000055,11.66956710800008],[5.461813450000079,11.665992737000067],[5.4502916340000525,11.697564125000042],[5.443387985000072,11.702934265000067],[5.4081039430000715,11.702934265000067],[5.362848282000073,11.709836960000075],[5.352876663000075,11.70446777300009],[5.345973015000084,11.712138176000053],[5.341371059000039,11.729013443000042],[5.33063221000009,11.73898506200004],[5.322194576000072,11.761996269000065],[5.310688972000094,11.770433426000068],[5.306853771000078,11.783473969000056],[5.318434238000066,11.829195976000051],[5.309720039000069,11.94564914700004],[5.31209659600006,11.997934341000075],[5.314473152000062,12.005064011000059],[5.3453688620000435,12.009024620000048],[5.374680519000037,12.03675174700004],[5.379433632000087,12.066855431000079],[5.392108440000072,12.096166611000058],[5.391316414000073,12.139737129000082],[5.3857712750000815,12.161126137000053],[5.4059903020000775,12.229704143000049]]]}},{"type":"Feature","properties":{"CNTRY_NAME":"Nigeria","CNTRY_CODE":"NGA","ADM1_NAME":"Zamfara","ADM1_CODE":"NGA037","ADM2_NAME":"Bungudu","ADM2_CODE":"NGA037005","HRname":"Bungudu","HRpcode":"NG037005","HRparent":"NG037","Shape_Leng":2.65423080214,"Shape_Area":0.190268879852,"ADM2_New":"Bungudu","id":"NG-ZA-BUNGUDU","name":"Bungudu","parentId":"NG-ZA","stateName":"Zamfara","regionId":"NG-NW","fillColor":"#B8956B"},"geometry":{"type":"Polygon","coordinates":[[[6.410634041000037,12.384956360000047],[6.443866730000082,12.42777538300004],[6.457479000000092,12.458810806000088],[6.48517942400008,12.468380928000045],[6.5025410650000595,12.465603828000042],[6.559487820000072,12.444074631000092],[6.59143352500007,12.396156311000084],[6.624073982000084,12.368377686000088],[6.6296296120000875,12.350320816000078],[6.6525468830000705,12.31420898400006],[6.674770355000078,12.31004142800009],[6.713660717000039,12.32115364100008],[6.761579037000047,12.31976413700005],[6.776857376000066,12.307958603000088],[6.810886860000039,12.293375015000038],[6.853506565000089,12.281934738000075],[6.857069016000082,12.275318146000075],[6.85290193600008,12.228094101000067],[6.857069016000082,12.21698284100006],[6.8577632900000935,12.097533226000053],[6.841095924000058,12.057253838000065],[6.826512337000054,12.046142578000058],[6.807761669000058,12.043364525000072],[6.754287243000078,12.068366051000055],[6.704979897000044,12.132951736000052],[6.673728466000057,12.202398300000084],[6.663311481000051,12.215593338000076],[6.648727417000089,12.219760895000093],[6.622337818000062,12.218371391000062],[6.60219812400004,12.207954407000045],[6.582058430000075,12.145452499000044],[6.584141731000045,12.112117767000086],[6.570252419000042,12.08503341700009],[6.569557667000083,12.010725021000042],[6.544556618000058,11.974612236000041],[6.554973602000075,11.93780517600004],[6.55566835400009,11.897525787000063],[6.529973030000065,11.87252426100008],[6.518861294000089,11.817661285000042],[6.474762440000063,11.755159378000087],[6.455664158000047,11.683628082000041],[6.4417748450000545,11.662099838000074],[6.299580097000046,11.754256248000047],[6.283625126000061,11.78181171400007],[6.310410976000071,11.807984352000062],[6.330615520000038,11.80598163600007],[6.340960503000076,11.813604355000052],[6.350216866000039,11.848996162000049],[6.3796186450000505,11.909432411000068],[6.382068634000063,12.004715919000091],[6.33796596500008,12.114701271000058],[6.338510513000074,12.156625748000067],[6.341232777000073,12.169148445000076],[6.356478214000049,12.191472054000087],[6.376623631000086,12.20998477900008],[6.41364812900008,12.226863861000083],[6.418548584000064,12.239386559000081],[6.43161630600008,12.293833733000042],[6.444139004000078,12.32432460800004],[6.410634041000037,12.384956360000047]]]}},{"type":"Feature","properties":{"CNTRY_NAME":"Nigeria","CNTRY_CODE":"NGA","ADM1_NAME":"Zamfara","ADM1_CODE":"NGA037","ADM2_NAME":"Gummi","ADM2_CODE":"NGA037006","HRname":"Gummi","HRpcode":"NG037006","HRparent":"NG037","Shape_Leng":2.02375653356,"Shape_Area":0.21606760656,"ADM2_New":"Gummi","id":"NG-ZA-GUMMI","name":"Gummi","parentId":"NG-ZA","stateName":"Zamfara","regionId":"NG-NW","fillColor":"#6AADA3"},"geometry":{"type":"Polygon","coordinates":[[[5.4059903020000775,12.229704143000049],[5.3857712750000815,12.161126137000053],[5.391316414000073,12.139737129000082],[5.392108440000072,12.096166611000058],[5.379433632000087,12.066855431000079],[5.374680519000037,12.03675174700004],[5.3453688620000435,12.009024620000048],[5.314473152000062,12.005064011000059],[5.31209659600006,11.997934341000075],[5.309720039000069,11.94564914700004],[5.318434238000066,11.829195976000051],[5.304690361000041,11.784260750000044],[5.298416615000065,11.786541939000074],[5.280007362000049,11.770433426000068],[5.23475170100005,11.769666672000085],[5.221711636000066,11.754325867000091],[5.20943880100009,11.76046180700007],[5.204836845000045,11.770433426000068],[5.172620773000062,11.783473969000056],[5.163416386000051,11.772734642000046],[5.17492198900004,11.758161545000064],[5.171086788000082,11.741286278000075],[5.14884233500004,11.733615875000055],[5.138870716000042,11.722109795000051],[5.117393494000055,11.719808578000084],[5.099751472000094,11.72824668900006],[5.075205803000074,11.723644257000046],[5.055262566000067,11.706002235000085],[5.024580956000079,11.717507362000049],[5.003870487000086,11.73898506200004],[4.977024078000056,11.741286278000075],[4.943274021000093,11.733615875000055],[4.92930719900005,11.741137998000056],[4.92930719900005,11.779309405000049],[4.94839290200008,11.89683715800004],[4.94738839200005,11.936013075000062],[4.956428988000084,12.029432571000086],[4.957433499000047,12.160018963000084],[4.950401924000062,12.246406884000066],[4.956428988000084,12.27051514100009],[4.972501159000046,12.292614377000064],[4.98154175600007,12.300650463000068],[4.9976139270000886,12.300650463000068],[5.068934187000082,12.277546716000074],[5.218606283000042,12.285582802000079],[5.292940075000047,12.278551227000037],[5.408458807000045,12.259465524000063],[5.4059903020000775,12.229704143000049]]]}},{"type":"Feature","properties":{"CNTRY_NAME":"Nigeria","CNTRY_CODE":"NGA","ADM1_NAME":"Zamfara","ADM1_CODE":"NGA037","ADM2_NAME":"Gusau","ADM2_CODE":"NGA037007","HRname":"Gusau","HRpcode":"NG037007","HRparent":"NG037","Shape_Leng":3.81571576239,"Shape_Area":0.278987054512,"ADM2_New":"Gusau","id":"NG-ZA-GUSAU","name":"Gusau","parentId":"NG-ZA","stateName":"Zamfara","regionId":"NG-NW","fillColor":"#8FAF6E"},"geometry":{"type":"Polygon","coordinates":[[[6.853506565000089,12.281934738000075],[6.975476265000054,12.296847343000081],[7.0581183430000465,12.290596962000052],[7.104723454000066,12.295072556000036],[7.141527653000082,12.225877762000039],[7.1525087360000725,12.184393883000041],[7.150068760000067,12.15917778000005],[7.113465309000048,12.08759784700004],[7.090689659000077,12.06400966600006],[7.113035679000063,12.039845467000077],[7.102911949000088,12.032253265000065],[7.082772255000066,12.031558990000065],[7.031381607000071,12.049614906000045],[6.961239815000056,12.051698685000076],[6.9487390520000645,12.057949066000049],[6.917488098000092,12.062115669000036],[6.769565582000041,11.981556892000071],[6.7275500300000886,11.934332848000054],[6.699771404000046,11.817661285000042],[6.683798313000068,11.681545258000085],[6.684492588000069,11.64821052600007],[6.7011599540000475,11.607236862000093],[6.740745068000081,11.57459640500008],[6.75810670900006,11.56834602400005],[6.77546834900005,11.55029010800007],[6.792135715000086,11.541955948000066],[6.824776173000089,11.546123505000082],[6.854380608000042,11.59521961200005],[6.8674092290000885,11.577591896000058],[6.902339458000085,11.554482460000088],[6.907266617000062,11.529600143000039],[6.895878792000076,11.505198479000057],[6.907266617000062,11.475102425000046],[6.886931419000064,11.431178093000085],[6.888557911000078,11.380746841000075],[6.874730110000087,11.364479065000069],[6.864155769000092,11.340076447000058],[6.8552083970000695,11.336822510000047],[6.828365803000054,11.307539940000083],[6.816164970000045,11.309980392000057],[6.783516884000051,11.281241417000047],[6.761133671000039,11.269032478000042],[6.74553346600004,11.243258476000051],[6.724424839000051,11.25930595400007],[6.666089535000083,11.35722637200007],[6.661922455000081,11.400283813000044],[6.652199745000075,11.415562630000068],[6.618865013000061,11.428062439000087],[6.593169689000092,11.457230568000057],[6.583446980000076,11.475981712000078],[6.572335720000069,11.485009193000053],[6.500804901000038,11.510704994000037],[6.488998890000062,11.521121979000043],[6.454275608000046,11.533622742000091],[6.376494408000042,11.548206329000038],[6.366772175000051,11.556540489000042],[6.3660774230000925,11.569735527000091],[6.3723278050000545,11.582929611000054],[6.423718929000074,11.63015461000009],[6.436913490000052,11.650293350000084],[6.455664158000047,11.683628082000041],[6.474762440000063,11.755159378000087],[6.518861294000089,11.817661285000042],[6.529973030000065,11.87252426100008],[6.55566835400009,11.897525787000063],[6.554973602000075,11.93780517600004],[6.544556618000058,11.974612236000041],[6.569557667000083,12.010725021000042],[6.570252419000042,12.08503341700009],[6.584141731000045,12.112117767000086],[6.582058430000075,12.145452499000044],[6.60219812400004,12.207954407000045],[6.622337818000062,12.218371391000062],[6.648727417000089,12.219760895000093],[6.663311481000051,12.215593338000076],[6.673728466000057,12.202398300000084],[6.704979897000044,12.132951736000052],[6.754287243000078,12.068366051000055],[6.807761669000058,12.043364525000072],[6.826512337000054,12.046142578000058],[6.841095924000058,12.057253838000065],[6.8577632900000935,12.097533226000053],[6.857069016000082,12.21698284100006],[6.85290193600008,12.228094101000067],[6.857069016000082,12.275318146000075],[6.853506565000089,12.281934738000075]]]}},{"type":"Feature","properties":{"CNTRY_NAME":"Nigeria","CNTRY_CODE":"NGA","ADM1_NAME":"Zamfara","ADM1_CODE":"NGA037","ADM2_NAME":"Kaura-Namoda","ADM2_CODE":"NGA037008","HRname":"Kaura-Namoda","HRpcode":"NG037008","HRparent":"NG037","Shape_Leng":1.46762662187,"Shape_Area":0.0721291443937,"ADM2_New":"Kaura Namoda","id":"NG-ZA-KAURA-NAMODA","name":"Kaura-Namoda","parentId":"NG-ZA","stateName":"Zamfara","regionId":"NG-NW","fillColor":"#D4C4A0"},"geometry":{"type":"Polygon","coordinates":[[[6.472575188000064,12.692028999000058],[6.490387917000078,12.694085121000057],[6.5320563320000815,12.684362411000052],[6.5438623430000575,12.677417755000079],[6.577891350000073,12.683667183000068],[6.599420071000054,12.67116737400005],[6.646644115000072,12.66005516100006],[6.6577558520000935,12.651721954000038],[6.686923504000049,12.643387794000091],[6.695257187000038,12.61144256600005],[6.747087479000072,12.578186989000073],[6.700465679000047,12.548939705000066],[6.677547932000039,12.52116107900008],[6.672686577000093,12.504493713000045],[6.7011599540000475,12.401712418000045],[6.710188389000052,12.385045052000066],[6.738661766000064,12.36351585400007],[6.785885811000071,12.334348679000072],[6.806719780000037,12.313513756000077],[6.858371258000091,12.283015251000052],[6.810886860000039,12.293375015000038],[6.776857376000066,12.307958603000088],[6.761579037000047,12.31976413700005],[6.740745068000081,12.323236465000036],[6.688659668000071,12.316987038000036],[6.674770355000078,12.31004142800009],[6.6525468830000705,12.31420898400006],[6.6296296120000875,12.350320816000078],[6.624073982000084,12.368377686000088],[6.59143352500007,12.396156311000084],[6.559487820000072,12.444074631000092],[6.5025410650000595,12.465603828000042],[6.48517942400008,12.468380928000045],[6.46087312700007,12.461436272000071],[6.455317020000052,12.487132072000065],[6.4428167340000755,12.505187988000046],[6.44212198300005,12.525327682000068],[6.435872078000045,12.537134171000048],[6.440733433000048,12.579496384000038],[6.437261105000061,12.594775200000072],[6.450108528000044,12.652416229000039],[6.472575188000064,12.692028999000058]]]}},{"type":"Feature","properties":{"CNTRY_NAME":"Nigeria","CNTRY_CODE":"NGA","ADM1_NAME":"Zamfara","ADM1_CODE":"NGA037","ADM2_NAME":"Maradun","ADM2_CODE":"NGA037009","HRname":"Maradun","HRpcode":"NG037009","HRparent":"NG037","Shape_Leng":2.29904213711,"Shape_Area":0.226894337512,"ADM2_New":"Maradun","id":"NG-ZA-MARADUN","name":"Maradun","parentId":"NG-ZA","stateName":"Zamfara","regionId":"NG-NW","fillColor":"#688EB5"},"geometry":{"type":"Polygon","coordinates":[[[6.020317554000087,13.008504868000045],[6.027902603000086,13.021341324000048],[6.0723476410000785,13.039773941000078],[6.101976395000065,13.059756279000055],[6.131605148000062,13.072158813000044],[6.1515874860000395,13.07491493200007],[6.1887955670000565,13.065958023000064],[6.245296955000072,13.028059959000075],[6.2542548180000495,13.031505585000048],[6.2591662410000595,13.069703102000062],[6.299731731000065,13.051487923000082],[6.350720882000076,13.039085388000046],[6.418246746000079,13.031505585000048],[6.457522392000044,13.041152000000068],[6.466479778000064,13.028749466000079],[6.462345600000049,13.014968872000054],[6.423718929000074,12.983679771000084],[6.419551849000072,12.973261833000038],[6.423718929000074,12.956595421000088],[6.423718929000074,12.911454201000083],[6.398717880000049,12.887842178000085],[6.396634102000064,12.875341415000037],[6.39941215500005,12.867008209000062],[6.412607193000042,12.864230156000076],[6.424413204000075,12.868396759000063],[6.454275608000046,12.850340843000083],[6.463303566000093,12.826034546000074],[6.457053185000063,12.814922333000084],[6.401495457000067,12.794782639000061],[6.384828091000088,12.784365654000055],[6.379272461000085,12.77464294400005],[6.379967213000043,12.754503250000084],[6.385522842000057,12.743391991000067],[6.421635151000089,12.73158645600006],[6.443858147000071,12.733669281000061],[6.457747936000089,12.729502678000074],[6.4709429740000814,12.72047424300007],[6.474415302000068,12.70797443400005],[6.472575188000064,12.692028999000058],[6.450108528000044,12.652416229000039],[6.437261105000061,12.594775200000072],[6.440733433000048,12.579496384000038],[6.435872078000045,12.537134171000048],[6.44212198300005,12.525327682000068],[6.4428167340000755,12.505187988000046],[6.455317020000052,12.487132072000065],[6.46087312700007,12.461436272000071],[6.427532673000087,12.40272998800009],[6.406842232000088,12.380406380000068],[6.370362282000087,12.382584572000042],[6.335515976000067,12.403274536000083],[6.319725990000052,12.418519974000048],[6.289235115000054,12.430498123000064],[6.2669115070000885,12.433220863000088],[6.236420631000044,12.449554443000068],[6.227709293000089,12.447377205000066],[6.22183799700008,12.430515289000084],[6.21300840400005,12.425598145000038],[6.190140247000045,12.437576294000053],[6.159104824000053,12.46643352500007],[6.144948483000064,12.503458023000064],[6.147670746000074,12.531770706000088],[6.162371635000056,12.559539795000092],[6.159104824000053,12.569339752000076],[6.124802589000069,12.624876976000053],[6.104657173000078,12.648289680000062],[6.098123550000082,12.667890549000049],[6.080155373000082,12.693481445000089],[6.070625305000078,12.722002029000066],[6.048539162000054,12.746614456000088],[6.01794385900007,12.836077690000081],[6.006457329000057,12.905791283000042],[6.024677753000049,12.965998650000074],[6.020317554000087,13.008504868000045]]]}},{"type":"Feature","properties":{"CNTRY_NAME":"Nigeria","CNTRY_CODE":"NGA","ADM1_NAME":"Zamfara","ADM1_CODE":"NGA037","ADM2_NAME":"Maru","ADM2_CODE":"NGA037010","HRname":"Maru","HRpcode":"NG037010","HRparent":"NG037","Shape_Leng":5.30245026206,"Shape_Area":0.550888583962,"ADM2_New":"Maru","id":"NG-ZA-MARU","name":"Maru","parentId":"NG-ZA","stateName":"Zamfara","regionId":"NG-NW","fillColor":"#7CB087"},"geometry":{"type":"Polygon","coordinates":[[[6.22183799700008,12.430515289000084],[6.227709293000089,12.447377205000066],[6.236420631000044,12.449554443000068],[6.2669115070000885,12.433220863000088],[6.289235115000054,12.430498123000064],[6.319725990000052,12.418519974000048],[6.335515976000067,12.403274536000083],[6.370362282000087,12.382584572000042],[6.406842232000088,12.380406380000068],[6.410634041000037,12.384956360000047],[6.444139004000078,12.32432460800004],[6.41364812900008,12.226863861000083],[6.3673677440000915,12.202362061000088],[6.341232777000073,12.169148445000076],[6.338510513000074,12.156625748000067],[6.33796596500008,12.114701271000058],[6.382068634000063,12.004715919000091],[6.3796186450000505,11.909432411000068],[6.350216866000039,11.848996162000049],[6.340960503000076,11.813604355000052],[6.330615520000038,11.80598163600007],[6.310410976000071,11.807984352000062],[6.283625126000061,11.78181171400007],[6.299580097000046,11.754256248000047],[6.4417748450000545,11.662099838000074],[6.423718929000074,11.63015461000009],[6.3723278050000545,11.582929611000054],[6.3660774230000925,11.569735527000091],[6.366772175000051,11.556540489000042],[6.376494408000042,11.548206329000038],[6.454275608000046,11.533622742000091],[6.488998890000062,11.521121979000043],[6.500804901000038,11.510704994000037],[6.550112724000087,11.494731903000059],[6.583446980000076,11.475981712000078],[6.593169689000092,11.457230568000057],[6.618865013000061,11.428062439000087],[6.652199745000075,11.415562630000068],[6.661922455000081,11.400283813000044],[6.666089535000083,11.35722637200007],[6.704979897000044,11.28847408300004],[6.724424839000051,11.25930595400007],[6.74553346600004,11.243258476000051],[6.746890068000084,11.233761787000049],[6.7434983250000755,11.216805458000067],[6.732985020000058,11.201883316000078],[6.742463589000067,11.17453289000008],[6.731628418000071,11.161186218000068],[6.733663559000092,11.147620201000052],[6.722132683000041,11.140837669000064],[6.712281227000062,11.123435974000074],[6.706532001000085,11.12184619900006],[6.716028214000062,11.106245995000052],[6.706532001000085,11.095393181000077],[6.688897133000069,11.094715118000067],[6.691609859000039,11.07300949100005],[6.676009655000087,11.057409286000052],[6.667870522000044,11.062157631000048],[6.645487309000089,11.048591614000088],[6.606825352000044,11.047235489000059],[6.575624466000079,11.02349567400006],[6.548492908000071,11.028243065000083],[6.517292500000053,11.02620887800009],[6.5077962880000655,11.013320923000038],[6.471847534000062,11.021460533000038],[6.463708401000076,11.00111198400009],[6.45828199400006,10.99907779700004],[6.446751118000066,11.003825188000064],[6.439290047000043,10.998398781000049],[6.419996262000041,11.014126778000048],[6.411480904000086,11.030278206000048],[6.3829927440000915,11.033669472000042],[6.357218266000075,11.019426346000046],[6.323304176000079,11.025530815000081],[6.322626114000059,11.01739120500008],[6.300920963000067,11.001791000000082],[6.2771816250000825,10.965842247000069],[6.263615608000066,10.965842247000069],[6.245302200000083,10.948206902000038],[6.233771324000088,10.945493698000064],[6.223597527000038,10.91090107000008],[6.226310253000065,10.895300865000081],[6.211388111000076,10.87902164500008],[6.205962181000075,10.863421440000081],[6.201214314000083,10.863421440000081],[6.181543827000041,10.872239113000091],[6.161300659000062,10.866134644000056],[6.164440155000079,10.881745338000087],[6.1612277030000655,10.917085648000068],[6.159621239000046,10.925920486000052],[6.152392387000077,10.92993640900005],[6.145967007000081,10.957244873000093],[6.1146426200000406,11.001420021000058],[6.052797318000046,11.04318618800005],[6.032717705000039,11.07531356800007],[6.026292324000053,11.11386680600009],[6.015850544000045,11.137962341000048],[5.99336147300005,11.145994186000053],[5.985329628000045,11.144387245000075],[5.960175037000056,11.117856979000067],[5.9548163410000825,11.130717278000077],[5.944269180000049,11.212216377000061],[5.969198227000049,11.259197235000045],[5.956733704000044,11.294673920000037],[5.931804657000043,11.32056140900005],[5.937557697000045,11.330149651000056],[5.962486744000046,11.330149651000056],[5.989333153000075,11.321519852000051],[6.012344360000043,11.32056140900005],[6.031520844000056,11.323437691000038],[6.04686164900005,11.333984375000057],[6.051655769000092,11.367543221000062],[6.043985367000062,11.419318199000088],[6.019056320000061,11.473011971000062],[6.001797676000081,11.491229057000055],[5.956733704000044,11.519992828000056],[5.921257973000081,11.553551674000062],[5.906875610000043,11.576562881000086],[5.884823322000045,11.599574089000043],[5.876194000000055,11.620668411000054],[5.856059074000086,11.64080333700008],[5.819306850000089,11.649385452000047],[5.821377754000082,11.668539047000081],[5.825447559000054,11.670574188000046],[5.904127598000059,11.66582584400004],[5.965172768000059,11.638016701000083],[6.000104427000053,11.611563683000043],[6.0557231900000374,11.587145805000091],[6.150682449000044,11.572223663000045],[6.161534786000061,11.57561492900004],[6.170352459000071,11.587145805000091],[6.171030521000091,11.606137276000084],[6.201553345000093,11.684818268000072],[6.245641232000082,11.71466255200005],[6.26666784300005,11.746541023000077],[6.281014442000071,11.778489113000091],[6.250580311000078,11.789884567000058],[6.233850002000054,11.807451248000064],[6.210427761000062,11.88189983400008],[6.180313587000057,11.924562454000068],[6.162746906000052,11.934600830000079],[6.146016598000074,11.965551376000064],[6.125940323000066,12.034145355000078],[6.131795883000052,12.059240341000077],[6.131456375000084,12.134790421000048],[6.141681671000072,12.145192146000056],[6.156927109000037,12.183849335000048],[6.159649372000047,12.222507477000079],[6.181972980000069,12.319969177000075],[6.190684795000038,12.343381882000074],[6.206474304000039,12.365705490000039],[6.234787464000078,12.39183998100009],[6.238598824000064,12.407629967000048],[6.22183799700008,12.430515289000084]]]}},{"type":"Feature","properties":{"CNTRY_NAME":"Nigeria","CNTRY_CODE":"NGA","ADM1_NAME":"Zamfara","ADM1_CODE":"NGA037","ADM2_NAME":"Shinkafi","ADM2_CODE":"NGA037011","HRname":"Shinkafi","HRpcode":"NG037011","HRparent":"NG037","Shape_Leng":1.26158884687,"Shape_Area":0.0561556400877,"ADM2_New":"Shinkafi","id":"NG-ZA-SHINKAFI","name":"Shinkafi","parentId":"NG-ZA","stateName":"Zamfara","regionId":"NG-NW","fillColor":"#C9B896"},"geometry":{"type":"Polygon","coordinates":[[[6.2591662410000595,13.069703102000062],[6.26183414500008,13.090074539000057],[6.257699966000075,13.101099014000056],[6.26484584800005,13.149384499000064],[6.270175934000065,13.15623760200009],[6.2895922660000565,13.158902168000054],[6.3714456560000485,13.149765015000071],[6.394288540000048,13.138343811000084],[6.406090736000067,13.125399590000086],[6.421319008000069,13.123496056000079],[6.478997231000051,13.089612007000085],[6.502601624000079,13.081617355000049],[6.53534317000009,13.075906754000073],[6.584836006000046,13.07514572100007],[6.60729789700008,13.066769600000043],[6.622907162000047,13.066769600000043],[6.660693169000069,13.077429771000084],[6.658694267000044,13.066008568000086],[6.696765423000045,12.999382973000081],[6.70209550900006,12.97463703200009],[6.701334000000088,12.949509621000061],[6.678872108000064,12.91676807400006],[6.665927887000066,12.908392906000074],[6.636612892000073,12.896971703000077],[6.595115185000054,12.895829201000083],[6.576459885000077,12.910296440000081],[6.571130276000076,12.921717644000069],[6.53534317000009,12.944179535000046],[6.472906113000079,12.941514969000082],[6.456915855000091,12.949129105000054],[6.443971634000093,12.962073326000052],[6.43112134900008,12.987185478000072],[6.462345600000049,13.014968872000054],[6.466479778000064,13.028749466000079],[6.457522392000044,13.041152000000068],[6.418246746000079,13.031505585000048],[6.396886349000056,13.03219413800008],[6.299731731000065,13.051487923000082],[6.2591662410000595,13.069703102000062]]]}},{"type":"Feature","properties":{"CNTRY_NAME":"Nigeria","CNTRY_CODE":"NGA","ADM1_NAME":"Zamfara","ADM1_CODE":"NGA037","ADM2_NAME":"Talata Mafara","ADM2_CODE":"NGA037012","HRname":"Talata Mafara","HRpcode":"NG037012","HRparent":"NG037","Shape_Leng":1.49945269698,"Shape_Area":0.118724113027,"ADM2_New":"Talata Mafara","id":"NG-ZA-TALATA-MAFARA","name":"Talata Mafara","parentId":"NG-ZA","stateName":"Zamfara","regionId":"NG-NW","fillColor":"#5E9E78"},"geometry":{"type":"Polygon","coordinates":[[[6.082964897000068,12.689572334000047],[6.098123550000082,12.667890549000049],[6.104657173000078,12.648289680000062],[6.124802589000069,12.624876976000053],[6.159104824000053,12.569339752000076],[6.162371635000056,12.559539795000092],[6.147670746000074,12.531770706000088],[6.144948483000064,12.503458023000064],[6.159104824000053,12.46643352500007],[6.190140247000045,12.437576294000053],[6.21300840400005,12.425598145000038],[6.22183799700008,12.430515289000084],[6.238598824000064,12.407629967000048],[6.234787464000078,12.39183998100009],[6.215186119000066,12.37713909100006],[6.186328888000048,12.33194732700008],[6.159649372000047,12.222507477000079],[6.156927109000037,12.183849335000048],[6.141681671000072,12.145192146000056],[6.134058952000089,12.135391235000043],[6.0943121910000855,12.125590324000086],[6.058376312000064,12.123956680000049],[5.990861416000087,12.136480331000087],[5.970170975000087,12.144647598000063],[5.947302818000082,12.165882111000087],[5.939136028000064,12.181127548000063],[5.93205738100005,12.230130196000061],[5.909733772000038,12.26987743400008],[5.874987125000075,12.392171860000076],[5.875823498000045,12.428978920000077],[5.8791694640000856,12.450727463000078],[5.895063400000083,12.47582340200006],[5.960310936000042,12.502591133000067],[5.98373317700009,12.52266788500009],[6.0054826740000635,12.57202148400006],[6.039779663000047,12.59795379600007],[6.070730686000047,12.642289162000054],[6.074076653000077,12.679931641000053],[6.082964897000068,12.689572334000047]]]}},{"type":"Feature","properties":{"CNTRY_NAME":"Nigeria","CNTRY_CODE":"NGA","ADM1_NAME":"Zamfara","ADM1_CODE":"NGA037","ADM2_NAME":"Tsafe","ADM2_CODE":"NGA037013","HRname":"Tsafe","HRpcode":"NG037013","HRparent":"NG037","Shape_Leng":1.79401787793,"Shape_Area":0.140879178515,"ADM2_New":"Tsafe","id":"NG-ZA-TSAFE","name":"Tsafe","parentId":"NG-ZA","stateName":"Zamfara","regionId":"NG-NW","fillColor":"#94B86A"},"geometry":{"type":"Polygon","coordinates":[[[7.113035679000063,12.039845467000077],[7.151047230000074,12.01083755500008],[7.209447384000043,11.985108376000085],[7.216767788000084,11.958266258000037],[7.2265291210000555,11.94606494900006],[7.234663010000077,11.94606494900006],[7.241857052000057,11.93330955500005],[7.19968652700004,11.906208038000045],[7.164710045000049,11.911902428000076],[7.154949188000046,11.917595863000088],[7.14356136300006,11.911088943000038],[7.141120911000087,11.878552437000053],[7.1301403050000545,11.864724159000048],[7.08458948100008,11.828934669000091],[7.072388172000046,11.808599472000083],[7.0545344350000505,11.800853729000039],[7.021888256000068,11.809108734000063],[7.016263008000067,11.817546844000049],[7.002435207000076,11.82080078100006],[6.95363044700008,11.814292908000084],[6.896692276000067,11.794771194000077],[6.89018487900006,11.779316902000062],[6.888473511000086,11.724150658000042],[6.8552083970000695,11.641850471000055],[6.854380608000042,11.59521961200005],[6.824776173000089,11.546123505000082],[6.792135715000086,11.541955948000066],[6.77546834900005,11.55029010800007],[6.75810670900006,11.56834602400005],[6.740745068000081,11.57459640500008],[6.713660717000039,11.594041824000044],[6.7011599540000475,11.607236862000093],[6.684492588000069,11.64821052600007],[6.683798313000068,11.681545258000085],[6.699771404000046,11.817661285000042],[6.7275500300000886,11.934332848000054],[6.741439342000092,11.95169448900009],[6.769565582000041,11.981556892000071],[6.917488098000092,12.062115669000036],[6.9487390520000645,12.057949066000049],[6.961239815000056,12.051698685000076],[7.031381607000071,12.049614906000045],[7.082772255000066,12.031558990000065],[7.102911949000088,12.032253265000065],[7.113035679000063,12.039845467000077]]]}},{"type":"Feature","properties":{"CNTRY_NAME":"Nigeria","CNTRY_CODE":"NGA","ADM1_NAME":"Zamfara","ADM1_CODE":"NGA037","ADM2_NAME":"Zurmi","ADM2_CODE":"NGA037014","HRname":"Zurmi","HRpcode":"NG037014","HRparent":"NG037","Shape_Leng":2.59050562438,"Shape_Area":0.235847444878,"ADM2_New":"Zurmi","id":"NG-ZA-ZURMI","name":"Zurmi","parentId":"NG-ZA","stateName":"Zamfara","regionId":"NG-NW","fillColor":"#C2A882"},"geometry":{"type":"Polygon","coordinates":[[[6.79199021800008,13.158609665000085],[6.818589999000039,13.11797000000007],[6.928010000000086,12.989850000000047],[7.032051989000081,12.995428771000093],[7.0398516650000715,12.948996544000067],[7.0231771470000695,12.831866264000041],[7.028871059000039,12.81722450300009],[7.028871059000039,12.773301125000046],[7.041885376000039,12.692773819000081],[7.051230431000079,12.589386940000054],[6.995615959000077,12.580191612000078],[6.946655750000048,12.582969666000054],[6.929988384000069,12.57532978100005],[6.866791725000041,12.569079399000088],[6.835540295000044,12.523939133000056],[6.823040009000067,12.519772530000068],[6.813317299000062,12.523939133000056],[6.804983616000072,12.53782844500006],[6.808455944000059,12.551023483000051],[6.824429035000037,12.562134743000058],[6.82095670700005,12.57532978100005],[6.814706326000078,12.579496384000038],[6.791094303000079,12.577413559000092],[6.785538197000051,12.567690849000087],[6.7674822810000705,12.564912796000044],[6.695257187000038,12.61144256600005],[6.686923504000049,12.643387794000091],[6.6577558520000935,12.651721954000038],[6.646644115000072,12.66005516100006],[6.599420071000054,12.67116737400005],[6.577891350000073,12.683667183000068],[6.5438623430000575,12.677417755000079],[6.5320563320000815,12.684362411000052],[6.490387917000078,12.694085121000057],[6.472575188000064,12.692028999000058],[6.4709429740000814,12.72047424300007],[6.443858147000071,12.733669281000061],[6.421635151000089,12.73158645600006],[6.395245552000063,12.738531113000079],[6.385522842000057,12.743391991000067],[6.379272461000085,12.765615463000074],[6.384828091000088,12.784365654000055],[6.401495457000067,12.794782639000061],[6.447330952000073,12.809367180000038],[6.457053185000063,12.814922333000084],[6.463303566000093,12.826034546000074],[6.454275608000046,12.850340843000083],[6.424413204000075,12.868396759000063],[6.412607193000042,12.864230156000076],[6.39941215500005,12.867008209000062],[6.396634102000064,12.875341415000037],[6.398717880000049,12.887842178000085],[6.423718929000074,12.911454201000083],[6.423718929000074,12.956595421000088],[6.419551849000072,12.973261833000038],[6.423718929000074,12.983679771000084],[6.43112134900008,12.987185478000072],[6.435215473000085,12.983774185000073],[6.443971634000093,12.962073326000052],[6.456915855000091,12.949129105000054],[6.472906113000079,12.941514969000082],[6.53534317000009,12.944179535000046],[6.549809933000063,12.937326431000088],[6.595115185000054,12.895829201000083],[6.636612892000073,12.896971703000077],[6.665927887000066,12.908392906000074],[6.678872108000064,12.91676807400006],[6.699049950000074,12.94379901900004],[6.70209550900006,12.97463703200009],[6.696765423000045,12.999382973000081],[6.657552242000065,13.07324123400008],[6.666089058000068,13.080586433000065],[6.682679176000079,13.083901405000063],[6.709710121000057,13.105602264000083],[6.742070675000093,13.11702346800007],[6.79199021800008,13.158609665000085]]]}}]}