{"type":"FeatureCollection","features":[{"type":"Feature","properties":{"OBJECTID":1,"ISO3_CODE":"NGA","STATUS":"Member State","CAPITAL":"Abuja","Terr_ID":179,"Terr_Name":"Nigeria","Color_Code":"NGA","Shape_Leng":48.0857211107,"Shape_Le_1":48.0857211003,"Shape_Area":75.036833385},"geometry":{"type":"MultiPolygon","coordinates":[[[[5.746891975684207,4.491475105192023],[5.7409200663080355,4.490119933887911],[5.726994991625588,4.506759167002031],[5.746891975684207,4.491475105192023]]],[[[8.332864760700204,4.589964866285584],[8.310277938576064,4.609402179866777],[8.332365035318162,4.639882088087916],[8.332864760700204,4.589964866285584]]],[[[8.305131912607749,4.7961678506658245],[8.279273986405371,4.825246811191448],[8.296721457329454,4.82372808468341],[8.305131912607749,4.7961678506658245]]],[[[5.998001518255535,13.74062378126257],[6.140600488721645,13.685001326050383],[6.265570318915138,13.717392702811026],[6.414376165527642,13.639357683510354],[6.498594657917181,13.55499861179652],[6.526036106780964,13.502475909235898],[6.677829999454957,13.355459999479422],[6.818589998429729,13.117969999515935],[6.928010000061477,12.989849999777732],[7.0100599994694335,12.991500000324777],[7.136389999399,13.02315999983415],[7.227889998424757,13.110929999519897],[7.370749998913368,13.098500000074978],[7.426319999368502,13.110489999913625],[7.815499999625331,13.338659999959077],[8.106679999682285,13.28931999991812],[8.211729999439967,13.21898999958887],[8.25591999940849,13.207559999494435],[8.41562999902527,13.054849999827695],[8.48641999988314,13.069729999839694],[8.531079999042788,13.056650000097477],[8.621289999733733,12.990219999753208],[8.644799999320583,12.946069999830684],[8.696349999652796,12.91677999989713],[8.969790000008516,12.833049999457955],[9.650239999976066,12.803609999801722],[9.996529999959591,13.16327000031032],[10.060899998835907,13.203420000132951],[10.207090000003518,13.26781999949344],[10.466419999883158,13.282500000174934],[10.669219998204426,13.356900000234873],[11.174619999813217,13.37603999974624],[11.522189998569615,13.353060000318806],[11.695589998179912,13.287009999511895],[11.875429999794676,13.249660000208905],[12.114129998900353,13.090330000129427],[12.186827966337603,13.109477066513477],[12.176799087507959,13.118025839321092],[12.196590641345097,13.128560511258627],[12.233150154556029,13.106710920072942],[12.257336515367967,13.117746105198648],[12.274784665280151,13.081656972491317],[12.289368880069787,13.080385931865294],[12.279908140748148,13.084618367144003],[12.295003391693228,13.100408105149995],[12.331418065491391,13.074934869348795],[12.36769646142261,13.092628546770072],[12.383106195394646,13.075866529217024],[12.471948038571156,13.063381497558112],[12.496226235452468,13.098257818043919],[12.48916081791748,13.124611609738054],[12.502033712785646,13.144266884808928],[12.558169179064407,13.162177754799586],[12.561002814228516,13.196427070652817],[12.532535425069852,13.213461643040432],[12.546032045642448,13.204518493233934],[12.571567523522447,13.23671547074241],[12.549291546667575,13.2594173134583],[12.581074125570467,13.25679497221023],[12.588090737797359,13.280934713965905],[12.625209200344386,13.279087053224998],[12.640517678747926,13.29757537700209],[12.669500952307146,13.274229766290716],[12.69248388442378,13.302608908574314],[12.685337073747007,13.313832758874753],[12.714595829434018,13.306797867027967],[12.709623441868416,13.320547884177586],[12.74113655960457,13.32729498487572],[12.73777899650355,13.34942291803327],[12.76666682321536,13.391569915519256],[12.792555226542504,13.377717573507255],[12.784932984769455,13.392059799620085],[12.799605754002414,13.407824138972899],[12.831322071756233,13.408876669522726],[12.81461675376022,13.426661236926577],[12.837521994344627,13.45011134076583],[12.858027737590078,13.44137256279356],[12.856990210429899,13.473965295062385],[12.845199589389608,13.475665545228765],[12.870319532820247,13.474388095134543],[12.872809809525165,13.502073015657174],[12.918981960249312,13.487807231918282],[12.94505906922069,13.508065480837331],[12.951698269259794,13.498638512857156],[12.95745456077941,13.521677578857236],[13.005816438377963,13.510811538221958],[13.062248385055,13.549265554261979],[13.062336381918556,13.528372267066516],[13.090925548275493,13.516852113534242],[13.10232259990812,13.53794215080967],[13.120128313071234,13.522796645748656],[13.143790365532993,13.549576449893323],[13.139867869006991,13.521992332580112],[13.187344246240002,13.532767628923011],[13.199201335273472,13.513767188904694],[13.19788001445113,13.547387315672154],[13.23658655742372,13.564123716036704],[13.227082421316766,13.588946119667753],[13.251523571755456,13.579864087557667],[13.256901984339152,13.60426438809111],[13.243142775218928,13.612737774328878],[13.299885277583542,13.665748797968718],[13.3074782752023,13.69465645832895],[13.334307118478762,13.698231964933257],[13.331987814586,13.714595942548783],[13.634549999582873,13.710680000281855],[14.082949999542905,13.079439999756232],[14.20333273062107,12.538057064581892],[14.200046708588786,12.501503338508314],[14.177613791043655,12.480789166586817],[14.194895358633971,12.43497823665632],[14.174195974264876,12.414412729863614],[14.220255984026494,12.362824024509166],[14.275253196377946,12.37326493492884],[14.291147328586419,12.354537630707114],[14.328910750730586,12.375878880106256],[14.48561275642362,12.350775328618568],[14.5596675229379,12.258927246994915],[14.549008405513575,12.236911050104936],[14.594086009361888,12.227937148880358],[14.609158694518214,12.200898152927437],[14.597526706692236,12.196610537946015],[14.623558720058952,12.183009184126604],[14.652360847675027,12.19725937631921],[14.678083434902646,12.164188571645298],[14.63890889732778,12.098128199856603],[14.651195921654505,12.0726618699494],[14.624241863970894,12.050087775030818],[14.656473602974472,11.962154306476123],[14.603899063491042,11.869021147607953],[14.615285309769263,11.85679816490341],[14.61238552227411,11.786874985492261],[14.55482251894415,11.731193036529476],[14.554416425577642,11.71188319915035],[14.593832638865251,11.704153481198261],[14.641137799569833,11.648710911079718],[14.64747738777129,11.587488105891396],[14.611274475536675,11.50847063391268],[14.587908066204363,11.486106066641696],[14.458855605302006,11.464450436738332],[14.392402106572035,11.430762186325865],[14.37010835281825,11.36659074966343],[14.252133240856438,11.299200900201413],[14.228954550612059,11.263969501291513],[14.186077039224017,11.240721100098767],[13.981489572685689,11.305390367271684],[13.980948963224137,11.26622326798946],[13.881143165724552,11.153215277163383],[13.856597393554921,11.095230123071758],[13.814917610959014,11.065543804503022],[13.793188731274995,11.005042687270247],[13.735141695732693,11.006062500484063],[13.711422966197006,10.956437973833488],[13.732453855960728,10.926196402142295],[13.717847657243624,10.862267473964778],[13.683212543923787,10.845157299170069],[13.640690340287051,10.790311024534219],[13.65668877856433,10.775003577653024],[13.626675605894548,10.708766982810062],[13.580088204906758,10.687723454873606],[13.589565137421232,10.663081803282637],[13.579913361412537,10.619586422575367],[13.564668133227826,10.620998407650461],[13.567203385028222,10.55923108184902],[13.594223191247352,10.51850696292604],[13.539994044889283,10.514891539013377],[13.520720015816153,10.454767913108753],[13.54196129567731,10.361782906755764],[13.522333420251186,10.273024501779389],[13.500095233808054,10.25154138792476],[13.500272527954849,10.209695811712379],[13.463136316387931,10.168069696159591],[13.423386876403299,10.156210387599344],[13.43750411102593,10.140456558623328],[13.430927883315235,10.118512981988601],[13.400792661851938,10.134589634304234],[13.400314475232904,10.114700021988483],[13.305203452677233,10.10044739173378],[13.281944436786375,10.033888890859657],[13.250044503551067,10.035562387094558],[13.252675900972122,9.996869128907235],[13.28814686398664,9.978778257810404],[13.287004060389108,9.963024936951342],[13.275879242533051,9.935698543752835],[13.23613566882608,9.90999296900037],[13.236882644818252,9.892080892119509],[13.24927198771212,9.85746151513689],[13.288843258509644,9.840920130959319],[13.298263103859199,9.819510813673162],[13.262744978597937,9.780866561342805],[13.251667710596394,9.698840945253494],[13.230420712845671,9.678325554081084],[13.228578985831575,9.587257236832045],[13.207811846539528,9.55579296667213],[13.034414305675739,9.506588498060808],[12.924875467628794,9.408046998969894],[12.878039347438005,9.393701063153571],[12.871388297032354,9.368919705480096],[12.847572624177303,9.371775644730292],[12.874286050261048,9.346753805643687],[12.909332929870857,9.353595999755612],[12.924514824199832,9.3395266162604],[12.911749041285304,9.23337676092882],[12.887930525673255,9.178517592712808],[12.89961981380344,9.11834060553457],[12.865277777847211,9.017500002223358],[12.822777776673092,8.971666672878712],[12.803314639958728,8.913080878679636],[12.817417160773402,8.903675988156351],[12.801315304957427,8.855413414597479],[12.816253417361395,8.836661353838451],[12.78444284256318,8.745930347107901],[12.72373124350213,8.763504048672985],[12.696674025485947,8.66868648749147],[12.674050832979617,8.647350830076789],[12.608208924502321,8.633874387592982],[12.601349401353843,8.608126905332483],[12.613269569734882,8.607047816903275],[12.599049598360352,8.59131917164251],[12.50376594464268,8.641987358829567],[12.431740653008774,8.620085304793008],[12.455209230721493,8.559331728976133],[12.407194837671682,8.525973986610268],[12.394134135581965,8.496226783039674],[12.40885939464539,8.475325856103439],[12.366461233599125,8.420612747680195],[12.25968148231459,8.44236424531374],[12.241666668681887,8.366666670130769],[12.234418618624375,8.162982890048397],[12.190931374982995,8.096365532143636],[12.209533009740653,7.974294104489388],[12.068849934277068,7.79195292728582],[12.05032171747331,7.7342691000390005],[11.996708680461268,7.667298109819967],[12.011606696591798,7.630754486730211],[12.009837664476663,7.54528936761028],[12.025096567752428,7.527718042953381],[11.914197949375932,7.466606875107232],[11.930792625579272,7.434675320809447],[11.927747443789542,7.395003995038394],[11.842223267989482,7.267516330214505],[11.847773792826331,7.253238965905609],[11.881107606031264,7.246929683957774],[11.855894202355614,7.1932158473335335],[11.879223770960323,7.098251870227671],[11.867473597828337,7.077407321790531],[11.846804558383724,7.087567971984356],[11.827243549350385,7.067574920546178],[11.803733708044263,7.082345134020784],[11.779226651688646,7.046604988629383],[11.719061318824856,7.046784058937192],[11.669231486843671,6.998244325115536],[11.63093255889055,6.989131388702674],[11.603309543200908,6.90917756868987],[11.574265995279518,6.900731697210119],[11.555924064044348,6.864900517944591],[11.591159232912332,6.804363392756443],[11.57005414368382,6.771334278853942],[11.584205144252053,6.734975268593814],[11.550820612881012,6.715810989185854],[11.55435010927016,6.666551728479533],[11.495443466642712,6.600157993296818],[11.461665106859243,6.611119376458078],[11.4222954703597,6.597285417488081],[11.427258597606226,6.534302773953925],[11.364910454553865,6.526782494616498],[11.349614420968805,6.512124161301074],[11.35802595903084,6.502390624327916],[11.27086746955814,6.537474466073775],[11.247364223879856,6.526656146164271],[11.214350255459976,6.5379559118359225],[11.197631724624443,6.5100113066765175],[11.155798529378671,6.503609042923017],[11.13811383528531,6.53029286422435],[11.098301245805885,6.5199834940430605],[11.096412943802363,6.672987905667355],[11.06656517264463,6.709088455268045],[11.02916755333996,6.714315634259151],[10.992916407766074,6.686943868464823],[10.916178097541206,6.709104678138431],[10.913789852519699,6.757720311143487],[10.823982344309798,6.828191926816032],[10.817158780553314,6.862961862000361],[10.841097322383575,6.930753823530154],[10.778804323960458,6.967179343152225],[10.767363895327549,6.9562396876115145],[10.657538059334001,7.051631261773366],[10.624244763285219,7.049905996064922],[10.595442892875269,7.077206937550159],[10.605774979931425,7.10609777699085],[10.580805650460434,7.157534969962967],[10.571193150543536,7.162520403993483],[10.56685258348,7.143550504052541],[10.542069056641708,6.943244521817292],[10.4977008865867,6.916147435955452],[10.494807989696994,6.871825481161068],[10.216947584963123,6.88530964522397],[10.172385055226187,6.942094420221338],[10.174605170192478,7.010833737487019],[10.152789058068606,7.039007490803101],[9.86627908721016,6.771417659497445],[9.805987762025666,6.790556934155234],[9.772860332438427,6.780846527745098],[9.765996117526868,6.6861212666831875],[9.752167649817238,6.678338504018768],[9.698178721370937,6.509027839563203],[9.602179996909399,6.5291153719769],[9.585328585845616,6.475221652057655],[9.567099985376046,6.464696066870033],[9.529311797701325,6.445756722294959],[9.46641641718395,6.455956817653089],[9.432943712682231,6.315780480484818],[9.344986216940413,6.35275301993596],[9.331930730918543,6.287851397623967],[9.264752516215708,6.18453658849279],[9.169592280059703,6.12984691730145],[9.154413775275543,6.093796469831261],[8.94080179996314,5.911662753633209],[8.913310289438357,5.903568213102574],[8.903562093515859,5.86202655558111],[8.844797305451323,5.828465600607046],[8.856226786636967,5.8015984570032515],[8.883713128757961,5.79558068130342],[8.882381896507354,5.769350496028608],[8.85541515298695,5.707471788292423],[8.83507644981836,5.70658780058659],[8.837463081456121,5.684876616862425],[8.904115173876221,5.6193942204669725],[8.914844474393021,5.568283603705368],[8.833706651041155,5.430063151693162],[8.839925843403023,5.394353064342511],[8.81295445578354,5.2371393237208395],[8.821154954437645,5.184737346151678],[8.78237163634202,5.112817012595087],[8.744779980211945,5.097221081187968],[8.68381290264341,4.999967958954187],[8.697960470499368,4.986510866283481],[8.648731094264633,4.940170744684167],[8.646874409726252,4.911024493285765],[8.606087728565853,4.887233211843295],[8.625056026814207,4.821144519504003],[8.581342737677232,4.801942696997912],[8.55380872159526,4.814180038278209],[8.526733604372396,4.752381468230226],[8.531088828586633,4.719099998266358],[8.509645462068477,4.695528984175326],[8.459830283640713,4.700801848726371],[8.475513457380202,4.728944778678624],[8.465051650313455,4.755116939695085],[8.43512725871608,4.729892729765709],[8.397237776802001,4.735682010216635],[8.38796997083756,4.752657890149578],[8.401113509480922,4.783780097773331],[8.37084960852269,4.779025078144912],[8.300243377829645,4.851119995291583],[8.262455940189511,4.837350845065487],[8.250161170002059,4.819804191510286],[8.314280509837715,4.759640216622756],[8.324888228309135,4.7072458266336525],[8.312069892611476,4.659561158320855],[8.329823493659376,4.64332008385486],[8.271901130233005,4.537655830052586],[7.987661838722943,4.542326926746341],[7.660570143997006,4.5027050969627],[7.614618301993119,4.478272914563377],[7.598925113403311,4.4935908322511295],[7.581034182281712,4.457134245549014],[7.400886057645494,4.436693192337032],[7.309514045636718,4.449685097189558],[7.314700126509706,4.428553104742036],[7.205116271998406,4.38735198990247],[7.136325835468995,4.3852887149023445],[7.130410193975308,4.411935806092629],[7.140765189461945,4.406942844736534],[7.164273261801611,4.457480908117475],[7.140978335981458,4.476191044281336],[7.105371951254597,4.4506487846137475],[7.0263400073855,4.436543941749562],[7.00091504988967,4.464438916023198],[6.98931312460104,4.450787067069541],[7.005134105054935,4.3874177932965495],[7.01422405299769,4.398043154667903],[6.9962830539198535,4.372845172566713],[6.8704500193529725,4.3940639495916685],[6.85922622660911,4.360167980068297],[6.466251849942978,4.315001964768896],[6.4211010925414485,4.341351985605684],[6.398240088709201,4.331976890521105],[6.415142058759045,4.311169147738042],[6.138597010543663,4.2795958518671],[6.090230941204993,4.277143954629878],[5.988363265352461,4.310305118686301],[5.88107824346622,4.378964900809592],[5.674190997316714,4.554420947568701],[5.566684245781346,4.6941719063084975],[5.481655120687321,4.837953090462804],[5.422945021295732,5.027462004667825],[5.352103232977868,5.1708788869511295],[5.322958946598135,5.354897021880106],[5.326679229662773,5.366620064264623],[5.376717091020964,5.35674905782281],[5.387420177199488,5.391228199022237],[5.260779856305362,5.43477821264446],[5.190474986631386,5.494430064995527],[5.173309325465027,5.574353218126589],[5.077948093529756,5.701053142488604],[5.0749063489489,5.750308036986382],[5.03639602545627,5.77829408650291],[4.920495986700473,5.962326050307013],[4.750226020814239,6.129018783789888],[4.529322147199366,6.304785727979038],[4.361388206300717,6.369920254016563],[4.044345854477626,6.419988154529733],[3.827943086804055,6.434986114117919],[3.409288168014598,6.408894062011427],[3.3908610332101716,6.390985012248564],[2.904880046676851,6.391888142024186],[2.7096040248059694,6.368820189799976],[2.7202899995838834,6.507770000085486],[2.75311999998803,6.570470000190426],[2.731419999333525,6.630790000258344],[2.7848999996353427,6.693270000110488],[2.7896999997552143,6.738929999519883],[2.7862899998836497,6.7545799999670635],[2.7335399999710717,6.77699000008846],[2.7515099994869274,6.912419999683266],[2.7182099998916556,6.9403299998296575],[2.720639999536388,6.98652999985967],[2.7854599993794977,7.03646999969078],[2.7450899993040707,7.092679999982067],[2.784870000050489,7.1592299995649],[2.774249999537915,7.2344200000829915],[2.750599999790211,7.257479999602367],[2.747579999917093,7.417439999956059],[2.7858099993320593,7.418710000066483],[2.7996799995323727,7.43796999971579],[2.7929299994199823,7.494519999498436],[2.7494899998636697,7.52749999962532],[2.730289999384013,7.5801700003452765],[2.7294599997792375,7.79221999985316],[2.668429999345051,7.889779999547386],[2.7045499994829356,7.968099999615333],[2.7540999993155424,8.211309999856667],[2.71849999977519,8.253639999486438],[2.6956300000245506,8.324170000045513],[2.714009999561881,8.387240000125928],[2.7069499995428714,8.420319999468461],[2.740679999182646,8.445019999973056],[2.7618399992166474,8.505329999579885],[2.7389299994200087,8.650730000289343],[2.746089999553874,8.735199999780207],[2.7284099999216096,8.772679999682282],[2.7633799991876344,8.809780000046999],[2.7570699995808923,8.863539999771206],[2.7735499996328485,8.894719999628308],[2.7583299992301136,8.903729999639836],[2.7874099993720165,8.974149999622853],[2.7720299996847757,9.010710000266329],[2.780919999558364,9.065199999480456],[2.8675899997787155,9.062150000022541],[2.9533799998871473,9.09259999949046],[3.008149999422983,9.073919999608336],[3.0835399992715793,9.097909999746719],[3.120919999958062,9.188109999976575],[3.126349999452941,9.25218999986862],[3.1571699997957126,9.282460000029005],[3.1362199995533615,9.46283999956637],[3.1948899999735545,9.515109999826677],[3.263499999225644,9.652359999714292],[3.3096099996018324,9.657529999809697],[3.3485999998901548,9.685230000164438],[3.3233399996412913,9.776759999674312],[3.3468599996892863,9.817590000278358],[3.456389999199132,9.861169999995525],[3.5296399992865872,9.862079999692298],[3.595779999747265,9.945739999601358],[3.6157199992786104,10.07597999997705],[3.658279999622323,10.103170000195405],[3.6789499995429082,10.169750000262354],[3.6125299996597846,10.221720000177925],[3.584619999513393,10.275139999511396],[3.6376499997477367,10.427589999778718],[3.6877099997167875,10.456360000014058],[3.7859999998001967,10.405379999887145],[3.8061700000455403,10.502999999650285],[3.8509699993660433,10.599809999831677],[3.8409800000270025,10.70491999965833],[3.7971600000340118,10.735459999679279],[3.7493799999870703,10.825559999794223],[3.77121999990311,10.93076999973573],[3.7586999999051045,10.998419999683279],[3.7189899996888016,11.023180000256843],[3.7275200000480027,11.117649999547893],[3.691930000069476,11.128139999461439],[3.4711299999495964,11.448570000305324],[3.5579599994544537,11.631880000061983],[3.600059999269604,11.691839999716251],[3.6791999993805007,11.758450000267374],[3.6658599993395455,11.810469999790712],[3.6267299988903687,11.839369999725761],[3.6176699992710724,11.91688999977373],[3.67542875353422,11.999834320097818],[3.6369165639483185,12.129789058218535],[3.6580114314824073,12.251670513083752],[3.6574705378350814,12.519953952812727],[3.934768877981355,12.746588552020114],[4.0943326154578585,12.976829110674942],[4.13435877323883,13.165420829707557],[4.133817880490824,13.472468342040429],[4.2313591050387345,13.472828937805275],[4.463794096720221,13.677650979908833],[4.567409999771712,13.724330000229372],[4.870759999874167,13.782480000052033],[4.9095199994484915,13.748610000251347],[5.000189995272137,13.732395998076925],[5.080601301309059,13.747299817532621],[5.2805897617082,13.740367809027191],[5.354415657056961,13.838109136327603],[5.524590653635812,13.901025479142618],[5.770551733975367,13.805191885497152],[5.998001518255535,13.74062378126257]]]]}}]}