{"type":"FeatureCollection","features":[{"type":"Feature","properties":{"id":"NG-NC","name":"North Central","color":"#6366f1"},"geometry":{"type":"Polygon","coordinates":[[[2.7284100000000535,8.772680000000037],[2.746090000000038,8.735200000000077],[2.7375600000000873,8.654860000000042],[2.7587581000000796,8.56158350700008],[2.802357197000049,8.61035823800006],[2.9207143780000706,8.61189556100004],[3.014477968000051,8.71026992800006],[3.1036300660000506,8.75023460400007],[3.1635773180000797,8.808645248000062],[3.237358332000042,8.782514572000082],[3.3879947660000767,8.84246158600007],[3.5247972010000694,8.928539276000038],[3.7200098040000853,9.013080597000055],[3.77073431000008,9.146808624000073],[3.8629605770000808,9.188310623000064],[3.921370745000047,9.172939301000042],[3.99054050400008,9.04843330400007],[4.0120601650000935,9.03459930400004],[4.210460186000091,8.970032692000075],[4.253385544000082,8.96696662900007],[4.316407204000086,8.997709274000044],[4.3348522190000836,8.95774459800009],[4.221106529000053,8.860906601000067],[4.194975853000074,8.81633091000009],[4.190364361000093,8.753309250000086],[4.209143639000047,8.680658340000093],[4.391735077000078,8.304002762000039],[4.477091312000084,8.218339920000062],[4.505629063000072,8.091959000000088],[4.568998337000039,8.054756165000072],[4.628961086000061,8.074536324000064],[4.665557384000067,8.043276787000082],[4.766197205000083,8.068056107000075],[4.830049992000056,8.055476189000046],[4.861309052000081,8.094740868000088],[4.926877499000057,8.079873085000088],[4.960805416000085,8.052426338000089],[4.969192028000066,8.024216652000064],[5.044290543000045,8.069961548000038],[5.057632923000085,8.03946495100007],[5.084393978000094,8.024231911000072],[5.11412477500005,8.05810165400004],[5.142349720000084,8.061864853000088],[5.195789337000065,8.018210411000041],[5.297776222000039,8.007673264000061],[5.345947266000053,8.020092010000042],[5.364011288000086,8.090466499000058],[5.387344360000043,8.102132797000081],[5.51393795000007,8.111246109000092],[5.50593471500008,8.018686295000066],[5.572744370000066,8.068446159000075],[5.656256676000055,8.074708939000061],[5.643033504000073,8.048263550000058],[5.667391300000077,8.008595467000077],[5.645469666000054,7.963011742000049],[5.601625443000046,7.963707447000047],[5.598841667000045,7.95187664000008],[5.623199463000049,7.842963219000069],[5.6426858900000525,7.8286962510000535],[5.728981495000085,7.82834863700009],[5.755774975000065,7.795639515000062],[5.791615486000069,7.782068729000059],[5.773028374000091,7.747318745000086],[5.816439152000044,7.7278490070000885],[5.930603981000047,7.744768143000044],[5.922439098000041,7.712404728000081],[5.937628269000072,7.648777008000081],[6.004090309000048,7.535572052000077],[6.043387890000076,7.577459812000086],[6.118761063000079,7.5914168360000644],[6.132105827000089,7.556334019000076],[6.16417789500008,7.550241947000075],[6.150588989000084,7.518876076000083],[6.110102177000044,7.494141102000071],[6.1124119760000895,7.448655128000041],[6.154314041000077,7.448313236000047],[6.182785034000062,7.4294271470000695],[6.290988922000054,7.4990768430000685],[6.378143787000056,7.397521019000067],[6.422245026000041,7.416828156000065],[6.438507080000079,7.3579730990000485],[6.4703722000000425,7.363700867000091],[6.494472027000086,7.334198952000065],[6.514884949000077,7.266996861000052],[6.632309914000075,7.2928528790000655],[6.6933050160000676,7.216998100000069],[6.715768814000057,7.135699272000068],[6.6772589680000465,7.03407573700008],[6.672980309000081,6.935661316000051],[6.61414527900007,6.830828667000048],[6.631689072000086,6.769058228000063],[6.617936134000047,6.7048792840000715],[6.660110950000046,6.608610630000044],[6.664700985000081,6.532356262000064],[6.808122635000075,6.580162525000048],[6.80027818700006,6.6934671400000525],[6.896804810000049,6.792390823000062],[6.92338800400006,6.8019781110000395],[6.932072639000069,6.76769352000008],[6.960817337000037,6.840898991000074],[6.986843109000063,6.844488621000039],[6.9860553740000455,6.788558006000073],[7.055377960000044,6.786194801000079],[7.175904274000061,6.896480560000043],[7.234985828000049,6.9106602670000825],[7.241288185000087,6.971317291000048],[7.384659290000059,7.051668167000059],[7.397263527000064,7.090268135000088],[7.4555573460000915,7.103660107000053],[7.538271427000041,7.020157814000072],[7.571357250000062,6.939806938000061],[7.620197773000086,6.919325352000044],[7.674552917000085,6.855517387000077],[7.762781620000055,6.879937649000055],[7.874642372000039,6.868908882000085],[7.890397549000056,6.843700886000079],[7.886458874000084,6.794072628000038],[7.900244713000063,6.786194801000079],[7.855342388000054,6.742868423000061],[7.804926395000052,6.640460491000056],[7.831766605000041,6.638468742000043],[7.869002342000044,6.56899261500007],[7.932121277000078,6.531756878000067],[7.966632366000056,6.557640076000041],[7.987066269000081,6.611223221000046],[7.988428593000037,6.687964916000055],[8.008408546000055,6.714302063000048],[8.127608299000087,6.7115778920000935],[8.17301750200005,6.773334503000058],[8.212977409000075,6.776058674000069],[8.229325294000091,6.800125599000069],[8.294514656000047,6.67870903000005],[8.330209732000071,6.6808462140000415],[8.366844177000075,6.697814941000047],[8.419765472000051,6.757152081000072],[8.464181900000085,6.746512890000076],[8.623040199000059,6.783307076000085],[8.641556740000055,6.818769932000066],[8.606489182000075,6.859195232000047],[8.720853806000093,6.896295071000054],[8.843852043000084,6.86674499500009],[8.96879959100005,6.792407036000043],[8.993684769000083,6.763533115000087],[8.969207764000089,6.693666935000067],[8.99201583900009,6.692360878000045],[9.035036087000037,6.64728879900008],[9.070367813000075,6.642453194000041],[9.149400711000055,6.684389114000055],[9.255754471000046,6.718100071000038],[9.30366993000007,6.7177701000000525],[9.468827248000082,6.527194977000079],[9.46603488900007,6.458327770000039],[9.515731895000044,6.44510359700007],[9.58532858600006,6.475221652000073],[9.646029472000066,6.738594055000078],[9.645699501000081,6.8948202130000595],[9.737985611000056,7.078073025000037],[9.834555626000054,7.199362755000038],[9.824958801000037,7.254598141000088],[9.882676125000046,7.414256096000088],[9.884653091000075,7.507860184000037],[9.84576129900006,7.574437618000047],[9.74721336400006,7.654858112000056],[9.643062592000092,7.7998781200000735],[9.601534843000081,7.829541206000044],[9.386640549000049,7.84470272100009],[9.130218506000062,7.788012981000065],[9.11571693400009,7.808447361000049],[9.180936813000073,7.903859138000087],[9.33551788300008,7.9855079650000675],[9.415376663000075,8.061924934000047],[9.386946678000072,8.148825645000045],[9.411823273000039,8.176929474000076],[9.323423386000059,8.253451347000066],[9.36327648200006,8.340537071000085],[9.389717102000077,8.34910965000006],[9.48320674900009,8.306058884000038],[9.615386963000049,8.294836044000078],[9.621475220000093,8.388993263000089],[9.756654739000055,8.36734199500006],[9.82144641900004,8.402791023000077],[9.992796898000051,8.53718376200004],[10.224076271000058,8.784611702000063],[10.406956673000082,8.934706688000063],[10.463807106000047,8.963215828000045],[10.596746445000065,8.976116180000076],[10.627225876000068,9.019009590000053],[10.64003658300004,9.073219299000073],[10.622525215000053,9.094029427000066],[10.635760307000055,9.12668418900006],[10.613539696000089,9.148863792000043],[10.61048698400009,9.18953704800009],[10.580149651000056,9.245836258000054],[10.580260277000093,9.326922417000048],[10.559869766000077,9.351113319000092],[10.578350067000088,9.409849167000061],[10.570349693000082,9.457756996000057],[10.488900185000091,9.552595139000061],[10.281479836000074,9.663076401000069],[10.160340309000048,9.65769767800009],[10.130390167000087,9.72200489000005],[10.055268288000093,9.760041237000053],[9.96574783300008,9.773833275000072],[9.962291718000074,9.726954460000059],[9.99165630300007,9.645744324000077],[9.962291718000074,9.61270999900006],[9.853553772000055,9.606744766000077],[9.816847801000051,9.593439102000048],[9.784272194000039,9.557192802000088],[9.669681549000074,9.518152237000038],[9.556590080000092,9.50540828700008],[9.516530037000052,9.538378716000068],[9.462371826000037,9.501225471000055],[9.404241562000038,9.508296013000063],[9.394767761000082,9.54648590100004],[9.339727402000051,9.576032639000061],[9.32014846800007,9.618462563000037],[9.287670135000042,9.633451462000039],[9.294490814000085,9.673307419000082],[9.279338837000068,9.709314346000042],[9.235825539000075,9.691938400000083],[9.152183533000084,9.744761467000046],[9.253554344000065,9.808555603000059],[9.286881447000042,9.879532814000072],[9.291314125000042,9.908687592000092],[9.247065544000066,10.03221035000007],[9.202039719000084,10.04757976500008],[8.99186420400008,10.009289742000078],[8.95654010800007,10.023170471000071],[8.97816658000005,10.180500031000065],[8.929701805000093,10.228540421000048],[8.954892159000053,10.308810234000077],[8.92977047000005,10.352089882000087],[8.870192528000075,10.357634544000064],[8.781496048000065,10.39183998100009],[8.764620781000076,10.298430443000086],[8.649502754000082,10.204509735000045],[8.62815856900005,10.12442016600005],[8.674826622000069,10.031889915000079],[8.676608086000044,9.99336242700008],[8.610823631000073,9.957622528000059],[8.63550090800004,9.923970222000037],[8.618143082000074,9.882658958000093],[8.629613876000064,9.75961589800005],[8.59432697300008,9.73102188100006],[8.587653160000059,9.667018890000065],[8.56247806500005,9.669762611000067],[8.553666115000055,9.651996613000051],[8.566984177000052,9.61397743200007],[8.553649902000075,9.56898403200006],[8.570406914000046,9.498299599000063],[8.602418900000089,9.472694397000055],[8.642338753000047,9.401107788000047],[8.691300392000073,9.383975983000084],[8.693972588000065,9.326180458000067],[8.684395790000053,9.283283234000066],[8.64132881200004,9.256275177000077],[8.638195992000078,9.240692139000089],[8.65973568000004,9.22355175000007],[8.649191856000073,9.17132663700005],[8.541091919000053,9.010523796000086],[8.508942604000083,9.000640869000051],[8.498586655000054,9.011305809000078],[8.446608543000082,9.112617493000073],[8.381496429000038,9.177421570000092],[8.332963943000038,9.17780876200004],[8.288684845000091,9.198684692000086],[8.251033783000082,9.191023827000038],[8.239850998000065,9.144701958000041],[8.160416603000044,9.066604614000084],[8.107876778000048,9.052711487000067],[8.096864700000083,9.211285591000092],[8.062506676000055,9.272072792000074],[7.997314930000073,9.314358711000068],[7.9990768430000685,9.354002953000077],[7.94407510800005,9.39887714400004],[7.920670509000047,9.405098915000053],[7.903932095000073,9.391884804000085],[7.807906151000054,9.266786575000083],[7.7300548550000485,9.331963539000071],[7.67238903000009,9.411277771000073],[7.589875221000057,9.431607246000056],[7.509752750000075,9.361051559000089],[7.417672157000084,9.367031097000051],[7.388168335000046,9.349822998000093],[7.376487255000086,9.363329887000077],[7.321242332000054,9.366598129000067],[7.2703018190000535,9.34940528900006],[7.256255627000087,9.375785828000062],[7.289505959000053,9.425436974000093],[7.227951050000058,9.443578720000062],[7.212387085000046,9.492226601000084],[7.347609997000063,9.621936798000092],[7.282001019000063,9.69175148000005],[7.280318737000073,9.72455596900005],[7.204740047000087,9.758296013000063],[7.220837116000041,9.785883904000059],[7.273589611000091,9.783435822000058],[7.291253567000069,9.80025863600008],[7.300506115000076,9.862504005000062],[7.278636456000072,10.010544777000064],[7.254066944000044,10.039226532000043],[7.112090588000058,10.026526451000052],[6.952273369000068,10.047554970000078],[6.892529488000093,10.093015671000046],[6.885301113000082,10.150844574000075],[6.915019035000057,10.18859481800007],[6.942327023000075,10.180562973000065],[6.954472542000076,10.191998482000088],[6.970438957000056,10.232769966000092],[7.002566338000065,10.24722766900004],[7.050757408000038,10.317104340000071],[7.024765015000071,10.350588799000093],[6.930211067000073,10.365772247000052],[6.953519821000043,10.48217868800009],[6.905256748000056,10.540769577000049],[6.869102478000059,10.555356979000067],[6.849157333000051,10.530752182000072],[6.835503101000086,10.537981033000051],[6.838716030000057,10.585369110000045],[6.816628456000046,10.63837909700004],[6.7226552960000845,10.645607948000077],[6.725868225000056,10.589385033000042],[6.636498928000037,10.590010643000085],[6.540331841000068,10.545209885000077],[6.5242681500000685,10.595006943000044],[6.482116222000059,10.610178947000065],[6.40172481500008,10.573474884000063],[6.298572540000066,10.47051334400004],[6.2632322310000745,10.45685958900009],[6.21688318300005,10.394705772000066],[6.171065331000079,10.384023666000076],[6.149179935000063,10.45043373100009],[6.129734516000042,10.463544846000048],[6.105004311000073,10.45685958900009],[6.086531162000085,10.515491486000087],[6.0905470850000825,10.537981033000051],[6.123477936000086,10.562076569000055],[6.1274938580000935,10.59340095500005],[6.113036156000078,10.612677574000088],[6.137132168000051,10.669703484000081],[6.091350079000051,10.708256721000055],[6.110931396000069,10.744843483000068],[6.099381924000056,10.770905495000079],[6.107414246000076,10.809458733000042],[6.129099846000088,10.821506500000055],[6.1226744650000455,10.84479904200009],[6.164440155000079,10.872910500000046],[6.1612277030000655,10.917085648000068],[6.1194620130000885,10.995798111000056],[6.052797318000046,11.04318618800005],[6.015850544000045,11.137962341000048],[5.974084854000068,11.13635540000007],[5.91143608100009,11.064871788000062],[5.79577732100006,11.043989182000075],[5.680118561000086,10.975718498000049],[5.458438873000091,10.953228951000085],[5.42999029200007,11.016810417000045],[5.4423747060000665,11.138765335000073],[5.36848163600007,11.205430031000049],[5.333141327000078,11.35642910000007],[5.296195030000092,11.367673874000047],[5.228727341000081,11.333136559000081],[5.231939793000038,11.26004600500005],[5.203025341000057,11.330726624000079],[5.105036259000087,11.352413177000074],[5.10102033600009,11.285748482000088],[5.057648182000094,11.20462608300005],[5.058451653000077,11.270487785000057],[5.0054411890000665,11.257637024000076],[4.966084957000078,11.362051010000073],[4.933957577000058,11.354019165000068],[4.905845642000088,11.37329578400005],[4.76594209700005,11.305951118000053],[4.7529788020000865,11.259264946000087],[4.7034063340000785,11.22854328200009],[4.702010155000039,11.192236900000069],[4.788587570000061,11.118925095000066],[4.839656353000066,11.113859177000052],[4.908679008000092,11.081920624000077],[4.972215652000045,11.080523491000065],[4.995954514000061,11.053992271000084],[5.046239376000074,11.041686058000039],[5.082210064000037,10.927081108000039],[5.02532625200007,10.890274048000038],[5.028672218000054,10.85932254800008],[5.047075748000054,10.825024605000067],[5.099777222000057,10.808294296000042],[5.1073060040000655,10.785707474000048],[5.100878716000068,10.759829521000086],[5.057114124000066,10.739698410000074],[5.020307064000065,10.74639129600007],[5.008595467000077,10.721295357000088],[4.931634903000088,10.687833786000056],[4.84714555700009,10.70456409500008],[4.806992054000091,10.692852974000061],[4.814520836000042,10.674449921000075],[4.796117306000042,10.629277229000081],[4.8237223630000585,10.594979286000068],[4.818703175000053,10.507143974000087],[4.853419304000056,10.460297585000092],[4.834179401000085,10.333145142000092],[4.804064274000041,10.296338081000044],[4.731286049000062,10.31474208800006],[4.705353737000053,10.302193642000077],[4.705353737000053,10.252839088000087],[4.67105579400004,10.21184921300005],[4.712882519000061,10.16165733300005],[4.710791111000049,10.131542206000063],[4.689877987000045,10.113974571000085],[4.610407829000053,10.135725021000042],[4.526921272000038,10.114263535000077],[4.568690777000086,10.246047974000078],[4.541819572000065,10.287129402000062],[4.482961178000039,10.328677177000088],[4.47949886300006,10.421292305000065],[4.510058403000073,10.535167694000052],[4.606965065000054,10.575974464000069],[4.6891913410000825,10.642358780000052],[4.741997242000082,10.873195648000092],[4.6891913410000825,10.945615768000039],[4.665051460000086,10.957685471000048],[4.62657880800009,10.915440559000047],[4.587351799000089,10.90638828300007],[4.539826393000055,10.919966698000053],[4.398005009000087,10.896581650000087],[4.288208485000041,10.928515434000076],[4.288208485000041,10.980448723000052],[4.263107300000058,10.982180595000045],[4.213769913000078,11.030652046000057],[3.993915796000067,11.017668724000089],[3.8909132480000608,11.054022789000044],[3.7939696310000386,11.112880707000045],[3.7221276760000706,11.127595901000063],[3.7169000000000665,11.024340000000052],[3.7517700000000787,11.010630000000049],[3.771220000000085,10.930770000000052],[3.7493800000000874,10.825560000000053],[3.7971600000000763,10.735460000000046],[3.8409800000000587,10.704920000000072],[3.850970000000075,10.599810000000048],[3.8061700000000656,10.503000000000043],[3.786000000000058,10.405380000000036],[3.695130000000063,10.453800000000058],[3.631810000000087,10.417260000000056],[3.5841700000000856,10.278370000000052],[3.6125300000000493,10.221720000000062],[3.678950000000043,10.169750000000079],[3.662930000000074,10.107060000000047],[3.615720000000067,10.075980000000072],[3.6023100000000454,9.957440000000076],[3.529640000000086,9.862080000000049],[3.456390000000056,9.861170000000072],[3.3568400000000906,9.825840000000085],[3.3296600000000467,9.798800000000085],[3.324230000000057,9.76135000000005],[3.34860000000009,9.685230000000047],[3.31517000000008,9.657740000000047],[3.2635000000000787,9.652360000000044],[3.2534400000000687,9.609870000000058],[3.1948900000000435,9.51511000000005],[3.136220000000094,9.462840000000085],[3.1583500000000413,9.291410000000042],[3.122160000000065,9.238420000000076],[3.123700000000042,9.192240000000083],[3.088170000000048,9.10158000000007],[3.0081500000000574,9.073920000000044],[2.956390000000056,9.092360000000042],[2.8960400000000845,9.083710000000053],[2.867590000000064,9.062150000000088],[2.7809200000000374,9.065200000000061],[2.784080000000074,9.019400000000076],[2.772030000000086,9.010710000000074],[2.7886100000000624,8.987690000000043],[2.759740000000079,8.912220000000048],[2.773550000000057,8.894720000000063],[2.7579900000000634,8.864910000000066],[2.7633800000000406,8.809780000000046],[2.7284100000000535,8.772680000000037]]]}},{"type":"Feature","properties":{"id":"NG-NE","name":"North East","color":"#8b5cf6"},"geometry":{"type":"Polygon","coordinates":[[[8.72906971000009,10.450925827000049],[8.747429848000081,10.426461220000078],[8.796814919000042,10.416778564000083],[8.870192528000075,10.357634544000064],[8.93571567500004,10.348500252000065],[8.954892159000053,10.308810234000077],[8.930326462000039,10.215049744000055],[8.97816658000005,10.180500031000065],[8.954439163000075,10.026929855000049],[8.99186420400008,10.009289742000078],[9.202039719000084,10.04757976500008],[9.251268387000039,10.024669647000053],[9.291314125000042,9.908687592000092],[9.286881447000042,9.879532814000072],[9.253554344000065,9.808555603000059],[9.152183533000084,9.744761467000046],[9.231891632000043,9.693694115000085],[9.279338837000068,9.709314346000042],[9.294490814000085,9.673307419000082],[9.284468651000054,9.640043259000038],[9.32014846800007,9.618462563000037],[9.339727402000051,9.576032639000061],[9.388731956000072,9.552008629000056],[9.408265114000073,9.504613876000064],[9.46988487200008,9.505419731000075],[9.516530037000052,9.538378716000068],[9.556590080000092,9.50540828700008],[9.669681549000074,9.518152237000038],[9.777699471000062,9.551204681000058],[9.816847801000051,9.593439102000048],[9.853553772000055,9.606744766000077],[9.962291718000074,9.61270999900006],[9.991197586000055,9.63840293900006],[9.962291718000074,9.726954460000059],[9.965962410000088,9.770541191000063],[9.983682632000068,9.769545555000093],[10.055268288000093,9.760041237000053],[10.128379822000056,9.723846436000088],[10.162529945000074,9.652004242000089],[10.275620461000074,9.664747238000075],[10.488900185000091,9.552595139000061],[10.57894039200005,9.43883323700004],[10.559869766000077,9.351113319000092],[10.580610275000083,9.319215775000089],[10.579890251000052,9.251615524000044],[10.613539696000089,9.148863792000043],[10.633660316000089,9.130452156000047],[10.625289917000089,9.103053093000085],[10.637916565000069,9.081773758000054],[10.627225876000068,9.019009590000053],[10.596746445000065,8.976116180000076],[10.46893596600006,8.963446617000045],[10.406956673000082,8.934706688000063],[10.224076271000058,8.784611702000063],[10.05182743100005,8.591742516000068],[9.86944675400008,8.431289673000038],[9.756654739000055,8.36734199500006],[9.628418922000037,8.38697624200006],[9.609673500000042,8.291272163000087],[9.48320674900009,8.306058884000038],[9.389717102000077,8.34910965000006],[9.367830276000063,8.344078064000087],[9.323423386000059,8.253451347000066],[9.411823273000039,8.176929474000076],[9.391429901000038,8.155817032000073],[9.39255619000005,8.101754189000076],[9.414026260000071,8.071104050000088],[9.404143333000093,8.045594215000051],[9.319115639000074,7.976533413000084],[9.186791420000077,7.9115085600000725],[9.11571693400009,7.808447361000049],[9.130218506000062,7.788012981000065],[9.378071785000088,7.843384266000044],[9.601534843000081,7.829541206000044],[9.643062592000092,7.7998781200000735],[9.74721336400006,7.654858112000056],[9.839988708000078,7.579274178000048],[9.884653091000075,7.507860184000037],[9.882676125000046,7.414256096000088],[9.828292847000057,7.257370949000062],[9.834555626000054,7.199362755000038],[9.737985611000056,7.078073025000037],[9.645699501000081,6.8948202130000595],[9.646029472000066,6.738594055000078],[9.60252285000007,6.5382022860000575],[9.666031452000084,6.510095923000051],[9.70645031500004,6.512479059000043],[9.764819942000088,6.691723273000093],[9.76392099900005,6.759860077000042],[9.779454606000058,6.794692732000044],[9.870275603000039,6.775676029000067],[10.152789058000053,7.0390074910000635],[10.176359317000049,7.0141900750000445],[10.172385056000053,6.942094420000046],[10.21694758500007,6.8853096450000635],[10.494807990000083,6.871825481000087],[10.494641502000093,6.913702482000076],[10.530208014000038,6.925625641000067],[10.55151276500004,6.976743358000078],[10.568011461000083,7.156753312000092],[10.580805651000048,7.157534970000086],[10.605774980000092,7.106097777000059],[10.59544289300004,7.077206938000074],[10.624244764000082,7.049905996000064],[10.67907110100009,7.039528584000038],[10.67897748300004,7.024161090000064],[10.764620766000064,6.9557854450000605],[10.778804324000077,6.967179343000055],[10.834485438000058,6.939658961000077],[10.817158781000046,6.862961862000077],[10.823982345000047,6.828191927000091],[10.87034050200009,6.800564395000038],[10.89545531400006,6.762483997000061],[10.910086892000038,6.766355709000038],[10.916178098000046,6.709104678000074],[10.986837655000045,6.6865887000000725],[11.021448328000076,6.710663883000052],[11.066565173000072,6.709088455000085],[11.092953401000045,6.680800150000039],[11.095260991000089,6.524539209000068],[11.11598445900006,6.514532159000055],[11.138113836000059,6.530292864000046],[11.138865968000061,6.510912604000055],[11.168389017000038,6.4998467330000835],[11.197631725000065,6.51001130700007],[11.195883137000067,6.536230738000086],[11.270867470000042,6.537474466000049],[11.31978446000005,6.5056113920000485],[11.358025959000088,6.502390624000043],[11.355741296000076,6.525094986000056],[11.427122673000042,6.532175305000067],[11.42229547100004,6.5972854180000695],[11.461665107000044,6.61111937700008],[11.495443467000086,6.600157993000039],[11.552326593000089,6.663919797000062],[11.550820613000042,6.71581098900009],[11.584205145000055,6.734975269000074],[11.57005414400004,6.7713342790000866],[11.591159233000042,6.804363393000074],[11.579287933000046,6.842182292000075],[11.55338018000009,6.859365449000052],[11.574265996000065,6.900731697000083],[11.607628262000048,6.913678093000044],[11.625885244000074,6.982034720000058],[11.657345508000049,6.987773265000044],[11.719061319000048,7.0467840590000606],[11.77922665200009,7.046604989000059],[11.803733708000038,7.082345134000093],[11.827243550000048,7.067574921000073],[11.846804559000077,7.087567972000045],[11.866509291000057,7.075759607000066],[11.879223771000056,7.09825187000007],[11.856628847000081,7.215610082000069],[11.881107606000057,7.246929684000065],[11.847773793000044,7.253238966000083],[11.842223268000055,7.267516330000092],[11.923831315000086,7.38641466100006],[11.930792626000084,7.434675321000043],[11.914197950000073,7.466606875000082],[12.025096568000038,7.52771804300005],[12.009837665000077,7.545289368000056],[12.000475032000054,7.678600019000044],[12.014051119000044,7.677620399000091],[12.06884993500006,7.791952927000068],[12.194506684000089,7.94120315400005],[12.212462444000039,7.981945483000061],[12.190931375000048,8.09636553200005],[12.234418619000053,8.16298289000008],[12.24166666900004,8.366666670000086],[12.259681483000065,8.442364245000078],[12.359850303000087,8.424593091000077],[12.404780115000051,8.468203750000043],[12.394134136000048,8.496226783000054],[12.412597428000083,8.54097809600006],[12.458744421000063,8.551464767000084],[12.431740653000077,8.620085305000089],[12.503765945000055,8.64198735900004],[12.566356433000067,8.606801574000087],[12.615612442000042,8.599788885000066],[12.608208925000042,8.633874388000038],[12.700905254000077,8.670181329000059],[12.716469397000083,8.758115295000039],[12.75112710600007,8.764951748000044],[12.779395002000058,8.744749708000086],[12.818687413000077,8.833630364000044],[12.80131530500006,8.855413415000044],[12.818647762000069,8.896380364000038],[12.803314640000053,8.913080879000063],[12.822777777000056,8.971666673000072],[12.865277778000063,9.017500002000077],[12.899619814000062,9.11834060600006],[12.88684859700004,9.16205700800009],[12.911749042000054,9.233376761000045],[12.910626308000076,9.31327460700004],[12.925936866000086,9.33522995800007],[12.909332930000062,9.353596000000039],[12.865055537000046,9.352031587000056],[12.855932032000055,9.367306349000046],[12.870374888000072,9.367123123000056],[12.878039348000073,9.393701063000037],[12.945089857000085,9.421564609000086],[13.034414306000087,9.506588498000042],[13.162662525000087,9.537836905000063],[13.225477651000062,9.578588711000066],[13.230420713000058,9.678325554000082],[13.25036833900009,9.696513911000068],[13.259244424000087,9.77233301700005],[13.301992453000082,9.826012064000054],[13.243112685000085,9.863624783000091],[13.237015131000078,9.90341962000008],[13.275879243000077,9.935698544000047],[13.288146864000055,9.97877825800009],[13.247573926000086,10.003300680000052],[13.250044504000073,10.035562387000084],[13.28194443700005,10.03388889100006],[13.29726942700006,10.086058910000077],[13.342159955000056,10.117771433000087],[13.398571062000087,10.11249719400007],[13.396721325000044,10.13613408000009],[13.430927884000084,10.118512982000084],[13.437504111000067,10.140456559000086],[13.423386877000041,10.15621038800009],[13.463136317000078,10.168069696000089],[13.471059874000048,10.192547604000083],[13.498739115000092,10.205018374000076],[13.496919243000036,10.246964657000092],[13.522333421000042,10.273024502000055],[13.541961296000068,10.361782907000077],[13.520720016000041,10.454767913000069],[13.539994045000071,10.514891539000075],[13.573691563000068,10.506398308000087],[13.594223192000072,10.51850696300005],[13.567203385000084,10.559231082000053],[13.564770578000036,10.617782330000068],[13.576338941000074,10.616368781000062],[13.588963983000042,10.661453257000062],[13.580088205000038,10.687723455000082],[13.626363329000071,10.719406337000066],[13.656688779000092,10.775003578000053],[13.640690341000038,10.790311025000051],[13.650539007000077,10.811561904000087],[13.669012591000069,10.812151192000044],[13.679803787000083,10.840601615000082],[13.71784765800004,10.862267474000078],[13.73377812800004,10.922092233000058],[13.71142296700009,10.956437974000039],[13.735141696000085,11.006062501000088],[13.79318873200009,11.00504268700007],[13.819034232000092,11.06822064000005],[13.852058257000067,11.08929057100005],[13.877556325000057,11.14792328100009],[13.97832883400008,11.260041612000066],[13.984672541000066,11.310186298000076],[14.186077040000043,11.240721100000087],[14.370108353000091,11.366590750000057],[14.392402107000066,11.430762186000038],[14.458855606000043,11.464450437000039],[14.587908067000058,11.486106067000037],[14.611274476000062,11.508470634000048],[14.645183324000072,11.578416734000086],[14.641137800000081,11.64871091100008],[14.593832639000084,11.704153481000048],[14.547657823000065,11.724900926000089],[14.611121833000084,11.778833723000048],[14.607333147000077,11.86288864800008],[14.643161649000092,11.911747394000088],[14.63420681100007,11.930973245000075],[14.653894088000072,11.955403721000039],[14.62235733700004,12.041794598000081],[14.65335863100006,12.063979135000068],[14.635853944000075,12.09180755400007],[14.67603045800007,12.172548556000038],[14.658085540000059,12.198295908000091],[14.597639133000087,12.194636769000056],[14.609158695000076,12.200898153000082],[14.594086010000069,12.22793714900007],[14.549008406000041,12.23691105000006],[14.559667523000087,12.258927247000088],[14.510990053000057,12.297030806000066],[14.52053506100009,12.326626264000083],[14.48561275700007,12.350775329000044],[14.446629088000066,12.349442840000052],[14.433773126000062,12.369478087000061],[14.378748403000088,12.35805324100005],[14.33201563700004,12.375168769000084],[14.308695672000056,12.358315057000084],[14.27525319700004,12.373264935000066],[14.220255984000062,12.362824025000066],[14.176699751000058,12.407721520000052],[14.190213633000042,12.445395309000048],[14.176208798000062,12.478536000000076],[14.200046709000048,12.501503339000067],[14.203332731000046,12.538057065000089],[14.085430000000088,13.07806000000005],[13.634550338000054,13.71067903800008],[13.338129676000051,13.714352559000076],[13.243948857000078,13.616789966000056],[13.25374301800008,13.584371063000049],[13.22852574400008,13.589463537000086],[13.23617807100004,13.571707961000072],[13.207237096000085,13.54897769300004],[13.201442024000073,13.516897834000076],[13.173183359000063,13.534622841000044],[13.144485408000037,13.516396604000079],[13.143347840000047,13.54315979800009],[13.127093455000079,13.543704447000039],[13.120128313000066,13.522796646000074],[13.106820759000072,13.539904543000091],[13.093223976000047,13.51988721400005],[13.062952369000072,13.526813442000048],[13.064737477000051,13.549843828000064],[12.998634980000077,13.510185854000042],[12.965310368000075,13.521149224000055],[12.958990962000087,13.500404331000084],[12.905350260000091,13.488187620000076],[12.872809810000092,13.502073016000054],[12.87536504700006,13.480359064000083],[12.847066900000073,13.48010712200005],[12.858540438000091,13.44359555400007],[12.837521995000088,13.450111341000081],[12.812353473000087,13.431538817000046],[12.831322072000091,13.40887667000004],[12.784503217000065,13.398751901000082],[12.795538021000084,13.385076071000071],[12.780902887000082,13.376476875000037],[12.76303426000004,13.387592004000055],[12.737778997000078,13.349422918000073],[12.741136560000086,13.327294985000037],[12.709975186000065,13.323777539000048],[12.714595830000064,13.306797867000057],[12.684313818000078,13.321443234000071],[12.692483885000058,13.302608909000071],[12.669500953000068,13.274229766000076],[12.643442263000054,13.301965898000049],[12.625209201000075,13.279087053000069],[12.579068137000093,13.284892653000043],[12.590364520000037,13.26646536800007],[12.584808629000065,13.275467483000057],[12.571416835000036,13.25383357700008],[12.549291547000053,13.259417314000075],[12.565654563000066,13.240007730000059],[12.54603204600005,13.20451849300008],[12.537514760000079,13.219178052000075],[12.550782072000061,13.164847596000072],[12.539383977000057,13.142138874000068],[12.51803048700009,13.154340869000066],[12.499758944000064,13.139790724000079],[12.47882476600006,13.063025082000081],[12.406231284000057,13.083393189000049],[12.369845438000084,13.075866529000052],[12.371784758000047,13.087156519000075],[12.337422097000058,13.083393189000049],[12.339319486000079,13.07231416500008],[12.29500339200007,13.100408105000042],[12.279908141000078,13.084618367000076],[12.290535093000074,13.08195835400005],[12.274784666000073,13.081656973000065],[12.264482027000042,13.114245009000058],[12.23315015500009,13.106710920000069],[12.203277745000037,13.127836430000059],[12.186827967000056,13.109477067000057],[12.104240000000061,13.09346000000005],[11.875430000000051,13.249660000000063],[11.695589999000049,13.287010000000066],[11.52218999900009,13.353060000000085],[11.395580000000052,13.370080000000087],[10.985500000000059,13.373720000000048],[10.669219999000063,13.356900000000053],[10.466420000000085,13.282500000000084],[10.20709000000005,13.267820000000086],[9.996530000000064,13.163270000000068],[9.665969999000083,12.815150000000074],[9.764303207000069,12.809470177000037],[9.869421959000078,12.83491993000007],[9.95243358600004,12.957969666000054],[10.227869987000076,13.044210434000092],[10.281550407000054,12.950440407000087],[10.255740166000066,12.844200134000062],[10.366800308000052,12.861660004000044],[10.460648537000054,12.821568489000072],[10.534569740000052,12.830300331000046],[10.574580193000088,12.812359810000089],[10.574279785000044,12.759949684000048],[10.599430084000062,12.704950333000056],[10.590600014000074,12.514340401000084],[10.451029778000077,12.423990250000088],[10.41656971000009,12.471929550000084],[10.277520180000067,12.44377040900008],[10.24868011500007,12.40312004100008],[10.241379738000091,12.317830086000072],[10.164730072000054,12.146490097000083],[10.172739983000042,12.053330421000055],[10.099229813000079,12.028260231000047],[10.067919731000075,11.999090195000065],[9.856590271000073,11.941269875000046],[9.803121567000062,11.903779984000039],[9.72026062000009,11.87744998900007],[9.68734455100008,11.889710426000079],[9.663655281000047,11.804220200000088],[9.627784729000041,11.763489723000077],[9.635052681000047,11.740550041000063],[9.66093158700005,11.729350090000082],[9.783647537000093,11.751560211000083],[9.809527397000068,11.740360260000045],[9.827119827000047,11.626580238000088],[9.819506645000047,11.571220398000037],[9.778928757000074,11.532730103000063],[9.786789894000037,11.473539352000046],[9.819328308000081,11.461479187000066],[9.848381996000057,11.497879982000086],[9.867236137000077,11.486590385000056],[9.88395595600008,11.455710411000041],[9.87786483800005,11.366970062000064],[9.952111244000037,11.321820259000049],[9.997390747000054,11.247520447000056],[10.067254066000089,11.260951042000045],[10.183830261000082,11.223290443000053],[10.358460426000079,11.208129883000083],[10.364620209000066,11.179420471000071],[10.331159592000063,11.131810188000088],[10.305370331000063,11.134949684000048],[10.260129929000072,11.094109535000086],[10.20720863300005,11.102303505000066],[10.169090271000073,11.066519737000078],[10.141530037000052,11.014380455000037],[10.192379951000078,10.96778011300006],[10.186759949000077,10.944689751000055],[10.134039879000056,10.94750022900007],[10.076219559000037,10.989410400000054],[9.958250046000046,10.961500168000043],[9.862929344000065,11.006400108000037],[9.85365390800007,11.108770370000059],[9.891732216000037,11.16219043700005],[9.816673279000042,11.284480095000049],[9.628619194000066,11.25190925600009],[9.580339432000073,11.26550960500009],[9.571549416000039,11.321820259000049],[9.54913425400008,11.33767032600008],[9.499984741000048,11.334770203000062],[9.475652695000065,11.310299873000076],[9.451077461000068,11.308850288000087],[9.313064575000055,11.369304657000043],[9.224947929000052,11.365813255000091],[9.032995224000047,11.256320000000073],[8.896217346000071,11.10151004800008],[8.874505043000056,11.089139938000073],[8.82749080700006,11.100429535000046],[8.795992851000051,11.067930222000086],[8.778155327000093,11.01140976000005],[8.789707184000065,10.947680473000048],[8.767881393000039,10.838580132000061],[8.78564453100006,10.797200203000045],[8.82898044600006,10.757820129000038],[8.854420662000052,10.696880341000053],[8.822385788000076,10.613080025000045],[8.77680492400009,10.553983688000073],[8.759457588000089,10.48653984100008],[8.72906971000009,10.450925827000049]]]}},{"type":"Feature","properties":{"id":"NG-NW","name":"North West","color":"#a855f7"},"geometry":{"type":"Polygon","coordinates":[[[3.4711300000000733,11.448570000000075],[3.6919300000000703,11.128140000000087],[3.7939696310000386,11.112880707000045],[3.8909132480000608,11.054022789000044],[3.993915796000067,11.017668724000089],[4.213769913000078,11.030652046000057],[4.25618267100009,10.985642433000066],[4.288208485000041,10.980448723000052],[4.283880711000052,10.937170982000055],[4.370847702000049,10.900353432000088],[4.419881821000047,10.89431858100005],[4.539826393000055,10.919966698000053],[4.587351799000089,10.90638828300007],[4.62657880800009,10.915440559000047],[4.656753540000068,10.955422401000078],[4.683156490000044,10.953159332000041],[4.7321906090000425,10.897336006000046],[4.741997242000082,10.873195648000092],[4.6891913410000825,10.642358780000052],[4.606965065000054,10.575974464000069],[4.510058403000073,10.535167694000052],[4.485558033000075,10.46976470900006],[4.482961178000039,10.328677177000088],[4.566055775000052,10.25683498400008],[4.567442417000052,10.222948074000044],[4.526921272000038,10.114263535000077],[4.610407829000053,10.135725021000042],[4.668128014000047,10.113138199000048],[4.699916363000057,10.119830132000061],[4.712882519000061,10.156638145000045],[4.669383049000089,10.226069450000068],[4.705353737000053,10.252839088000087],[4.712882519000061,10.31055927300008],[4.804064274000041,10.296338081000044],[4.828323364000084,10.315578461000086],[4.853419304000056,10.460297585000092],[4.818703175000053,10.507143974000087],[4.8237223630000585,10.594979286000068],[4.796117306000042,10.629277229000081],[4.814520836000042,10.70456409500008],[4.941673279000042,10.688670158000093],[5.008595467000077,10.721295357000088],[5.020307064000065,10.74639129600007],[5.057114124000066,10.739698410000074],[5.096431255000084,10.75977516200004],[5.1073060040000655,10.785707474000048],[5.099777222000057,10.808294296000042],[5.047075748000054,10.825024605000067],[5.028672218000054,10.85932254800008],[5.02532625200007,10.890274048000038],[5.082210064000037,10.927081108000039],[5.0406398770000465,11.051897049000047],[4.995954514000061,11.053992271000084],[4.979896069000063,11.080523491000065],[4.908679008000092,11.081920624000077],[4.839656353000066,11.113859177000052],[4.788587570000061,11.118925095000066],[4.702010155000039,11.192236900000069],[4.69921731900007,11.222259521000069],[4.7529788020000865,11.259264946000087],[4.76594209700005,11.305951118000053],[4.890585423000061,11.370885849000047],[4.929941654000061,11.35723209400004],[4.952430725000056,11.369279861000052],[5.011866570000052,11.252014160000044],[5.058451653000077,11.270487785000057],[5.057648182000094,11.20462608300005],[5.1002173420000645,11.279322624000088],[5.1002173420000645,11.345987320000063],[5.117887497000083,11.355626106000045],[5.203025341000057,11.330726624000079],[5.215876102000038,11.273700714000086],[5.236759186000086,11.262455940000052],[5.226317406000078,11.32430172000005],[5.239168644000074,11.342774391000091],[5.296195030000092,11.367673874000047],[5.329850674000056,11.362885475000041],[5.374104023000086,11.191775322000069],[5.4423747060000665,11.138765335000073],[5.431130409000048,11.019090652000045],[5.452816486000074,10.956441879000067],[5.465667248000045,10.954031944000064],[5.65682601900005,10.966882706000092],[5.79577732100006,11.043989182000075],[5.91143608100009,11.064871788000062],[5.985329628000045,11.144387245000075],[6.015850544000045,11.137962341000048],[6.052797318000046,11.04318618800005],[6.1146426200000406,11.001420021000058],[6.159621239000046,10.925920486000052],[6.164440155000079,10.872910500000046],[6.1226744650000455,10.84479904200009],[6.131098270000052,10.824039459000062],[6.108217239000055,10.81347465500005],[6.099381924000056,10.770905495000079],[6.110244274000081,10.735857964000047],[6.091350079000051,10.70022487600005],[6.137132168000051,10.669703484000081],[6.113036156000078,10.612677574000088],[6.1274938580000935,10.569305420000092],[6.092956543000071,10.546012878000056],[6.0905470850000825,10.480955124000047],[6.105004311000073,10.45685958900009],[6.129734516000042,10.463544846000048],[6.149179935000063,10.45043373100009],[6.171065331000079,10.384023666000076],[6.2150087360000725,10.393771172000072],[6.249577999000053,10.421519279000051],[6.261818886000071,10.45467472100006],[6.298572540000066,10.47051334400004],[6.396561623000082,10.572518349000063],[6.439130306000038,10.59259796100008],[6.504096508000089,10.610403061000056],[6.5242681500000685,10.595006943000044],[6.5322999950000735,10.553241730000082],[6.551589489000094,10.545556068000053],[6.64706993100009,10.593429565000065],[6.725868225000056,10.589385033000042],[6.713820457000054,10.634363174000043],[6.73477220500007,10.648251534000053],[6.814443588000074,10.639150620000066],[6.84138488800005,10.574693680000053],[6.835503101000086,10.537981033000051],[6.844338417000074,10.528343201000041],[6.874302864000072,10.553264618000071],[6.912609100000054,10.537981033000051],[6.947949409000046,10.491395950000083],[6.954133034000051,10.468047142000046],[6.926263332000076,10.37011528000005],[7.020236492000038,10.35405159000004],[7.0491509440000755,10.301040649000072],[7.003369331000044,10.241604805000065],[6.970438957000056,10.232769966000092],[6.942327023000075,10.180562973000065],[6.921444416000043,10.191003799000043],[6.885301113000082,10.150844574000075],[6.882088184000054,10.117111206000061],[6.901178837000089,10.07638168300008],[6.952273369000068,10.047554970000078],[7.112090588000058,10.026526451000052],[7.232373714000062,10.043349266000064],[7.278636456000072,10.010544777000064],[7.300506115000076,9.862504005000062],[7.291253567000069,9.80025863600008],[7.273589611000091,9.783435822000058],[7.220837116000041,9.785883904000059],[7.204740047000087,9.758296013000063],[7.280318737000073,9.72455596900005],[7.282001019000063,9.69175148000005],[7.347609997000063,9.621936798000092],[7.29461813000006,9.584926605000078],[7.287047863000055,9.556327820000092],[7.22732687000007,9.49492454500006],[7.215550900000039,9.50333595300009],[7.221594334000088,9.447816849000048],[7.28503227200008,9.429871559000048],[7.260588169000073,9.356288910000046],[7.360388756000077,9.367021561000058],[7.388168335000046,9.349822998000093],[7.476269245000083,9.370618820000061],[7.509752750000075,9.361051559000089],[7.589875221000057,9.431607246000056],[7.67238903000009,9.411277771000073],[7.7999777790000735,9.268548965000093],[7.819245338000087,9.269936562000055],[7.901639462000048,9.389019012000063],[7.938289642000086,9.403336525000043],[7.993228912000063,9.359293938000064],[8.006057739000084,9.303090096000062],[8.059301376000064,9.273084641000082],[8.088935852000077,9.22802448300007],[8.107876778000048,9.052711487000067],[8.160416603000044,9.066604614000084],[8.239850998000065,9.144701958000041],[8.251033783000082,9.191023827000038],[8.279224396000075,9.198071480000067],[8.381496429000038,9.177421570000092],[8.446608543000082,9.112617493000073],[8.50434589400004,9.001431465000053],[8.521719933000043,9.001897812000038],[8.547574043000054,9.01421642300005],[8.566833496000072,9.060831070000063],[8.623450279000053,9.12101841000009],[8.657807350000041,9.207689285000072],[8.63591671000006,9.24831295000007],[8.684395790000053,9.283283234000066],[8.692673683000066,9.312608719000082],[8.691300392000073,9.383975983000084],[8.642338753000047,9.401107788000047],[8.602418900000089,9.472694397000055],[8.570406914000046,9.498299599000063],[8.554541588000063,9.549718857000073],[8.567339897000068,9.606271744000082],[8.553666115000055,9.651996613000051],[8.593065262000039,9.674982071000045],[8.599562645000049,9.737936020000063],[8.629613876000064,9.75961589800005],[8.619621277000078,9.892376900000045],[8.635857582000085,9.916263580000077],[8.614222527000038,9.967426300000056],[8.66734981500008,9.985228539000047],[8.679919243000086,10.00508976000009],[8.62869358100005,10.112859726000067],[8.646013260000075,10.196640015000071],[8.768287659000066,10.30245018000005],[8.771970749000047,10.38949012800009],[8.823521614000072,10.383281708000084],[8.796814919000042,10.416778564000083],[8.739860535000048,10.42889404300007],[8.72921943700004,10.455828667000048],[8.759457588000089,10.48653984100008],[8.77680492400009,10.553983688000073],[8.822385788000076,10.613080025000045],[8.854420662000052,10.696880341000053],[8.821589470000049,10.769240379000053],[8.78564453100006,10.797200203000045],[8.764780045000066,10.860619545000077],[8.789707184000065,10.947680473000048],[8.780117035000046,11.021960258000092],[8.801487923000082,11.077440262000039],[8.820546150000041,11.099040031000072],[8.86631488800009,11.090040207000072],[8.896217346000071,11.10151004800008],[9.038694382000074,11.26000022900007],[9.142354012000055,11.328650475000074],[9.224947929000052,11.365813255000091],[9.298985481000045,11.370635033000042],[9.451077461000068,11.308850288000087],[9.510508537000078,11.336050034000039],[9.555012703000045,11.335439682000072],[9.572756767000044,11.318380356000091],[9.582262993000086,11.259651184000063],[9.62497806500005,11.252455711000039],[9.748984337000081,11.262940407000087],[9.816673279000042,11.284480095000049],[9.891805649000048,11.15528011300006],[9.853726387000052,11.10186004600007],[9.86581897700006,10.999396324000088],[9.966458321000061,10.960450172000037],[10.078559875000053,10.989439964000042],[10.12697982800006,10.950869560000058],[10.189080238000088,10.947019577000049],[10.188830376000055,10.97119998900007],[10.158220291000077,10.986949921000075],[10.142669678000061,11.017849922000039],[10.166780472000085,11.063039780000054],[10.198887825000043,11.100675583000054],[10.253109932000086,11.094019890000084],[10.287899971000058,11.125530243000071],[10.33347034500008,11.135290146000045],[10.366720200000088,11.202480316000049],[10.175620079000055,11.224349976000042],[10.056960106000076,11.262060165000037],[9.997390747000054,11.247520447000056],[9.953306198000064,11.319529533000036],[9.87786483800005,11.366970062000064],[9.88395595600008,11.455710411000041],[9.867236137000077,11.486590385000056],[9.848381996000057,11.497879982000086],[9.808962822000069,11.460559845000091],[9.78863620800007,11.472535133000065],[9.777780533000055,11.530420303000085],[9.819506645000047,11.571220398000037],[9.827119827000047,11.626580238000088],[9.81190586100007,11.736929893000081],[9.787172318000046,11.750450134000062],[9.666785240000081,11.72941970800008],[9.632674217000044,11.743980408000084],[9.628919601000064,11.766960144000052],[9.663655281000047,11.804220200000088],[9.68734455100008,11.889710426000079],[9.72026062000009,11.87744998900007],[9.80779266400009,11.904990196000085],[9.861248970000076,11.943630219000056],[9.969927788000064,11.96452045400008],[10.172739983000042,12.053330421000055],[10.162489891000064,12.137249947000043],[10.239089966000051,12.313199997000083],[10.25899505600006,12.422801018000087],[10.296150208000086,12.454360008000037],[10.371110916000077,12.472255707000045],[10.421270370000059,12.47084045400004],[10.434530258000052,12.434149742000045],[10.458029747000069,12.42638015700004],[10.584819794000055,12.50736045800005],[10.600000381000086,12.70139026600009],[10.574460030000068,12.754139900000041],[10.566309929000056,12.819169998000064],[10.534569740000052,12.830300331000046],[10.46440029100006,12.82254028300008],[10.366800308000052,12.861660004000044],[10.26865005500008,12.840900421000072],[10.247469902000091,12.851010323000082],[10.268269539000073,12.877739906000045],[10.281599998000047,12.945830345000047],[10.237259865000055,13.042019844000038],[9.973386765000043,12.969739914000058],[9.939663887000052,12.94746017500006],[9.888009071000056,12.848959923000052],[9.799769402000038,12.814499855000065],[9.59063000000009,12.805780000000084],[9.390260000000069,12.823130000000049],[9.305599999000037,12.811210000000074],[9.159980000000076,12.833770000000072],[8.975410000000068,12.833390000000065],[8.648480000000063,12.938560000000052],[8.601829999000074,13.010520000000042],[8.531079999000042,13.056650000000047],[8.486420000000066,13.06973000000005],[8.42172000000005,13.055210000000045],[8.25592000000006,13.207560000000058],[8.211730000000045,13.218990000000076],[8.10668000000004,13.289320000000089],[7.824879999000075,13.339570000000037],[7.426320000000089,13.110490000000084],[7.370749999000054,13.098500000000058],[7.22788999900007,13.110930000000053],[7.136390000000063,13.023160000000075],[6.9340899990000935,12.988610000000051],[6.818589999000039,13.11797000000007],[6.677830000000085,13.35546000000005],[6.5260361070000386,13.502475909000054],[6.498594658000059,13.554998612000077],[6.414376166000068,13.63935768400006],[6.265570319000062,13.717392703000087],[6.1406004890000645,13.685001326000076],[5.524771723000072,13.90099058900006],[5.354415657000061,13.838109136000071],[5.280589762000091,13.740367809000077],[5.080601302000048,13.747299818000045],[5.000189996000074,13.732395998000072],[4.909520000000043,13.748610000000042],[4.87610999900005,13.775310000000047],[4.567410000000052,13.724330000000066],[4.463794097000061,13.677650980000067],[4.231359105000081,13.472828938000077],[4.133817881000084,13.47246834200007],[4.134358774000077,13.165420830000073],[4.098479470000086,12.98548341600008],[3.9347688780000567,12.746588552000048],[3.657470538000041,12.519953953000083],[3.6580114320000803,12.251670513000079],[3.636916564000046,12.129789058000085],[3.675428754000052,11.999834320000048],[3.617670000000089,11.91689000000008],[3.6267299990000765,11.839370000000088],[3.665860000000066,11.810470000000066],[3.679450000000088,11.763510000000053],[3.5579600000000937,11.63188000000008],[3.4711300000000733,11.448570000000075]]]}},{"type":"Feature","properties":{"id":"NG-SE","name":"South East","color":"#10b981"},"geometry":{"type":"Polygon","coordinates":[[[6.633620262000079,5.730035782000073],[6.664922714000056,5.722358704000044],[6.668868065000083,5.689925194000068],[6.639080048000039,5.4934458730000415],[6.7449679370000695,5.484471798000072],[6.762536049000062,5.410212994000062],[6.75579500200007,5.323452950000046],[6.803584099000091,5.269271851000042],[6.897809982000069,5.221659660000057],[7.042693615000076,5.249077797000041],[7.21008777600008,5.196576595000067],[7.24213504800008,5.1958670620000476],[7.256109238000079,5.213470936000078],[7.281322002000081,5.201615810000078],[7.291069031000063,5.160048008000047],[7.241197109000041,4.9940090180000425],[7.217877865000048,4.961559772000044],[7.159626007000043,4.935448170000086],[7.147241116000089,4.890325069000085],[7.205420017000051,4.858627796000064],[7.319794178000052,4.879632950000087],[7.4292120930000465,4.862449169000058],[7.487277985000048,4.824673653000048],[7.500638962000039,4.839510918000087],[7.478795052000066,4.90282011000005],[7.491506100000038,4.950826168000049],[7.466083050000066,4.970242977000055],[7.471143246000054,4.995911121000063],[7.531323910000083,5.040605068000048],[7.544672012000092,5.082266808000043],[7.528978825000081,5.161210060000087],[7.551987171000064,5.269320965000077],[7.540698051000049,5.309052944000086],[7.625466824000057,5.318396091000068],[7.663646221000079,5.342367172000081],[7.676970005000044,5.38633823400005],[7.623682976000055,5.382443905000059],[7.642666817000077,5.433962822000069],[7.699899197000093,5.444815159000086],[7.7046799660000715,5.482944965000058],[7.691304207000087,5.5018830300000445],[7.704908848000059,5.517574787000058],[7.754848003000063,5.512207985000089],[7.809011936000047,5.427803993000055],[7.861256123000089,5.421300888000076],[7.88398408900008,5.384547234000081],[7.87611198400009,5.368900776000089],[7.982965946000093,5.355668068000057],[7.9079427720000695,5.535781860000043],[7.915388107000069,5.655356884000071],[7.887803078000047,5.696609020000039],[7.920629025000039,5.757678986000087],[7.9650959970000486,5.7693781850000505],[7.9336357120000685,5.81987237900006],[8.004966736000085,5.900077820000092],[7.985733986000071,5.922025204000079],[7.979247093000083,5.970290184000078],[8.06849670400004,6.005267143000083],[8.122344017000046,5.943515301000048],[8.214842796000084,6.012228012000037],[8.244793892000075,6.017953873000067],[8.274305344000084,5.999013901000069],[8.302002907000087,6.108136177000063],[8.40074539200009,6.216616631000079],[8.418000221000057,6.261117458000058],[8.394387245000075,6.296990871000048],[8.397912979000068,6.345054626000092],[8.413232803000085,6.37781953800004],[8.445018768000068,6.385539055000038],[8.456825256000059,6.428223610000089],[8.43230438200004,6.433218956000076],[8.422768593000058,6.477719784000044],[8.40869140600006,6.477719784000044],[8.420043945000089,6.510414600000047],[8.395977020000089,6.519496441000058],[8.393252373000053,6.544471741000052],[8.31424045600005,6.607136250000053],[8.322414398000092,6.634381771000051],[8.28018379200006,6.715210438000042],[8.251575470000091,6.735644817000093],[8.261111259000074,6.755170822000082],[8.234319687000038,6.799217701000089],[8.22024345400007,6.7787833210000485],[8.17301750200005,6.773334503000058],[8.13623619100008,6.716118813000037],[7.994786263000037,6.703858376000085],[7.988428593000037,6.618034840000064],[7.962545395000063,6.544017315000076],[7.932121277000078,6.531756878000067],[7.855833530000041,6.580799103000061],[7.831766605000041,6.638468742000043],[7.807140827000069,6.633817196000052],[7.855342388000054,6.742868423000061],[7.903395653000075,6.7814683910000895],[7.890003681000053,6.785407066000062],[7.8880343440000615,6.853941917000043],[7.863614082000083,6.879937649000055],[7.75017738300005,6.878362179000078],[7.674552917000085,6.855517387000077],[7.620197773000086,6.919325352000044],[7.577659130000086,6.932717323000077],[7.5305137630000445,7.032278061000056],[7.469736576000059,7.099720955000066],[7.397263527000064,7.090268135000088],[7.384659290000059,7.051668167000059],[7.241288185000087,6.971317291000048],[7.234985828000049,6.9106602670000825],[7.156210423000061,6.883088589000067],[7.0813736920000565,6.800374508000061],[7.041985989000068,6.783043861000067],[6.990782261000049,6.785407066000062],[6.986843109000063,6.844488621000039],[6.963210583000091,6.844488621000039],[6.939578056000073,6.773591042000078],[6.92338800400006,6.8019781110000395],[6.896804810000049,6.792390823000062],[6.80027818700006,6.6934671400000525],[6.808122635000075,6.580162525000048],[6.664700985000081,6.532356262000064],[6.731006145000038,6.239092827000093],[6.769402027000069,6.167984009000065],[6.749240875000055,6.113724232000038],[6.71331596400006,6.087072849000037],[6.726493835000042,6.028930187000071],[6.713212967000061,5.956697941000073],[6.660915852000073,5.856529236000085],[6.65483284000004,5.779374123000082],[6.633620262000079,5.730035782000073]]]}},{"type":"Feature","properties":{"id":"NG-SS","name":"South South","color":"#06b6d4"},"geometry":{"type":"MultiPolygon","coordinates":[[[[4.972363982000047,5.894415779000042],[5.036396026000091,5.778294087000063],[5.074906349000059,5.750308037000082],[5.074297905000037,5.708889961000068],[5.173783302000061,5.578263760000084],[5.190474987000073,5.494430065000074],[5.2607798570000455,5.434778213000072],[5.38742017800007,5.391228199000068],[5.376717091000046,5.356749058000048],[5.326679230000082,5.366620064000074],[5.322958947000075,5.354897022000046],[5.354374886000073,5.164654732000088],[5.4229450220000786,5.027462005000075],[5.481655121000074,4.837953091000088],[5.547533989000044,4.725333214000045],[5.6741909980000855,4.554420948000086],[5.8810782440000935,4.378964901000074],[5.9883632660000785,4.310305119000077],[6.090230942000062,4.277143955000042],[6.411489963000065,4.308840752000037],[6.398240089000069,4.3319768910000676],[6.421101093000061,4.341351986000063],[6.466251850000049,4.315001965000079],[6.603456021000056,4.336948871000061],[6.6136441230000855,4.32390975900006],[6.713893890000065,4.350628853000046],[6.859226227000079,4.360167980000085],[6.866364783000051,4.388967321000052],[6.9506340030000615,4.374143124000057],[6.9725561150000885,4.387637138000059],[6.99628305400006,4.372845173000087],[7.014683246000061,4.393649101000051],[7.006297112000084,4.386929989000066],[6.992441178000092,4.462541104000081],[7.036880017000044,4.437995910000041],[7.140978336000046,4.476191044000075],[7.1642732620000515,4.457480908000093],[7.131721019000054,4.388019085000053],[7.196165085000075,4.388443947000042],[7.308085919000064,4.422988891000045],[7.309514046000061,4.449685097000042],[7.400886058000083,4.436693192000064],[7.574171066000076,4.454331874000047],[7.591593266000075,4.492166996000037],[7.608427048000067,4.47800493200009],[7.660570144000076,4.502705097000046],[7.992013931000088,4.543501854000056],[8.27190113100005,4.5376558300000625],[8.329823494000038,4.643320084000038],[8.312069893000057,4.659561158000088],[8.323491096000055,4.6688208580000605],[8.317993164000086,4.751837730000091],[8.25016117000007,4.819804192000049],[8.288529396000058,4.853128910000066],[8.336155892000079,4.82991409300007],[8.333291053000039,4.808044910000092],[8.37084960900006,4.779025078000075],[8.393744469000069,4.788571834000038],[8.397237777000043,4.735682010000062],[8.42045879300008,4.726828098000055],[8.459810257000072,4.748189926000066],[8.47551345800008,4.728944779000074],[8.459579468000072,4.704941273000088],[8.484429360000092,4.69126272200009],[8.530676842000048,4.710124970000038],[8.52673360500006,4.752381468000067],[8.544324783000093,4.8034723650000615],[8.565898336000089,4.817522091000058],[8.592949245000057,4.803758420000065],[8.629393021000055,4.824859404000051],[8.60608772900008,4.887233212000069],[8.652104729000087,4.916275954000071],[8.65174180200006,4.946422298000073],[8.697960471000044,4.98651086600006],[8.683812903000046,4.99996795900006],[8.719096136000076,5.038831518000052],[8.727602095000066,5.075241177000066],[8.793144711000082,5.12833088900004],[8.816477554000073,5.177956659000074],[8.833706651000057,5.430063152000059],[8.919431089000057,5.569433151000055],[8.904115174000083,5.61939422100005],[8.833157847000052,5.697843939000052],[8.883884211000066,5.775960577000092],[8.883713129000057,5.795580681000047],[8.850616728000091,5.804145020000078],[8.841892792000067,5.821360559000084],[8.899128492000045,5.860249715000066],[8.913310290000084,5.903568213000085],[8.940801800000088,5.911662754000076],[9.15441377600007,6.093796470000086],[9.169592280000074,6.129846917000066],[9.26475251700009,6.184536589000061],[9.331930731000057,6.2878513980000434],[9.343453686000089,6.3505520770000885],[9.432943713000043,6.315780481000047],[9.474411964000069,6.511083126000074],[9.30366993000007,6.7177701000000525],[9.255754471000046,6.718100071000038],[9.139107704000082,6.681015015000071],[9.070367813000075,6.642453194000041],[9.035036087000037,6.64728879900008],[8.99201583900009,6.692360878000045],[8.97033119200006,6.691361904000075],[8.994774818000053,6.756637096000077],[8.976742744000092,6.786611080000057],[8.851812363000079,6.863245964000043],[8.765304565000065,6.890247822000049],[8.70374202700009,6.896412849000058],[8.66932010700009,6.87024402600008],[8.600742340000068,6.853494167000065],[8.637044907000075,6.825689793000038],[8.620740891000082,6.781025887000055],[8.46874523200006,6.746480942000062],[8.410614014000089,6.753770828000086],[8.366844177000075,6.697814941000047],[8.299398422000081,6.679910183000061],[8.324751854000056,6.5894994740000925],[8.420043945000089,6.510414600000047],[8.40869140600006,6.477719784000044],[8.422768593000058,6.477719784000044],[8.43230438200004,6.433218956000076],[8.456825256000059,6.417779446000054],[8.447743416000037,6.39189624800008],[8.403697014000045,6.366013050000049],[8.391663551000079,6.306527138000092],[8.418000221000057,6.261117458000058],[8.40074539200009,6.216616631000079],[8.302002907000087,6.108136177000063],[8.28223323800006,6.004739761000053],[8.263733864000073,5.996811390000062],[8.24919891400009,6.01575136200006],[8.22277069100005,6.014430046000086],[8.113847733000057,5.938149929000076],[8.091168404000086,5.985592842000074],[8.060527802000081,6.0076179500000535],[7.980422020000049,5.9748740200000725],[7.985733986000071,5.922025204000079],[8.00613308000004,5.9035148620000655],[7.933654785000044,5.8224978450000435],[7.96423339800009,5.775656223000055],[7.921760082000048,5.7599840160000895],[7.887803078000047,5.696609020000039],[7.915388107000069,5.655356884000071],[7.907911777000038,5.542678833000082],[7.9863700870000685,5.3602809910000815],[7.880370140000082,5.366795540000055],[7.86648511900006,5.414418221000062],[7.788778782000065,5.444377899000074],[7.751385212000059,5.514488220000089],[7.694026947000054,5.516333103000079],[7.699938774000088,5.440774918000045],[7.656886101000055,5.445621014000039],[7.6253628730000855,5.386497021000082],[7.67523288700005,5.388054848000081],[7.6653490070000885,5.344111919000056],[7.638045788000056,5.321959972000059],[7.572082996000063,5.324313164000046],[7.534471035000081,5.300922871000068],[7.553099155000041,5.272792816000049],[7.528978825000081,5.161210060000087],[7.545794964000038,5.084585190000041],[7.527913094000041,5.037692070000048],[7.4602751730000705,4.977698803000067],[7.491418839000062,4.959482193000042],[7.477023125000073,4.907999992000043],[7.497859001000052,4.830831051000075],[7.488712311000086,4.8218045230000826],[7.416359901000078,4.866746902000045],[7.319794178000052,4.879632950000087],[7.240856171000075,4.856948853000063],[7.191195965000077,4.8638691900000595],[7.140429020000056,4.900634766000053],[7.168517113000064,4.94475221600004],[7.217877865000048,4.961559772000044],[7.241197109000041,4.9940090180000425],[7.255775928000048,5.0773429870000655],[7.291069031000063,5.160048008000047],[7.274950027000045,5.209591866000039],[7.21008777600008,5.196576595000067],[7.042693615000076,5.249077797000041],[6.891583443000059,5.223822117000054],[6.824282169000071,5.254179478000083],[6.75579500200007,5.323452950000046],[6.7589678760000425,5.420503139000061],[6.7413597110000865,5.494053841000039],[6.639080048000039,5.4934458730000415],[6.673841476000064,5.720951080000077],[6.633620262000079,5.730035782000073],[6.6548681260000535,5.771530151000093],[6.660915852000073,5.856529236000085],[6.713212967000061,5.956697941000073],[6.726493835000042,6.028930187000071],[6.709276199000044,6.078023911000059],[6.755804062000038,6.123312473000055],[6.769402027000069,6.167984009000065],[6.731006145000038,6.239092827000093],[6.673863888000085,6.468333244000064],[6.660110950000046,6.608610630000044],[6.617936134000047,6.7048792840000715],[6.631689072000086,6.769058228000063],[6.6107902530000615,6.822104931000069],[6.672980309000081,6.935661316000051],[6.6772589680000465,7.03407573700008],[6.715768814000057,7.120723248000047],[6.6933050160000676,7.216998100000069],[6.637670040000046,7.294764996000083],[6.514884949000077,7.266996861000052],[6.4703722000000425,7.363700867000091],[6.438507080000079,7.3579730990000485],[6.4276719090000825,7.410523891000082],[6.378143787000056,7.397521019000067],[6.298429012000042,7.497266769000078],[6.2332739830000605,7.473898888000065],[6.186272144000043,7.432896137000057],[6.11869812000009,7.446270943000059],[6.110102177000044,7.494141102000071],[6.1669840810000665,7.544972897000093],[6.132105827000089,7.556334019000076],[6.118761063000079,7.5914168360000644],[6.048503876000041,7.580123901000093],[6.004125595000062,7.529235840000069],[5.95421886400004,7.515233040000055],[5.948134899000081,7.487301826000078],[5.986714840000047,7.450263977000077],[5.970127106000064,7.40842914600006],[5.987339973000076,7.3610720630000515],[5.91930818600008,7.337144852000051],[5.923961163000058,7.2962799070000415],[5.89652204500004,7.258053780000068],[5.904098988000044,7.220685005000064],[5.860455036000076,7.126026154000044],[5.841958046000059,7.115684986000076],[5.854922771000076,7.096343040000079],[5.823740959000077,7.081440926000084],[5.804257870000072,7.048537254000053],[5.78564214700009,6.968341351000049],[5.799811840000075,6.921328545000051],[5.757921219000082,6.784439087000067],[5.702557564000074,6.736117363000062],[5.667370796000057,6.727612019000048],[5.6292533870000625,6.745868206000068],[5.576634884000043,6.704025745000081],[5.544519901000058,6.810034275000078],[5.549027443000057,6.83314323400009],[5.571213245000081,6.845269680000058],[5.561751366000067,6.879381657000067],[5.27240800900006,6.88885879500009],[5.254822254000089,6.883221626000079],[5.197015762000092,6.773944855000082],[5.145293713000058,6.737647057000061],[5.111542702000065,6.637736797000059],[5.128054142000053,6.5881609920000415],[5.162112236000041,6.561973095000042],[5.153385162000063,6.498033047000092],[5.102981091000061,6.442285538000078],[5.103693485000065,6.4022121430000425],[5.028709888000037,6.360269547000087],[5.0349450110000475,6.332928658000071],[5.012897015000078,6.302100182000061],[5.088472366000076,6.204339981000089],[5.109939575000055,6.19542789500008],[5.115489960000048,6.206108570000083],[5.137146950000044,6.176264286000048],[5.012680054000043,5.942235470000071],[4.972363982000047,5.894415779000042]]],[[[5.726994992000073,4.506759167000041],[5.740920067000047,4.490119934000063],[5.74187612500009,4.498864174000062],[5.726994992000073,4.506759167000041]]],[[[8.279273987000067,4.825246811000056],[8.307413101000066,4.798709870000039],[8.296721458000093,4.823728085000084],[8.279273987000067,4.825246811000056]]],[[[8.31027793900006,4.609402180000075],[8.315431594000074,4.589643955000042],[8.332864761000053,4.589964866000059],[8.33512687700005,4.638286114000039],[8.31027793900006,4.609402180000075]]]]}},{"type":"Feature","properties":{"id":"NG-SW","name":"South West","color":"#f59e0b"},"geometry":{"type":"Polygon","coordinates":[[[2.668432039000038,7.8897809440000515],[2.729460000000074,7.792220000000043],[2.730290000000082,7.5801700000000665],[2.749490000000094,7.527500000000089],[2.7981900000000905,7.48255000000006],[2.7996800000000803,7.437970000000064],[2.785810000000083,7.41871000000009],[2.7496000000000436,7.417380000000037],[2.747510183000088,7.391767167000069],[2.749460000000056,7.261150000000043],[2.774250000000052,7.234420000000057],[2.784870000000069,7.159230000000093],[2.7450900000000615,7.092680000000087],[2.79260000000005,7.041280000000086],[2.72064000000006,6.986530000000073],[2.718210000000056,6.940330000000074],[2.751510000000053,6.912420000000054],[2.7492500000000746,6.839300000000037],[2.7293200000000866,6.79015000000004],[2.739150000000052,6.76529000000005],[2.789500000000089,6.74813000000006],[2.7865900000000465,6.694790000000069],[2.731420000000071,6.630790000000047],[2.753120000000081,6.570470000000057],[2.720290000000091,6.5077700000000505],[2.7096040250000897,6.368820190000065],[2.904880047000063,6.391888142000084],[3.3908610340000678,6.390985012000044],[3.409288168000046,6.4088940620000585],[3.8129940030000853,6.435247898000057],[4.038810253000065,6.420613765000041],[4.361388207000061,6.369920254000078],[4.508197307000046,6.3163518910000676],[4.629583359000037,6.226722240000072],[4.763066292000076,6.11770391500005],[4.972363982000047,5.894415779000042],[5.012680054000043,5.942235470000071],[5.1357374190000655,6.182256222000092],[5.122395039000082,6.201276302000053],[5.092422962000057,6.19828033400006],[5.073347569000077,6.239534855000045],[5.013073444000042,6.2985754010000505],[5.035301208000078,6.328475952000076],[5.02835512200005,6.358041763000074],[5.049193382000055,6.382441998000047],[5.075731277000045,6.377276897000058],[5.103693485000065,6.4022121430000425],[5.102981091000061,6.442285538000078],[5.151069641000049,6.49393653900006],[5.162112236000041,6.561973095000042],[5.138774872000056,6.576022625000064],[5.111542702000065,6.637736797000059],[5.119599342000072,6.689489841000068],[5.150810719000049,6.745987892000073],[5.201615810000078,6.780433655000081],[5.254822254000089,6.883221626000079],[5.537059784000064,6.884796619000042],[5.570152283000084,6.869271278000042],[5.543577671000094,6.812798977000057],[5.576634884000043,6.704025745000081],[5.636665821000065,6.746832848000054],[5.65993261300008,6.73126459100007],[5.702557564000074,6.736117363000062],[5.778134823000073,6.817791939000074],[5.771480083000085,6.847302437000053],[5.799103260000038,6.9188051220000375],[5.78564214700009,6.968341351000049],[5.79400920900008,7.015619755000046],[5.821990013000061,7.079123020000054],[5.854922771000076,7.096343040000079],[5.841958046000059,7.115684986000076],[5.860455036000076,7.126026154000044],[5.903481007000039,7.217193127000087],[5.89652204500004,7.258053780000068],[5.923961163000058,7.2962799070000415],[5.91930818600008,7.337144852000051],[5.986731052000039,7.3581619260000934],[5.969007969000074,7.4107689860000505],[5.984490871000048,7.45611000100007],[5.948815823000075,7.496039867000093],[5.9790868760000535,7.530185223000046],[6.002026081000054,7.528248787000052],[6.001267910000081,7.542943478000041],[5.940000534000092,7.645110130000091],[5.923391819000074,7.707793236000043],[5.930624485000067,7.741074562000051],[5.8010244370000805,7.733303547000048],[5.780241966000062,7.74577283900004],[5.791615486000069,7.782068729000059],[5.755774975000065,7.795639515000062],[5.728981495000085,7.82834863700009],[5.6426858900000525,7.8286962510000535],[5.623199463000049,7.842963219000069],[5.598841667000045,7.9584879880000585],[5.645469666000054,7.963011742000049],[5.6680874820000895,8.002331734000052],[5.639902115000041,8.053831100000082],[5.656256676000055,8.074708939000061],[5.576571941000054,8.071229935000076],[5.50593471500008,8.018686295000066],[5.514633656000058,8.104982376000066],[5.387344360000043,8.102132797000081],[5.3606243130000735,8.082940102000066],[5.351968765000038,8.02573680900008],[5.297776222000039,8.007673264000061],[5.202939987000093,8.017081261000044],[5.142349720000084,8.061864853000088],[5.11412477500005,8.05810165400004],[5.075738430000058,8.024984360000076],[5.039715767000075,8.071867943000086],[4.9733853340000564,8.018116951000081],[4.9669046400000525,8.046708107000086],[4.926877499000057,8.079873085000088],[4.861309052000081,8.094740868000088],[4.830049992000056,8.055476189000046],[4.766197205000083,8.068056107000075],[4.665557384000067,8.043276787000082],[4.62171840700006,8.07567977900004],[4.568998337000039,8.054756165000072],[4.505629063000072,8.091959000000088],[4.477091312000084,8.218339920000062],[4.391735077000078,8.304002762000039],[4.209143639000047,8.680658340000093],[4.190364361000093,8.753309250000086],[4.194975853000074,8.81633091000009],[4.221106529000053,8.860906601000067],[4.321018219000052,8.942373276000069],[4.3348522190000836,8.980800629000044],[4.316407204000086,8.997709274000044],[4.253385544000082,8.96696662900007],[4.210460186000091,8.970032692000075],[4.0120601650000935,9.03459930400004],[3.99054050400008,9.04843330400007],[3.921370745000047,9.172939301000042],[3.8629605770000808,9.188310623000064],[3.77073431000008,9.146808624000073],[3.7200098040000853,9.013080597000055],[3.5247972010000694,8.928539276000038],[3.3879947660000767,8.84246158600007],[3.237358332000042,8.782514572000082],[3.1635773180000797,8.808645248000062],[3.1036300660000506,8.75023460400007],[3.014477968000051,8.71026992800006],[2.9207143780000706,8.61189556100004],[2.802357197000049,8.61035823800006],[2.7762262820000387,8.590375900000083],[2.7497000000000753,8.537960000000055],[2.761880000000076,8.52255000000008],[2.756930000000068,8.482620000000054],[2.734890000000064,8.436310000000049],[2.706950000000063,8.42032000000006],[2.714010000000087,8.387240000000077],[2.6971000000000913,8.357450000000085],[2.7146000000000754,8.260540000000049],[2.754100000000051,8.211310000000083],[2.695500000000038,7.93082000000004],[2.668432039000038,7.8897809440000515]]]}}]}